{"type":"FeatureCollection","properties":{"largura_maxima_km":183.708,"largura_sobre_pt_km":180.968,"linha_central_sobre_pt":false,"desenhavel_como_area":true,"perfil_largura":[{"t":-0.78889,"lat":25.0685,"lon":-15.0268,"largura_km":183.131,"eixo_na_terra":true},{"t":-0.78333,"lat":25.1827,"lon":-14.9037,"largura_km":183.18,"eixo_na_terra":true},{"t":-0.77778,"lat":25.2967,"lon":-14.7812,"largura_km":183.225,"eixo_na_terra":true},{"t":-0.77222,"lat":25.4106,"lon":-14.6592,"largura_km":183.269,"eixo_na_terra":true},{"t":-0.76667,"lat":25.5243,"lon":-14.5377,"largura_km":183.31,"eixo_na_terra":true},{"t":-0.76111,"lat":25.6379,"lon":-14.4168,"largura_km":183.349,"eixo_na_terra":true},{"t":-0.75556,"lat":25.7513,"lon":-14.2963,"largura_km":183.386,"eixo_na_terra":true},{"t":-0.75,"lat":25.8645,"lon":-14.1764,"largura_km":183.42,"eixo_na_terra":true},{"t":-0.74444,"lat":25.9776,"lon":-14.0569,"largura_km":183.453,"eixo_na_terra":true},{"t":-0.73889,"lat":26.0906,"lon":-13.938,"largura_km":183.483,"eixo_na_terra":true},{"t":-0.73333,"lat":26.2034,"lon":-13.8195,"largura_km":183.511,"eixo_na_terra":true},{"t":-0.72778,"lat":26.316,"lon":-13.7014,"largura_km":183.537,"eixo_na_terra":true},{"t":-0.72222,"lat":26.4286,"lon":-13.5838,"largura_km":183.561,"eixo_na_terra":true},{"t":-0.71667,"lat":26.5409,"lon":-13.4666,"largura_km":183.583,"eixo_na_terra":true},{"t":-0.71111,"lat":26.6532,"lon":-13.3499,"largura_km":183.603,"eixo_na_terra":true},{"t":-0.70556,"lat":26.7653,"lon":-13.2336,"largura_km":183.621,"eixo_na_terra":true},{"t":-0.7,"lat":26.8772,"lon":-13.1177,"largura_km":183.637,"eixo_na_terra":true},{"t":-0.69444,"lat":26.9891,"lon":-13.0022,"largura_km":183.652,"eixo_na_terra":true},{"t":-0.68889,"lat":27.1008,"lon":-12.887,"largura_km":183.665,"eixo_na_terra":true},{"t":-0.68333,"lat":27.2124,"lon":-12.7723,"largura_km":183.676,"eixo_na_terra":true},{"t":-0.67778,"lat":27.3238,"lon":-12.658,"largura_km":183.685,"eixo_na_terra":true},{"t":-0.67222,"lat":27.4351,"lon":-12.544,"largura_km":183.693,"eixo_na_terra":true},{"t":-0.66667,"lat":27.5463,"lon":-12.4303,"largura_km":183.7,"eixo_na_terra":true},{"t":-0.66111,"lat":27.6574,"lon":-12.3171,"largura_km":183.704,"eixo_na_terra":true},{"t":-0.65556,"lat":27.7684,"lon":-12.2041,"largura_km":183.707,"eixo_na_terra":true},{"t":-0.65,"lat":27.8792,"lon":-12.0916,"largura_km":183.708,"eixo_na_terra":true},{"t":-0.64444,"lat":27.9899,"lon":-11.9793,"largura_km":183.708,"eixo_na_terra":true},{"t":-0.63889,"lat":28.1005,"lon":-11.8673,"largura_km":183.706,"eixo_na_terra":true},{"t":-0.63333,"lat":28.211,"lon":-11.7557,"largura_km":183.702,"eixo_na_terra":true},{"t":-0.62778,"lat":28.3214,"lon":-11.6444,"largura_km":183.697,"eixo_na_terra":true},{"t":-0.62222,"lat":28.4317,"lon":-11.5334,"largura_km":183.691,"eixo_na_terra":true},{"t":-0.61667,"lat":28.5418,"lon":-11.4226,"largura_km":183.682,"eixo_na_terra":true},{"t":-0.61111,"lat":28.6519,"lon":-11.3122,"largura_km":183.673,"eixo_na_terra":true},{"t":-0.60556,"lat":28.7618,"lon":-11.202,"largura_km":183.662,"eixo_na_terra":true},{"t":-0.6,"lat":28.8716,"lon":-11.0921,"largura_km":183.649,"eixo_na_terra":true},{"t":-0.59444,"lat":28.9814,"lon":-10.9825,"largura_km":183.636,"eixo_na_terra":true},{"t":-0.58889,"lat":29.091,"lon":-10.8731,"largura_km":183.62,"eixo_na_terra":true},{"t":-0.58333,"lat":29.2005,"lon":-10.7639,"largura_km":183.604,"eixo_na_terra":true},{"t":-0.57778,"lat":29.3099,"lon":-10.6551,"largura_km":183.586,"eixo_na_terra":true},{"t":-0.57222,"lat":29.4193,"lon":-10.5464,"largura_km":183.567,"eixo_na_terra":true},{"t":-0.56667,"lat":29.5285,"lon":-10.438,"largura_km":183.546,"eixo_na_terra":true},{"t":-0.56111,"lat":29.6376,"lon":-10.3298,"largura_km":183.524,"eixo_na_terra":true},{"t":-0.55556,"lat":29.7467,"lon":-10.2218,"largura_km":183.502,"eixo_na_terra":true},{"t":-0.55,"lat":29.8556,"lon":-10.114,"largura_km":183.477,"eixo_na_terra":true},{"t":-0.54444,"lat":29.9644,"lon":-10.0064,"largura_km":183.452,"eixo_na_terra":true},{"t":-0.53889,"lat":30.0732,"lon":-9.8991,"largura_km":183.425,"eixo_na_terra":true},{"t":-0.53333,"lat":30.1819,"lon":-9.7919,"largura_km":183.398,"eixo_na_terra":true},{"t":-0.52778,"lat":30.2905,"lon":-9.6849,"largura_km":183.369,"eixo_na_terra":true},{"t":-0.52222,"lat":30.3989,"lon":-9.5781,"largura_km":183.339,"eixo_na_terra":true},{"t":-0.51667,"lat":30.5074,"lon":-9.4714,"largura_km":183.308,"eixo_na_terra":true},{"t":-0.51111,"lat":30.6157,"lon":-9.3649,"largura_km":183.276,"eixo_na_terra":true},{"t":-0.50556,"lat":30.7239,"lon":-9.2586,"largura_km":183.243,"eixo_na_terra":true},{"t":-0.5,"lat":30.8321,"lon":-9.1525,"largura_km":183.208,"eixo_na_terra":true},{"t":-0.49444,"lat":30.9401,"lon":-9.0464,"largura_km":183.173,"eixo_na_terra":true},{"t":-0.48889,"lat":31.0481,"lon":-8.9406,"largura_km":183.137,"eixo_na_terra":true},{"t":-0.48333,"lat":31.156,"lon":-8.8349,"largura_km":183.1,"eixo_na_terra":true},{"t":-0.47778,"lat":31.2638,"lon":-8.7293,"largura_km":183.061,"eixo_na_terra":true},{"t":-0.47222,"lat":31.3716,"lon":-8.6238,"largura_km":183.022,"eixo_na_terra":true},{"t":-0.46667,"lat":31.4793,"lon":-8.5184,"largura_km":182.982,"eixo_na_terra":true},{"t":-0.46111,"lat":31.5868,"lon":-8.4132,"largura_km":182.941,"eixo_na_terra":true},{"t":-0.45556,"lat":31.6944,"lon":-8.3081,"largura_km":182.899,"eixo_na_terra":true},{"t":-0.45,"lat":31.8018,"lon":-8.2031,"largura_km":182.856,"eixo_na_terra":true},{"t":-0.44444,"lat":31.9092,"lon":-8.0981,"largura_km":182.813,"eixo_na_terra":true},{"t":-0.43889,"lat":32.0165,"lon":-7.9933,"largura_km":182.768,"eixo_na_terra":true},{"t":-0.43333,"lat":32.1237,"lon":-7.8886,"largura_km":182.723,"eixo_na_terra":true},{"t":-0.42778,"lat":32.2309,"lon":-7.7839,"largura_km":182.677,"eixo_na_terra":true},{"t":-0.42222,"lat":32.3379,"lon":-7.6794,"largura_km":182.629,"eixo_na_terra":true},{"t":-0.41667,"lat":32.445,"lon":-7.5749,"largura_km":182.582,"eixo_na_terra":true},{"t":-0.41111,"lat":32.5519,"lon":-7.4704,"largura_km":182.533,"eixo_na_terra":true},{"t":-0.40556,"lat":32.6588,"lon":-7.3661,"largura_km":182.484,"eixo_na_terra":true},{"t":-0.4,"lat":32.7656,"lon":-7.2617,"largura_km":182.433,"eixo_na_terra":true},{"t":-0.39444,"lat":32.8723,"lon":-7.1575,"largura_km":182.383,"eixo_na_terra":true},{"t":-0.38889,"lat":32.979,"lon":-7.0533,"largura_km":182.331,"eixo_na_terra":true},{"t":-0.38333,"lat":33.0856,"lon":-6.9491,"largura_km":182.279,"eixo_na_terra":true},{"t":-0.37778,"lat":33.1922,"lon":-6.8449,"largura_km":182.226,"eixo_na_terra":true},{"t":-0.37222,"lat":33.2987,"lon":-6.7408,"largura_km":182.172,"eixo_na_terra":true},{"t":-0.36667,"lat":33.4051,"lon":-6.6368,"largura_km":182.117,"eixo_na_terra":true},{"t":-0.36111,"lat":33.5115,"lon":-6.5327,"largura_km":182.062,"eixo_na_terra":true},{"t":-0.35556,"lat":33.6178,"lon":-6.4286,"largura_km":182.007,"eixo_na_terra":true},{"t":-0.35,"lat":33.724,"lon":-6.3246,"largura_km":181.95,"eixo_na_terra":true},{"t":-0.34444,"lat":33.8302,"lon":-6.2206,"largura_km":181.893,"eixo_na_terra":true},{"t":-0.33889,"lat":33.9364,"lon":-6.1166,"largura_km":181.835,"eixo_na_terra":true},{"t":-0.33333,"lat":34.0424,"lon":-6.0125,"largura_km":181.777,"eixo_na_terra":true},{"t":-0.32778,"lat":34.1484,"lon":-5.9085,"largura_km":181.718,"eixo_na_terra":true},{"t":-0.32222,"lat":34.2544,"lon":-5.8044,"largura_km":181.659,"eixo_na_terra":true},{"t":-0.31667,"lat":34.3603,"lon":-5.7004,"largura_km":181.599,"eixo_na_terra":true},{"t":-0.31111,"lat":34.4662,"lon":-5.5963,"largura_km":181.538,"eixo_na_terra":true},{"t":-0.30556,"lat":34.572,"lon":-5.4921,"largura_km":181.477,"eixo_na_terra":true},{"t":-0.3,"lat":34.6777,"lon":-5.388,"largura_km":181.415,"eixo_na_terra":true},{"t":-0.29444,"lat":34.7834,"lon":-5.2838,"largura_km":181.353,"eixo_na_terra":true},{"t":-0.28889,"lat":34.889,"lon":-5.1796,"largura_km":181.29,"eixo_na_terra":true},{"t":-0.28333,"lat":34.9946,"lon":-5.0753,"largura_km":181.227,"eixo_na_terra":true},{"t":-0.27778,"lat":35.1002,"lon":-4.9709,"largura_km":181.163,"eixo_na_terra":true},{"t":-0.27222,"lat":35.2057,"lon":-4.8665,"largura_km":181.098,"eixo_na_terra":true},{"t":-0.26667,"lat":35.3111,"lon":-4.7621,"largura_km":181.034,"eixo_na_terra":true},{"t":-0.26111,"lat":35.4165,"lon":-4.6575,"largura_km":180.968,"eixo_na_terra":true},{"t":-0.25556,"lat":35.5218,"lon":-4.5529,"largura_km":180.902,"eixo_na_terra":true},{"t":-0.25,"lat":35.6271,"lon":-4.4483,"largura_km":180.836,"eixo_na_terra":true},{"t":-0.24444,"lat":35.7324,"lon":-4.3435,"largura_km":180.769,"eixo_na_terra":true},{"t":-0.23889,"lat":35.8376,"lon":-4.2387,"largura_km":180.702,"eixo_na_terra":true},{"t":-0.23333,"lat":35.9427,"lon":-4.1337,"largura_km":180.634,"eixo_na_terra":true},{"t":-0.22778,"lat":36.0478,"lon":-4.0287,"largura_km":180.566,"eixo_na_terra":true},{"t":-0.22222,"lat":36.1529,"lon":-3.9235,"largura_km":180.497,"eixo_na_terra":true},{"t":-0.21667,"lat":36.2579,"lon":-3.8183,"largura_km":180.428,"eixo_na_terra":true},{"t":-0.21111,"lat":36.3629,"lon":-3.713,"largura_km":180.359,"eixo_na_terra":true},{"t":-0.20556,"lat":36.4678,"lon":-3.6075,"largura_km":180.289,"eixo_na_terra":true},{"t":-0.2,"lat":36.5727,"lon":-3.5019,"largura_km":180.219,"eixo_na_terra":true},{"t":-0.19444,"lat":36.6776,"lon":-3.3962,"largura_km":180.148,"eixo_na_terra":true},{"t":-0.18889,"lat":36.7824,"lon":-3.2903,"largura_km":180.077,"eixo_na_terra":true},{"t":-0.18333,"lat":36.8871,"lon":-3.1844,"largura_km":180.006,"eixo_na_terra":true},{"t":-0.17778,"lat":36.9919,"lon":-3.0782,"largura_km":179.934,"eixo_na_terra":true},{"t":-0.17222,"lat":37.0965,"lon":-2.972,"largura_km":179.862,"eixo_na_terra":true},{"t":-0.16667,"lat":37.2012,"lon":-2.8656,"largura_km":179.789,"eixo_na_terra":true},{"t":-0.16111,"lat":37.3058,"lon":-2.759,"largura_km":179.716,"eixo_na_terra":true},{"t":-0.15556,"lat":37.4104,"lon":-2.6523,"largura_km":179.643,"eixo_na_terra":true},{"t":-0.15,"lat":37.5149,"lon":-2.5454,"largura_km":179.569,"eixo_na_terra":true},{"t":-0.14444,"lat":37.6194,"lon":-2.4383,"largura_km":179.495,"eixo_na_terra":true},{"t":-0.13889,"lat":37.7238,"lon":-2.3311,"largura_km":179.421,"eixo_na_terra":true},{"t":-0.13333,"lat":37.8282,"lon":-2.2236,"largura_km":179.347,"eixo_na_terra":true},{"t":-0.12778,"lat":37.9326,"lon":-2.116,"largura_km":179.273,"eixo_na_terra":true},{"t":-0.12222,"lat":38.037,"lon":-2.0083,"largura_km":179.198,"eixo_na_terra":true},{"t":-0.11667,"lat":38.1413,"lon":-1.9003,"largura_km":179.123,"eixo_na_terra":true},{"t":-0.11111,"lat":38.2455,"lon":-1.7921,"largura_km":179.048,"eixo_na_terra":true},{"t":-0.10556,"lat":38.3498,"lon":-1.6837,"largura_km":178.973,"eixo_na_terra":true},{"t":-0.1,"lat":38.454,"lon":-1.5751,"largura_km":178.897,"eixo_na_terra":true},{"t":-0.09444,"lat":38.5581,"lon":-1.4663,"largura_km":178.821,"eixo_na_terra":true},{"t":-0.08889,"lat":38.6623,"lon":-1.3573,"largura_km":178.744,"eixo_na_terra":true},{"t":-0.08333,"lat":38.7664,"lon":-1.248,"largura_km":178.668,"eixo_na_terra":true},{"t":-0.07778,"lat":38.8704,"lon":-1.1385,"largura_km":178.591,"eixo_na_terra":true},{"t":-0.07222,"lat":38.9745,"lon":-1.0288,"largura_km":178.514,"eixo_na_terra":true},{"t":-0.06667,"lat":39.0785,"lon":-0.9189,"largura_km":178.436,"eixo_na_terra":true},{"t":-0.06111,"lat":39.1825,"lon":-0.8086,"largura_km":178.358,"eixo_na_terra":true},{"t":-0.05556,"lat":39.2864,"lon":-0.6982,"largura_km":178.28,"eixo_na_terra":true},{"t":-0.05,"lat":39.3903,"lon":-0.5875,"largura_km":178.202,"eixo_na_terra":true},{"t":-0.04444,"lat":39.4942,"lon":-0.4765,"largura_km":178.124,"eixo_na_terra":true},{"t":-0.03889,"lat":39.598,"lon":-0.3653,"largura_km":178.045,"eixo_na_terra":true},{"t":-0.03333,"lat":39.7018,"lon":-0.2538,"largura_km":177.966,"eixo_na_terra":true},{"t":-0.02778,"lat":39.8056,"lon":-0.142,"largura_km":177.886,"eixo_na_terra":true},{"t":-0.02222,"lat":39.9094,"lon":-0.0299,"largura_km":177.807,"eixo_na_terra":true},{"t":-0.01667,"lat":40.0131,"lon":0.0824,"largura_km":177.727,"eixo_na_terra":true},{"t":-0.01111,"lat":40.1168,"lon":0.1951,"largura_km":177.647,"eixo_na_terra":true},{"t":-0.00556,"lat":40.2204,"lon":0.308,"largura_km":177.567,"eixo_na_terra":true},{"t":-0.0,"lat":40.3241,"lon":0.4212,"largura_km":177.486,"eixo_na_terra":true},{"t":0.00556,"lat":40.4277,"lon":0.5348,"largura_km":177.405,"eixo_na_terra":true},{"t":0.01111,"lat":40.5313,"lon":0.6487,"largura_km":177.324,"eixo_na_terra":true},{"t":0.01667,"lat":40.6348,"lon":0.7628,"largura_km":177.243,"eixo_na_terra":true},{"t":0.02222,"lat":40.7383,"lon":0.8774,"largura_km":177.161,"eixo_na_terra":true},{"t":0.02778,"lat":40.8418,"lon":0.9922,"largura_km":177.08,"eixo_na_terra":true},{"t":0.03333,"lat":40.9453,"lon":1.1074,"largura_km":176.998,"eixo_na_terra":true},{"t":0.03889,"lat":41.0487,"lon":1.2229,"largura_km":176.915,"eixo_na_terra":true},{"t":0.04444,"lat":41.1521,"lon":1.3388,"largura_km":176.833,"eixo_na_terra":true},{"t":0.05,"lat":41.2555,"lon":1.455,"largura_km":176.75,"eixo_na_terra":true},{"t":0.05556,"lat":41.3589,"lon":1.5716,"largura_km":176.667,"eixo_na_terra":true},{"t":0.06111,"lat":41.4622,"lon":1.6885,"largura_km":176.584,"eixo_na_terra":true},{"t":0.06667,"lat":41.5655,"lon":1.8058,"largura_km":176.501,"eixo_na_terra":true},{"t":0.07222,"lat":41.6688,"lon":1.9235,"largura_km":176.417,"eixo_na_terra":true},{"t":0.07778,"lat":41.772,"lon":2.0416,"largura_km":176.333,"eixo_na_terra":true},{"t":0.08333,"lat":41.8753,"lon":2.1601,"largura_km":176.249,"eixo_na_terra":true},{"t":0.08889,"lat":41.9785,"lon":2.2789,"largura_km":176.165,"eixo_na_terra":true},{"t":0.09444,"lat":42.0816,"lon":2.3982,"largura_km":176.081,"eixo_na_terra":true},{"t":0.1,"lat":42.1848,"lon":2.5178,"largura_km":175.996,"eixo_na_terra":true},{"t":0.10556,"lat":42.2879,"lon":2.6379,"largura_km":175.911,"eixo_na_terra":true},{"t":0.11111,"lat":42.391,"lon":2.7584,"largura_km":175.826,"eixo_na_terra":true},{"t":0.11667,"lat":42.4941,"lon":2.8793,"largura_km":175.741,"eixo_na_terra":true},{"t":0.12222,"lat":42.5971,"lon":3.0007,"largura_km":175.655,"eixo_na_terra":true},{"t":0.12778,"lat":42.7001,"lon":3.1225,"largura_km":175.57,"eixo_na_terra":true},{"t":0.13333,"lat":42.8031,"lon":3.2447,"largura_km":175.486,"eixo_na_terra":true},{"t":0.13889,"lat":42.9061,"lon":3.3674,"largura_km":175.401,"eixo_na_terra":true},{"t":0.14444,"lat":43.009,"lon":3.4906,"largura_km":175.316,"eixo_na_terra":true},{"t":0.15,"lat":43.112,"lon":3.6142,"largura_km":175.231,"eixo_na_terra":true},{"t":0.15556,"lat":43.2148,"lon":3.7382,"largura_km":175.146,"eixo_na_terra":true},{"t":0.16111,"lat":43.3177,"lon":3.8628,"largura_km":175.06,"eixo_na_terra":true},{"t":0.16667,"lat":43.4206,"lon":3.9878,"largura_km":174.975,"eixo_na_terra":true},{"t":0.17222,"lat":43.5234,"lon":4.1134,"largura_km":174.889,"eixo_na_terra":true},{"t":0.17778,"lat":43.6262,"lon":4.2394,"largura_km":174.802,"eixo_na_terra":true},{"t":0.18333,"lat":43.7289,"lon":4.3659,"largura_km":174.716,"eixo_na_terra":true},{"t":0.18889,"lat":43.8317,"lon":4.493,"largura_km":174.629,"eixo_na_terra":true},{"t":0.19444,"lat":43.9344,"lon":4.6205,"largura_km":174.543,"eixo_na_terra":true},{"t":0.2,"lat":44.0371,"lon":4.7486,"largura_km":174.456,"eixo_na_terra":true},{"t":0.20556,"lat":44.1398,"lon":4.8772,"largura_km":174.368,"eixo_na_terra":true}]},"features":[{"type":"Feature","properties":{},"geometry":{"type":"Polygon","coordinates":[[[-15.86857556547784,25.467970208677315],[-15.253650935283872,26.043797428481092],[-14.771187308941762,26.50154622996666],[-14.296418276748682,26.95686507367817],[-13.83774610656485,27.401060749301802],[-13.376481769690486,27.851908225093947],[-12.921152328698327,28.300704938602895],[-12.471235529751766,28.747560841542867],[-12.026236376634245,29.1925788450221],[-11.149129785972377,30.077481308622236],[-10.28631253340717,30.956116996725783],[-9.32869308102471,31.93786742285703],[-6.91603402092511,34.419541428211076],[-6.184310957600701,35.168260863366676],[-5.555682070089858,35.80793328446951],[-4.819094142129529,36.551981350564695],[-4.18377713945182,37.18796780353485],[-3.543677272509399,37.822446250987895],[-2.8883865294303064,38.464664840375704],[-2.453878598601591,38.886000991068],[-2.125768825399632,39.201639450723775],[-1.4632094418870452,39.83202642747037],[-1.0163485785772082,40.25165590297972],[-0.678251763489925,40.56606279657438],[-0.33746063874417587,40.88020832397487],[0.006175661556653722,41.19409974291973],[0.352810614839143,41.507743675673915],[0.7026005116946976,41.82114609712856],[1.2930288125285188,42.342960900478424],[1.6520196283289579,42.65574342201517],[2.0147659387006343,42.96830055447463],[2.638914544022441,43.49784313134589],[3.012631750853245,43.80981715286252],[3.3907606208821903,44.12157179570561],[3.773489744357903,44.433106870716124],[4.16101276725675,44.744421320680715],[5.5794010781575025,43.534008725001],[5.198416168785684,43.229072396319516],[4.8219658985518095,42.92390175628561],[4.449869371444493,42.6184980571179],[3.9602089477460254,42.210931254334845],[3.6082827654734047,41.91399952900171],[3.2493582174808466,41.60781191690477],[2.894056086803971,41.30138756404694],[2.4256794494627343,40.89244875075963],[2.0782147333412126,40.58546039052921],[1.6197294590692763,40.17575555712783],[1.2792732703904335,39.86818025192273],[0.829598091777882,39.457673508756],[0.4953560778623114,39.14948045788198],[0.05345208555189629,38.738125678780506],[-0.3844638163263312,38.32626179253016],[-0.8187136292631294,37.91386871153787],[-1.4639069581022,37.29423851100848],[-2.199194165847018,36.57871089448312],[-2.9367143164325853,35.85216714560401],[-3.772875031284684,35.01924220257108],[-4.5004547397225,34.28796431641706],[-5.225947354760763,33.5541727405201],[-7.825231209473543,30.909406360287875],[-8.774786420927171,29.946397773283575],[-9.73802798854183,28.976518791482267],[-10.609309806930753,28.10796914508853],[-11.051366874097084,27.67121096664285],[-11.498299548606724,27.232678758472627],[-11.959692360377971,26.783487546655106],[-12.417879257161871,26.341121279216903],[-12.882459779758278,25.89667207448186],[-13.353999100773535,25.450022270626818],[-13.833099185772767,25.00104547514189],[-14.19777134304178,24.662704314207343],[-15.86857556547784,25.467970208677315]]]}}]}