{"type":"FeatureCollection","features":[{"type":"Feature","properties":{"t_inicio":-0.7888888888889003,"t_fim":0.20555555555554061},"geometry":{"type":"LineString","coordinates":[[-15.026770830881276,25.068472524322036],[-14.903693602838985,25.18267501048047],[-14.781166362501494,25.296713050707382],[-14.65917801796013,25.410589047787326],[-14.537717676644206,25.524305357779795],[-14.416774639207802,25.63786429133361],[-14.29633839363646,25.751268114953042],[-14.176398609565354,25.864519052217744],[-14.05694513279957,25.977619284958664],[-13.937967980026713,26.090570954391566],[-13.819457333714809,26.203376162210404],[-13.701403537185286,26.31603697164181],[-13.583797089856205,26.428555408462742],[-13.466628642645446,26.540933461982597],[-13.349888993529703,26.653173085991323],[-13.233569083250586,26.765276199675046],[-13.11765999116335,26.87724468850038],[-13.002152931220962,26.989080405068886],[-12.887039248088172,27.10078516994259],[-12.77231041338132,27.212360772442185],[-12.657958022026946,27.32380897141849],[-12.543973788736253,27.43513149599863],[-12.430349544588637,27.546330046307638],[-12.31707723372216,27.657406294166663],[-12.204148910124673,27.768361883768552],[-12.091556734523408,27.879198432331663],[-11.979292971367158,27.98991753073285],[-11.86734998589958,28.100520744120242],[-11.755720241318386,28.21100961250677],[-11.644396296017646,28.321385651344965],[-11.533370800910575,28.43165035208384],[-11.422636496828545,28.541805182708455],[-11.312186211994515,28.65185158826284],[-11.20201285956739,28.761790991356786],[-11.09210943525511,28.871624792657226],[-10.982469014993228,28.981354371364624],[-10.873084752687305,29.090981085674844],[-10.763949878015865,29.20050627322732],[-10.655057694293077,29.309931251539556],[-10.546401576386927,29.419257318428837],[-10.4379749686928,29.5284857524213],[-10.329771383159368,29.637617813148847],[-10.221784397364786,29.74665474173455],[-10.11400765264267,29.85559776116655],[-10.006434852253506,29.964448076661107],[-9.899059759603347,30.07320687601504],[-9.791876196504575,30.181875329947925],[-9.68487804148009,30.290454592434447],[-9.578059228106895,30.398945801027054],[-9.471413743400149,30.507350077169445],[-9.364935626234285,30.615668526500922],[-9.258618965800736,30.72390223915214],[-9.152457900100728,30.832052290032447],[-9.046446614472643,30.94011973910885],[-8.940579340151317,31.048105631677238],[-8.834850352859235,31.156010998625813],[-8.729253971428705,31.26383685669102],[-8.623784556452563,31.371584208706324],[-8.5184365089641,31.479254043843955],[-8.413204269143478,31.586847337849587],[-8.308082315051877,31.69436505327077],[-8.203065161389702,31.801808139678567],[-8.098147358280357,31.909177533883145],[-7.9933234900775005,32.016474160143076],[-7.888588174195036,32.12369893036904],[-7.783936059959558,32.23085274432133],[-7.67936182748366,32.337936489802125],[-7.574860186560329,32.44495104284214],[-7.470425875576552,32.551897267881984],[-7.366053660446823,32.658776017948334],[-7.261738333564324,32.7655881348251],[-7.157474712770352,32.8723344492197],[-7.053257640340803,32.97901578092446],[-6.949081981989195,33.08563293897343],[-6.844942625885153,33.19218672179463],[-6.740834481689205,33.29867791735786],[-6.636752479601228,33.40510730331811],[-6.532691569423889,33.51147564715482],[-6.42864671963946,33.617783706306916],[-6.324612916499632,33.72403222830398],[-6.220585163128362,33.83022195089323],[-6.116558478636591,33.9363536021628],[-6.0125278972488445,34.04242790066119],[-5.908488467440691,34.14844555551302],[-5.8044352510875115,34.254407266531246],[-5.700363322622934,34.360313724325636],[-5.596267768208065,34.466165610407984],[-5.492143684909081,34.57196359729383],[-5.387986179884933,34.67770834860081],[-5.283790369583073,34.78340051914377],[-5.179551378943586,34.889040755026734],[-5.075264340611568,34.99462969373159],[-4.9709243941566115,35.10016796420374],[-4.866526685299789,35.20565618693478],[-4.762066365147177,35.31109497404204],[-4.657538589430203,35.41648492934536],[-4.552938517751841,35.52182664844071],[-4.448261312838952,35.62712071877136],[-4.343502139799341,35.732367719695795],[-4.238656165385407,35.83756822255321],[-4.133718557261034,35.942722790726116],[-4.028684483274219,36.04783197970031],[-3.923549110733461,36.15289633712213],[-3.818307605688119,36.25791640285317],[-3.712955132212585,36.36289270902245],[-3.6074868516935794,36.46782578007579],[-3.501897922121316,36.572716132823],[-3.396183497381969,36.677564276482265],[-3.290338726554637,36.78237071272231],[-3.184358753208926,36.887135935701885],[-3.0782387147056056,36.99186043210694],[-2.9719737414984593,37.09654468118546],[-2.865558956438008,37.201189154779726],[-2.758989474076145,37.305794317356366],[-2.652260399972022,37.41036062603404],[-2.545366829998727,37.514888530608616],[-2.438303849650083,37.61937847357626],[-2.331066533348121,37.72383089015408],[-2.223649943750388,37.82824620829843],[-2.1160491310569682,37.932624848721076],[-2.008259132317164,38.03696722490283],[-1.9002749707354383,38.141273743105245],[-1.7920916549762183,38.2455448023797],[-1.6837041784680196,38.34978079457445],[-1.5751075187054084,38.453982104339275],[-1.466296636550112,38.55814910912795],[-1.3572664755296842,38.66228217919844],[-1.2480119611342957,38.76638167761076],[-1.1385280001113074,38.870447960222656],[-1.0288094797567737,38.97448137568299],[-0.9188512672049001,39.078482265422835],[-0.8086482087136915,39.18245096364431],[-0.6981951289481003,39.28638779730712],[-0.5874868302589107,39.39029308611278],[-0.4765180919586669,39.4941671424866],[-0.36528366959277037,39.5980102715573],[-0.2537782942073932,39.701822771134246],[-0.14199667161233265,39.80560493168257],[-0.02993348163892051,39.90935703629562],[0.08241662260581961,40.01307936066526],[0.1950590154915517,40.116772173049746],[0.30799909962104266,40.220435734239096],[0.4212423065932853,40.324070297518226],[0.5347940977717371,40.427676108627374],[0.6486599650589824,40.53125340572037],[0.7628454316775333,40.63480241932005],[0.8773560529574524,40.73832337227154],[0.9921974171303418,40.84181647969267],[1.107375146131119,40.94528194892204],[1.2228948964063875,41.04871997946432],[1.3387623597307652,41.15213076293302],[1.454983264031057,41.255514482990556],[1.5715633742184423,41.35887131528566],[1.688508493029019,41.46220142738802],[1.8058244618728736,41.56550497872008],[1.9235171616925868,41.668782120486206],[2.041592513829926,41.77203299559888],[2.1600564809030516,41.87525773860193],[2.278915067692651,41.978456475591095],[2.398174322038699,42.081629324131264],[2.517840335746939,42.18477639317105],[2.6379192455065095,42.28789778295394],[2.7584172338180792,42.39099358492663],[2.879340529933188,42.494063881643946],[3.000695410805747,42.597108746670735],[3.1224882020540576,42.70012824448029],[3.244725278936528,42.80312243034961],[3.3674130673383615,42.90609135025112],[3.4905580447723423,43.00903504074094],[3.614166741391557,43.11195352884384],[3.7382457410165557,43.2148468319342],[3.8628016821755864,43.31771495761378],[3.987841259159609,43.42055790358534],[4.113371223091065,43.523375657522735],[4.239398383008108,43.626168196937094],[4.36592960696413,43.72893548903887],[4.492971823142341,43.83167749059605],[4.6205320209869,43.934394147788225],[4.748617252349902,44.037085396056355],[4.877234632655984,44.139751159948325]]}}]}