{"type":"FeatureCollection","features":[{"type":"Feature","properties":{"magnitude":0.2,"de":0.2,"ate":0.5,"percentagem":20.0},"geometry":{"type":"Polygon","coordinates":[[[-34.5,30.0],[-19.153214371965806,30.0],[-16.079999999999302,31.053787868305868],[-12.65594628544463,32.27999999999995],[-3.5399999999988268,35.69095128241859],[-3.5399999999988268,44.939999999999685],[-31.216492863236873,44.939999999999685],[-32.87999999999994,44.731238704242294],[-34.5,44.59324381847858],[-34.5,30.0]]]}},{"type":"Feature","properties":{"magnitude":0.5,"de":0.5,"ate":0.8,"percentagem":50.0},"geometry":{"type":"Polygon","coordinates":[[[-19.153214371965806,30.0],[-3.5399999999988268,30.0],[-3.5399999999988268,35.69095128241859],[-12.65594628544463,32.27999999999995],[-16.079999999999302,31.053787868305868],[-19.153214371965806,30.0]]]}}]}