{"type":"FeatureCollection","properties":{"largura_maxima_km":113.54,"largura_sobre_pt_km":73.338,"linha_central_sobre_pt":false,"desenhavel_como_area":true,"perfil_largura":[{"t":-1.64444,"lat":27.4197,"lon":-25.011,"largura_km":null,"eixo_na_terra":false},{"t":-1.63889,"lat":27.4241,"lon":-23.8319,"largura_km":null,"eixo_na_terra":false},{"t":-1.63333,"lat":27.4759,"lon":-23.12,"largura_km":null,"eixo_na_terra":false},{"t":-1.62778,"lat":27.4629,"lon":-21.9096,"largura_km":null,"eixo_na_terra":false},{"t":-1.62222,"lat":27.3591,"lon":-19.9533,"largura_km":null,"eixo_na_terra":false},{"t":-1.61667,"lat":27.303,"lon":-18.5678,"largura_km":69.921,"eixo_na_terra":true},{"t":-1.61111,"lat":27.2838,"lon":-17.5808,"largura_km":73.338,"eixo_na_terra":true},{"t":-1.60556,"lat":27.2732,"lon":-16.7042,"largura_km":75.494,"eixo_na_terra":true},{"t":-1.6,"lat":27.2689,"lon":-15.9093,"largura_km":77.186,"eixo_na_terra":true},{"t":-1.59444,"lat":27.2697,"lon":-15.178,"largura_km":78.628,"eixo_na_terra":true},{"t":-1.58889,"lat":27.2745,"lon":-14.4978,"largura_km":79.916,"eixo_na_terra":true},{"t":-1.58333,"lat":27.2827,"lon":-13.8602,"largura_km":81.093,"eixo_na_terra":true},{"t":-1.57778,"lat":27.2937,"lon":-13.2584,"largura_km":82.186,"eixo_na_terra":true},{"t":-1.57222,"lat":27.3073,"lon":-12.6876,"largura_km":83.214,"eixo_na_terra":true},{"t":-1.56667,"lat":27.3229,"lon":-12.1437,"largura_km":84.189,"eixo_na_terra":true},{"t":-1.56111,"lat":27.3406,"lon":-11.6235,"largura_km":85.116,"eixo_na_terra":true},{"t":-1.55556,"lat":27.3599,"lon":-11.1245,"largura_km":86.004,"eixo_na_terra":true},{"t":-1.55,"lat":27.3808,"lon":-10.6445,"largura_km":86.857,"eixo_na_terra":true},{"t":-1.54444,"lat":27.4031,"lon":-10.1816,"largura_km":87.68,"eixo_na_terra":true},{"t":-1.53889,"lat":27.4267,"lon":-9.7343,"largura_km":88.475,"eixo_na_terra":true},{"t":-1.53333,"lat":27.4515,"lon":-9.3013,"largura_km":89.245,"eixo_na_terra":true},{"t":-1.52778,"lat":27.4773,"lon":-8.8814,"largura_km":89.992,"eixo_na_terra":true},{"t":-1.52222,"lat":27.5042,"lon":-8.4736,"largura_km":90.718,"eixo_na_terra":true},{"t":-1.51667,"lat":27.5321,"lon":-8.0771,"largura_km":91.423,"eixo_na_terra":true},{"t":-1.51111,"lat":27.5608,"lon":-7.691,"largura_km":92.11,"eixo_na_terra":true},{"t":-1.50556,"lat":27.5904,"lon":-7.3146,"largura_km":92.78,"eixo_na_terra":true},{"t":-1.5,"lat":27.6208,"lon":-6.9473,"largura_km":93.433,"eixo_na_terra":true},{"t":-1.49444,"lat":27.6519,"lon":-6.5885,"largura_km":94.072,"eixo_na_terra":true},{"t":-1.48889,"lat":27.6837,"lon":-6.2378,"largura_km":94.697,"eixo_na_terra":true},{"t":-1.48333,"lat":27.7162,"lon":-5.8947,"largura_km":95.309,"eixo_na_terra":true},{"t":-1.47778,"lat":27.7493,"lon":-5.5587,"largura_km":95.907,"eixo_na_terra":true},{"t":-1.47222,"lat":27.7831,"lon":-5.2294,"largura_km":96.492,"eixo_na_terra":true},{"t":-1.46667,"lat":27.8174,"lon":-4.9066,"largura_km":97.067,"eixo_na_terra":true},{"t":-1.46111,"lat":27.8522,"lon":-4.5899,"largura_km":97.63,"eixo_na_terra":true},{"t":-1.45556,"lat":27.8876,"lon":-4.279,"largura_km":98.182,"eixo_na_terra":true},{"t":-1.45,"lat":27.9235,"lon":-3.9736,"largura_km":98.723,"eixo_na_terra":true},{"t":-1.44444,"lat":27.9599,"lon":-3.6735,"largura_km":99.255,"eixo_na_terra":true},{"t":-1.43889,"lat":27.9967,"lon":-3.3784,"largura_km":99.776,"eixo_na_terra":true},{"t":-1.43333,"lat":28.0341,"lon":-3.0881,"largura_km":100.288,"eixo_na_terra":true},{"t":-1.42778,"lat":28.0718,"lon":-2.8025,"largura_km":100.791,"eixo_na_terra":true},{"t":-1.42222,"lat":28.11,"lon":-2.5212,"largura_km":101.287,"eixo_na_terra":true},{"t":-1.41667,"lat":28.1486,"lon":-2.2442,"largura_km":101.773,"eixo_na_terra":true},{"t":-1.41111,"lat":28.1875,"lon":-1.9713,"largura_km":102.251,"eixo_na_terra":true},{"t":-1.40556,"lat":28.2269,"lon":-1.7023,"largura_km":102.721,"eixo_na_terra":true},{"t":-1.4,"lat":28.2666,"lon":-1.437,"largura_km":103.183,"eixo_na_terra":true},{"t":-1.39444,"lat":28.3067,"lon":-1.1754,"largura_km":103.637,"eixo_na_terra":true},{"t":-1.38889,"lat":28.3472,"lon":-0.9173,"largura_km":104.084,"eixo_na_terra":true},{"t":-1.38333,"lat":28.3879,"lon":-0.6625,"largura_km":104.524,"eixo_na_terra":true},{"t":-1.37778,"lat":28.4291,"lon":-0.411,"largura_km":104.956,"eixo_na_terra":true},{"t":-1.37222,"lat":28.4705,"lon":-0.1627,"largura_km":105.381,"eixo_na_terra":true},{"t":-1.36667,"lat":28.5123,"lon":0.0827,"largura_km":105.8,"eixo_na_terra":true},{"t":-1.36111,"lat":28.5543,"lon":0.325,"largura_km":106.212,"eixo_na_terra":true},{"t":-1.35556,"lat":28.5967,"lon":0.5646,"largura_km":106.618,"eixo_na_terra":true},{"t":-1.35,"lat":28.6394,"lon":0.8013,"largura_km":107.018,"eixo_na_terra":true},{"t":-1.34444,"lat":28.6823,"lon":1.0354,"largura_km":107.411,"eixo_na_terra":true},{"t":-1.33889,"lat":28.7255,"lon":1.267,"largura_km":107.798,"eixo_na_terra":true},{"t":-1.33333,"lat":28.769,"lon":1.496,"largura_km":108.18,"eixo_na_terra":true},{"t":-1.32778,"lat":28.8128,"lon":1.7226,"largura_km":108.556,"eixo_na_terra":true},{"t":-1.32222,"lat":28.8568,"lon":1.9468,"largura_km":108.926,"eixo_na_terra":true},{"t":-1.31667,"lat":28.9011,"lon":2.1687,"largura_km":109.29,"eixo_na_terra":true},{"t":-1.31111,"lat":28.9457,"lon":2.3884,"largura_km":109.649,"eixo_na_terra":true},{"t":-1.30556,"lat":28.9905,"lon":2.6059,"largura_km":110.002,"eixo_na_terra":true},{"t":-1.3,"lat":29.0355,"lon":2.8213,"largura_km":110.349,"eixo_na_terra":true},{"t":-1.29444,"lat":29.0808,"lon":3.0347,"largura_km":110.691,"eixo_na_terra":true},{"t":-1.28889,"lat":29.1263,"lon":3.246,"largura_km":111.028,"eixo_na_terra":true},{"t":-1.28333,"lat":29.172,"lon":3.4554,"largura_km":111.36,"eixo_na_terra":true},{"t":-1.27778,"lat":29.218,"lon":3.663,"largura_km":111.686,"eixo_na_terra":true},{"t":-1.27222,"lat":29.2642,"lon":3.8687,"largura_km":112.007,"eixo_na_terra":true},{"t":-1.26667,"lat":29.3106,"lon":4.0726,"largura_km":112.324,"eixo_na_terra":true},{"t":-1.26111,"lat":29.3573,"lon":4.2747,"largura_km":112.635,"eixo_na_terra":true},{"t":-1.25556,"lat":29.4041,"lon":4.4751,"largura_km":112.941,"eixo_na_terra":true},{"t":-1.25,"lat":29.4512,"lon":4.6739,"largura_km":113.243,"eixo_na_terra":true},{"t":-1.24444,"lat":29.4984,"lon":4.871,"largura_km":113.54,"eixo_na_terra":true}]},"features":[{"type":"Feature","properties":{},"geometry":{"type":"Polygon","coordinates":[[[-22.217463034938646,27.72754451613702],[-22.045903662440026,27.72944309283273],[-21.779193672071756,27.725651127764174],[-21.478368986668784,27.715001457512503],[-21.153145012106393,27.697920724380396],[-20.812461166457126,27.67484976543731],[-20.46434524310439,27.646247031339154],[-20.11591892162852,27.612599820698687],[-19.800732168114592,27.577633163113532],[-20.162677091691137,27.671775202742733],[-18.986627210101176,27.643713576328913],[-18.004604275439704,27.628248624783573],[-17.113190225526864,27.62094749101941],[-16.30691042883535,27.61991042373542],[-15.566447851401222,27.62373900987572],[-14.878825522630848,27.63149297883064],[-14.234827904348833,27.642504027064],[-13.627631776366002,27.656276926932218],[-13.052018042081045,27.672432571328915],[-12.503888918127984,27.69067307089454],[-11.979957265457415,27.71075928609599],[-11.477538514411947,27.732495772752493],[-10.99440658722449,27.75572035352827],[-10.528691290348604,27.780296687991534],[-9.643379206654402,27.83305728745744],[-8.811348134241598,27.890028948273773],[-8.024807478845446,27.950642294684265],[-7.277673867386227,28.01445231553577],[-6.565089409436496,28.081103377721753],[-5.883101735129628,28.150305969739655],[-5.5637709436255705,28.18453534961951],[-4.921497420664764,28.25708690806658],[-4.302631779532476,28.331663841194697],[-4.001293266975097,28.369661697527114],[-3.413608132265665,28.446988465369976],[-3.1268322551398455,28.486285921670095],[-2.5664461672836865,28.566078100168678],[-1.75623453004971,28.6885731641264],[-0.9789170186301703,28.814177147044955],[-0.2406439686508861,28.940944336011484],[0.48070722784376585,29.072018470064336],[0.9480436648108821,29.160786163870895],[1.4052915219948545,29.250606665227085],[2.0735202262597454,29.387219790737387],[2.5080117795488377,29.479495079654033],[2.934265731210189,29.572690463852286],[3.559145071519822,29.71414175530613],[3.9666395573931936,29.809507469125098],[4.358705503019962,29.9036069351199],[5.366867175618438,29.088368513371666],[4.777482011614268,28.94992185956731],[4.376323726071689,28.858713729211235],[3.968183317866931,28.768408482096348],[3.552693764434821,28.679035311025697],[2.914804521448275,28.546793193943387],[2.4791370059389237,28.45989482070317],[2.0345830603375816,28.374052080288106],[1.5712644711422286,28.287602327569594],[1.1072104314820876,28.204032058490007],[0.6325238954093493,28.121659719576055],[0.146506371939779,28.040542403468667],[-0.35161433807547837,27.960743361388758],[-0.8626956020841021,27.882332949026868],[-1.387693807606695,27.805389769025663],[-1.9276812452059744,27.7300020624704],[-2.4943555522966108,27.6549381798061],[-3.0682805917998053,27.583011306210054],[-3.6613572466067694,27.51298363981247],[-4.275390345734479,27.44500415576376],[-4.5909070396111815,27.41183543788602],[-5.240411244581594,27.34726144293995],[-5.57506381591503,27.315911059165614],[-5.916810349751984,27.285225821878186],[-6.635445563338237,27.225058626369332],[-7.376167738947345,27.16899614532034],[-7.760690893723677,27.14225334240175],[-8.5615235986333,27.091629851170243],[-9.410419604558342,27.04529019029269],[-9.86960338877941,27.02337694924977],[-10.330392264744546,27.003418265458215],[-10.808157874144797,26.984938704528844],[-11.304690990469396,26.968085273325553],[-11.822116721661189,26.953032305570765],[-12.379343230262236,26.939779932545925],[-12.947335399560131,26.92906512313661],[-13.545837459569384,26.920939235807452],[-14.198387563759297,26.91592121881959],[-14.875043458981736,26.91439375309333],[-15.623265314072285,26.917529876748258],[-16.437287382917532,26.926263062711616],[-17.361710577310134,26.9432425354206],[-17.611524495091896,27.008219249323215],[-17.643108502218013,26.995822005373725],[-17.683449367443473,26.985363459444347],[-17.76114399757506,26.972877111791288],[-17.824182917912424,26.966763536008376],[-17.935165813419133,26.961014390923342],[-18.019804868276083,26.959508198338582],[-18.213574933593463,26.96216559320356],[-18.37925758898973,26.96914077912941],[-18.49883180374701,26.976149310835563],[-18.69101520529904,26.990145687464995],[-18.8350288163065,27.002476029502482],[-18.940930075537665,26.99573377771381],[-19.07404039891071,26.992943653524097],[-19.22920162300528,26.994589395645058],[-19.405775616635424,27.000730055664757],[-19.603049655550592,27.011381160066076],[-19.74568180758854,27.020975550104005],[-20.10466902908676,27.050405851335118],[-20.195588861589613,27.0461137290174],[-20.346157408907118,27.04425492733051],[-20.524923019109508,27.047233605318365],[-20.659821862393585,27.05197179806687],[-20.885942640241694,27.063287854968483],[-21.141008045568356,27.079734290763017],[-21.42580817371487,27.10139064299816],[-21.767126561914747,27.130642445589455],[-21.91209992420653,27.128798193618813],[-22.121050433741175,27.13214120067372],[-22.376040756836744,27.141710416389213],[-22.57422937782661,27.151819584567388],[-22.920038898267137,27.17314408653968],[-23.3368080394971,27.202932516842314],[-24.055009092034993,27.260042842968417],[-25.047522425725507,27.343509025243417],[-25.408063548768666,27.364572338740356],[-25.4209861185925,27.374924809697312],[-25.810990101812536,27.407590799050695],[-25.713574057253076,27.556586127370572],[-26.20575274173964,27.861447594058163],[-26.39664323994117,27.883442229016687],[-26.392497948591483,27.911703965828895],[-26.279300745878455,27.907004122856424],[-26.36549218864394,27.960392151403042],[-25.327754888277422,27.88365414809403],[-24.603741202171307,27.858519514798537],[-23.959783360002405,27.8297410600317],[-23.448913377759652,27.80237669819695],[-23.071563359465927,27.77933992433559],[-22.70112485652828,27.754170194099224],[-22.307025876307602,27.7243188503425],[-22.217463034938646,27.72754451613702]]]}}]}