{"type":"FeatureCollection","features":[{"type":"Feature","properties":{"t_inicio":-1.6333333333333417,"t_fim":-1.2444444444444542},"geometry":{"type":"LineString","coordinates":[[-23.17266660504157,27.487438713255088],[-21.134634631586152,27.38725365682696],[-19.716140421960006,27.3346913786972],[-18.56777996524727,27.30297940185686],[-17.580804878687275,27.283776046250704],[-16.70424449728074,27.273167688410886],[-15.909336682733738,27.268943832838332],[-15.177962625122177,27.26971069765982],[-14.497835273859437,27.274522267725843],[-13.860168242291422,27.282701470495102],[-13.258421194838775,27.29374389030771],[-12.6875701309296,27.307261742287256],[-12.143656791584874,27.322949262129963],[-11.62349683738131,27.340560281780114],[-11.124483350435924,27.359893123742903],[-10.644450162237717,27.380780090116957],[-10.181574147762717,27.403079945275046],[-9.734303712472695,27.426672411510246],[-9.301305370481543,27.451454055467767],[-8.881423116834753,27.477335158461827],[-8.47364703757711,27.504237297419767],[-8.07708871357164,27.532091448611883],[-7.69096170327191,27.560836482336477],[-7.3145658787963725,27.590417954310475],[-6.947274724550823,27.620787125250114],[-6.588524941203332,27.651900158077776],[-6.237807863440764,27.683717454924693],[-5.894662319197096,27.716203105268807],[-5.558668645112618,27.74932442324519],[-5.2294436373748,27.78305155711881],[-4.906636265272198,27.81735715761743],[-4.589924011238054,27.8522160946275],[-4.279009729008067,27.88760521389938],[-3.973618932997624,27.92350312706221],[-3.6734974487152385,27.95989002953602],[-3.378409367140307,27.99674754193861],[-3.088135256356452,28.034058571382978],[-2.802470591982342,28.071807189697292],[-2.5212243745573346,28.109978526108947],[-2.2442179073721036,28.148558672345892],[-1.971283712567356,28.187534598442014],[-1.7022645668550922,28.226894077806122],[-1.4370126411164392,28.2666256203378],[-1.1753887305256967,28.30671841255796],[-0.9172615638250932,28.34716226387472],[-0.6625071820329254,28.387947558232955],[-0.41100837824114933,28.429065210502056],[-0.16265419132071202,28.47050662704626],[0.08266055267023376,28.512263669997253],[0.3250356567558015,28.55432862481235],[0.5645659316644469,28.59669417075661],[0.8013415408827314,28.639353353992473],[1.0354483157067307,28.682299563000903],[1.26696804341816,28.725526506091732],[1.4959787313343895,28.76902819078989],[1.7225548491551876,28.8127989049099],[1.9467675517468024,28.856833199152227],[2.168684884259278,28.90112587107513],[2.3883719712591187,28.945671950310565],[2.6058911913729617,28.99046668490887],[2.821302338777457,29.03550552870793],[3.034662772723948,29.080784129635173],[3.246027556166325,29.126298318858716],[3.455449584444466,29.172044100714167],[3.662979704883753,29.218017643340126],[3.868666828081132,29.264215269962293],[4.0725580315724415,29.310633450772254],[4.274698656511532,29.35726879535216],[4.4751323979261315,29.404118045600974],[4.673901389064838,29.45117806912243],[4.871046280303574,29.49844585303834]]}}]}