{"type":"FeatureCollection","features":[{"type":"Feature","properties":{"magnitude":0.2,"de":0.2,"ate":0.5,"percentagem":20.0},"geometry":{"type":"Polygon","coordinates":[[[-34.5,30.0],[-34.13889571647632,30.0],[-34.5,31.826635322937456],[-34.5,31.79999999999996],[-34.5,30.0]]]}},{"type":"Feature","properties":{"magnitude":0.5,"de":0.5,"ate":0.8,"percentagem":50.0},"geometry":{"type":"Polygon","coordinates":[[[-34.5,31.826635322937456],[-34.13889571647632,30.0],[-29.815586700427257,30.0],[-30.016338495615148,31.499999999999964],[-30.131108808877975,32.87999999999994],[-30.163377590497795,34.139999999999915],[-30.109172386316363,35.27999999999989],[-29.976027392384346,36.179999999999865],[-29.75999999999982,36.89468734671701],[-29.639062689336633,37.139999999999844],[-29.45999999999981,37.39015635851586],[-29.279999999999802,37.54674702786855],[-29.099999999999795,37.63403142544418],[-28.859999999999786,37.66835759522824],[-25.079999999999643,37.44419061922481],[-21.479999999999507,37.33063013298963],[-18.35999999999939,37.32109131253788],[-15.299999999999272,37.400610798564756],[-12.239999999999156,37.57702156486242],[-9.239999999999043,37.85318925767986],[-6.359999999998934,38.22317168585537],[-3.5399999999988268,38.69303678724528],[-3.5399999999988268,44.939999999999685],[-34.5,44.939999999999685],[-34.5,31.826635322937456]]]}},{"type":"Feature","properties":{"magnitude":0.8,"de":0.8,"ate":0.95,"percentagem":80.0},"geometry":{"type":"Polygon","coordinates":[[[-30.016338495615148,31.499999999999964],[-29.815586700427257,30.0],[-27.305465747316436,30.0],[-27.17999999999972,30.180528179473434],[-26.999999999999716,30.23631967781426],[-22.91661601013895,30.0],[-11.81848560281262,30.0],[-9.719999999999061,30.12678086611076],[-7.619999999998981,30.300932546532664],[-5.579999999998904,30.518414784617615],[-3.5399999999988268,30.786497519587076],[-3.5399999999988268,38.69303678724528],[-6.359999999998934,38.22317168585537],[-9.239999999999043,37.85318925767986],[-12.239999999999156,37.57702156486242],[-15.299999999999272,37.400610798564756],[-18.35999999999939,37.321091312537874],[-21.479999999999507,37.33063013298963],[-25.079999999999643,37.44419061922481],[-28.859999999999786,37.66835759522824],[-29.099999999999795,37.63403142544418],[-29.279999999999802,37.54674702786855],[-29.45999999999981,37.39015635851586],[-29.639062689336633,37.139999999999844],[-29.75999999999982,36.89468734671701],[-29.976027392384346,36.179999999999865],[-30.109172386316366,35.27999999999989],[-30.163377590497795,34.139999999999915],[-30.131108808877975,32.87999999999994],[-30.016338495615148,31.499999999999964]]]}},{"type":"Feature","properties":{"magnitude":0.95,"de":0.95,"ate":0.99,"percentagem":95.0},"geometry":{"type":"MultiPolygon","coordinates":[[[[-27.299999999999727,30.01274949248372],[-27.179999999999723,30.180528179473434],[-26.999999999999716,30.23631967781426],[-22.91661601013895,30.0],[-27.299999999999727,30.01274949248372]]],[[[-11.81848560281262,30.0],[-9.659999999999059,30.131087359723264],[-7.559999999998979,30.306637683241696],[-5.519999999998902,30.525560742500982],[-3.5399999999988268,30.786497519587076],[-3.5399999999988268,30.0],[-11.81848560281262,30.0]]]]}}]}