{"type":"FeatureCollection","properties":{"largura_maxima_km":133.506,"largura_sobre_pt_km":130.935,"linha_central_sobre_pt":false,"desenhavel_como_area":true,"perfil_largura":[{"t":-0.21111,"lat":42.2061,"lon":-39.9843,"largura_km":132.017,"eixo_na_terra":true},{"t":-0.20556,"lat":42.2588,"lon":-39.8145,"largura_km":132.055,"eixo_na_terra":true},{"t":-0.2,"lat":42.3112,"lon":-39.6448,"largura_km":132.092,"eixo_na_terra":true},{"t":-0.19444,"lat":42.3631,"lon":-39.4752,"largura_km":132.129,"eixo_na_terra":true},{"t":-0.18889,"lat":42.4147,"lon":-39.3056,"largura_km":132.165,"eixo_na_terra":true},{"t":-0.18333,"lat":42.4659,"lon":-39.1362,"largura_km":132.201,"eixo_na_terra":true},{"t":-0.17778,"lat":42.5168,"lon":-38.9668,"largura_km":132.237,"eixo_na_terra":true},{"t":-0.17222,"lat":42.5673,"lon":-38.7975,"largura_km":132.273,"eixo_na_terra":true},{"t":-0.16667,"lat":42.6174,"lon":-38.6283,"largura_km":132.307,"eixo_na_terra":true},{"t":-0.16111,"lat":42.6671,"lon":-38.4591,"largura_km":132.342,"eixo_na_terra":true},{"t":-0.15556,"lat":42.7165,"lon":-38.29,"largura_km":132.375,"eixo_na_terra":true},{"t":-0.15,"lat":42.7655,"lon":-38.121,"largura_km":132.408,"eixo_na_terra":true},{"t":-0.14444,"lat":42.8141,"lon":-37.952,"largura_km":132.44,"eixo_na_terra":true},{"t":-0.13889,"lat":42.8624,"lon":-37.7831,"largura_km":132.472,"eixo_na_terra":true},{"t":-0.13333,"lat":42.9103,"lon":-37.6143,"largura_km":132.503,"eixo_na_terra":true},{"t":-0.12778,"lat":42.9578,"lon":-37.4455,"largura_km":132.534,"eixo_na_terra":true},{"t":-0.12222,"lat":43.005,"lon":-37.2768,"largura_km":132.564,"eixo_na_terra":true},{"t":-0.11667,"lat":43.0518,"lon":-37.1081,"largura_km":132.593,"eixo_na_terra":true},{"t":-0.11111,"lat":43.0983,"lon":-36.9394,"largura_km":132.622,"eixo_na_terra":true},{"t":-0.10556,"lat":43.1444,"lon":-36.7708,"largura_km":132.65,"eixo_na_terra":true},{"t":-0.1,"lat":43.1901,"lon":-36.6023,"largura_km":132.677,"eixo_na_terra":true},{"t":-0.09444,"lat":43.2355,"lon":-36.4337,"largura_km":132.704,"eixo_na_terra":true},{"t":-0.08889,"lat":43.2805,"lon":-36.2653,"largura_km":132.73,"eixo_na_terra":true},{"t":-0.08333,"lat":43.3252,"lon":-36.0968,"largura_km":132.756,"eixo_na_terra":true},{"t":-0.07778,"lat":43.3695,"lon":-35.9284,"largura_km":132.781,"eixo_na_terra":true},{"t":-0.07222,"lat":43.4135,"lon":-35.76,"largura_km":132.806,"eixo_na_terra":true},{"t":-0.06667,"lat":43.4571,"lon":-35.5916,"largura_km":132.83,"eixo_na_terra":true},{"t":-0.06111,"lat":43.5003,"lon":-35.4233,"largura_km":132.853,"eixo_na_terra":true},{"t":-0.05556,"lat":43.5432,"lon":-35.255,"largura_km":132.876,"eixo_na_terra":true},{"t":-0.05,"lat":43.5858,"lon":-35.0867,"largura_km":132.899,"eixo_na_terra":true},{"t":-0.04444,"lat":43.628,"lon":-34.9184,"largura_km":132.922,"eixo_na_terra":true},{"t":-0.03889,"lat":43.6698,"lon":-34.7501,"largura_km":132.945,"eixo_na_terra":true},{"t":-0.03333,"lat":43.7113,"lon":-34.5819,"largura_km":132.967,"eixo_na_terra":true},{"t":-0.02778,"lat":43.7524,"lon":-34.4136,"largura_km":132.989,"eixo_na_terra":true},{"t":-0.02222,"lat":43.7932,"lon":-34.2454,"largura_km":133.01,"eixo_na_terra":true},{"t":-0.01667,"lat":43.8336,"lon":-34.0772,"largura_km":133.031,"eixo_na_terra":true},{"t":-0.01111,"lat":43.8737,"lon":-33.909,"largura_km":133.051,"eixo_na_terra":true},{"t":-0.00556,"lat":43.9135,"lon":-33.7407,"largura_km":133.071,"eixo_na_terra":true},{"t":-0.0,"lat":43.9529,"lon":-33.5725,"largura_km":133.09,"eixo_na_terra":true},{"t":0.00556,"lat":43.9919,"lon":-33.4043,"largura_km":133.109,"eixo_na_terra":true},{"t":0.01111,"lat":44.0306,"lon":-33.2361,"largura_km":133.127,"eixo_na_terra":true},{"t":0.01667,"lat":44.069,"lon":-33.0679,"largura_km":133.144,"eixo_na_terra":true},{"t":0.02222,"lat":44.107,"lon":-32.8997,"largura_km":133.161,"eixo_na_terra":true},{"t":0.02778,"lat":44.1446,"lon":-32.7314,"largura_km":133.178,"eixo_na_terra":true},{"t":0.03333,"lat":44.1819,"lon":-32.5632,"largura_km":133.194,"eixo_na_terra":true},{"t":0.03889,"lat":44.2189,"lon":-32.3949,"largura_km":133.209,"eixo_na_terra":true},{"t":0.04444,"lat":44.2555,"lon":-32.2267,"largura_km":133.224,"eixo_na_terra":true},{"t":0.05,"lat":44.2918,"lon":-32.0584,"largura_km":133.238,"eixo_na_terra":true},{"t":0.05556,"lat":44.3278,"lon":-31.8901,"largura_km":133.252,"eixo_na_terra":true},{"t":0.06111,"lat":44.3634,"lon":-31.7218,"largura_km":133.266,"eixo_na_terra":true},{"t":0.06667,"lat":44.3986,"lon":-31.5535,"largura_km":133.279,"eixo_na_terra":true},{"t":0.07222,"lat":44.4335,"lon":-31.3852,"largura_km":133.291,"eixo_na_terra":true},{"t":0.07778,"lat":44.4681,"lon":-31.2168,"largura_km":133.304,"eixo_na_terra":true},{"t":0.08333,"lat":44.5023,"lon":-31.0484,"largura_km":133.316,"eixo_na_terra":true},{"t":0.08889,"lat":44.5362,"lon":-30.88,"largura_km":133.329,"eixo_na_terra":true},{"t":0.09444,"lat":44.5698,"lon":-30.7116,"largura_km":133.341,"eixo_na_terra":true},{"t":0.1,"lat":44.603,"lon":-30.5431,"largura_km":133.353,"eixo_na_terra":true},{"t":0.10556,"lat":44.6358,"lon":-30.3746,"largura_km":133.364,"eixo_na_terra":true},{"t":0.11111,"lat":44.6684,"lon":-30.2061,"largura_km":133.375,"eixo_na_terra":true},{"t":0.11667,"lat":44.7006,"lon":-30.0375,"largura_km":133.385,"eixo_na_terra":true},{"t":0.12222,"lat":44.7324,"lon":-29.8689,"largura_km":133.395,"eixo_na_terra":true},{"t":0.12778,"lat":44.7639,"lon":-29.7003,"largura_km":133.404,"eixo_na_terra":true},{"t":0.13333,"lat":44.7951,"lon":-29.5317,"largura_km":133.413,"eixo_na_terra":true},{"t":0.13889,"lat":44.8259,"lon":-29.363,"largura_km":133.421,"eixo_na_terra":true},{"t":0.14444,"lat":44.8564,"lon":-29.1942,"largura_km":133.429,"eixo_na_terra":true},{"t":0.15,"lat":44.8865,"lon":-29.0255,"largura_km":133.436,"eixo_na_terra":true},{"t":0.15556,"lat":44.9164,"lon":-28.8567,"largura_km":133.443,"eixo_na_terra":true},{"t":0.16111,"lat":44.9458,"lon":-28.6878,"largura_km":133.45,"eixo_na_terra":true},{"t":0.16667,"lat":44.975,"lon":-28.5189,"largura_km":133.456,"eixo_na_terra":true},{"t":0.17222,"lat":45.0038,"lon":-28.35,"largura_km":133.461,"eixo_na_terra":true},{"t":0.17778,"lat":45.0322,"lon":-28.181,"largura_km":133.466,"eixo_na_terra":true},{"t":0.18333,"lat":45.0603,"lon":-28.012,"largura_km":133.471,"eixo_na_terra":true},{"t":0.18889,"lat":45.0881,"lon":-27.843,"largura_km":133.475,"eixo_na_terra":true},{"t":0.19444,"lat":45.1156,"lon":-27.6738,"largura_km":133.478,"eixo_na_terra":true},{"t":0.2,"lat":45.1427,"lon":-27.5047,"largura_km":133.482,"eixo_na_terra":true},{"t":0.20556,"lat":45.1695,"lon":-27.3355,"largura_km":133.485,"eixo_na_terra":true},{"t":0.21111,"lat":45.1959,"lon":-27.1662,"largura_km":133.49,"eixo_na_terra":true},{"t":0.21667,"lat":45.222,"lon":-26.9969,"largura_km":133.493,"eixo_na_terra":true},{"t":0.22222,"lat":45.2478,"lon":-26.8275,"largura_km":133.496,"eixo_na_terra":true},{"t":0.22778,"lat":45.2732,"lon":-26.6581,"largura_km":133.499,"eixo_na_terra":true},{"t":0.23333,"lat":45.2983,"lon":-26.4887,"largura_km":133.501,"eixo_na_terra":true},{"t":0.23889,"lat":45.323,"lon":-26.3191,"largura_km":133.503,"eixo_na_terra":true},{"t":0.24444,"lat":45.3474,"lon":-26.1496,"largura_km":133.504,"eixo_na_terra":true},{"t":0.25,"lat":45.3715,"lon":-25.9799,"largura_km":133.505,"eixo_na_terra":true},{"t":0.25556,"lat":45.3953,"lon":-25.8102,"largura_km":133.506,"eixo_na_terra":true},{"t":0.26111,"lat":45.4187,"lon":-25.6405,"largura_km":133.506,"eixo_na_terra":true},{"t":0.26667,"lat":45.4417,"lon":-25.4707,"largura_km":133.505,"eixo_na_terra":true},{"t":0.27222,"lat":45.4645,"lon":-25.3008,"largura_km":133.504,"eixo_na_terra":true},{"t":0.27778,"lat":45.4869,"lon":-25.1308,"largura_km":133.503,"eixo_na_terra":true},{"t":0.28333,"lat":45.5089,"lon":-24.9609,"largura_km":133.501,"eixo_na_terra":true},{"t":0.28889,"lat":45.5306,"lon":-24.7908,"largura_km":133.498,"eixo_na_terra":true},{"t":0.29444,"lat":45.552,"lon":-24.6207,"largura_km":133.496,"eixo_na_terra":true},{"t":0.3,"lat":45.5731,"lon":-24.4505,"largura_km":133.492,"eixo_na_terra":true},{"t":0.30556,"lat":45.5938,"lon":-24.2803,"largura_km":133.489,"eixo_na_terra":true},{"t":0.31111,"lat":45.6142,"lon":-24.1099,"largura_km":133.485,"eixo_na_terra":true},{"t":0.31667,"lat":45.6342,"lon":-23.9396,"largura_km":133.48,"eixo_na_terra":true},{"t":0.32222,"lat":45.6539,"lon":-23.7691,"largura_km":133.476,"eixo_na_terra":true},{"t":0.32778,"lat":45.6733,"lon":-23.5986,"largura_km":133.473,"eixo_na_terra":true},{"t":0.33333,"lat":45.6923,"lon":-23.428,"largura_km":133.469,"eixo_na_terra":true},{"t":0.33889,"lat":45.711,"lon":-23.2574,"largura_km":133.464,"eixo_na_terra":true},{"t":0.34444,"lat":45.7294,"lon":-23.0867,"largura_km":133.459,"eixo_na_terra":true},{"t":0.35,"lat":45.7474,"lon":-22.9159,"largura_km":133.454,"eixo_na_terra":true},{"t":0.35556,"lat":45.7651,"lon":-22.745,"largura_km":133.448,"eixo_na_terra":true},{"t":0.36111,"lat":45.7824,"lon":-22.5741,"largura_km":133.442,"eixo_na_terra":true},{"t":0.36667,"lat":45.7994,"lon":-22.4031,"largura_km":133.435,"eixo_na_terra":true},{"t":0.37222,"lat":45.8161,"lon":-22.232,"largura_km":133.428,"eixo_na_terra":true},{"t":0.37778,"lat":45.8325,"lon":-22.0609,"largura_km":133.421,"eixo_na_terra":true},{"t":0.38333,"lat":45.8485,"lon":-21.8896,"largura_km":133.412,"eixo_na_terra":true},{"t":0.38889,"lat":45.8641,"lon":-21.7184,"largura_km":133.404,"eixo_na_terra":true},{"t":0.39444,"lat":45.8794,"lon":-21.547,"largura_km":133.395,"eixo_na_terra":true},{"t":0.4,"lat":45.8944,"lon":-21.3755,"largura_km":133.386,"eixo_na_terra":true},{"t":0.40556,"lat":45.9091,"lon":-21.204,"largura_km":133.376,"eixo_na_terra":true},{"t":0.41111,"lat":45.9234,"lon":-21.0324,"largura_km":133.366,"eixo_na_terra":true},{"t":0.41667,"lat":45.9373,"lon":-20.8608,"largura_km":133.355,"eixo_na_terra":true},{"t":0.42222,"lat":45.951,"lon":-20.689,"largura_km":133.344,"eixo_na_terra":true},{"t":0.42778,"lat":45.9643,"lon":-20.5172,"largura_km":133.332,"eixo_na_terra":true},{"t":0.43333,"lat":45.9772,"lon":-20.3453,"largura_km":133.32,"eixo_na_terra":true},{"t":0.43889,"lat":45.9899,"lon":-20.1733,"largura_km":133.31,"eixo_na_terra":true},{"t":0.44444,"lat":46.0021,"lon":-20.0012,"largura_km":133.299,"eixo_na_terra":true},{"t":0.45,"lat":46.0141,"lon":-19.8291,"largura_km":133.287,"eixo_na_terra":true},{"t":0.45556,"lat":46.0257,"lon":-19.6569,"largura_km":133.276,"eixo_na_terra":true},{"t":0.46111,"lat":46.0369,"lon":-19.4846,"largura_km":133.263,"eixo_na_terra":true},{"t":0.46667,"lat":46.0478,"lon":-19.3122,"largura_km":133.251,"eixo_na_terra":true},{"t":0.47222,"lat":46.0584,"lon":-19.1397,"largura_km":133.237,"eixo_na_terra":true},{"t":0.47778,"lat":46.0687,"lon":-18.9672,"largura_km":133.224,"eixo_na_terra":true},{"t":0.48333,"lat":46.0786,"lon":-18.7945,"largura_km":133.21,"eixo_na_terra":true},{"t":0.48889,"lat":46.0881,"lon":-18.6218,"largura_km":133.195,"eixo_na_terra":true},{"t":0.49444,"lat":46.0973,"lon":-18.449,"largura_km":133.18,"eixo_na_terra":true},{"t":0.5,"lat":46.1062,"lon":-18.2762,"largura_km":133.165,"eixo_na_terra":true},{"t":0.50556,"lat":46.1148,"lon":-18.1032,"largura_km":133.149,"eixo_na_terra":true},{"t":0.51111,"lat":46.123,"lon":-17.9301,"largura_km":133.133,"eixo_na_terra":true},{"t":0.51667,"lat":46.1308,"lon":-17.757,"largura_km":133.116,"eixo_na_terra":true},{"t":0.52222,"lat":46.1383,"lon":-17.5838,"largura_km":133.099,"eixo_na_terra":true},{"t":0.52778,"lat":46.1455,"lon":-17.4105,"largura_km":133.082,"eixo_na_terra":true},{"t":0.53333,"lat":46.1523,"lon":-17.2371,"largura_km":133.064,"eixo_na_terra":true},{"t":0.53889,"lat":46.1588,"lon":-17.0636,"largura_km":133.045,"eixo_na_terra":true},{"t":0.54444,"lat":46.1649,"lon":-16.89,"largura_km":133.026,"eixo_na_terra":true},{"t":0.55,"lat":46.1707,"lon":-16.7164,"largura_km":133.008,"eixo_na_terra":true},{"t":0.55556,"lat":46.1762,"lon":-16.5426,"largura_km":132.99,"eixo_na_terra":true},{"t":0.56111,"lat":46.1813,"lon":-16.3688,"largura_km":132.971,"eixo_na_terra":true},{"t":0.56667,"lat":46.1861,"lon":-16.1949,"largura_km":132.953,"eixo_na_terra":true},{"t":0.57222,"lat":46.1905,"lon":-16.0209,"largura_km":132.934,"eixo_na_terra":true},{"t":0.57778,"lat":46.1946,"lon":-15.8468,"largura_km":132.914,"eixo_na_terra":true},{"t":0.58333,"lat":46.1983,"lon":-15.6726,"largura_km":132.894,"eixo_na_terra":true},{"t":0.58889,"lat":46.2017,"lon":-15.4983,"largura_km":132.873,"eixo_na_terra":true},{"t":0.59444,"lat":46.2047,"lon":-15.3239,"largura_km":132.852,"eixo_na_terra":true},{"t":0.6,"lat":46.2074,"lon":-15.1495,"largura_km":132.831,"eixo_na_terra":true},{"t":0.60556,"lat":46.2097,"lon":-14.9749,"largura_km":132.809,"eixo_na_terra":true},{"t":0.61111,"lat":46.2117,"lon":-14.8003,"largura_km":132.786,"eixo_na_terra":true},{"t":0.61667,"lat":46.2134,"lon":-14.6255,"largura_km":132.764,"eixo_na_terra":true},{"t":0.62222,"lat":46.2147,"lon":-14.4507,"largura_km":132.74,"eixo_na_terra":true},{"t":0.62778,"lat":46.2157,"lon":-14.2758,"largura_km":132.717,"eixo_na_terra":true},{"t":0.63333,"lat":46.2163,"lon":-14.1008,"largura_km":132.692,"eixo_na_terra":true},{"t":0.63889,"lat":46.2165,"lon":-13.9256,"largura_km":132.668,"eixo_na_terra":true},{"t":0.64444,"lat":46.2164,"lon":-13.7504,"largura_km":132.643,"eixo_na_terra":true},{"t":0.65,"lat":46.216,"lon":-13.5751,"largura_km":132.617,"eixo_na_terra":true},{"t":0.65556,"lat":46.2152,"lon":-13.3997,"largura_km":132.591,"eixo_na_terra":true},{"t":0.66111,"lat":46.2141,"lon":-13.2242,"largura_km":132.565,"eixo_na_terra":true},{"t":0.66667,"lat":46.2126,"lon":-13.0486,"largura_km":132.54,"eixo_na_terra":true},{"t":0.67222,"lat":46.2107,"lon":-12.8729,"largura_km":132.515,"eixo_na_terra":true},{"t":0.67778,"lat":46.2086,"lon":-12.6971,"largura_km":132.489,"eixo_na_terra":true},{"t":0.68333,"lat":46.206,"lon":-12.5213,"largura_km":132.462,"eixo_na_terra":true},{"t":0.68889,"lat":46.2031,"lon":-12.3453,"largura_km":132.436,"eixo_na_terra":true},{"t":0.69444,"lat":46.1999,"lon":-12.1692,"largura_km":132.408,"eixo_na_terra":true},{"t":0.7,"lat":46.1963,"lon":-11.993,"largura_km":132.38,"eixo_na_terra":true},{"t":0.70556,"lat":46.1923,"lon":-11.8167,"largura_km":132.352,"eixo_na_terra":true},{"t":0.71111,"lat":46.188,"lon":-11.6403,"largura_km":132.324,"eixo_na_terra":true},{"t":0.71667,"lat":46.1833,"lon":-11.4638,"largura_km":132.294,"eixo_na_terra":true},{"t":0.72222,"lat":46.1783,"lon":-11.2872,"largura_km":132.265,"eixo_na_terra":true},{"t":0.72778,"lat":46.1729,"lon":-11.1105,"largura_km":132.235,"eixo_na_terra":true},{"t":0.73333,"lat":46.1672,"lon":-10.9337,"largura_km":132.204,"eixo_na_terra":true},{"t":0.73889,"lat":46.1611,"lon":-10.7568,"largura_km":132.173,"eixo_na_terra":true},{"t":0.74444,"lat":46.1547,"lon":-10.5798,"largura_km":132.141,"eixo_na_terra":true},{"t":0.75,"lat":46.1479,"lon":-10.4027,"largura_km":132.109,"eixo_na_terra":true},{"t":0.75556,"lat":46.1407,"lon":-10.2255,"largura_km":132.077,"eixo_na_terra":true},{"t":0.76111,"lat":46.1332,"lon":-10.0482,"largura_km":132.044,"eixo_na_terra":true},{"t":0.76667,"lat":46.1253,"lon":-9.8708,"largura_km":132.01,"eixo_na_terra":true},{"t":0.77222,"lat":46.1171,"lon":-9.6932,"largura_km":131.977,"eixo_na_terra":true},{"t":0.77778,"lat":46.1085,"lon":-9.5156,"largura_km":131.944,"eixo_na_terra":true},{"t":0.78333,"lat":46.0995,"lon":-9.3378,"largura_km":131.911,"eixo_na_terra":true},{"t":0.78889,"lat":46.0902,"lon":-9.16,"largura_km":131.877,"eixo_na_terra":true},{"t":0.79444,"lat":46.0805,"lon":-8.982,"largura_km":131.843,"eixo_na_terra":true},{"t":0.8,"lat":46.0705,"lon":-8.8039,"largura_km":131.809,"eixo_na_terra":true},{"t":0.80556,"lat":46.0601,"lon":-8.6257,"largura_km":131.774,"eixo_na_terra":true},{"t":0.81111,"lat":46.0493,"lon":-8.4474,"largura_km":131.738,"eixo_na_terra":true},{"t":0.81667,"lat":46.0382,"lon":-8.269,"largura_km":131.702,"eixo_na_terra":true},{"t":0.82222,"lat":46.0267,"lon":-8.0905,"largura_km":131.666,"eixo_na_terra":true},{"t":0.82778,"lat":46.0148,"lon":-7.9118,"largura_km":131.629,"eixo_na_terra":true},{"t":0.83333,"lat":46.0026,"lon":-7.7331,"largura_km":131.592,"eixo_na_terra":true},{"t":0.83889,"lat":45.99,"lon":-7.5542,"largura_km":131.554,"eixo_na_terra":true},{"t":0.84444,"lat":45.977,"lon":-7.3752,"largura_km":131.515,"eixo_na_terra":true},{"t":0.85,"lat":45.9637,"lon":-7.1961,"largura_km":131.476,"eixo_na_terra":true},{"t":0.85556,"lat":45.95,"lon":-7.0169,"largura_km":131.437,"eixo_na_terra":true},{"t":0.86111,"lat":45.9359,"lon":-6.8375,"largura_km":131.397,"eixo_na_terra":true},{"t":0.86667,"lat":45.9215,"lon":-6.6581,"largura_km":131.356,"eixo_na_terra":true},{"t":0.87222,"lat":45.9067,"lon":-6.4785,"largura_km":131.315,"eixo_na_terra":true},{"t":0.87778,"lat":45.8915,"lon":-6.2988,"largura_km":131.274,"eixo_na_terra":true},{"t":0.88333,"lat":45.8759,"lon":-6.1189,"largura_km":131.232,"eixo_na_terra":true},{"t":0.88889,"lat":45.86,"lon":-5.939,"largura_km":131.19,"eixo_na_terra":true},{"t":0.89444,"lat":45.8437,"lon":-5.7589,"largura_km":131.149,"eixo_na_terra":true},{"t":0.9,"lat":45.827,"lon":-5.5787,"largura_km":131.107,"eixo_na_terra":true},{"t":0.90556,"lat":45.81,"lon":-5.3984,"largura_km":131.065,"eixo_na_terra":true},{"t":0.91111,"lat":45.7926,"lon":-5.2179,"largura_km":131.022,"eixo_na_terra":true},{"t":0.91667,"lat":45.7748,"lon":-5.0373,"largura_km":130.979,"eixo_na_terra":true},{"t":0.92222,"lat":45.7566,"lon":-4.8566,"largura_km":130.935,"eixo_na_terra":true},{"t":0.92778,"lat":45.738,"lon":-4.6757,"largura_km":130.891,"eixo_na_terra":true},{"t":0.93333,"lat":45.7191,"lon":-4.4947,"largura_km":130.846,"eixo_na_terra":true},{"t":0.93889,"lat":45.6998,"lon":-4.3136,"largura_km":130.8,"eixo_na_terra":true},{"t":0.94444,"lat":45.6801,"lon":-4.1324,"largura_km":130.754,"eixo_na_terra":true},{"t":0.95,"lat":45.66,"lon":-3.951,"largura_km":130.708,"eixo_na_terra":true},{"t":0.95556,"lat":45.6396,"lon":-3.7695,"largura_km":130.661,"eixo_na_terra":true},{"t":0.96111,"lat":45.6187,"lon":-3.5878,"largura_km":130.613,"eixo_na_terra":true},{"t":0.96667,"lat":45.5975,"lon":-3.406,"largura_km":130.565,"eixo_na_terra":true},{"t":0.97222,"lat":45.5759,"lon":-3.224,"largura_km":130.516,"eixo_na_terra":true},{"t":0.97778,"lat":45.5539,"lon":-3.042,"largura_km":130.467,"eixo_na_terra":true},{"t":0.98333,"lat":45.5315,"lon":-2.8597,"largura_km":130.417,"eixo_na_terra":true},{"t":0.98889,"lat":45.5087,"lon":-2.6773,"largura_km":130.366,"eixo_na_terra":true},{"t":0.99444,"lat":45.4856,"lon":-2.4948,"largura_km":130.315,"eixo_na_terra":true},{"t":1.0,"lat":45.462,"lon":-2.3121,"largura_km":130.264,"eixo_na_terra":true},{"t":1.00556,"lat":45.4381,"lon":-2.1293,"largura_km":130.213,"eixo_na_terra":true},{"t":1.01111,"lat":45.4137,"lon":-1.9463,"largura_km":130.161,"eixo_na_terra":true},{"t":1.01667,"lat":45.389,"lon":-1.7632,"largura_km":130.11,"eixo_na_terra":true},{"t":1.02222,"lat":45.3639,"lon":-1.5799,"largura_km":130.057,"eixo_na_terra":true},{"t":1.02778,"lat":45.3384,"lon":-1.3965,"largura_km":130.005,"eixo_na_terra":true},{"t":1.03333,"lat":45.3125,"lon":-1.2129,"largura_km":129.952,"eixo_na_terra":true},{"t":1.03889,"lat":45.2862,"lon":-1.0291,"largura_km":129.898,"eixo_na_terra":true},{"t":1.04444,"lat":45.2595,"lon":-0.8452,"largura_km":129.843,"eixo_na_terra":true},{"t":1.05,"lat":45.2324,"lon":-0.6611,"largura_km":129.788,"eixo_na_terra":true},{"t":1.05556,"lat":45.2049,"lon":-0.4769,"largura_km":129.732,"eixo_na_terra":true},{"t":1.06111,"lat":45.177,"lon":-0.2924,"largura_km":129.676,"eixo_na_terra":true},{"t":1.06667,"lat":45.1486,"lon":-0.1079,"largura_km":129.619,"eixo_na_terra":true},{"t":1.07222,"lat":45.1199,"lon":0.0769,"largura_km":129.562,"eixo_na_terra":true},{"t":1.07778,"lat":45.0908,"lon":0.2618,"largura_km":129.503,"eixo_na_terra":true},{"t":1.08333,"lat":45.0613,"lon":0.4469,"largura_km":129.445,"eixo_na_terra":true},{"t":1.08889,"lat":45.0314,"lon":0.6322,"largura_km":129.385,"eixo_na_terra":true},{"t":1.09444,"lat":45.001,"lon":0.8177,"largura_km":129.325,"eixo_na_terra":true},{"t":1.1,"lat":44.9703,"lon":1.0033,"largura_km":129.264,"eixo_na_terra":true},{"t":1.10556,"lat":44.9391,"lon":1.1892,"largura_km":129.203,"eixo_na_terra":true},{"t":1.11111,"lat":44.9076,"lon":1.3752,"largura_km":129.141,"eixo_na_terra":true},{"t":1.11667,"lat":44.8756,"lon":1.5614,"largura_km":129.078,"eixo_na_terra":true},{"t":1.12222,"lat":44.8432,"lon":1.7478,"largura_km":129.016,"eixo_na_terra":true},{"t":1.12778,"lat":44.8104,"lon":1.9344,"largura_km":128.953,"eixo_na_terra":true},{"t":1.13333,"lat":44.7771,"lon":2.1212,"largura_km":128.889,"eixo_na_terra":true},{"t":1.13889,"lat":44.7435,"lon":2.3082,"largura_km":128.826,"eixo_na_terra":true},{"t":1.14444,"lat":44.7094,"lon":2.4953,"largura_km":128.762,"eixo_na_terra":true},{"t":1.15,"lat":44.6749,"lon":2.6827,"largura_km":128.697,"eixo_na_terra":true},{"t":1.15556,"lat":44.64,"lon":2.8703,"largura_km":128.631,"eixo_na_terra":true},{"t":1.16111,"lat":44.6046,"lon":3.0581,"largura_km":128.565,"eixo_na_terra":true},{"t":1.16667,"lat":44.5689,"lon":3.2462,"largura_km":128.498,"eixo_na_terra":true},{"t":1.17222,"lat":44.5327,"lon":3.4344,"largura_km":128.43,"eixo_na_terra":true},{"t":1.17778,"lat":44.496,"lon":3.6229,"largura_km":128.361,"eixo_na_terra":true},{"t":1.18333,"lat":44.459,"lon":3.8115,"largura_km":128.292,"eixo_na_terra":true},{"t":1.18889,"lat":44.4215,"lon":4.0004,"largura_km":128.222,"eixo_na_terra":true},{"t":1.19444,"lat":44.3835,"lon":4.1896,"largura_km":128.152,"eixo_na_terra":true},{"t":1.2,"lat":44.3452,"lon":4.3789,"largura_km":128.08,"eixo_na_terra":true},{"t":1.20556,"lat":44.3063,"lon":4.5685,"largura_km":128.008,"eixo_na_terra":true},{"t":1.21111,"lat":44.2671,"lon":4.7583,"largura_km":127.936,"eixo_na_terra":true},{"t":1.21667,"lat":44.2274,"lon":4.9484,"largura_km":127.862,"eixo_na_terra":true}]},"features":[{"type":"Feature","properties":{},"geometry":{"type":"Polygon","coordinates":[[[-40.08149293670556,42.81980541337732],[-39.383322947462716,43.033577143539674],[-38.69876183838642,43.237434646329056],[-38.01510386775311,43.435307247164374],[-37.332169405302096,43.627253896547124],[-36.6497904327058,43.813328315519165],[-35.96780981298832,43.993579353878985],[-35.27320466559115,44.171298590811816],[-34.59155278061553,44.33996525123435],[-33.90988603082431,44.50292879276689],[-33.22808471159408,44.66022155927919],[-32.546037131145454,44.811872405802674],[-32.20488816761434,44.88559022469456],[-31.692973393335535,44.99354068386675],[-30.996794008719206,45.13524323812107],[-30.313226554816936,45.26865013780858],[-29.629017351724883,45.39650316160107],[-28.944089976807987,45.518815935763186],[-28.25837356660034,45.63559967286125],[-27.558337345443306,45.74899753026532],[-27.042786396621153,45.82877373497126],[-26.698787868337433,45.88023593201562],[-26.010045736258462,45.979029668116134],[-25.32026836311593,46.07231751480148],[-24.629409016473772,46.16009983545972],[-23.923735009649192,46.24395413037475],[-23.23055774893814,46.32064657053859],[-22.536179785199636,46.39182384763403],[-21.84056745664003,46.45747956941474],[-21.143689668653792,46.51760579337663],[-20.445517619764047,46.572193067322935],[-19.73214686917362,46.62218543675522],[-19.03128680956374,46.66558578773934],[-18.32905784998343,46.70340981002435],[-17.62543760928469,46.73564227934093],[-16.92040459335354,46.7622665616712],[-16.199957754953516,46.78365998709305],[-15.492023487546163,46.798936284202696],[-14.782615187685309,46.80854575772571],[-14.07171192830964,46.812466052111525],[-13.359292139152018,46.81067332385319],[-12.631311360051996,46.80297278353332],[-11.915784120927754,46.789599407020035],[-11.198669286786753,46.77043192107931],[-10.479939312542342,46.745440051927275],[-9.759564257314679,46.7145917537571],[-9.023508582488319,46.677117100488104],[-8.299744047412418,46.63437489362894],[-7.574226988311921,46.585668400620825],[-6.846913811116053,46.53095750827572],[-6.117756416918837,46.47019978249292],[-5.372775547015294,46.40204908257817],[-4.639773485586687,46.328982803488145],[-3.9047513810128294,46.24972671321844],[-3.1676379762319584,46.16422741938159],[-2.428354819030176,46.07242828601236],[-1.6730165370314012,45.97240682664774],[-0.929139740928548,45.86774636701996],[-0.36962720765330914,45.784994531506406],[0.3786199333684408,45.66892587184639],[1.1295288204631788,45.54623554496426],[1.88323326271248,45.416842660986504],[2.464058693134575,45.312891362985056],[3.223000521158241,45.17147994135169],[3.9851743952294214,45.023113566404355],[4.750767047745114,44.86768823120552],[5.327327029448696,44.746419998644775],[4.579576909334008,43.70649482484458],[4.017014515531088,43.82081286618791],[3.270298730676245,43.9672318020286],[2.527242839370899,44.10688671236499],[1.7876562543411296,44.23987887997915],[1.064831784001484,44.3640126804645],[0.33168178339175824,44.48403181317358],[-0.2162156395912973,44.569844081639765],[-0.9442370955324293,44.678720694889755],[-1.488442775729851,44.756264009581656],[-2.2117333765793035,44.85422604567795],[-2.9188687149593875,44.94433087580927],[-3.637163473178532,45.0301424568786],[-4.353112712366624,45.10993207324825],[-5.066804905785034,45.18375545790599],[-5.778321730804805,45.25166516049149],[-6.474028853293987,45.31254147807233],[-7.181410945163776,45.3688438232258],[-7.886827851444139,45.41937285693047],[-8.59033945312649,45.46417029670654],[-9.292001358622713,45.50327553826545],[-9.978100880058207,45.53610366064429],[-10.676216347897395,45.5640078322637],[-11.372628084769048,45.586325101669445],[-12.067378715443311,45.6030867284455],[-12.760508544495622,45.61432216618402],[-13.438287488611394,45.619984685759505],[-14.12829658254995,45.620322483334824],[-14.81679591072023,45.61521210111829],[-15.503819824684655,45.604676399757246],[-16.18940196245495,45.58873670571663],[-16.85985622151972,45.56788379268448],[-17.542668395461106,45.54126646648512],[-18.224138953383004,45.50929997801926],[-18.90430153058162,45.471999753654664],[-19.583190448750713,45.429379768153716],[-20.416451584717777,45.369671776472515],[-21.092625956383273,45.31519695410791],[-21.76764663676917,45.255437442255094],[-22.44155375531153,45.19040093296882],[-23.114389488270916,45.120093576869266],[-23.772737562170875,45.0460807468977],[-24.443592107765397,44.96531335410301],[-25.11351693960006,44.87928366849673],[-25.782564950174617,44.787991243812876],[-26.450792374494057,44.69143383982466],[-27.271755980646986,44.565425791218956],[-27.938391394956568,44.45707196129023],[-28.60441538674408,44.343432325726084],[-29.26990143654504,44.22449613334225],[-29.93492786901973,44.1002503710428],[-30.599578171833656,43.970679646108614],[-31.417010281346165,43.803890039417496],[-32.08117984974146,43.66233432422151],[-32.74528399516504,43.51538537807699],[-33.40943201396664,43.36301613790352],[-34.07374033228089,43.2051963491591],[-34.89181582307339,43.00340266124259],[-35.5569811522752,42.833254536737606],[-36.22273919173591,42.657532859693156],[-36.889242044495404,42.476191377201594],[-37.556651734534995,42.28917937188901],[-38.22514088614136,42.09644134401301],[-38.8824592117748,41.9016541329412],[-39.553697228338876,41.697339275119255],[-40.424780159142585,42.712529311665705],[-40.08149293670556,42.81980541337732]]]}}]}