{"type":"FeatureCollection","features":[{"type":"Feature","properties":{"t_inicio":-0.21111111111112457,"t_fim":1.2166666666666481},"geometry":{"type":"LineString","coordinates":[[-39.98430549224008,42.206106654952805],[-39.814496801364925,42.258822897413275],[-39.64478108883543,42.311162816288096],[-39.47515503740118,42.36312756328228],[-39.30561538399047,42.41471826534975],[-39.13615891874633,42.46593602515809],[-38.96678248408625,42.516781921541764],[-38.79748297378438,42.567257009944406],[-38.62825733207623,42.61736232285045],[-38.459102552784316,42.667098870206424],[-38.290015678464755,42.716467639832075],[-38.12099379957377,42.765469597821756],[-37.95203405365373,42.814105688936436],[-37.78313362453784,42.86237683698632],[-37.614289741573145,42.91028394520465],[-37.44549967886121,42.95782789661277],[-37.27676075451578,43.0050095543767],[-37.108070329937135,43.051829762155464],[-36.939425809102374,43.09828934444163],[-36.770824637871385,43.14438910689385],[-36.60226430330786,43.190129836661804],[-36.43374233301489,43.235512302704166],[-36.2652562944846,43.28053725609903],[-36.09680379446195,43.32520543034746],[-35.92838247832134,43.36951754167046],[-35.75999002945633,43.41347428929915],[-35.59162416868202,43.45707635575859],[-35.42328265364935,43.500324407145335],[-35.254963278271106,43.543219093398974],[-35.086663872159704,43.585761048567605],[-34.91838230007539,43.62795089106767],[-34.750116461385915,43.669789223938054],[-34.58186428953593,43.71127663508872],[-34.41362375152676,43.752413697544036],[-34.24539284740601,43.79320096968079],[-34.077169609766486,43.83363899546124],[-33.908952103254194,43.87372830466103],[-33.74073842408552,43.91346941309245],[-33.57252669957285,43.95286282282278],[-33.40431508765843,43.991909022388135],[-33.23610177645668,44.030608487002766],[-33.06788498380391,44.068961678764005],[-32.89966295681606,44.10696904685281],[-32.731433971453384,44.14463102773017],[-32.563196332092815,44.181948045329406],[-32.394948371106636,44.21892051124447],[-32.22668844844827,44.25554882491431],[-32.0584149512446,44.29183337380338],[-31.890126293394076,44.327774533578385],[-31.721820915171605,44.36337266828151],[-31.553497282838748,44.39862813049972],[-31.385153888259993,44.43354126153106],[-31.21678924852432,44.468112391546896],[-31.04840190557232,44.5023418397514],[-30.879990425828282,44.536229914537316],[-30.711553399837385,44.569776913638584],[-30.543089441907824,44.602983124279994],[-30.374597189757395,44.63584882332349],[-30.206075304164727,44.66837427741157],[-30.037522468624985,44.70055974310765],[-29.868937389009574,44.73240546703361],[-29.70031879323011,44.76391168600425],[-29.53166543090626,44.795078627159214],[-29.362976073037288,44.825906508091954],[-29.194249511677526,44.856395536975974],[-29.02548455961508,44.88654591268862],[-28.856680050054166,44.91635782493195],[-28.687834836300595,44.945831454351335],[-28.518947791450614,44.97496697265129],[-28.350017808082498,45.00376454270894],[-28.181043797951418,45.03222431868514],[-28.012024691686804,45.06034644613287],[-27.842959438492755,45.08813106210367],[-27.67384700585066,45.11557829525147],[-27.50468637922475,45.1426882659342],[-27.335476561769752,45.16946108631316],[-27.166216574040845,45.19589686045023],[-26.996905453706034,45.221995684402756],[-26.827542255260425,45.247757646316316],[-26.658126049742577,45.273182826515495],[-26.48865592445287,45.298271297592336],[-26.319130982673528,45.323023124492934],[-26.149550343390473,45.3474383646018],[-25.979913141016965,45.37151706782431],[-25.810218525118557,45.3952592766672],[-25.640465660139796,45.41866502631694],[-25.47065372513231,45.44173434471633],[-25.30078191348386,45.46446725263905],[-25.1308494326494,45.48686376376233],[-24.960855503882442,45.508923884737804],[-24.79079936196831,45.530647615260456],[-24.620680254957904,45.55203494813564],[-24.45049744390272,45.57308586934442],[-24.280250202590622,45.59380035810703],[-24.10993781728257,45.61417838694446],[-23.93955958645003,45.63421992173845],[-23.769114820513067,45.65392492178955],[-23.598602841579208,45.673293339873474],[-23.428022983182643,45.69232512229576],[-23.257374590024284,45.71102020894476],[-23.0866570177119,45.72937853334267],[-22.915869632500915,45.74740002269515],[-22.74501181103537,45.765084597939165],[-22.57408294008934,45.78243217378899],[-22.403082416308365,45.79944265878077],[-22.232009645951166,45.81611595531523],[-22.0608640446315,45.83245195969891],[-21.889645037059864,45.84845056218356],[-21.718352056785562,45.86411164700407],[-21.546984545938244,45.879435092414646],[-21.375541954969776,45.89442077072337],[-21.20402374239569,45.9090685483252],[-21.03242937453652,45.9233782857333],[-20.860758325258843,45.93734983760877],[-20.689010075716,45.95098305278871],[-20.517184114088565,45.96427777431277],[-20.345279935324186,45.977233839448026],[-20.17329704087726,45.98985107971219],[-20.001234938447823,46.002129320895435],[-19.82909314172008,46.01406838308023],[-19.65687117010023,46.02566808066007],[-19.48456854845375,46.03692822235601],[-19.312184806841827,46.04784861123221],[-19.139719480257213,46.05842904470935],[-18.967172108359193,46.06866931457669],[-18.79454223520773,46.07856920700248],[-18.621829408996888,46.088128502542766],[-18.44903318178703,46.097346976148415],[-18.27615310923636,46.10622439717076],[-18.103188750331157,46.11476052936536],[-17.930139667115327,46.12295513089435],[-17.757005424418452,46.1308079543269],[-17.58378558958296,46.138318746638255],[-17.41047973218997,46.145487249206916],[-17.237087423784004,46.152313197810315],[-17.063608237596213,46.158796322618656],[-16.89004174826667,46.164936348187204],[-16.716387531564692,46.17073299344676],[-16.542645164108364,46.1761859716925],[-16.368814223082126,46.181294990571075],[-16.19489428595307,46.186059752066015],[-16.02088493018573,46.19047995248127],[-15.846785732954942,46.19455528242313],[-15.672596270857497,46.19828542678031],[-15.49831611962162,46.20167006470224],[-15.323944853815135,46.2047088695756],[-15.14948204655147,46.20740150899901],[-14.974927269194012,46.209747644755915],[-14.800280091058482,46.21174693278554],[-14.625540079113307,46.21339902315213],[-14.45070679767818,46.214703560012154],[-14.275779808120234,46.215660181579715],[-14.100758668548451,46.216268520090026],[-13.925642933505571,46.216528201760816],[-13.750432153658153,46.21643884675203],[-13.575125875483877,46.216000069123304],[-13.39972364095695,46.21521147678955],[-13.224224987230883,46.2140726714745],[-13.048629446318813,46.21258324866218],[-12.872936544771477,46.21074279754636],[-12.697145803352242,46.208550900977805],[-12.521256736710058,46.20600713540954],[-12.345268853049078,46.203111070839775],[-12.16918165379596,46.199862270752845],[-11.992994633264146,46.19626029205777],[-11.81670727831525,46.1923046850247],[-11.640319068017476,46.18799499321902],[-11.463829473300962,46.18333075343317],[-11.287237956610056,46.178311495616086],[-11.11054397155229,46.17293674280041],[-10.933746962544234,46.167206011027034],[-10.756846364453793,46.161118809267535],[-10.579841602239242,46.15467463934388],[-10.402732090584664,46.147872995845646],[-10.225517233531747,46.14071336604487],[-10.048196424107914,46.13319522980803],[-9.870769043950759,46.125318059505645],[-9.693234462928359,46.117081319918945],[-9.515592038755983,46.10848446814404],[-9.337841116608388,46.099526953493296],[-9.159981028728055,46.09020821739364],[-8.982011094029303,46.080527693282306],[-8.803930617697773,46.07048480649957],[-8.62573889078567,46.060078974178424],[-8.44743518980215,46.0493096051313],[-8.26901877629922,46.03817609973376],[-8.090488896452655,46.02667784980502],[-7.9118447806380345,46.01481423848521],[-7.733085643001715,46.0025846401096],[-7.55421068102649,45.98998842007922],[-7.375219075091962,45.97702493472835],[-7.196109988029491,45.9636935311885],[-7.0168825646714765,45.949993547248816],[-6.83753593139474,45.93592431121298],[-6.658069195658328,45.92148514175259],[-6.478481445534783,45.90667534775645],[-6.298771749235641,45.89149422817645],[-6.118939154630169,45.87594107186952],[-5.93898268875779,45.86001515743529],[-5.758901357333599,45.84371575305022],[-5.578694144247066,45.82704211629715],[-5.398360011053569,45.80999349399103],[-5.217897896458652,45.792569121999996],[-5.03730671579487,45.77476822506236],[-4.856585360490669,45.756590016598906],[-4.675732697531856,45.73803369852067],[-4.494747568914278,45.71909846103201],[-4.313628791088746,45.69978348242896],[-4.132375154397124,45.68008792889253],[-3.9509854224994,45.660010954277055],[-3.7694583317922365,45.639551699893445],[-3.5877925908175428,45.61870929428715],[-3.4059868796619526,45.597482853010725],[-3.2240398493462408,45.57587147839085],[-3.0419501212046782,45.55387425928984],[-2.8597162862537573,45.53149027086119],[-2.6773369045505433,45.50871857429937],[-2.494810504539629,45.4855582165834],[-2.3121355823889473,45.46200823021437],[-2.1293106013138754,45.43806763294641],[-1.9463339908891726,45.413735427511305],[-1.763204146348727,45.38901060133626],[-1.5799194278722553,45.36389212625482],[-1.3964781598592992,45.3383789582109],[-1.2128786301892944,45.312470036955276],[-1.0291190894677982,45.28616428573496],[-0.8451977502586203,45.259460610974756],[-0.661112786300805,45.23235790195107],[-0.47686233171063463,45.20485503045766],[-0.2924444801678021,45.176950850463136],[-0.10785728408541218,45.14864419776],[0.07690124623655947,45.119933889605015],[0.2618331434753145,45.09081872435045],[0.44694048416670284,45.06129748106632],[0.6322253896050825,45.03136891915305],[0.8176900267622784,45.001031777944526],[1.0033366092255847,44.970284776300964],[1.189167398156286,44.939126612191565],[1.3751847032684452,44.907555962266706],[1.561390883829631,44.875571481419016],[1.7477883496831907,44.84317180233334],[1.9343795622937137,44.81035553502511],[2.121167035815688,44.77712126636699],[2.3081533381868553,44.74346755960284],[2.4953410922463206,44.709392953849616],[2.6827329768787536,44.674895963585726],[2.8703317281854765,44.63997507812636],[3.0581401406828945,44.604628761084854],[3.246161068530057,44.5688554498197],[3.4343974267853525,44.53265355486695],[3.6228521926939834,44.49602145935756],[3.8115284070070743,44.45895751841882],[4.000429175333494,44.42146005855991],[4.189557669525385,44.38352737704055],[4.37891712909888,44.34515774122256],[4.568510862690914,44.306349387903666],[4.758342249553607,44.2671005226329],[4.94841474108739,44.227409319006895]]}}]}