{"type":"FeatureCollection","features":[{"type":"Feature","properties":{"magnitude":0.8,"percentagem":80.0,"territorio":"continente"},"geometry":{"type":"LineString","coordinates":[[-10.5,39.127108933412934],[-10.46,39.12518503297288],[-10.420000000000002,39.12323920161479],[-10.380000000000004,39.12127144314971],[-10.354438555961664,39.11999999999993],[-10.340000000000003,39.11928190240063],[-10.300000000000004,39.11727069598873],[-10.260000000000005,39.11523757805738],[-10.220000000000006,39.11318255242057],[-10.180000000000007,39.11110562289434],[-10.140000000000008,39.109006793297006],[-10.100000000000009,39.10688606744904],[-10.06000000000001,39.10474344917326],[-10.02000000000001,39.10257894229485],[-9.980000000000011,39.10039255064141],[-9.940000000000012,39.098184278043036],[-9.900000000000013,39.09595412833239],[-9.860000000000014,39.09370210534476],[-9.820000000000014,39.091428212918096],[-9.780000000000015,39.089132454893154],[-9.740000000000016,39.08681483511346],[-9.700000000000017,39.08447535742542],[-9.660000000000018,39.082114025678436],[-9.624517235704637,39.079999999999934],[-9.620000000000019,39.07973089622153],[-9.58000000000002,39.07732633688043],[-9.54000000000002,39.07489993909399],[-9.500000000000021,39.072451706718695],[-9.460000000000022,39.06998164361432],[-9.420000000000023,39.06748975364397],[-9.380000000000024,39.06497604067419],[-9.340000000000025,39.062440508575],[-9.300000000000026,39.059883161220014],[-9.260000000000026,39.057304002486404],[-9.220000000000027,39.054703036255106],[-9.180000000000028,39.05208026641079],[-9.140000000000029,39.04943569684197],[-9.10000000000003,39.046769331441055],[-9.06000000000003,39.0440811741045],[-9.02000000000003,39.041371228732714],[-8.999920449251867,39.039999999999935],[-8.980000000000032,39.038639762860306],[-8.940000000000033,39.03588678650142],[-8.900000000000034,39.03311203779057],[-8.860000000000035,39.03031552063967],[-8.820000000000036,39.02749723896504],[-8.780000000000037,39.02465719668752],[-8.740000000000038,39.0217953977325],[-8.700000000000038,39.01891184603001],[-8.66000000000004,39.0160065455148],[-8.62000000000004,39.01307950012641],[-8.580000000000041,39.01013071380926],[-8.540000000000042,39.0071601905127],[-8.500000000000043,39.00416793419106],[-8.460000000000043,39.00115394880383],[-8.444793969585747,38.999999999999936],[-8.420000000000044,38.99811860066267],[-8.380000000000045,38.99506175752937],[-8.340000000000046,38.99198320111527],[-8.300000000000047,38.988882935395466],[-8.260000000000048,38.98576096435052],[-8.220000000000049,38.98261729196659],[-8.18000000000005,38.979451922235455],[-8.14000000000005,38.97626485915461],[-8.100000000000051,38.973056106727356],[-8.060000000000052,38.969825668962834],[-8.020000000000053,38.96657354987616],[-7.980000000000054,38.963299753488464],[-7.9400000000000555,38.96000428382698],[-7.9399483369768165,38.95999999999994],[-7.900000000000055,38.95668777888057],[-7.860000000000056,38.95334961335728],[-7.820000000000057,38.94998979047777],[-7.780000000000058,38.94660831428912],[-7.740000000000059,38.9432051888449],[-7.70000000000006,38.9397804182053],[-7.6600000000000605,38.93633400643719],[-7.6200000000000605,38.932865957614176],[-7.580000000000062,38.92937627581672],[-7.540000000000064,38.92586496513218],[-7.500000000000064,38.92233202965491],[-7.473756152562909,38.91999999999994],[-7.460000000000065,38.91877770607594],[-7.420000000000066,38.915202213450925],[-7.3800000000000665,38.911605112092005],[-7.340000000000067,38.907986406117175],[-7.300000000000068,38.90434609965176],[-7.260000000000069,38.90068419682863],[-7.22000000000007,38.89700070178821],[-7.180000000000071,38.8932956186786],[-7.140000000000072,38.88956895165566],[-7.1000000000000725,38.88582070488304],[-7.060000000000073,38.882050882532326],[-7.038361436815038,38.87999999999994],[-7.020000000000074,38.87825981797427],[-6.980000000000075,38.874447577881504],[-6.940000000000076,38.870613778442376],[-6.900000000000077,38.86675842385592],[-6.860000000000078,38.86288151832951],[-6.820000000000078,38.85898306607898],[-6.78000000000008,38.85506307132864],[-6.74000000000008,38.85112153831137],[-6.700000000000081,38.84715847126878],[-6.660000000000082,38.84317387445114],[-6.62830884252078,38.83999999999994],[-6.620000000000083,38.839167908634096],[-6.580000000000084,38.835141022249324],[-6.540000000000084,38.83109262250501],[-6.500000000000085,38.82702271368261],[-6.460000000000086,38.82293130007279],[-6.420000000000087,38.818818385975426],[-6.380000000000088,38.81468397569983],[-6.340000000000089,38.8105280735647],[-6.3000000000000895,38.80635068389827],[-6.26000000000009,38.80215181103837],[-6.239603931693763,38.79999999999994],[-6.220000000000091,38.79793184613622],[-6.180000000000092,38.79369081279612],[-6.140000000000093,38.78942831289031],[-6.100000000000094,38.78514435079149],[-6.060000000000095,38.780838930882446],[-6.0200000000000955,38.776512057556076],[-5.980000000000096,38.77216373521545],[-5.940000000000097,38.767793968274006],[-5.900000000000098,38.7634027611555],[-5.869153372683014,38.75999999999994],[-5.860000000000099,38.75899030610989],[-5.8200000000001,38.754557056298566],[-5.780000000000101,38.75010238315177],[-5.7400000000001015,38.74562629113162],[-5.700000000000102,38.74112878471104],[-5.660000000000103,38.73660986837383],[-5.620000000000104,38.732069546614845],[-5.580000000000105,38.72750782393995],[-5.540000000000106,38.72292470486617]]}},{"type":"Feature","properties":{"magnitude":0.9,"percentagem":90.0,"territorio":"continente"},"geometry":{"type":"LineString","coordinates":[[-10.5,42.311331769459],[-10.46,42.30960979480014],[-10.420000000000002,42.30786779119855],[-10.380000000000003,42.30610576099698],[-10.340000000000003,42.304323706532465],[-10.300000000000004,42.302521630136326],[-10.260000000000005,42.30069953413425],[-10.220000000000006,42.298857420846346],[-10.180000000000007,42.2969952925872],[-10.140000000000008,42.2951131516659],[-10.100000000000009,42.29321100038616],[-10.06000000000001,42.29128884104631],[-10.02000000000001,42.28934667593939],[-9.980000000000011,42.2873845073532],[-9.940000000000012,42.28540233757037],[-9.900000000000013,42.28340016886833],[-9.860000000000014,42.28137800351956],[-9.833008173202431,42.279999999999866],[-9.820000000000014,42.27933600289356],[-9.780000000000015,42.27727434491963],[-9.740000000000016,42.27519270167787],[-9.700000000000017,42.27309107541591],[-9.660000000000018,42.27096946837662],[-9.620000000000019,42.26882788279815],[-9.58000000000002,42.26666632091398],[-9.54000000000002,42.264484784953],[-9.500000000000021,42.26228327713956],[-9.460000000000022,42.26006179969354],[-9.420000000000023,42.2578203548304],[-9.380000000000024,42.25555894476125],[-9.340000000000025,42.253277571692934],[-9.300000000000026,42.25097623782805],[-9.260000000000026,42.24865494536506],[-9.220000000000027,42.24631369649831],[-9.180000000000028,42.243952493418135],[-9.140000000000029,42.24157133831088],[-9.113822222673107,42.23999999999987],[-9.10000000000003,42.23917043092959],[-9.06000000000003,42.23674995460555],[-9.020000000000032,42.234309537285924],[-8.980000000000032,42.23184918113646],[-8.940000000000033,42.22936888831936],[-8.900000000000034,42.22686866099318],[-8.860000000000035,42.22434850131302],[-8.820000000000036,42.22180841143047],[-8.780000000000037,42.219248393493835],[-8.740000000000038,42.216668449648026],[-8.700000000000038,42.21406858203478],[-8.66000000000004,42.21144879279264],[-8.62000000000004,42.20880908405704],[-8.580000000000041,42.20614945796041],[-8.540000000000042,42.20346991663219],[-8.500000000000043,42.20077046219894],[-8.48866617368033,42.19999999999987],[-8.460000000000043,42.19805155806392],[-8.420000000000044,42.195312931880224],[-8.380000000000045,42.19255440336014],[-8.340000000000046,42.18977597461388],[-8.300000000000047,42.1869776477491],[-8.260000000000048,42.184159424871],[-8.220000000000049,42.18132130808237],[-8.18000000000005,42.178463299483674],[-8.14000000000005,42.17558540117312],[-8.100000000000051,42.17268761524676],[-8.060000000000052,42.16976994379847],[-8.020000000000053,42.166832388920156],[-7.980000000000054,42.16387495270171],[-7.940000000000055,42.16089763723113],[-7.928019332330052,42.15999999999987],[-7.900000000000055,42.15790093869304],[-7.860000000000056,42.15488458070046],[-7.820000000000057,42.1518483540337],[-7.780000000000058,42.14879226076844],[-7.740000000000059,42.14571630297884],[-7.70000000000006,42.14262048273761],[-7.6600000000000605,42.13950480211609],[-7.620000000000061,42.136369263184335],[-7.580000000000062,42.13321386801115],[-7.540000000000063,42.1300386186642],[-7.500000000000064,42.12684351721011],[-7.460000000000065,42.123628565714455],[-7.420000000000065,42.120393766241904],[-7.4151600410506155,42.11999999999986],[-7.3800000000000665,42.117139790332466],[-7.340000000000067,42.113866066995655],[-7.300000000000068,42.11057250611945],[-7.260000000000069,42.1072591097602],[-7.22000000000007,42.10392587997369],[-7.180000000000071,42.10057281881526],[-7.140000000000072,42.09719992833989],[-7.1000000000000725,42.09380721060221],[-7.060000000000073,42.0903946676567],[-7.020000000000074,42.08696230155763],[-6.980000000000075,42.08351011435922],[-6.940000000000076,42.08003810811569],[-6.939563402530004,42.07999999999987],[-6.900000000000077,42.07654708864987],[-6.860000000000078,42.07303626730173],[-6.820000000000078,42.069505637249634],[-6.780000000000079,42.065955200543314],[-6.74000000000008,42.06238495923296],[-6.700000000000081,42.058794915369205],[-6.660000000000082,42.05518507100331],[-6.620000000000084,42.05155542818711],[-6.580000000000084,42.0479059889732],[-6.540000000000084,42.044236755415],[-6.500000000000085,42.04054772956677],[-6.494091984123684,42.03999999999987],[-6.460000000000086,42.03683964524062],[-6.420000000000087,42.033111903681736],[-6.380000000000088,42.02936438011497],[-6.340000000000089,42.02559707659386],[-6.3000000000000895,42.0218099951732],[-6.26000000000009,42.0180031379092],[-6.220000000000091,42.01417650685948],[-6.180000000000092,42.01033010408322],[-6.140000000000093,42.00646393164123],[-6.100000000000094,42.002577991595956],[-6.073596400504571,41.99999999999987],[-6.060000000000095,41.99867259179349],[-6.0200000000000955,41.994748026469466],[-5.980000000000096,41.990803703795734],[-5.940000000000097,41.98683962583749],[-5.900000000000098,41.98285579466207],[-5.860000000000099,41.97885221233899],[-5.8200000000001,41.974828880940024],[-5.780000000000101,41.97078580253933],[-5.7400000000001015,41.96672297921351],[-5.700000000000102,41.962640413041626],[-5.674252989543071,41.95999999999987],[-5.660000000000103,41.95853844105632],[-5.620000000000104,41.954417339535574],[-5.580000000000105,41.950276505420646],[-5.540000000000106,41.9461159407969]]}},{"type":"Feature","properties":{"magnitude":0.8,"percentagem":80.0,"territorio":"acores"},"geometry":{"type":"LineString","coordinates":[[-32.0,36.904374829507375],[-31.96,36.91461784798027],[-31.93893797954433,36.91999999999999],[-31.92,36.92483871452579],[-31.880000000000003,36.93503750123294],[-31.840000000000003,36.94521341460456],[-31.800000000000004,36.955366450227885],[-31.78170673269015,36.95999999999998],[-31.76,36.965497412652624],[-31.720000000000002,36.97560616740527],[-31.680000000000007,36.98569202838468],[-31.640000000000008,36.99575499137333],[-31.62309045757042,36.99999999999998],[-31.60000000000001,37.005795908312514],[-31.56000000000001,37.015814542974795],[-31.52000000000001,37.02581026423993],[-31.48000000000001,37.03578306808363],[-31.463050035994634,37.03999999999998],[-31.440000000000012,37.04573380077786],[-31.400000000000013,37.05566223046111],[-31.360000000000014,37.065567727927174],[-31.320000000000014,37.075450289343195],[-31.30154480621573,37.07999999999998],[-31.280000000000015,37.085310701564495],[-31.240000000000016,37.0951488445795],[-31.200000000000017,37.104964037351216],[-31.160000000000018,37.11475627623629],[-31.138532490218743,37.119999999999976],[-31.120000000000022,37.12452623421428],[-31.08000000000002,37.13427401202302],[-31.04000000000002,37.143998822346205],[-31.00000000000002,37.15370066172788],[-30.973969116932928,37.15999999999998],[-30.960000000000022,37.163380034076106],[-30.920000000000023,37.173037371242955],[-30.880000000000024,37.18267172445534],[-30.840000000000025,37.1922830904428],[-30.807808941096976,37.199999999999974],[-30.800000000000026,37.20187174808533],[-30.760000000000023,37.21143857222756],[-30.720000000000027,37.22098239670933],[-30.680000000000028,37.230503218443495],[-30.64000435748836,37.239999999999974],[-30.640000000000033,37.24000103454198],[-30.600000000000033,37.24947727627976],[-30.56000000000003,37.258930503403334],[-30.52000000000003,37.26836071300671],[-30.480000000000032,37.27776790222598],[-30.47048763282397,37.27999999999997],[-30.440000000000033,37.287153155793554],[-30.400000000000034,37.29651571987301],[-30.360000000000035,37.3058552523988],[-30.320000000000036,37.31517175068563],[-30.29922138991659,37.31999999999997],[-30.280000000000037,37.324465894029466],[-30.240000000000038,37.33373773226944],[-30.20000000000004,37.342986525650446],[-30.16000000000004,37.35221227166347],[-30.126151611232594,37.35999999999997],[-30.12000000000004,37.361415184889175],[-30.08000000000004,37.37059623733346],[-30.040000000000042,37.3797542323304],[-30.000000000000043,37.38888916754496],[-29.960000000000043,37.398001040682914],[-29.951204349515343,37.39999999999997],[-29.920000000000044,37.40709094216926],[-29.880000000000045,37.416158082318816],[-29.840000000000046,37.4252021509749],[-29.800000000000047,37.43422314601448],[-29.77432155477071,37.43999999999997],[-29.760000000000048,37.44322156401763],[-29.72000000000005,37.45219779558019],[-29.68000000000005,37.46115094462996],[-29.64000000000005,37.470081009212734],[-29.60000000000005,37.47898798741409],[-29.595444424454474,37.47999999999997],[-29.560000000000052,37.48787310193598],[-29.520000000000053,37.49673528099113],[-29.480000000000054,37.50557436540655],[-29.440000000000055,37.514390353433754],[-29.414483358605967,37.51999999999997],[-29.400000000000055,37.52318374083728],[-29.360000000000056,37.53195490211614],[-29.320000000000057,37.54070295924852],[-29.280000000000058,37.54942791064943],[-29.24000000000006,37.55812975477259],[-29.231381820940914,37.55999999999997],[-29.200000000000063,37.566809559411986],[-29.16000000000006,37.575466544687316],[-29.12000000000006,37.58410041553957],[-29.080000000000062,37.59271117058292],[-29.046050960562237,37.599999999999966],[-29.040000000000067,37.60129901340789],[-29.000000000000064,37.60986488474043],[-28.960000000000065,37.618407633598004],[-28.920000000000066,37.6269272587527],[-28.880000000000067,37.63542375901426],[-28.858399558652483,37.639999999999965],[-28.840000000000067,37.643897751267545],[-28.800000000000068,37.65234933910724],[-28.76000000000007,37.66077779597516],[-28.72000000000007,37.66918312083587],[-28.68000000000007,37.677565312690966],[-28.668351505557673,37.679999999999964],[-28.64000000000007,37.68592531491233],[-28.600000000000072,37.69426256745245],[-28.560000000000073,37.70257668148163],[-28.520000000000074,37.710867656153155],[-28.480000000000075,37.7191354906567],[-28.475806659601457,37.71999999999996],[-28.440000000000076,37.7273813666705],[-28.400000000000077,37.735604236728676],[-28.360000000000078,37.74380396167265],[-28.32000000000008,37.75198054084055],[-28.280657419035453,37.759999999999955],[-28.28000000000008,37.760133995175025],[-28.24000000000008,37.76826559036022],[-28.20000000000008,37.776374035257874],[-28.160000000000082,37.78445932935194],[-28.120000000000083,37.7925214721616],[-28.08278934621188,37.799999999999955],[-28.080000000000084,37.800560553942894],[-28.040000000000084,37.80857769064708],[-28.000000000000085,37.81657167208836],[-27.960000000000086,37.824542497928476],[-27.920000000000087,37.832490167863725],[-27.882093628877126,37.83999999999996],[-27.88000000000009,37.84041474908726],[-27.84000000000009,37.84831739240253],[-27.80000000000009,37.85619687635301],[-27.76000000000009,37.864053200774265],[-27.72000000000009,37.87188636553569],[-27.680000000000092,37.879696370540486],[-27.67844064566126,37.87999999999996],[-27.640000000000093,37.8874844400639],[-27.600000000000094,37.895249396629026],[-27.560000000000095,37.90299119058392],[-27.520000000000095,37.91070982196714],[-27.480000000000096,37.91840529085029],[-27.471687415237184,37.91999999999996],[-27.440000000000097,37.92607859699664],[-27.400000000000098,37.93372900030016],[-27.3600000000001,37.94135623873704],[-27.3200000000001,37.9489603125109],[-27.2800000000001,37.95654122185772],[-27.26169639136065,37.95999999999996],[-27.2400000000001,37.96409964485975],[-27.200000000000102,37.97163547292224],[-27.160000000000103,37.979148134663646],[-27.120000000000104,37.9866376304486],[-27.080000000000105,37.994103960673364],[-27.048315826968775,37.99999999999996],[-27.040000000000106,38.00154738297469],[-27.000000000000107,38.00896861759231],[-26.960000000000107,38.016366685213725],[-26.92000000000011,38.02374158636047],[-26.88000000000011,38.031093321585004],[-26.84000000000011,38.038421891470584],[-26.831360730111474,38.03999999999996],[-26.80000000000011,38.045728254322455],[-26.76000000000011,38.05301171403132],[-26.720000000000113,38.06027200749986],[-26.680000000000113,38.067509135432566],[-26.640000000000114,38.07472309856398],[-26.610648079536947,38.079999999999956],[-26.600000000000115,38.08191421941868],[-26.560000000000116,38.089083060934044],[-26.520000000000117,38.096228737173256],[-26.480000000000118,38.103351248988695],[-26.44000000000012,38.11045059726207],[-26.40000000000012,38.11752678290432],[-26.38597553946608,38.119999999999955],[-26.36000000000012,38.124580581298474],[-26.32000000000012,38.131611634126386],[-26.280000000000122,38.138619524345614],[-26.240000000000123,38.14560425298086],[-26.200000000000124,38.15256582108529],[-26.160000000000124,38.15950422974038],[-26.15713287104202,38.159999999999954],[-26.120000000000125,38.1664205719371],[-26.08000000000013,38.173313838308786],[-26.040000000000127,38.180183945730796],[-26.000000000000128,38.18703089539434],[-25.96000000000013,38.19385468851821],[-25.92385522592264,38.19999999999995],[-25.92000000000013,38.200655438415616],[-25.88000000000013,38.207434081798056],[-25.84000000000013,38.21418956951887],[-25.800000000000132,38.220921902903115],[-25.760000000000133,38.22763108330269],[-25.720000000000134,38.2343171120962],[-25.685884315271927,38.23999999999995],[-25.680000000000135,38.24098015925712],[-25.640000000000136,38.2476210317592],[-25.600000000000136,38.25423875397374],[-25.560000000000137,38.260833327381555],[-25.520000000000138,38.267404753489416],[-25.48000000000014,38.2739530338299],[-25.442931795376776,38.27999999999995],[-25.44000000000014,38.2804782526922],[-25.40000000000014,38.286981371679275],[-25.36000000000014,38.293461346638274],[-25.320000000000142,38.29991817919995],[-25.280000000000143,38.30635187102011],[-25.240000000000144,38.31276242377943],[-25.200000000000145,38.319149839183446],[-25.194657582904288,38.31999999999995],[-25.160000000000146,38.325515078983564],[-25.120000000000147,38.33185732981308],[-25.080000000000148,38.33817644549722],[-25.04000000000015,38.34447242783498],[-25.00000000000015,38.350745278649406],[-24.96000000000015,38.35699499978736],[-24.940697629079338,38.35999999999995],[-24.92000000000015,38.36322215727083],[-24.880000000000155,38.36942671174388],[-24.840000000000153,38.37560813912932],[-24.800000000000153,38.38176644136359],[-24.760000000000154,38.38790162040618],[-24.720000000000155,38.394013678239645],[-24.680674245167005,38.399999999999956],[-24.680000000000156,38.400102634943316],[-24.640000000000157,38.40616952525452],[-24.600000000000158,38.41221329730534],[-24.56000000000016,38.41823395316382],[-24.52000000000016,38.424231494920214],[-24.48000000000016,38.43020592468686],[-24.44000000000016,38.43615724459804],[-24.414073086474335,38.43999999999995],[-24.400000000000162,38.44208582640561],[-24.360000000000163,38.447991980249284],[-24.320000000000164,38.45387502758715],[-24.280000000000165,38.45973497063444],[-24.240000000000165,38.46557181162761],[-24.200000000000166,38.47138555282412],[-24.160000000000167,38.477176196502334],[-24.140417715046432,38.47999999999995],[-24.120000000000164,38.48294426988973],[-24.08000000000017,38.488689750471906],[-24.04000000000017,38.49441213726152]]}},{"type":"Feature","properties":{"magnitude":0.9,"percentagem":90.0,"territorio":"acores"},"geometry":{"type":"LineString","coordinates":[[-32.0,40.26504587640307],[-31.96,40.27447542408097],[-31.936513931187427,40.27999999999991],[-31.920000000000005,40.283884180178354],[-31.880000000000003,40.29327245323054],[-31.840000000000003,40.30263919298944],[-31.800000000000004,40.31198439955715],[-31.765613185957754,40.319999999999915],[-31.760000000000005,40.321308322724015],[-31.720000000000006,40.330612239177555],[-31.680000000000007,40.3398946196145],[-31.640000000000008,40.349155464273316],[-31.60000000000001,40.35839477342378],[-31.59303580891229,40.35999999999991],[-31.56000000000001,40.36761400603382],[-31.520000000000007,40.37681200797275],[-31.48000000000001,40.38598847210069],[-31.440000000000012,40.39514339882099],[-31.41873309320586,40.399999999999906],[-31.400000000000013,40.404277611150604],[-31.360000000000017,40.413391217553475],[-31.320000000000014,40.42248328465554],[-31.280000000000015,40.431553812991524],[-31.242665302365463,40.439999999999905],[-31.24000000000002,40.440602919509026],[-31.200000000000017,40.449632115425935],[-31.160000000000018,40.458639771084336],[-31.12000000000002,40.46762588714791],[-31.08000000000002,40.47659046431019],[-31.064752555604155,40.479999999999905]]}},{"type":"Feature","properties":{"magnitude":0.6,"percentagem":60.0,"territorio":"madeira"},"geometry":{"type":"LineString","coordinates":[[-18.0,32.868954209145116],[-17.96,32.87159019944417],[-17.92,32.874199100786],[-17.880000000000003,32.87678091639524],[-17.840000000000003,32.87933564952978],[-17.800000000000004,32.88186330348064],[-17.760000000000005,32.88436388157186],[-17.720000000000006,32.88683738716037],[-17.680000000000007,32.88928382363582],[-17.640000000000008,32.89170319442054],[-17.60000000000001,32.89409550296934],[-17.56000000000001,32.896460752769414],[-17.52000000000001,32.898798947340225],[-17.499213473415935,32.89999999999993],[-17.48000000000001,32.90111021620662],[-17.440000000000012,32.90339457033849],[-17.400000000000013,32.9056518770979],[-17.360000000000014,32.907882140126866],[-17.320000000000014,32.91008536309905],[-17.280000000000015,32.912261549719766],[-17.240000000000016,32.91441070372578],[-17.200000000000017,32.91653282888526],[-17.160000000000018,32.91862792899758],[-17.12000000000002,32.9206960078933],[-17.08000000000002,32.92273706943398],[-17.04000000000002,32.92475111751211],[-17.00000000000002,32.92673815605097],[-16.960000000000022,32.92869818900458],[-16.920000000000023,32.93063122035749],[-16.880000000000024,32.93253725412479],[-16.840000000000025,32.934416294351884],[-16.800000000000026,32.93626834511449],[-16.760000000000026,32.9380934105185],[-16.720000000000027,32.93989149469982],[-16.717549543901775,32.93999999999993],[-16.680000000000028,32.941662792553835],[-16.64000000000003,32.943407127007],[-16.60000000000003,32.94512448983667],[-16.56000000000003,32.94681488529389],[-16.52000000000003,32.94847831765936],[-16.480000000000032,32.95011479124327],[-16.440000000000033,32.95172431038527],[-16.400000000000034,32.953306879454345],[-16.360000000000035,32.95486250284866],[-16.320000000000036,32.956391184995624],[-16.280000000000037,32.95789293035161],[-16.240000000000038,32.95936774340201],[-16.20000000000004,32.96081562866107],[-16.16000000000004,32.96223659067181],[-16.12000000000004,32.96363063400595],[-16.08000000000004,32.964997763263824],[-16.040000000000042,32.96633798307431],[-16.000000000000043,32.96765129809469],[-15.960000000000043,32.968937713010604],[-15.920000000000044,32.97019723253596],[-15.880000000000045,32.971429861412894],[-15.840000000000046,32.9726356044116],[-15.800000000000047,32.97381446633034],[-15.760000000000048,32.97496645199529],[-15.720000000000049,32.97609156626053],[-15.68000000000005,32.97718981400793],[-15.64000000000005,32.97826120014707],[-15.600000000000051,32.97930572961518],[-15.572711786452786,32.97999999999992],[-15.560000000000052,32.98032344488144],[-15.520000000000051,32.981314390858536],[-15.480000000000054,32.982278492066],[-15.440000000000055,32.983215753548706],[-15.400000000000057,32.98412618037895],[-15.360000000000056,32.9850097776563],[-15.320000000000057,32.98586655050755],[-15.280000000000058,32.98669650408664],[-15.240000000000059,32.98749964357463],[-15.20000000000006,32.98827597417961],[-15.16000000000006,32.989025501136645],[-15.120000000000061,32.989748229707686],[-15.08000000000006,32.990444165181565],[-15.040000000000063,32.991113312873885]]}}]}