{"type":"FeatureCollection","properties":{"largura_maxima_km":147.936,"largura_sobre_pt_km":142.542,"linha_central_sobre_pt":false,"desenhavel_como_area":true,"perfil_largura":[{"t":-1.56111,"lat":35.6197,"lon":-39.8054,"largura_km":147.936,"eixo_na_terra":true},{"t":-1.55556,"lat":35.5073,"lon":-39.5508,"largura_km":147.68,"eixo_na_terra":true},{"t":-1.55,"lat":35.3952,"lon":-39.2995,"largura_km":147.427,"eixo_na_terra":true},{"t":-1.54444,"lat":35.2834,"lon":-39.0516,"largura_km":147.177,"eixo_na_terra":true},{"t":-1.53889,"lat":35.1719,"lon":-38.8068,"largura_km":146.93,"eixo_na_terra":true},{"t":-1.53333,"lat":35.0607,"lon":-38.5652,"largura_km":146.685,"eixo_na_terra":true},{"t":-1.52778,"lat":34.9498,"lon":-38.3266,"largura_km":146.443,"eixo_na_terra":true},{"t":-1.52222,"lat":34.8391,"lon":-38.091,"largura_km":146.203,"eixo_na_terra":true},{"t":-1.51667,"lat":34.7287,"lon":-37.8583,"largura_km":145.966,"eixo_na_terra":true},{"t":-1.51111,"lat":34.6186,"lon":-37.6284,"largura_km":145.734,"eixo_na_terra":true},{"t":-1.50556,"lat":34.5087,"lon":-37.4013,"largura_km":145.503,"eixo_na_terra":true},{"t":-1.5,"lat":34.3991,"lon":-37.1769,"largura_km":145.276,"eixo_na_terra":true},{"t":-1.49444,"lat":34.2897,"lon":-36.9551,"largura_km":145.053,"eixo_na_terra":true},{"t":-1.48889,"lat":34.1806,"lon":-36.7359,"largura_km":144.831,"eixo_na_terra":true},{"t":-1.48333,"lat":34.0718,"lon":-36.5192,"largura_km":144.612,"eixo_na_terra":true},{"t":-1.47778,"lat":33.9631,"lon":-36.305,"largura_km":144.395,"eixo_na_terra":true},{"t":-1.47222,"lat":33.8547,"lon":-36.0932,"largura_km":144.179,"eixo_na_terra":true},{"t":-1.46667,"lat":33.7466,"lon":-35.8837,"largura_km":143.966,"eixo_na_terra":true},{"t":-1.46111,"lat":33.6387,"lon":-35.6765,"largura_km":143.755,"eixo_na_terra":true},{"t":-1.45556,"lat":33.531,"lon":-35.4716,"largura_km":143.547,"eixo_na_terra":true},{"t":-1.45,"lat":33.4235,"lon":-35.2689,"largura_km":143.342,"eixo_na_terra":true},{"t":-1.44444,"lat":33.3163,"lon":-35.0684,"largura_km":143.138,"eixo_na_terra":true},{"t":-1.43889,"lat":33.2093,"lon":-34.87,"largura_km":142.937,"eixo_na_terra":true},{"t":-1.43333,"lat":33.1025,"lon":-34.6736,"largura_km":142.738,"eixo_na_terra":true},{"t":-1.42778,"lat":32.9959,"lon":-34.4793,"largura_km":142.542,"eixo_na_terra":true},{"t":-1.42222,"lat":32.8895,"lon":-34.287,"largura_km":142.348,"eixo_na_terra":true},{"t":-1.41667,"lat":32.7834,"lon":-34.0966,"largura_km":142.155,"eixo_na_terra":true},{"t":-1.41111,"lat":32.6775,"lon":-33.9082,"largura_km":141.964,"eixo_na_terra":true},{"t":-1.40556,"lat":32.5717,"lon":-33.7216,"largura_km":141.775,"eixo_na_terra":true},{"t":-1.4,"lat":32.4662,"lon":-33.5369,"largura_km":141.587,"eixo_na_terra":true},{"t":-1.39444,"lat":32.3609,"lon":-33.354,"largura_km":141.401,"eixo_na_terra":true},{"t":-1.38889,"lat":32.2557,"lon":-33.1728,"largura_km":141.218,"eixo_na_terra":true},{"t":-1.38333,"lat":32.1508,"lon":-32.9934,"largura_km":141.036,"eixo_na_terra":true},{"t":-1.37778,"lat":32.0461,"lon":-32.8158,"largura_km":140.857,"eixo_na_terra":true},{"t":-1.37222,"lat":31.9415,"lon":-32.6397,"largura_km":140.679,"eixo_na_terra":true},{"t":-1.36667,"lat":31.8372,"lon":-32.4654,"largura_km":140.502,"eixo_na_terra":true},{"t":-1.36111,"lat":31.733,"lon":-32.2927,"largura_km":140.328,"eixo_na_terra":true},{"t":-1.35556,"lat":31.629,"lon":-32.1215,"largura_km":140.156,"eixo_na_terra":true},{"t":-1.35,"lat":31.5252,"lon":-31.9519,"largura_km":139.985,"eixo_na_terra":true},{"t":-1.34444,"lat":31.4216,"lon":-31.7839,"largura_km":139.816,"eixo_na_terra":true},{"t":-1.33889,"lat":31.3182,"lon":-31.6174,"largura_km":139.648,"eixo_na_terra":true},{"t":-1.33333,"lat":31.215,"lon":-31.4523,"largura_km":139.482,"eixo_na_terra":true},{"t":-1.32778,"lat":31.1119,"lon":-31.2887,"largura_km":139.316,"eixo_na_terra":true},{"t":-1.32222,"lat":31.009,"lon":-31.1266,"largura_km":139.153,"eixo_na_terra":true},{"t":-1.31667,"lat":30.9063,"lon":-30.9658,"largura_km":138.992,"eixo_na_terra":true},{"t":-1.31111,"lat":30.8037,"lon":-30.8065,"largura_km":138.832,"eixo_na_terra":true},{"t":-1.30556,"lat":30.7014,"lon":-30.6485,"largura_km":138.674,"eixo_na_terra":true},{"t":-1.3,"lat":30.5992,"lon":-30.4918,"largura_km":138.517,"eixo_na_terra":true},{"t":-1.29444,"lat":30.4971,"lon":-30.3365,"largura_km":138.361,"eixo_na_terra":true},{"t":-1.28889,"lat":30.3953,"lon":-30.1824,"largura_km":138.206,"eixo_na_terra":true},{"t":-1.28333,"lat":30.2936,"lon":-30.0297,"largura_km":138.054,"eixo_na_terra":true},{"t":-1.27778,"lat":30.192,"lon":-29.8782,"largura_km":137.903,"eixo_na_terra":true},{"t":-1.27222,"lat":30.0906,"lon":-29.7279,"largura_km":137.754,"eixo_na_terra":true},{"t":-1.26667,"lat":29.9894,"lon":-29.5789,"largura_km":137.606,"eixo_na_terra":true},{"t":-1.26111,"lat":29.8884,"lon":-29.4311,"largura_km":137.458,"eixo_na_terra":true},{"t":-1.25556,"lat":29.7875,"lon":-29.2844,"largura_km":137.312,"eixo_na_terra":true},{"t":-1.25,"lat":29.6867,"lon":-29.1389,"largura_km":137.167,"eixo_na_terra":true},{"t":-1.24444,"lat":29.5861,"lon":-28.9946,"largura_km":137.024,"eixo_na_terra":true},{"t":-1.23889,"lat":29.4857,"lon":-28.8513,"largura_km":136.883,"eixo_na_terra":true},{"t":-1.23333,"lat":29.3854,"lon":-28.7092,"largura_km":136.743,"eixo_na_terra":true},{"t":-1.22778,"lat":29.2853,"lon":-28.5682,"largura_km":136.604,"eixo_na_terra":true},{"t":-1.22222,"lat":29.1853,"lon":-28.4283,"largura_km":136.466,"eixo_na_terra":true},{"t":-1.21667,"lat":29.0855,"lon":-28.2894,"largura_km":136.329,"eixo_na_terra":true},{"t":-1.21111,"lat":28.9858,"lon":-28.1516,"largura_km":136.193,"eixo_na_terra":true},{"t":-1.20556,"lat":28.8863,"lon":-28.0148,"largura_km":136.059,"eixo_na_terra":true},{"t":-1.2,"lat":28.7869,"lon":-27.879,"largura_km":135.926,"eixo_na_terra":true},{"t":-1.19444,"lat":28.6876,"lon":-27.7442,"largura_km":135.795,"eixo_na_terra":true},{"t":-1.18889,"lat":28.5885,"lon":-27.6105,"largura_km":135.664,"eixo_na_terra":true},{"t":-1.18333,"lat":28.4895,"lon":-27.4776,"largura_km":135.535,"eixo_na_terra":true},{"t":-1.17778,"lat":28.3907,"lon":-27.3458,"largura_km":135.407,"eixo_na_terra":true},{"t":-1.17222,"lat":28.292,"lon":-27.2149,"largura_km":135.28,"eixo_na_terra":true},{"t":-1.16667,"lat":28.1935,"lon":-27.0849,"largura_km":135.153,"eixo_na_terra":true},{"t":-1.16111,"lat":28.0951,"lon":-26.9559,"largura_km":135.029,"eixo_na_terra":true},{"t":-1.15556,"lat":27.9968,"lon":-26.8277,"largura_km":134.906,"eixo_na_terra":true},{"t":-1.15,"lat":27.8986,"lon":-26.7005,"largura_km":134.784,"eixo_na_terra":true},{"t":-1.14444,"lat":27.8006,"lon":-26.5741,"largura_km":134.663,"eixo_na_terra":true},{"t":-1.13889,"lat":27.7028,"lon":-26.4486,"largura_km":134.542,"eixo_na_terra":true},{"t":-1.13333,"lat":27.605,"lon":-26.324,"largura_km":134.423,"eixo_na_terra":true},{"t":-1.12778,"lat":27.5074,"lon":-26.2002,"largura_km":134.305,"eixo_na_terra":true},{"t":-1.12222,"lat":27.4099,"lon":-26.0772,"largura_km":134.188,"eixo_na_terra":true},{"t":-1.11667,"lat":27.3126,"lon":-25.9551,"largura_km":134.071,"eixo_na_terra":true},{"t":-1.11111,"lat":27.2153,"lon":-25.8338,"largura_km":133.956,"eixo_na_terra":true},{"t":-1.10556,"lat":27.1182,"lon":-25.7133,"largura_km":133.843,"eixo_na_terra":true},{"t":-1.1,"lat":27.0213,"lon":-25.5936,"largura_km":133.731,"eixo_na_terra":true},{"t":-1.09444,"lat":26.9244,"lon":-25.4746,"largura_km":133.619,"eixo_na_terra":true},{"t":-1.08889,"lat":26.8277,"lon":-25.3565,"largura_km":133.508,"eixo_na_terra":true},{"t":-1.08333,"lat":26.7311,"lon":-25.2391,"largura_km":133.399,"eixo_na_terra":true},{"t":-1.07778,"lat":26.6346,"lon":-25.1224,"largura_km":133.29,"eixo_na_terra":true},{"t":-1.07222,"lat":26.5382,"lon":-25.0065,"largura_km":133.182,"eixo_na_terra":true},{"t":-1.06667,"lat":26.442,"lon":-24.8913,"largura_km":133.076,"eixo_na_terra":true},{"t":-1.06111,"lat":26.3459,"lon":-24.7768,"largura_km":132.971,"eixo_na_terra":true},{"t":-1.05556,"lat":26.2499,"lon":-24.6631,"largura_km":132.867,"eixo_na_terra":true},{"t":-1.05,"lat":26.154,"lon":-24.5501,"largura_km":132.764,"eixo_na_terra":true},{"t":-1.04444,"lat":26.0582,"lon":-24.4377,"largura_km":132.661,"eixo_na_terra":true},{"t":-1.03889,"lat":25.9626,"lon":-24.326,"largura_km":132.56,"eixo_na_terra":true},{"t":-1.03333,"lat":25.867,"lon":-24.2151,"largura_km":132.459,"eixo_na_terra":true},{"t":-1.02778,"lat":25.7716,"lon":-24.1047,"largura_km":132.359,"eixo_na_terra":true},{"t":-1.02222,"lat":25.6763,"lon":-23.9951,"largura_km":132.26,"eixo_na_terra":true},{"t":-1.01667,"lat":25.5811,"lon":-23.8861,"largura_km":132.162,"eixo_na_terra":true},{"t":-1.01111,"lat":25.486,"lon":-23.7777,"largura_km":132.064,"eixo_na_terra":true},{"t":-1.00556,"lat":25.391,"lon":-23.67,"largura_km":131.969,"eixo_na_terra":true},{"t":-1.0,"lat":25.2962,"lon":-23.5629,"largura_km":131.874,"eixo_na_terra":true},{"t":-0.99444,"lat":25.2014,"lon":-23.4564,"largura_km":131.78,"eixo_na_terra":true},{"t":-0.98889,"lat":25.1068,"lon":-23.3506,"largura_km":131.687,"eixo_na_terra":true},{"t":-0.98333,"lat":25.0122,"lon":-23.2453,"largura_km":131.595,"eixo_na_terra":true}]},"features":[{"type":"Feature","properties":{},"geometry":{"type":"Polygon","coordinates":[[[-25.412166221348286,27.68884663726606],[-25.17211877901363,27.493186400351743],[-24.817888792506096,27.200678270961443],[-24.45984442301031,26.900459231590574],[-24.119055234452787,26.610288575187198],[-23.7845180571411,26.32122274634138],[-23.455997261723383,26.033238387870796],[-23.13326819555246,25.746312944771663],[-22.81611645078661,25.46042462089896],[-23.683589704994546,24.575022358553],[-24.217081835696433,25.045626642154026],[-24.645167329285158,25.4152375488103],[-25.093910261285515,25.79530414085369],[-25.553933510830632,26.17716181628622],[-26.025835320017705,26.56086246220493],[-26.49905108361557,26.93755521242677],[-26.99640771253965,27.32503485919369],[-27.37852181603114,27.61696162511359],[-27.9007658373539,28.00800376384732],[-28.42594373875042,28.39212784163753],[-28.979468615187955,28.787407636272054],[-29.405859081972096,29.085350073005994],[-29.695720085947386,29.28470243081033],[-29.990223331212576,29.484645773459356],[-30.441002647898642,29.78569177431679],[-30.888954958895624,30.07886978113754],[-31.36255105081173,30.382662785397137],[-31.84857838290145,30.68792262705126],[-32.34767880914737,30.994692066101884],[-32.84489031570723,31.293624482050756],[-33.371862773684086,31.60347184103157],[-33.914134918407,31.914970211421064],[-34.472585288756875,32.22817368931602],[-35.048171182465836,32.54314004773123],[-35.62389102835232,32.850286814834924],[-36.23643908320645,33.16887574632647],[-36.65614082260771,33.38235223790359],[-37.30371120591457,33.70424928790581],[-37.72795898287552,33.910216094922355],[-38.41401242091601,34.23554362084051],[-38.88558325010831,34.45366710531233],[-39.369185918330345,34.67281628593288],[-39.6156933725527,34.78278549031125],[-40.11853750736873,35.00353429619625],[-39.52276264413979,36.25231951351412],[-39.01287166174413,36.0239931721592],[-38.51637435710418,35.796919191875126],[-38.032588276291904,35.57105679165754],[-37.56088428098218,35.34636788660369],[-37.08022180712237,35.112919576213216],[-36.63142534274897,34.89054606072426],[-36.19306960698054,34.66924338741941],[-35.764690365975724,34.44898197380897],[-35.34585464993475,34.22973387198354],[-34.917846595626514,34.00174561546646],[-34.51726458176336,33.78451097262007],[-33.93201852921638,33.46040755257276],[-33.55179452810688,33.245471748748685],[-32.995608767839485,32.924715188112266],[-32.6175724498421,32.702417246444625],[-32.08820739137116,32.38490606262338],[-31.743510103701823,32.174242307101935],[-31.238210991071583,31.859720127630858],[-30.731635566328237,31.537525050112993],[-30.252918007744427,31.226468869600456],[-29.94055758949341,31.02000031032725],[-29.4817604122438,30.711616800102785],[-29.034167560052936,30.404777601750283],[-28.584099641616206,30.0902301832471],[-28.15766987100116,29.786423596111494],[-27.740982064035762,29.48404015326404],[-27.333612491557773,29.183043836312567],[-26.935162654586776,28.883400229765456],[-26.533447864022975,28.576035622529044],[-26.151945816874218,28.27905918676852],[-25.77829055931022,27.98333918308794],[-25.412166221348286,27.68884663726606]]]}}]}