{"type":"FeatureCollection","features":[{"type":"Feature","properties":{"t_inicio":-1.5611111111111198,"t_fim":-0.983333333333344},"geometry":{"type":"LineString","coordinates":[[-39.80539305666423,35.61965480523935],[-39.550773570886946,35.507289524077464],[-39.29953279459028,35.395219067227586],[-39.051582226177146,35.28343858624172],[-38.80683698451986,35.17194339989084],[-38.56521560393597,35.06072898520509],[-38.326639843898135,34.9497909691449],[-38.09103451220261,34.839125120848635],[-37.858327300448025,34.728727344408405],[-37.62844863079039,34.618593672129755],[-37.40133151304275,34.50872025823605],[-37.17691141127602,34.39910337298137],[-36.95512611915862,34.28973939713985],[-36.7359156433439,34.18062481684156],[-36.51922209427795,34.07175621872874],[-36.30498958385684,33.9631302854077],[-36.0931641294149,33.854743791174386],[-35.88369356357032,33.7465935979934],[-35.676527449496234,33.638676651712075],[-35.47161700122243,33.530989978492585],[-35.268915008606825,33.42353068144693],[-35.06837576664532,33.316295937460175],[-34.86995500881699,33.209282994189586],[-34.67360984418565,33.10248916722701],[-34.4792986980014,32.99591183741413],[-34.28698125556724,32.889548448299976],[-34.096618409152455,32.78339650373182],[-33.90817220775321,32.67745356557057],[-33.7216058095151,32.57171725152255],[-33.53688343664729,32.466185233080836],[-33.35397033266946,32.360855233568806],[-33.17283272184585,32.255725026279954],[-32.993437770670965,32.15079243270792],[-32.815753551280466,32.04605532086143],[-32.63974900667142,31.941511603658917],[-32.46539391762275,31.837159237398495],[-32.292658871215906,31.732996220298443],[-32.121515230860865,31.62902059110462],[-31.951935107741235,31.52523042776059],[-31.78389133359616,31.42162384613724],[-31.61735743476345,31.31819899881848],[-31.45230760741316,31.214954073939875],[-31.28871669390506,31.111887294077448],[-31.126560160208186,31.008996915183896],[-30.965814074324953,30.906281225569696],[-30.806455085664936,30.80373854492672],[-30.648460405318048,30.701367223392264],[-30.491807787179425,30.599165640651194],[-30.336475509881268,30.497132205074458],[-30.182442359489613,30.39526535289202],[-30.02968761292732,30.29356354739852],[-29.878191022085304,30.19202527819013],[-29.7279327985882,30.090649060430838],[-29.578893599181185,29.989433434146925],[-29.43105451170726,29.88837696354847],[-29.28439704164626,29.78747823637593],[-29.138903099187928,29.686735863271387],[-28.994554986813455,29.586148477172856],[-28.851335387361246,29.485714732730727],[-28.70922735255371,29.385433305745156],[-28.56821429196384,29.285302892623825],[-28.428279962400495,29.185322209858754],[-28.289408457693725,29.08548999352147],[-28.151584198861315,28.98580499877587],[-28.014791924639496,28.886265999407712],[-27.87901668236111,28.78687178737036],[-27.7442438191664,28.68762117234559],[-27.61045897353074,28.588512981319482],[-27.477648067096112,28.489546058172056],[-27.345797296792853,28.390719263280634],[-27.214893127239094,28.292031473136017],[-27.084922283405916,28.193481579971177],[-26.955871743537045,28.095068491401758],[-26.82772873231238,27.996791130077906],[-26.700480714244748,27.898648433347304],[-26.574115387300907,27.80063935292851],[-26.44862067673671,27.702762854594475],[-26.32398472913829,27.60501791786579],[-26.200195906660582,27.507403535713213],[-26.077242781455226,27.409918714269214],[-25.955114130280492,27.3125624725481],[-25.833798929285763,27.215333842174502],[-25.713286348963578,27.118231867119757],[-25.593565749263092,27.021255603446114],[-25.474626674858257,26.924404119058188],[-25.356458850565048,26.827676493461684],[-25.239052176901566,26.73107181752891],[-25.122396725786416,26.63458919327094],[-25.006482736368866,26.53822773361615],[-24.891300610987372,26.44198656219495],[-24.776840911250105,26.345864813130415],[-24.663094354234318,26.249861630834648],[-24.550051808799225,26.153976169810704],[-24.437704292008675,26.058207594459862],[-24.326042965659724,25.96255507889397],[-24.215059132912785,25.867017806752898],[-24.10474423502035,25.771594971026687],[-23.995089848150258,25.676285773882455],[-23.886087680300477,25.5810894264957],[-23.777729568302107,25.48600514888602],[-23.670007474907294,25.391032169757004],[-23.562913485959513,25.296169726340203],[-23.456439807642965,25.20141706424305],[-23.35057876380887,25.106773437300557],[-23.245322793375408,25.01223810743072]]}}]}