{"type":"FeatureCollection","properties":{"largura_maxima_km":129.662,"largura_sobre_pt_km":118.105,"linha_central_sobre_pt":true,"desenhavel_como_area":true,"perfil_largura":[{"t":-1.48333,"lat":43.1327,"lon":-41.214,"largura_km":null,"eixo_na_terra":false},{"t":-1.47778,"lat":42.5343,"lon":-39.8575,"largura_km":null,"eixo_na_terra":false},{"t":-1.47222,"lat":42.3558,"lon":-39.3544,"largura_km":null,"eixo_na_terra":false},{"t":-1.46667,"lat":41.9719,"lon":-38.4754,"largura_km":null,"eixo_na_terra":false},{"t":-1.46111,"lat":41.6258,"lon":-37.6943,"largura_km":null,"eixo_na_terra":false},{"t":-1.45556,"lat":40.6772,"lon":-35.8489,"largura_km":null,"eixo_na_terra":false},{"t":-1.45,"lat":39.7887,"lon":-34.1887,"largura_km":94.334,"eixo_na_terra":true},{"t":-1.44444,"lat":39.2713,"lon":-33.2237,"largura_km":96.12,"eixo_na_terra":true},{"t":-1.43889,"lat":38.8046,"lon":-32.3639,"largura_km":97.413,"eixo_na_terra":true},{"t":-1.43333,"lat":38.3763,"lon":-31.5835,"largura_km":98.484,"eixo_na_terra":true},{"t":-1.42778,"lat":37.9785,"lon":-30.8657,"largura_km":99.425,"eixo_na_terra":true},{"t":-1.42222,"lat":37.6057,"lon":-30.199,"largura_km":100.281,"eixo_na_terra":true},{"t":-1.41667,"lat":37.2537,"lon":-29.5747,"largura_km":101.073,"eixo_na_terra":true},{"t":-1.41111,"lat":36.9197,"lon":-28.9867,"largura_km":101.815,"eixo_na_terra":true},{"t":-1.40556,"lat":36.6011,"lon":-28.4298,"largura_km":102.517,"eixo_na_terra":true},{"t":-1.4,"lat":36.2961,"lon":-27.9003,"largura_km":103.186,"eixo_na_terra":true},{"t":-1.39444,"lat":36.0033,"lon":-27.3948,"largura_km":103.827,"eixo_na_terra":true},{"t":-1.38889,"lat":35.7213,"lon":-26.9109,"largura_km":104.444,"eixo_na_terra":true},{"t":-1.38333,"lat":35.4491,"lon":-26.4463,"largura_km":105.039,"eixo_na_terra":true},{"t":-1.37778,"lat":35.1857,"lon":-25.9992,"largura_km":105.615,"eixo_na_terra":true},{"t":-1.37222,"lat":34.9305,"lon":-25.568,"largura_km":106.173,"eixo_na_terra":true},{"t":-1.36667,"lat":34.6828,"lon":-25.1513,"largura_km":106.716,"eixo_na_terra":true},{"t":-1.36111,"lat":34.442,"lon":-24.748,"largura_km":107.244,"eixo_na_terra":true},{"t":-1.35556,"lat":34.2076,"lon":-24.3571,"largura_km":107.759,"eixo_na_terra":true},{"t":-1.35,"lat":33.9792,"lon":-23.9776,"largura_km":108.262,"eixo_na_terra":true},{"t":-1.34444,"lat":33.7563,"lon":-23.6087,"largura_km":108.754,"eixo_na_terra":true},{"t":-1.33889,"lat":33.5386,"lon":-23.2497,"largura_km":109.235,"eixo_na_terra":true},{"t":-1.33333,"lat":33.3259,"lon":-22.9001,"largura_km":109.706,"eixo_na_terra":true},{"t":-1.32778,"lat":33.1177,"lon":-22.5591,"largura_km":110.169,"eixo_na_terra":true},{"t":-1.32222,"lat":32.9139,"lon":-22.2263,"largura_km":110.623,"eixo_na_terra":true},{"t":-1.31667,"lat":32.7143,"lon":-21.9011,"largura_km":111.069,"eixo_na_terra":true},{"t":-1.31111,"lat":32.5185,"lon":-21.5833,"largura_km":111.507,"eixo_na_terra":true},{"t":-1.30556,"lat":32.3265,"lon":-21.2723,"largura_km":111.938,"eixo_na_terra":true},{"t":-1.3,"lat":32.138,"lon":-20.9679,"largura_km":112.362,"eixo_na_terra":true},{"t":-1.29444,"lat":31.9529,"lon":-20.6696,"largura_km":112.781,"eixo_na_terra":true},{"t":-1.28889,"lat":31.7711,"lon":-20.3772,"largura_km":113.193,"eixo_na_terra":true},{"t":-1.28333,"lat":31.5923,"lon":-20.0904,"largura_km":113.6,"eixo_na_terra":true},{"t":-1.27778,"lat":31.4164,"lon":-19.8089,"largura_km":114.001,"eixo_na_terra":true},{"t":-1.27222,"lat":31.2434,"lon":-19.5325,"largura_km":114.397,"eixo_na_terra":true},{"t":-1.26667,"lat":31.0732,"lon":-19.261,"largura_km":114.788,"eixo_na_terra":true},{"t":-1.26111,"lat":30.9055,"lon":-18.9941,"largura_km":115.173,"eixo_na_terra":true},{"t":-1.25556,"lat":30.7404,"lon":-18.7317,"largura_km":115.554,"eixo_na_terra":true},{"t":-1.25,"lat":30.5777,"lon":-18.4736,"largura_km":115.931,"eixo_na_terra":true},{"t":-1.24444,"lat":30.4173,"lon":-18.2196,"largura_km":116.303,"eixo_na_terra":true},{"t":-1.23889,"lat":30.2592,"lon":-17.9695,"largura_km":116.671,"eixo_na_terra":true},{"t":-1.23333,"lat":30.1032,"lon":-17.7232,"largura_km":117.035,"eixo_na_terra":true},{"t":-1.22778,"lat":29.9494,"lon":-17.4805,"largura_km":117.395,"eixo_na_terra":true},{"t":-1.22222,"lat":29.7976,"lon":-17.2414,"largura_km":117.752,"eixo_na_terra":true},{"t":-1.21667,"lat":29.6478,"lon":-17.0056,"largura_km":118.105,"eixo_na_terra":true},{"t":-1.21111,"lat":29.4999,"lon":-16.7731,"largura_km":118.454,"eixo_na_terra":true},{"t":-1.20556,"lat":29.3539,"lon":-16.5438,"largura_km":118.8,"eixo_na_terra":true},{"t":-1.2,"lat":29.2097,"lon":-16.3175,"largura_km":119.143,"eixo_na_terra":true},{"t":-1.19444,"lat":29.0673,"lon":-16.0941,"largura_km":119.483,"eixo_na_terra":true},{"t":-1.18889,"lat":28.9265,"lon":-15.8736,"largura_km":119.82,"eixo_na_terra":true},{"t":-1.18333,"lat":28.7874,"lon":-15.6559,"largura_km":120.153,"eixo_na_terra":true},{"t":-1.17778,"lat":28.6499,"lon":-15.4408,"largura_km":120.484,"eixo_na_terra":true},{"t":-1.17222,"lat":28.514,"lon":-15.2283,"largura_km":120.812,"eixo_na_terra":true},{"t":-1.16667,"lat":28.3796,"lon":-15.0183,"largura_km":121.138,"eixo_na_terra":true},{"t":-1.16111,"lat":28.2467,"lon":-14.8107,"largura_km":121.461,"eixo_na_terra":true},{"t":-1.15556,"lat":28.1153,"lon":-14.6055,"largura_km":121.781,"eixo_na_terra":true},{"t":-1.15,"lat":27.9853,"lon":-14.4025,"largura_km":122.099,"eixo_na_terra":true},{"t":-1.14444,"lat":27.8567,"lon":-14.2018,"largura_km":122.414,"eixo_na_terra":true},{"t":-1.13889,"lat":27.7294,"lon":-14.0032,"largura_km":122.727,"eixo_na_terra":true},{"t":-1.13333,"lat":27.6034,"lon":-13.8068,"largura_km":123.038,"eixo_na_terra":true},{"t":-1.12778,"lat":27.4788,"lon":-13.6123,"largura_km":123.346,"eixo_na_terra":true},{"t":-1.12222,"lat":27.3554,"lon":-13.4199,"largura_km":123.653,"eixo_na_terra":true},{"t":-1.11667,"lat":27.2332,"lon":-13.2293,"largura_km":123.957,"eixo_na_terra":true},{"t":-1.11111,"lat":27.1123,"lon":-13.0407,"largura_km":124.259,"eixo_na_terra":true},{"t":-1.10556,"lat":26.9925,"lon":-12.8539,"largura_km":124.559,"eixo_na_terra":true},{"t":-1.1,"lat":26.8739,"lon":-12.6688,"largura_km":124.858,"eixo_na_terra":true},{"t":-1.09444,"lat":26.7564,"lon":-12.4855,"largura_km":125.154,"eixo_na_terra":true},{"t":-1.08889,"lat":26.6401,"lon":-12.3039,"largura_km":125.448,"eixo_na_terra":true},{"t":-1.08333,"lat":26.5248,"lon":-12.1239,"largura_km":125.741,"eixo_na_terra":true},{"t":-1.07778,"lat":26.4106,"lon":-11.9456,"largura_km":126.032,"eixo_na_terra":true},{"t":-1.07222,"lat":26.2975,"lon":-11.7688,"largura_km":126.321,"eixo_na_terra":true},{"t":-1.06667,"lat":26.1854,"lon":-11.5935,"largura_km":126.608,"eixo_na_terra":true},{"t":-1.06111,"lat":26.0743,"lon":-11.4197,"largura_km":126.893,"eixo_na_terra":true},{"t":-1.05556,"lat":25.9642,"lon":-11.2474,"largura_km":127.177,"eixo_na_terra":true},{"t":-1.05,"lat":25.8551,"lon":-11.0765,"largura_km":127.459,"eixo_na_terra":true},{"t":-1.04444,"lat":25.7469,"lon":-10.907,"largura_km":127.74,"eixo_na_terra":true},{"t":-1.03889,"lat":25.6397,"lon":-10.7389,"largura_km":128.019,"eixo_na_terra":true},{"t":-1.03333,"lat":25.5334,"lon":-10.5721,"largura_km":128.297,"eixo_na_terra":true},{"t":-1.02778,"lat":25.428,"lon":-10.4065,"largura_km":128.573,"eixo_na_terra":true},{"t":-1.02222,"lat":25.3235,"lon":-10.2423,"largura_km":128.847,"eixo_na_terra":true},{"t":-1.01667,"lat":25.2199,"lon":-10.0793,"largura_km":129.121,"eixo_na_terra":true},{"t":-1.01111,"lat":25.1172,"lon":-9.9175,"largura_km":129.392,"eixo_na_terra":true},{"t":-1.00556,"lat":25.0153,"lon":-9.7569,"largura_km":129.662,"eixo_na_terra":true}]},"features":[{"type":"Feature","properties":{},"geometry":{"type":"Polygon","coordinates":[[[-16.805921475941318,30.179276834241637],[-15.01787774245733,29.051800856489464],[-11.187635635213354,26.626711550346123],[-9.677163550317033,25.675679141146023],[-9.84198922669097,24.35860191154968],[-10.646967567693281,24.87577651422092],[-11.654900560238616,25.52628718428512],[-15.234083491054264,27.846012614930743],[-16.979087687448327,28.972958440789295],[-17.923651742599958,29.579698576725228],[-18.92626578440948,30.220401695150247],[-19.722243537213217,30.72622911783716],[-20.561725646422417,31.25666649750813],[-21.434198775533474,31.804372052491637],[-22.38118442229714,32.394321072775504],[-23.39691444013306,33.02154047219561],[-24.119015088056585,33.46375365355498],[-24.883181986358636,33.92824707781778],[-25.696173548606197,34.41835690890376],[-26.566699877523774,34.93836763205085],[-27.506310334880908,35.493939839344186],[-28.530877325756165,36.0928240178215],[-29.081773906024438,36.41179557478098],[-29.663252890800095,36.74613606795008],[-30.280102206835238,37.09816379305904],[-30.96963421273898,37.4885610027638],[-31.679710080483147,37.88682531204273],[-32.451093126470425,38.31527681395498],[-33.33934166770695,38.80354202670634],[-33.40829602002164,38.87446266773738],[-33.54954632462835,38.93875586404788],[-33.69060455861077,39.00631625885988],[-33.84042031390072,39.081037026812545],[-33.9986954290664,39.162750315176204],[-34.165117221521626,39.25126555702815],[-34.339357557499454,39.34636930814874],[-34.71554370022379,39.55863278386594],[-34.966948709856524,39.68463244225959],[-35.15154157077339,39.780446421480335],[-35.5516246543626,39.99532629047272],[-35.89286362711948,40.18451562312439],[-36.21032130997901,40.34237038748227],[-36.54629403589445,40.51542806013609],[-36.916695259503086,40.71116972659933],[-37.35567378170256,40.94769897136735],[-37.66172263390149,41.09755057129702],[-38.09045087400227,41.31271091580422],[-38.58470058121176,41.56528393478464],[-39.45950366515848,42.017145673322474],[-40.06741102409552,42.310972943741405],[-41.922887849370255,43.21429329062972],[-41.89493244389648,43.25321118793874],[-42.400662034941206,43.501625800532786],[-42.23649044737427,44.01181220825041],[-42.20685588506498,44.25095829286011],[-41.88268394645997,44.102816776430245],[-41.87167964476444,44.1337002755659],[-41.222788134479686,43.82499904447843],[-40.75939475789755,43.60145570829458],[-40.28178854307912,43.36770800345471],[-39.54686647068013,43.021710585113816],[-38.93490455852469,42.72625440980688],[-38.55439036150861,42.53842822561068],[-38.19212893582295,42.35624163407685],[-37.65919071379542,42.08140779069917],[-37.44287662779129,41.97875901693235],[-37.186221716184434,41.85420841737746],[-36.80027307562915,41.66150504757407],[-36.417304473380966,41.46376181845797],[-36.041272103014194,41.26298532099612],[-35.67550636867318,41.06096439903122],[-35.35778975467991,40.87954778139323],[-35.442956489745995,40.96714311428596],[-34.284638304124485,40.36398028237305],[-33.28859903510295,39.83753234792562],[-32.36899577370187,39.34521308203388],[-31.572604607717324,38.913881909633936],[-30.84155486464431,38.513954308108694],[-30.16345717358925,38.139608706326875],[-29.52937056611293,37.78663500962738],[-28.932593866679298,37.45187123079325],[-28.341869644374526,37.1180919216061],[-27.806239408773337,36.81338416719911],[-26.80617068603533,36.23929990360582],[-26.336795127124475,35.96757268851061],[-25.44982750557722,35.450195724939576],[-24.62223217472183,34.962955223351344],[-23.844917105752444,34.50148200885931],[-23.110849473555135,34.062384338001266],[-22.078951975103564,33.43993809189331],[-21.430898331893815,33.04606635079696],[-20.49344952427893,32.47246524132909],[-19.62701789036265,31.938612550408223],[-18.806935624946277,31.4302728724097],[-17.775755819976098,30.787311478485346],[-16.805921475941318,30.179276834241637]]]}}]}