{"type":"FeatureCollection","features":[{"type":"Feature","properties":{"t_inicio":-1.4666666666666757,"t_fim":-1.0055555555555662},"geometry":{"type":"LineString","coordinates":[[-38.45436210127218,41.99336221305097],[-36.650523347115296,41.07746098787469],[-35.30252861158999,40.37731650893007],[-34.18867951554381,39.78866473690378],[-33.22365748053318,39.27128301563291],[-32.36386991147123,38.8045729602686],[-31.583493297931568,38.37630538448863],[-30.86574148492818,37.9785136813824],[-30.198978862902663,37.60566392416106],[-29.574749654599117,37.253726119023106],[-28.98668174880288,36.91965709340525],[-28.42983298786595,36.60109180494891],[-27.900279485651083,36.296148749587104],[-27.39484473910227,36.003301794648706],[-26.91091482506647,35.72129265735758],[-26.446308447486103,35.44906930088649],[-25.9991831681308,35.18574144063203],[-25.567966225608046,34.930547686423324],[-25.151302497444306,34.682830803474765],[-24.748014685382145,34.44201876644593],[-24.357072389923474,34.20761002964696],[-23.977567764008796,33.97916192003545],[-23.608696113131572,33.756281379785435],[-23.249740267286967,33.53861750181567],[-22.900057866084296,33.32585545112551],[-22.559070920138907,33.1177114697655],[-22.2262571700756,32.91392873819818],[-21.90114287901656,32.71427392007619],[-21.583296778468906,32.51853425730792],[-21.272324949959142,32.326515111892526],[-20.967866471670817,32.13803787326856],[-20.66958969496352,31.952938166832972],[-20.377189042965796,31.771064312263924],[-20.090382244571714,31.59227599032692],[-19.808907933668422,31.416443084688748],[-19.532523556399155,31.243444671438695],[-19.261003539552604,31.07316813391287],[-18.994137681378646,30.90550838432677],[-18.731729732727388,30.740367176865565],[-18.47359614173942,30.577652499422594],[-18.219564939652912,30.417278033245566],[-17.96947474883808,30.259162671442414],[-17.723173897084422,30.10323008868977],[-17.480519624575322,29.949408355638173],[-17.24137737198174,29.79762959246304],[-17.005620139775402,29.64782965680796],[-16.773127910256164,29.499947862034226],[-16.543787124962876,29.35392672225243],[-16.31749021112742,29.209711721086844],[-16.094135151670997,29.067251101525002],[-15.873625093956065,28.92649567454742],[-15.655867993116033,28.787398644524743],[-15.440776286306345,28.649915449619222],[-15.228266594668753,28.514003615643354],[-15.018259450185724,28.379622622012743],[-14.810679044935739,28.24673377859134],[-14.60545300054872,28.115300112365368],[-14.402512155911154,27.985286263003424],[-14.201790371389876,27.856658386464613],[-14.003224348032973,27.72938406590927],[-13.806753460373898,27.6034322292464],[-13.612319601611063,27.47877307272328],[-13.41986704006365,27.35537799002386],[-13.229342285918307,27.233219506398104],[-13.040693967380491,27.11227121739247],[-12.85387271543425,26.992507731793925],[-12.66883105649103,26.873904618439035],[-12.485523312279469,26.756438356572104],[-12.303905506388958,26.640086289467092],[-12.123935276935612,26.52482658105489],[-11.945571794868613,26.410638175320543],[-11.768775687479035,26.297500758257765],[-11.593508966712648,26.185394722185936],[-11.419734961923893,26.07430113225275],[-11.247418256740218,25.96420169496118],[-11.07652462973428,25.85507872857279],[-10.907020998627928,25.74691513525274],[-10.73887536777454,25.639694374832185],[-10.57205677868825,25.533400440075553],[-10.406535263407193,25.428017833347592],[-10.24228180049488,25.323531544585034],[-10.079268273500531,25.219927030484666],[-9.917467431712396,25.117190194826627],[-9.756852853051697,25.01530736985816]]}}]}