{"type":"FeatureCollection","features":[{"type":"Feature","properties":{"magnitude":0.5,"de":0.5,"ate":0.8,"percentagem":50.0},"geometry":{"type":"MultiPolygon","coordinates":[[[[-34.5,30.0],[-34.5,31.347440050551242],[-32.07961436680577,30.0],[-34.5,30.0]]],[[[-3.539999999998827,31.1776222881646],[-7.679999999998984,33.71883093268156],[-19.019999999999413,40.88339249993433],[-22.499999999999545,43.00973538129336],[-25.75945362216163,44.939999999999685],[-3.5399999999988268,44.939999999999685],[-3.539999999998827,31.1776222881646]]]]}},{"type":"Feature","properties":{"magnitude":0.8,"de":0.8,"ate":0.95,"percentagem":80.0},"geometry":{"type":"MultiPolygon","coordinates":[[[[-32.07961436680577,30.0],[-34.5,31.347440050551242],[-34.5,37.3366729134811],[-31.439999999999884,35.65121418261822],[-28.379999999999768,33.89697005846686],[-25.199999999999648,32.004571789732296],[-21.943227604483344,30.0],[-32.07961436680577,30.0]]],[[[-13.029663661787936,30.000000000000004],[-19.559999999999434,34.09946242106797],[-24.71999999999963,37.21526214901315],[-29.639999999999816,40.03514294325092],[-34.5,42.656365828249534],[-34.5,44.939999999999685],[-25.75945362216163,44.939999999999685],[-22.499999999999545,43.00973538129335],[-19.019999999999413,40.88339249993433],[-7.679999999998984,33.71883093268156],[-3.539999999998827,31.1776222881646],[-3.5399999999988268,30.0],[-13.029663661787936,30.000000000000004]]]]}},{"type":"Feature","properties":{"magnitude":0.95,"de":0.95,"ate":0.99,"percentagem":95.0},"geometry":{"type":"MultiPolygon","coordinates":[[[[-21.943227604483344,30.0],[-25.319999999999652,32.077200941021566],[-28.43999999999977,33.932015300174925],[-31.499999999999886,35.684931587159284],[-34.5,37.3366729134811],[-34.5,39.00730779868606],[-30.83999999999986,36.98956849378516],[-27.179999999999723,34.87446352833065],[-23.339999999999577,32.55776941487987],[-19.25593391846274,30.0],[-21.943227604483344,30.0]]],[[[-15.8280037915636,30.0],[-21.179999999999495,33.32809937338289],[-25.739999999999668,36.053539922077896],[-30.119999999999834,38.547499096976935],[-34.5,40.907430612010884],[-34.5,42.656365828249534],[-29.639999999999816,40.03514294325092],[-24.659999999999627,37.17990489548616],[-19.49999999999943,34.06242846256463],[-13.029663661787936,30.000000000000004],[-15.8280037915636,30.0]]]]}},{"type":"Feature","properties":{"magnitude":0.99,"de":0.99,"ate":2.0,"percentagem":99.0},"geometry":{"type":"Polygon","coordinates":[[[-23.39999999999958,32.59467535331087],[-19.25593391846274,30.0],[-15.8280037915636,30.0],[-21.05999999999949,33.254809425416695],[-25.679999999999666,36.01849468464479],[-30.119999999999834,38.547499096976935],[-34.5,40.907430612010884],[-34.5,39.00730779868606],[-30.83999999999986,36.98956849378516],[-27.179999999999723,34.87446352833065],[-23.39999999999958,32.59467535331087]]]}}]}