{"type":"FeatureCollection","properties":{"largura_maxima_km":142.151,"largura_sobre_pt_km":140.297,"linha_central_sobre_pt":false,"desenhavel_como_area":true,"perfil_largura":[{"t":-0.71111,"lat":31.7694,"lon":-39.9554,"largura_km":127.357,"eixo_na_terra":true},{"t":-0.70556,"lat":31.7564,"lon":-39.7692,"largura_km":127.5,"eixo_na_terra":true},{"t":-0.7,"lat":31.743,"lon":-39.5839,"largura_km":127.642,"eixo_na_terra":true},{"t":-0.69444,"lat":31.7293,"lon":-39.3995,"largura_km":127.783,"eixo_na_terra":true},{"t":-0.68889,"lat":31.7153,"lon":-39.2161,"largura_km":127.923,"eixo_na_terra":true},{"t":-0.68333,"lat":31.701,"lon":-39.0336,"largura_km":128.062,"eixo_na_terra":true},{"t":-0.67778,"lat":31.6864,"lon":-38.8519,"largura_km":128.199,"eixo_na_terra":true},{"t":-0.67222,"lat":31.6716,"lon":-38.6712,"largura_km":128.336,"eixo_na_terra":true},{"t":-0.66667,"lat":31.6564,"lon":-38.4913,"largura_km":128.472,"eixo_na_terra":true},{"t":-0.66111,"lat":31.6409,"lon":-38.3123,"largura_km":128.607,"eixo_na_terra":true},{"t":-0.65556,"lat":31.6251,"lon":-38.1341,"largura_km":128.741,"eixo_na_terra":true},{"t":-0.65,"lat":31.6091,"lon":-37.9568,"largura_km":128.874,"eixo_na_terra":true},{"t":-0.64444,"lat":31.5928,"lon":-37.7803,"largura_km":129.006,"eixo_na_terra":true},{"t":-0.63889,"lat":31.5762,"lon":-37.6047,"largura_km":129.137,"eixo_na_terra":true},{"t":-0.63333,"lat":31.5593,"lon":-37.4298,"largura_km":129.266,"eixo_na_terra":true},{"t":-0.62778,"lat":31.5421,"lon":-37.2558,"largura_km":129.396,"eixo_na_terra":true},{"t":-0.62222,"lat":31.5246,"lon":-37.0825,"largura_km":129.525,"eixo_na_terra":true},{"t":-0.61667,"lat":31.5069,"lon":-36.9101,"largura_km":129.652,"eixo_na_terra":true},{"t":-0.61111,"lat":31.489,"lon":-36.7384,"largura_km":129.779,"eixo_na_terra":true},{"t":-0.60556,"lat":31.4707,"lon":-36.5674,"largura_km":129.905,"eixo_na_terra":true},{"t":-0.6,"lat":31.4522,"lon":-36.3973,"largura_km":130.029,"eixo_na_terra":true},{"t":-0.59444,"lat":31.4334,"lon":-36.2279,"largura_km":130.153,"eixo_na_terra":true},{"t":-0.58889,"lat":31.4144,"lon":-36.0592,"largura_km":130.275,"eixo_na_terra":true},{"t":-0.58333,"lat":31.3951,"lon":-35.8912,"largura_km":130.397,"eixo_na_terra":true},{"t":-0.57778,"lat":31.3756,"lon":-35.724,"largura_km":130.518,"eixo_na_terra":true},{"t":-0.57222,"lat":31.3558,"lon":-35.5575,"largura_km":130.637,"eixo_na_terra":true},{"t":-0.56667,"lat":31.3357,"lon":-35.3917,"largura_km":130.756,"eixo_na_terra":true},{"t":-0.56111,"lat":31.3154,"lon":-35.2266,"largura_km":130.874,"eixo_na_terra":true},{"t":-0.55556,"lat":31.2949,"lon":-35.0622,"largura_km":130.991,"eixo_na_terra":true},{"t":-0.55,"lat":31.2741,"lon":-34.8985,"largura_km":131.108,"eixo_na_terra":true},{"t":-0.54444,"lat":31.253,"lon":-34.7355,"largura_km":131.224,"eixo_na_terra":true},{"t":-0.53889,"lat":31.2318,"lon":-34.5731,"largura_km":131.339,"eixo_na_terra":true},{"t":-0.53333,"lat":31.2103,"lon":-34.4114,"largura_km":131.453,"eixo_na_terra":true},{"t":-0.52778,"lat":31.1885,"lon":-34.2503,"largura_km":131.566,"eixo_na_terra":true},{"t":-0.52222,"lat":31.1665,"lon":-34.0899,"largura_km":131.68,"eixo_na_terra":true},{"t":-0.51667,"lat":31.1443,"lon":-33.9302,"largura_km":131.792,"eixo_na_terra":true},{"t":-0.51111,"lat":31.1219,"lon":-33.7711,"largura_km":131.904,"eixo_na_terra":true},{"t":-0.50556,"lat":31.0992,"lon":-33.6126,"largura_km":132.014,"eixo_na_terra":true},{"t":-0.5,"lat":31.0763,"lon":-33.4547,"largura_km":132.124,"eixo_na_terra":true},{"t":-0.49444,"lat":31.0531,"lon":-33.2975,"largura_km":132.233,"eixo_na_terra":true},{"t":-0.48889,"lat":31.0298,"lon":-33.1408,"largura_km":132.341,"eixo_na_terra":true},{"t":-0.48333,"lat":31.0062,"lon":-32.9848,"largura_km":132.448,"eixo_na_terra":true},{"t":-0.47778,"lat":30.9824,"lon":-32.8294,"largura_km":132.554,"eixo_na_terra":true},{"t":-0.47222,"lat":30.9584,"lon":-32.6745,"largura_km":132.66,"eixo_na_terra":true},{"t":-0.46667,"lat":30.9341,"lon":-32.5203,"largura_km":132.764,"eixo_na_terra":true},{"t":-0.46111,"lat":30.9097,"lon":-32.3666,"largura_km":132.868,"eixo_na_terra":true},{"t":-0.45556,"lat":30.885,"lon":-32.2135,"largura_km":132.971,"eixo_na_terra":true},{"t":-0.45,"lat":30.8601,"lon":-32.061,"largura_km":133.073,"eixo_na_terra":true},{"t":-0.44444,"lat":30.835,"lon":-31.909,"largura_km":133.175,"eixo_na_terra":true},{"t":-0.43889,"lat":30.8097,"lon":-31.7576,"largura_km":133.276,"eixo_na_terra":true},{"t":-0.43333,"lat":30.7841,"lon":-31.6067,"largura_km":133.377,"eixo_na_terra":true},{"t":-0.42778,"lat":30.7584,"lon":-31.4564,"largura_km":133.477,"eixo_na_terra":true},{"t":-0.42222,"lat":30.7325,"lon":-31.3067,"largura_km":133.576,"eixo_na_terra":true},{"t":-0.41667,"lat":30.7063,"lon":-31.1574,"largura_km":133.674,"eixo_na_terra":true},{"t":-0.41111,"lat":30.68,"lon":-31.0087,"largura_km":133.773,"eixo_na_terra":true},{"t":-0.40556,"lat":30.6534,"lon":-30.8606,"largura_km":133.871,"eixo_na_terra":true},{"t":-0.4,"lat":30.6266,"lon":-30.7129,"largura_km":133.967,"eixo_na_terra":true},{"t":-0.39444,"lat":30.5997,"lon":-30.5658,"largura_km":134.063,"eixo_na_terra":true},{"t":-0.38889,"lat":30.5725,"lon":-30.4191,"largura_km":134.159,"eixo_na_terra":true},{"t":-0.38333,"lat":30.5452,"lon":-30.273,"largura_km":134.253,"eixo_na_terra":true},{"t":-0.37778,"lat":30.5176,"lon":-30.1274,"largura_km":134.347,"eixo_na_terra":true},{"t":-0.37222,"lat":30.4899,"lon":-29.9823,"largura_km":134.44,"eixo_na_terra":true},{"t":-0.36667,"lat":30.4619,"lon":-29.8376,"largura_km":134.532,"eixo_na_terra":true},{"t":-0.36111,"lat":30.4338,"lon":-29.6935,"largura_km":134.624,"eixo_na_terra":true},{"t":-0.35556,"lat":30.4055,"lon":-29.5498,"largura_km":134.715,"eixo_na_terra":true},{"t":-0.35,"lat":30.377,"lon":-29.4066,"largura_km":134.805,"eixo_na_terra":true},{"t":-0.34444,"lat":30.3483,"lon":-29.2639,"largura_km":134.894,"eixo_na_terra":true},{"t":-0.33889,"lat":30.3194,"lon":-29.1217,"largura_km":134.982,"eixo_na_terra":true},{"t":-0.33333,"lat":30.2903,"lon":-28.9799,"largura_km":135.07,"eixo_na_terra":true},{"t":-0.32778,"lat":30.261,"lon":-28.8386,"largura_km":135.158,"eixo_na_terra":true},{"t":-0.32222,"lat":30.2316,"lon":-28.6977,"largura_km":135.245,"eixo_na_terra":true},{"t":-0.31667,"lat":30.2019,"lon":-28.5573,"largura_km":135.332,"eixo_na_terra":true},{"t":-0.31111,"lat":30.1721,"lon":-28.4173,"largura_km":135.418,"eixo_na_terra":true},{"t":-0.30556,"lat":30.1421,"lon":-28.2778,"largura_km":135.503,"eixo_na_terra":true},{"t":-0.3,"lat":30.1119,"lon":-28.1387,"largura_km":135.589,"eixo_na_terra":true},{"t":-0.29444,"lat":30.0816,"lon":-28.0,"largura_km":135.673,"eixo_na_terra":true},{"t":-0.28889,"lat":30.051,"lon":-27.8618,"largura_km":135.758,"eixo_na_terra":true},{"t":-0.28333,"lat":30.0203,"lon":-27.724,"largura_km":135.841,"eixo_na_terra":true},{"t":-0.27778,"lat":29.9894,"lon":-27.5867,"largura_km":135.924,"eixo_na_terra":true},{"t":-0.27222,"lat":29.9583,"lon":-27.4497,"largura_km":136.005,"eixo_na_terra":true},{"t":-0.26667,"lat":29.9271,"lon":-27.3132,"largura_km":136.087,"eixo_na_terra":true},{"t":-0.26111,"lat":29.8956,"lon":-27.1771,"largura_km":136.167,"eixo_na_terra":true},{"t":-0.25556,"lat":29.864,"lon":-27.0413,"largura_km":136.247,"eixo_na_terra":true},{"t":-0.25,"lat":29.8323,"lon":-26.906,"largura_km":136.326,"eixo_na_terra":true},{"t":-0.24444,"lat":29.8003,"lon":-26.7711,"largura_km":136.405,"eixo_na_terra":true},{"t":-0.23889,"lat":29.7682,"lon":-26.6366,"largura_km":136.483,"eixo_na_terra":true},{"t":-0.23333,"lat":29.7359,"lon":-26.5025,"largura_km":136.56,"eixo_na_terra":true},{"t":-0.22778,"lat":29.7035,"lon":-26.3688,"largura_km":136.637,"eixo_na_terra":true},{"t":-0.22222,"lat":29.6708,"lon":-26.2354,"largura_km":136.713,"eixo_na_terra":true},{"t":-0.21667,"lat":29.6381,"lon":-26.1024,"largura_km":136.788,"eixo_na_terra":true},{"t":-0.21111,"lat":29.6051,"lon":-25.9699,"largura_km":136.863,"eixo_na_terra":true},{"t":-0.20556,"lat":29.572,"lon":-25.8377,"largura_km":136.938,"eixo_na_terra":true},{"t":-0.2,"lat":29.5387,"lon":-25.7058,"largura_km":137.012,"eixo_na_terra":true},{"t":-0.19444,"lat":29.5052,"lon":-25.5744,"largura_km":137.085,"eixo_na_terra":true},{"t":-0.18889,"lat":29.4716,"lon":-25.4433,"largura_km":137.158,"eixo_na_terra":true},{"t":-0.18333,"lat":29.4378,"lon":-25.3125,"largura_km":137.232,"eixo_na_terra":true},{"t":-0.17778,"lat":29.4039,"lon":-25.1821,"largura_km":137.304,"eixo_na_terra":true},{"t":-0.17222,"lat":29.3698,"lon":-25.0521,"largura_km":137.376,"eixo_na_terra":true},{"t":-0.16667,"lat":29.3355,"lon":-24.9224,"largura_km":137.448,"eixo_na_terra":true},{"t":-0.16111,"lat":29.3011,"lon":-24.7931,"largura_km":137.518,"eixo_na_terra":true},{"t":-0.15556,"lat":29.2665,"lon":-24.6641,"largura_km":137.589,"eixo_na_terra":true},{"t":-0.15,"lat":29.2318,"lon":-24.5355,"largura_km":137.658,"eixo_na_terra":true},{"t":-0.14444,"lat":29.1969,"lon":-24.4072,"largura_km":137.727,"eixo_na_terra":true},{"t":-0.13889,"lat":29.1618,"lon":-24.2792,"largura_km":137.795,"eixo_na_terra":true},{"t":-0.13333,"lat":29.1266,"lon":-24.1516,"largura_km":137.863,"eixo_na_terra":true},{"t":-0.12778,"lat":29.0913,"lon":-24.0243,"largura_km":137.93,"eixo_na_terra":true},{"t":-0.12222,"lat":29.0557,"lon":-23.8973,"largura_km":137.996,"eixo_na_terra":true},{"t":-0.11667,"lat":29.0201,"lon":-23.7707,"largura_km":138.062,"eixo_na_terra":true},{"t":-0.11111,"lat":28.9842,"lon":-23.6444,"largura_km":138.127,"eixo_na_terra":true},{"t":-0.10556,"lat":28.9482,"lon":-23.5183,"largura_km":138.192,"eixo_na_terra":true},{"t":-0.1,"lat":28.9121,"lon":-23.3926,"largura_km":138.256,"eixo_na_terra":true},{"t":-0.09444,"lat":28.8758,"lon":-23.2673,"largura_km":138.319,"eixo_na_terra":true},{"t":-0.08889,"lat":28.8394,"lon":-23.1422,"largura_km":138.382,"eixo_na_terra":true},{"t":-0.08333,"lat":28.8028,"lon":-23.0174,"largura_km":138.445,"eixo_na_terra":true},{"t":-0.07778,"lat":28.766,"lon":-22.893,"largura_km":138.507,"eixo_na_terra":true},{"t":-0.07222,"lat":28.7291,"lon":-22.7688,"largura_km":138.569,"eixo_na_terra":true},{"t":-0.06667,"lat":28.6921,"lon":-22.6449,"largura_km":138.63,"eixo_na_terra":true},{"t":-0.06111,"lat":28.6549,"lon":-22.5214,"largura_km":138.692,"eixo_na_terra":true},{"t":-0.05556,"lat":28.6176,"lon":-22.3981,"largura_km":138.753,"eixo_na_terra":true},{"t":-0.05,"lat":28.5801,"lon":-22.2751,"largura_km":138.814,"eixo_na_terra":true},{"t":-0.04444,"lat":28.5425,"lon":-22.1524,"largura_km":138.874,"eixo_na_terra":true},{"t":-0.03889,"lat":28.5047,"lon":-22.03,"largura_km":138.933,"eixo_na_terra":true},{"t":-0.03333,"lat":28.4668,"lon":-21.9079,"largura_km":138.992,"eixo_na_terra":true},{"t":-0.02778,"lat":28.4287,"lon":-21.786,"largura_km":139.05,"eixo_na_terra":true},{"t":-0.02222,"lat":28.3905,"lon":-21.6644,"largura_km":139.108,"eixo_na_terra":true},{"t":-0.01667,"lat":28.3521,"lon":-21.5431,"largura_km":139.165,"eixo_na_terra":true},{"t":-0.01111,"lat":28.3136,"lon":-21.4221,"largura_km":139.222,"eixo_na_terra":true},{"t":-0.00556,"lat":28.275,"lon":-21.3013,"largura_km":139.278,"eixo_na_terra":true},{"t":-0.0,"lat":28.2362,"lon":-21.1808,"largura_km":139.333,"eixo_na_terra":true},{"t":0.00556,"lat":28.1973,"lon":-21.0606,"largura_km":139.388,"eixo_na_terra":true},{"t":0.01111,"lat":28.1582,"lon":-20.9406,"largura_km":139.442,"eixo_na_terra":true},{"t":0.01667,"lat":28.119,"lon":-20.8209,"largura_km":139.496,"eixo_na_terra":true},{"t":0.02222,"lat":28.0796,"lon":-20.7014,"largura_km":139.549,"eixo_na_terra":true},{"t":0.02778,"lat":28.0402,"lon":-20.5822,"largura_km":139.602,"eixo_na_terra":true},{"t":0.03333,"lat":28.0005,"lon":-20.4633,"largura_km":139.654,"eixo_na_terra":true},{"t":0.03889,"lat":27.9608,"lon":-20.3445,"largura_km":139.706,"eixo_na_terra":true},{"t":0.04444,"lat":27.9208,"lon":-20.2261,"largura_km":139.757,"eixo_na_terra":true},{"t":0.05,"lat":27.8808,"lon":-20.1079,"largura_km":139.807,"eixo_na_terra":true},{"t":0.05556,"lat":27.8406,"lon":-19.9899,"largura_km":139.858,"eixo_na_terra":true},{"t":0.06111,"lat":27.8003,"lon":-19.8721,"largura_km":139.908,"eixo_na_terra":true},{"t":0.06667,"lat":27.7598,"lon":-19.7546,"largura_km":139.958,"eixo_na_terra":true},{"t":0.07222,"lat":27.7192,"lon":-19.6373,"largura_km":140.008,"eixo_na_terra":true},{"t":0.07778,"lat":27.6785,"lon":-19.5203,"largura_km":140.057,"eixo_na_terra":true},{"t":0.08333,"lat":27.6376,"lon":-19.4035,"largura_km":140.106,"eixo_na_terra":true},{"t":0.08889,"lat":27.5966,"lon":-19.2869,"largura_km":140.155,"eixo_na_terra":true},{"t":0.09444,"lat":27.5555,"lon":-19.1705,"largura_km":140.203,"eixo_na_terra":true},{"t":0.1,"lat":27.5142,"lon":-19.0543,"largura_km":140.25,"eixo_na_terra":true},{"t":0.10556,"lat":27.4728,"lon":-18.9384,"largura_km":140.297,"eixo_na_terra":true},{"t":0.11111,"lat":27.4312,"lon":-18.8227,"largura_km":140.344,"eixo_na_terra":true},{"t":0.11667,"lat":27.3895,"lon":-18.7072,"largura_km":140.389,"eixo_na_terra":true},{"t":0.12222,"lat":27.3477,"lon":-18.5919,"largura_km":140.435,"eixo_na_terra":true},{"t":0.12778,"lat":27.3058,"lon":-18.4768,"largura_km":140.48,"eixo_na_terra":true},{"t":0.13333,"lat":27.2637,"lon":-18.362,"largura_km":140.524,"eixo_na_terra":true},{"t":0.13889,"lat":27.2215,"lon":-18.2473,"largura_km":140.568,"eixo_na_terra":true},{"t":0.14444,"lat":27.1791,"lon":-18.1328,"largura_km":140.611,"eixo_na_terra":true},{"t":0.15,"lat":27.1367,"lon":-18.0186,"largura_km":140.654,"eixo_na_terra":true},{"t":0.15556,"lat":27.094,"lon":-17.9045,"largura_km":140.696,"eixo_na_terra":true},{"t":0.16111,"lat":27.0513,"lon":-17.7906,"largura_km":140.738,"eixo_na_terra":true},{"t":0.16667,"lat":27.0084,"lon":-17.6769,"largura_km":140.779,"eixo_na_terra":true},{"t":0.17222,"lat":26.9654,"lon":-17.5635,"largura_km":140.82,"eixo_na_terra":true},{"t":0.17778,"lat":26.9223,"lon":-17.4502,"largura_km":140.86,"eixo_na_terra":true},{"t":0.18333,"lat":26.879,"lon":-17.3371,"largura_km":140.9,"eixo_na_terra":true},{"t":0.18889,"lat":26.8356,"lon":-17.2241,"largura_km":140.939,"eixo_na_terra":true},{"t":0.19444,"lat":26.7921,"lon":-17.1114,"largura_km":140.978,"eixo_na_terra":true},{"t":0.2,"lat":26.7485,"lon":-16.9988,"largura_km":141.016,"eixo_na_terra":true},{"t":0.20556,"lat":26.7047,"lon":-16.8864,"largura_km":141.054,"eixo_na_terra":true},{"t":0.21111,"lat":26.6608,"lon":-16.7742,"largura_km":141.092,"eixo_na_terra":true},{"t":0.21667,"lat":26.6167,"lon":-16.6622,"largura_km":141.13,"eixo_na_terra":true},{"t":0.22222,"lat":26.5726,"lon":-16.5503,"largura_km":141.168,"eixo_na_terra":true},{"t":0.22778,"lat":26.5283,"lon":-16.4386,"largura_km":141.205,"eixo_na_terra":true},{"t":0.23333,"lat":26.4838,"lon":-16.3271,"largura_km":141.242,"eixo_na_terra":true},{"t":0.23889,"lat":26.4393,"lon":-16.2157,"largura_km":141.279,"eixo_na_terra":true},{"t":0.24444,"lat":26.3946,"lon":-16.1045,"largura_km":141.314,"eixo_na_terra":true},{"t":0.25,"lat":26.3498,"lon":-15.9935,"largura_km":141.35,"eixo_na_terra":true},{"t":0.25556,"lat":26.3049,"lon":-15.8826,"largura_km":141.385,"eixo_na_terra":true},{"t":0.26111,"lat":26.2598,"lon":-15.7719,"largura_km":141.419,"eixo_na_terra":true},{"t":0.26667,"lat":26.2146,"lon":-15.6613,"largura_km":141.453,"eixo_na_terra":true},{"t":0.27222,"lat":26.1693,"lon":-15.5509,"largura_km":141.486,"eixo_na_terra":true},{"t":0.27778,"lat":26.1239,"lon":-15.4406,"largura_km":141.519,"eixo_na_terra":true},{"t":0.28333,"lat":26.0783,"lon":-15.3305,"largura_km":141.551,"eixo_na_terra":true},{"t":0.28889,"lat":26.0326,"lon":-15.2205,"largura_km":141.583,"eixo_na_terra":true},{"t":0.29444,"lat":25.9868,"lon":-15.1107,"largura_km":141.615,"eixo_na_terra":true},{"t":0.3,"lat":25.9409,"lon":-15.001,"largura_km":141.646,"eixo_na_terra":true},{"t":0.30556,"lat":25.8948,"lon":-14.8914,"largura_km":141.676,"eixo_na_terra":true},{"t":0.31111,"lat":25.8486,"lon":-14.782,"largura_km":141.706,"eixo_na_terra":true},{"t":0.31667,"lat":25.8023,"lon":-14.6727,"largura_km":141.736,"eixo_na_terra":true},{"t":0.32222,"lat":25.7559,"lon":-14.5636,"largura_km":141.765,"eixo_na_terra":true},{"t":0.32778,"lat":25.7093,"lon":-14.4546,"largura_km":141.794,"eixo_na_terra":true},{"t":0.33333,"lat":25.6626,"lon":-14.3457,"largura_km":141.822,"eixo_na_terra":true},{"t":0.33889,"lat":25.6158,"lon":-14.2369,"largura_km":141.849,"eixo_na_terra":true},{"t":0.34444,"lat":25.5689,"lon":-14.1283,"largura_km":141.876,"eixo_na_terra":true},{"t":0.35,"lat":25.5218,"lon":-14.0197,"largura_km":141.903,"eixo_na_terra":true},{"t":0.35556,"lat":25.4746,"lon":-13.9114,"largura_km":141.929,"eixo_na_terra":true},{"t":0.36111,"lat":25.4273,"lon":-13.8031,"largura_km":141.955,"eixo_na_terra":true},{"t":0.36667,"lat":25.3799,"lon":-13.6949,"largura_km":141.98,"eixo_na_terra":true},{"t":0.37222,"lat":25.3323,"lon":-13.5869,"largura_km":142.005,"eixo_na_terra":true},{"t":0.37778,"lat":25.2846,"lon":-13.4789,"largura_km":142.03,"eixo_na_terra":true},{"t":0.38333,"lat":25.2368,"lon":-13.3711,"largura_km":142.055,"eixo_na_terra":true},{"t":0.38889,"lat":25.1889,"lon":-13.2634,"largura_km":142.079,"eixo_na_terra":true},{"t":0.39444,"lat":25.1409,"lon":-13.1558,"largura_km":142.104,"eixo_na_terra":true},{"t":0.4,"lat":25.0927,"lon":-13.0483,"largura_km":142.127,"eixo_na_terra":true},{"t":0.40556,"lat":25.0444,"lon":-12.9409,"largura_km":142.151,"eixo_na_terra":true}]},"features":[{"type":"Feature","properties":{},"geometry":{"type":"Polygon","coordinates":[[[-13.250858289195634,24.471468809191116],[-13.6778980120217,24.66274909704872],[-14.095861777430315,24.84737950789809],[-14.850489301334505,25.174143482301616],[-15.284466125797394,25.35819201069217],[-15.720618106424809,25.540283650835757],[-16.159079896794083,25.720407099229618],[-16.489523635925195,25.854200573816158],[-16.821400635180282,25.98687418529515],[-17.25510817296521,26.1576807753717],[-17.7026865651562,26.330839649621595],[-18.040285356671035,26.459375046307606],[-18.49308469700742,26.628962722985484],[-18.834763840688993,26.754798304624092],[-19.293226246801453,26.920755756022594],[-19.639321921573753,27.043844477592067],[-20.092403397088674,27.2021487572042],[-20.44322276095926,27.322463684147273],[-20.91433718214995,27.480988279069535],[-21.270276448391854,27.598445483742335],[-21.98914708010568,27.829614364967547],[-22.35221908977843,27.943300454874837],[-22.828366108520243,28.08931594937722],[-23.320991545073014,28.23662089383793],[-23.693623794591815,28.345558799800706],[-24.069053967432012,28.453158463782465],[-24.447361972022804,28.559403375660963],[-24.828629617488332,28.66427634305196],[-25.21294072406738,28.767759465559045],[-25.717937238791563,28.90038973909937],[-26.10963601823488,29.00058815434602],[-26.637109422735875,29.13191981444045],[-27.036743123057818,29.228691093204816],[-27.43993815563067,29.32395679595309],[-27.846795079571677,29.417693516392422],[-28.25741757108821,29.509876875199218],[-28.6591695995792,29.597757820152353],[-29.077588284089046,29.68679292215576],[-29.500102895141907,29.774195789419743],[-29.92683156248117,29.859937673434267],[-30.357896620593408,29.943988587035417],[-30.793424877636994,30.026317238470565],[-31.23354790529504,30.106890960297054],[-31.66519263621194,30.183396275361584],[-32.114852215933126,30.260396115373762],[-32.87551536348158,30.384573836510203],[-33.650847652748496,30.50339730694387],[-34.123408857929974,30.57203962722076],[-34.58802598542991,30.636803363350722],[-35.07216889536659,30.70135420109143],[-35.56242812394464,30.763763908354047],[-36.39367931149417,30.862877587057397],[-36.90127808543315,30.919312299392512],[-37.24350673595032,30.955634613590824],[-37.74856035942429,31.006759246171995],[-38.098738691065705,31.04042201727002],[-38.63029410793749,31.08882470068372],[-38.98897782693106,31.119667450267745],[-39.5336922029594,31.163736549570018],[-39.9014283350445,31.191618007464065],[-40.01552559754717,32.34733031565571],[-39.453833007810715,32.30943353184208],[-38.9004817434307,32.26869423013312],[-38.34067950304916,32.223955963629024],[-37.803198915653695,32.17772536087225],[-37.27318405410182,32.128890493974986],[-36.75037588034729,32.07752181815804],[-36.23452910081366,32.02368605490504],[-35.55716187288303,31.94817621419423],[-35.04274653148474,31.887087850597094],[-34.38519269460997,31.804370997368466],[-33.89901429337124,31.739763560601116],[-33.25974093731071,31.650288935495656],[-32.786782072762946,31.580745704700426],[-32.16451521208688,31.484856800198543],[-31.69047988464422,31.408392885164464],[-31.08416002863143,31.30634301317199],[-30.635069833468208,31.22759483412369],[-30.043554336228993,31.119718519188805],[-29.460063961809283,31.008626879470008],[-28.88430157241592,30.894397151044632],[-28.444493842164775,30.80400848472348],[-27.88166047547,30.68441153590638],[-27.325803000472035,30.56186901225284],[-26.77667030509994,30.436443670405627],[-26.234021361306247,30.308194970109444],[-25.818665404549165,30.207079833853108],[-25.286882112174453,30.07397956331402],[-24.76096387387767,29.938204836572975],[-24.240701265612103,29.799804307256643],[-23.72589185228739,29.65882411261002],[-23.216339677827932,29.515307999478058],[-22.699827377510758,29.36574848672862],[-22.07614431654821,29.179737640185703],[-21.459739744861594,28.989963851096253],[-20.850276301342376,28.796494521954486],[-20.127622760297527,28.5595414099751],[-19.520709430517144,28.354179710942972],[-18.93137196912113,28.14924213301737],[-18.347658958513904,27.940845816011993],[-17.65421526482737,27.686269011487372],[-16.967953584661586,27.426849823334678],[-16.390035172807245,27.202631578254532],[-15.827717811188279,26.97947478788935],[-15.158326920360508,26.707396479344396],[-14.604677951631658,26.4771212410835],[-13.944914005196011,26.196574380431677],[-13.289754488356351,25.91146044928098],[-12.628005796367091,25.616999200389436],[-13.250858289195634,24.471468809191116]]]}}]}