{"type":"FeatureCollection","features":[{"type":"Feature","properties":{"t_inicio":-0.7111111111111228,"t_fim":0.4055555555555399},"geometry":{"type":"LineString","coordinates":[[-39.955407469171575,31.769415038149784],[-39.76918008956119,31.75635895877799],[-39.58389515812297,31.74299001317411],[-39.39954063468559,31.72931138609488],[-39.216104722765834,31.715326198999627],[-39.03357586237951,31.701037511817788],[-38.85194272311918,31.686448324651565],[-38.671194197487296,31.67156157941679],[-38.49131939447278,31.656380161424657],[-38.3123076333608,31.640906900906984],[-38.13414843776516,31.62514457448734],[-37.956831529873455,31.609095906600455],[-37.780346824896355,31.592763570862218],[-37.60468442571161,31.576150191392074],[-37.42983461769501,31.55925834409014],[-37.25578786372995,31.542090557870747],[-37.08253479938864,31.52464931585421],[-36.91006622827706,31.50693705651869],[-36.738373117537776,31.48895617481363],[-36.56744659350329,31.470709023236306],[-36.397277937494664,31.452197912873174],[-36.22785858175854,31.43342511440719],[-36.05918010553802,31.414392859092583],[-35.89123423127134,31.39510333969827],[-35.72401282091346,31.37555871142132],[-35.55750787237611,31.355761092771324],[-35.391711516081045,31.33571256642711],[-35.22661601162267,31.315415180066662],[-35.062213744535455,31.294870947171276],[-34.898497223162366,31.27408184780502],[-34.73545907562044,31.253049829370322],[-34.57309204685956,31.231776807340637],[-34.41138899581148,31.210264665970968],[-34.250342892625156,31.188515258987206],[-34.089946815985684,31.16653041025476],[-33.93019395051337,31.14431191442765],[-33.77107758424029,31.121861537578322],[-33.6125911061614,31.099181017809208],[-33.45472800385764,31.07627206584649],[-33.297481861188146,31.053136365616833],[-33.14084635604951,31.02977557480745],[-32.98481525819949,31.006191325410374],[-32.829382427142804,30.982385224251345],[-32.6745418100771,30.958358853503658],[-32.52028743989695,30.934113771187846],[-32.36661343325369,30.909651511657447],[-32.213513988669234,30.884973586071233],[-32.0609833847023,30.86008148285272],[-31.909015978164916,30.834976668136846],[-31.757606202387677,30.809660586204913],[-31.606748565532143,30.784134659907398],[-31.456437648948736,30.75840029107577],[-31.30666810557858,30.73245886092309],[-31.15743465839813,30.706311730434233],[-31.008732098904773,30.679960240745523],[-30.860555285642192,30.653405713514783],[-30.7128991427646,30.626649451281395],[-30.56575865863806,30.59969273781731],[-30.419128884477715,30.572536838468768],[-30.27300493302053,30.545183000489487],[-30.127381977231238,30.517632453365206],[-29.98225524904157,30.48988640913],[-29.837620038120917,30.461946062674667],[-29.693471690677967,30.433812592047392],[-29.549805608291962,30.405487158746784],[-29.40661724677301,30.376970908007767],[-29.263902115050257,30.34826496908035],[-29.121655774087344,30.319370455501407],[-28.97987383582398,30.290288465360078],[-28.8385519621433,30.261020081556413],[-28.697685863863654,30.231566372054],[-28.557271299754746,30.20192839012624],[-28.41730407557668,30.17210717459689],[-28.277780043142116,30.142103750074813],[-28.13869509939974,30.111919127183082],[-28.000045185539562,30.08155430278271],[-27.861826286118628,30.051010260191052],[-27.72403442820672,30.020287969395127],[-27.586665680551675,29.9893883872599],[-27.449716152763642,29.958312457731783],[-27.313181994517606,29.927061112037293],[-27.177059394773778,29.89563526887721],[-27.041344581015352,29.86403583461632],[-26.90603381850309,29.832263703468602],[-26.77112340954625,29.800319757678427],[-26.636609692789534,29.768204867697474],[-26.50248904251532,29.735919892357735],[-26.368757867960994,29.70346567904043],[-26.235412612650975,29.670843063841485],[-26.102449753742746,29.638052871732814],[-25.969865801387016,29.605095916720458],[-25.837657298100908,29.571973001998884],[-25.705820818154535,29.538684920102003],[-25.574352966970082,29.505232453050795],[-25.443250380533414,29.471616372497742],[-25.312509724817488,29.437837439867987],[-25.182127695217787,29.40389640649746],[-25.052101015998687,29.369794013768008],[-24.92242643975132,29.33553099323951],[-24.79310074686208,29.301108066779104],[-24.66412074499138,29.266525946687793],[-24.535483268563098,29.23178533582401],[-24.407185178263433,29.196886927724787],[-24.27922336054985,29.161831406724186],[-24.151594727169282,29.126619448069167],[-24.024296214685478,29.09125171803305],[-23.897324784015268,29.05572887402647],[-23.77067741997371,29.02005156470602],[-23.64435113082746,28.984220430080562],[-23.518342947856496,28.948236101615194],[-23.392649924923944,28.912099202333124],[-23.267269138053706,28.875810346915365],[-23.142197685015446,28.83937014179818],[-23.017432684917537,28.80277918526865],[-22.892971277806623,28.76603806755804],[-22.76881062427475,28.729147370933365],[-22.644947905072996,28.69210766978686],[-22.52138032073202,28.654919530723642],[-22.39810509118891,28.617583512647535],[-22.275119455420622,28.580100166845],[-22.152420671083462,28.542470037067385],[-22.03000601415846,28.504693659611384],[-21.907872778603007,28.466771563397785],[-21.786018276007695,28.428704270048584],[-21.664439835259202,28.390492293962467],[-21.54313480220833,28.352136142388662],[-21.42210053934332,28.31363631549923],[-21.301334425468553,28.274993306459862],[-21.180833855388045,28.23620760149914],[-21.06059623959385,28.197279679976315],[-20.940619003959426,28.158210014447622],[-20.820899589437346,28.118999070731228],[-20.701435451761824,28.079647307970774],[-20.582224061155415,28.040155178697518],[-20.463262902040213,28.00052312889114],[-20.344549472752988,27.96075159803929],[-20.226081285264627,27.920841019195787],[-20.10785586490337,27.88079181903755],[-19.989870750082048,27.840604417920336],[-19.87212349202889,27.800279229933185],[-19.754611654522222,27.759816662951728],[-19.637332813628575,27.71921711869029],[-19.520284557444256,27.6784809927528],[-19.403464485840317,27.637608674682607],[-19.286870210210935,27.596600548011175],[-19.170499353224756,27.555456990305625],[-19.05434954857958,27.514178373215245],[-18.93841844075979,27.472765062516917],[-18.82270368479712,27.43121741815948],[-18.70720294603379,27.389535794307086],[-18.591913899888908,27.347720539381502],[-18.47683423162718,27.305771996103438],[-18.361961636130502,27.26369050153289],[-18.247293817671903,27.221476387108485],[-18.13282848969223,27.179129978685904],[-18.018563374578832,27.136651596575334],[-17.904496203447025,27.094041555577963],[-17.790624715923457,27.051300165021672],[-17.67694665993193,27.008427728795635],[-17.56345979148105,26.9654245453842],[-17.450161874454352,26.92229090789983],[-17.337050680401916,26.87902710411507],[-17.224123988334412,26.835633416493867],[-17.111379584518602,26.79211012222184],[-16.998815262274974,26.748457493235787],[-16.886428821776803,26.70467579625243],[-16.774218069851145,26.66076529279624],[-16.66218081978144,26.61672623922648],[-16.550314891111555,26.572558886763485],[-16.438618109451312,26.528263481514117],[-16.327088306283713,26.483840264496443],[-16.21572331877337,26.43928947166361],[-16.104520989576173,26.394611333927024],[-15.993479166650644,26.34980607717869],[-15.882595703070052,26.304873922312833],[-15.771868456836017,26.259815085246803],[-15.66129529069326,26.214629776941127],[-15.550874071945117,26.169318203419003],[-15.440602672270558,26.123880565784894],[-15.330478967541666,26.078317060242497],[-15.220500837642504,26.03262787811198],[-15.11066616628861,25.98681320584646],[-15.000972840847282,25.940873225047866],[-14.891418752158813,25.89480811248197],[-14.782001794358422,25.848618040092877],[-14.672719864698735,25.802303175016622],[-14.563570863372973,25.75586367959431],[-14.454552693338911,25.70929971138436],[-14.345663260142999,25.662611423174177],[-14.236900471745429,25.615798962991132],[-14.12826223834523,25.568862474112834],[-14.019746472206066,25.52180209507672],[-13.911351087482274,25.47461795968905],[-13.8030740000452,25.4273101970331],[-13.69491312730986,25.37987893147683],[-13.586866388061793,25.332324282679764],[-13.47893170228403,25.284646365599258],[-13.371106990984345,25.236845290496113],[-13.263390176022398,25.18892116293951],[-13.155779179937184,25.140874083811244],[-13.04827192577406,25.092704149309338],[-12.94086633691228,25.04441145095104]]}}]}