{"type":"FeatureCollection","features":[{"type":"Feature","properties":{"magnitude":0.2,"de":0.2,"ate":0.5,"percentagem":20.0},"geometry":{"type":"Polygon","coordinates":[[[-7.079999999998961,41.50020819350047],[-3.5399999999988268,40.02523395641123],[-3.5399999999988268,44.939999999999685],[-17.33647015968861,44.93999999999969],[-13.91999999999922,43.931041477876974],[-10.49999999999909,42.78505644400191],[-7.079999999998961,41.50020819350047]]]}},{"type":"Feature","properties":{"magnitude":0.5,"de":0.5,"ate":0.8,"percentagem":50.0},"geometry":{"type":"Polygon","coordinates":[[[-10.319999999999084,31.642824135725558],[-6.721386080291336,30.0],[-3.5399999999988268,30.0],[-3.5399999999988268,40.02523395641123],[-7.019999999998959,41.47642641704526],[-10.439999999999088,42.763717174043556],[-13.859999999999218,43.91212089072411],[-17.33647015968861,44.93999999999969],[-34.5,44.939999999999685],[-34.5,38.15385104675891],[-30.83999999999986,37.64232602335276],[-27.299999999999727,37.00109859550638],[-23.819999999999595,36.22056025370762],[-20.399999999999466,35.29957753772261],[-17.03999999999934,34.239117381281474],[-13.679999999999211,33.020130502775444],[-10.319999999999084,31.642824135725558]]]}},{"type":"Feature","properties":{"magnitude":0.8,"de":0.8,"ate":0.95,"percentagem":80.0},"geometry":{"type":"Polygon","coordinates":[[[-21.479999999999507,30.635094190276032],[-19.485924184992186,30.0],[-6.721386080291336,30.0],[-10.19999999999908,31.590767916439667],[-13.559999999999206,32.97364880152209],[-16.919999999999334,34.19832446427683],[-20.339999999999463,35.28200958226041],[-23.759999999999593,36.20574193908243],[-27.239999999999725,36.98893038120771],[-30.83999999999986,37.64232602335276],[-34.5,38.15385104675891],[-34.5,33.38570189542132],[-32.57999999999993,33.12121194964943],[-30.659999999999854,32.81083981264763],[-28.799999999999784,32.4646257725771],[-26.939999999999714,32.07187651691345],[-25.079999999999643,31.630944436300197],[-23.279999999999575,31.15691585140182],[-21.479999999999507,30.635094190276032]]]}},{"type":"Feature","properties":{"magnitude":0.95,"de":0.95,"ate":0.99,"percentagem":95.0},"geometry":{"type":"MultiPolygon","coordinates":[[[[-34.5,30.0],[-34.5,30.31314260885303],[-32.43066481128194,30.0],[-34.5,30.0]]],[[[-23.79093102599414,30.0],[-26.639999999999702,30.723663388467788],[-29.2199999999998,31.27778408678114],[-31.8599999999999,31.750079734498847],[-34.5,32.13163057801955],[-34.5,33.38570189542132],[-32.519999999999925,33.11221784361161],[-30.599999999999852,32.80038131330567],[-28.67999999999978,32.440710361872526],[-26.81999999999971,32.04489929003636],[-24.959999999999635,31.60080608353352],[-23.099999999999568,31.106903221273576],[-21.2999999999995,30.580242198770712],[-19.485924184992186,30.0],[-23.79093102599414,30.0]]]]}},{"type":"Feature","properties":{"magnitude":0.99,"de":0.99,"ate":2.0,"percentagem":99.0},"geometry":{"type":"Polygon","coordinates":[[[-34.5,30.31314260885303],[-32.43066481128194,30.0],[-23.79093102599414,30.0],[-26.399999999999693,30.667301233924626],[-29.039999999999793,31.242148823694293],[-31.7399999999999,31.730619234758528],[-34.5,32.13163057801955],[-34.5,30.31314260885303]]]}}]}