{"type":"FeatureCollection","properties":{"largura_maxima_km":452.72,"largura_sobre_pt_km":430.728,"linha_central_sobre_pt":true,"desenhavel_como_area":true,"perfil_largura":[{"t":-0.75556,"lat":25.0019,"lon":-21.444,"largura_km":452.72,"eixo_na_terra":true},{"t":-0.75,"lat":25.1056,"lon":-21.2734,"largura_km":452.328,"eixo_na_terra":true},{"t":-0.74444,"lat":25.2092,"lon":-21.1047,"largura_km":451.931,"eixo_na_terra":true},{"t":-0.73889,"lat":25.3127,"lon":-20.9381,"largura_km":451.528,"eixo_na_terra":true},{"t":-0.73333,"lat":25.416,"lon":-20.7734,"largura_km":451.119,"eixo_na_terra":true},{"t":-0.72778,"lat":25.5192,"lon":-20.6106,"largura_km":450.705,"eixo_na_terra":true},{"t":-0.72222,"lat":25.6222,"lon":-20.4497,"largura_km":450.286,"eixo_na_terra":true},{"t":-0.71667,"lat":25.7252,"lon":-20.2905,"largura_km":449.865,"eixo_na_terra":true},{"t":-0.71111,"lat":25.828,"lon":-20.1331,"largura_km":449.44,"eixo_na_terra":true},{"t":-0.70556,"lat":25.9307,"lon":-19.9774,"largura_km":449.009,"eixo_na_terra":true},{"t":-0.7,"lat":26.0333,"lon":-19.8234,"largura_km":448.573,"eixo_na_terra":true},{"t":-0.69444,"lat":26.1358,"lon":-19.6709,"largura_km":448.132,"eixo_na_terra":true},{"t":-0.68889,"lat":26.2382,"lon":-19.5201,"largura_km":447.685,"eixo_na_terra":true},{"t":-0.68333,"lat":26.3405,"lon":-19.3707,"largura_km":447.233,"eixo_na_terra":true},{"t":-0.67778,"lat":26.4426,"lon":-19.2229,"largura_km":446.775,"eixo_na_terra":true},{"t":-0.67222,"lat":26.5447,"lon":-19.0766,"largura_km":446.313,"eixo_na_terra":true},{"t":-0.66667,"lat":26.6468,"lon":-18.9316,"largura_km":445.846,"eixo_na_terra":true},{"t":-0.66111,"lat":26.7487,"lon":-18.7881,"largura_km":445.373,"eixo_na_terra":true},{"t":-0.65556,"lat":26.8505,"lon":-18.6459,"largura_km":444.896,"eixo_na_terra":true},{"t":-0.65,"lat":26.9523,"lon":-18.5051,"largura_km":444.418,"eixo_na_terra":true},{"t":-0.64444,"lat":27.054,"lon":-18.3656,"largura_km":443.937,"eixo_na_terra":true},{"t":-0.63889,"lat":27.1556,"lon":-18.2273,"largura_km":443.45,"eixo_na_terra":true},{"t":-0.63333,"lat":27.2571,"lon":-18.0903,"largura_km":442.959,"eixo_na_terra":true},{"t":-0.62778,"lat":27.3586,"lon":-17.9545,"largura_km":442.464,"eixo_na_terra":true},{"t":-0.62222,"lat":27.46,"lon":-17.8199,"largura_km":441.964,"eixo_na_terra":true},{"t":-0.61667,"lat":27.5613,"lon":-17.6865,"largura_km":441.46,"eixo_na_terra":true},{"t":-0.61111,"lat":27.6626,"lon":-17.5542,"largura_km":440.952,"eixo_na_terra":true},{"t":-0.60556,"lat":27.7638,"lon":-17.423,"largura_km":440.44,"eixo_na_terra":true},{"t":-0.6,"lat":27.865,"lon":-17.2929,"largura_km":439.925,"eixo_na_terra":true},{"t":-0.59444,"lat":27.9661,"lon":-17.1639,"largura_km":439.405,"eixo_na_terra":true},{"t":-0.58889,"lat":28.0672,"lon":-17.0359,"largura_km":438.882,"eixo_na_terra":true},{"t":-0.58333,"lat":28.1682,"lon":-16.909,"largura_km":438.355,"eixo_na_terra":true},{"t":-0.57778,"lat":28.2692,"lon":-16.7831,"largura_km":437.825,"eixo_na_terra":true},{"t":-0.57222,"lat":28.3701,"lon":-16.6581,"largura_km":437.294,"eixo_na_terra":true},{"t":-0.56667,"lat":28.471,"lon":-16.5341,"largura_km":436.761,"eixo_na_terra":true},{"t":-0.56111,"lat":28.5718,"lon":-16.4111,"largura_km":436.225,"eixo_na_terra":true},{"t":-0.55556,"lat":28.6726,"lon":-16.289,"largura_km":435.686,"eixo_na_terra":true},{"t":-0.55,"lat":28.7734,"lon":-16.1678,"largura_km":435.145,"eixo_na_terra":true},{"t":-0.54444,"lat":28.8741,"lon":-16.0475,"largura_km":434.602,"eixo_na_terra":true},{"t":-0.53889,"lat":28.9748,"lon":-15.9281,"largura_km":434.056,"eixo_na_terra":true},{"t":-0.53333,"lat":29.0754,"lon":-15.8095,"largura_km":433.507,"eixo_na_terra":true},{"t":-0.52778,"lat":29.1761,"lon":-15.6918,"largura_km":432.956,"eixo_na_terra":true},{"t":-0.52222,"lat":29.2767,"lon":-15.5748,"largura_km":432.403,"eixo_na_terra":true},{"t":-0.51667,"lat":29.3772,"lon":-15.4587,"largura_km":431.847,"eixo_na_terra":true},{"t":-0.51111,"lat":29.4778,"lon":-15.3434,"largura_km":431.289,"eixo_na_terra":true},{"t":-0.50556,"lat":29.5783,"lon":-15.2289,"largura_km":430.728,"eixo_na_terra":true},{"t":-0.5,"lat":29.6788,"lon":-15.1151,"largura_km":430.166,"eixo_na_terra":true},{"t":-0.49444,"lat":29.7793,"lon":-15.0021,"largura_km":429.602,"eixo_na_terra":true},{"t":-0.48889,"lat":29.8798,"lon":-14.8898,"largura_km":429.036,"eixo_na_terra":true},{"t":-0.48333,"lat":29.9802,"lon":-14.7783,"largura_km":428.468,"eixo_na_terra":true},{"t":-0.47778,"lat":30.0806,"lon":-14.6674,"largura_km":427.899,"eixo_na_terra":true},{"t":-0.47222,"lat":30.1811,"lon":-14.5573,"largura_km":427.331,"eixo_na_terra":true},{"t":-0.46667,"lat":30.2815,"lon":-14.4478,"largura_km":426.762,"eixo_na_terra":true},{"t":-0.46111,"lat":30.3819,"lon":-14.339,"largura_km":426.192,"eixo_na_terra":true},{"t":-0.45556,"lat":30.4822,"lon":-14.2308,"largura_km":425.62,"eixo_na_terra":true},{"t":-0.45,"lat":30.5826,"lon":-14.1233,"largura_km":425.046,"eixo_na_terra":true},{"t":-0.44444,"lat":30.683,"lon":-14.0164,"largura_km":424.472,"eixo_na_terra":true},{"t":-0.43889,"lat":30.7833,"lon":-13.9102,"largura_km":423.897,"eixo_na_terra":true},{"t":-0.43333,"lat":30.8837,"lon":-13.8045,"largura_km":423.321,"eixo_na_terra":true},{"t":-0.42778,"lat":30.984,"lon":-13.6995,"largura_km":422.743,"eixo_na_terra":true},{"t":-0.42222,"lat":31.0844,"lon":-13.5951,"largura_km":422.166,"eixo_na_terra":true},{"t":-0.41667,"lat":31.1847,"lon":-13.4912,"largura_km":421.587,"eixo_na_terra":true},{"t":-0.41111,"lat":31.2851,"lon":-13.3879,"largura_km":421.008,"eixo_na_terra":true},{"t":-0.40556,"lat":31.3854,"lon":-13.2851,"largura_km":420.428,"eixo_na_terra":true},{"t":-0.4,"lat":31.4858,"lon":-13.1829,"largura_km":419.848,"eixo_na_terra":true},{"t":-0.39444,"lat":31.5861,"lon":-13.0812,"largura_km":419.267,"eixo_na_terra":true},{"t":-0.38889,"lat":31.6865,"lon":-12.9801,"largura_km":418.687,"eixo_na_terra":true},{"t":-0.38333,"lat":31.7869,"lon":-12.8795,"largura_km":418.106,"eixo_na_terra":true},{"t":-0.37778,"lat":31.8872,"lon":-12.7794,"largura_km":417.525,"eixo_na_terra":true},{"t":-0.37222,"lat":31.9876,"lon":-12.6798,"largura_km":416.943,"eixo_na_terra":true},{"t":-0.36667,"lat":32.088,"lon":-12.5806,"largura_km":416.362,"eixo_na_terra":true},{"t":-0.36111,"lat":32.1884,"lon":-12.482,"largura_km":415.781,"eixo_na_terra":true},{"t":-0.35556,"lat":32.2888,"lon":-12.3838,"largura_km":415.2,"eixo_na_terra":true},{"t":-0.35,"lat":32.3892,"lon":-12.2861,"largura_km":414.62,"eixo_na_terra":true},{"t":-0.34444,"lat":32.4897,"lon":-12.1889,"largura_km":414.042,"eixo_na_terra":true},{"t":-0.33889,"lat":32.5901,"lon":-12.092,"largura_km":413.464,"eixo_na_terra":true},{"t":-0.33333,"lat":32.6906,"lon":-11.9957,"largura_km":412.887,"eixo_na_terra":true},{"t":-0.32778,"lat":32.7911,"lon":-11.8997,"largura_km":412.31,"eixo_na_terra":true},{"t":-0.32222,"lat":32.8916,"lon":-11.8042,"largura_km":411.734,"eixo_na_terra":true},{"t":-0.31667,"lat":32.9921,"lon":-11.7091,"largura_km":411.158,"eixo_na_terra":true},{"t":-0.31111,"lat":33.0927,"lon":-11.6144,"largura_km":410.583,"eixo_na_terra":true},{"t":-0.30556,"lat":33.1932,"lon":-11.5201,"largura_km":410.008,"eixo_na_terra":true},{"t":-0.3,"lat":33.2938,"lon":-11.4262,"largura_km":409.435,"eixo_na_terra":true},{"t":-0.29444,"lat":33.3944,"lon":-11.3327,"largura_km":408.862,"eixo_na_terra":true},{"t":-0.28889,"lat":33.4951,"lon":-11.2396,"largura_km":408.29,"eixo_na_terra":true},{"t":-0.28333,"lat":33.5957,"lon":-11.1468,"largura_km":407.719,"eixo_na_terra":true},{"t":-0.27778,"lat":33.6964,"lon":-11.0544,"largura_km":407.149,"eixo_na_terra":true},{"t":-0.27222,"lat":33.7971,"lon":-10.9623,"largura_km":406.581,"eixo_na_terra":true},{"t":-0.26667,"lat":33.8979,"lon":-10.8706,"largura_km":406.014,"eixo_na_terra":true},{"t":-0.26111,"lat":33.9986,"lon":-10.7792,"largura_km":405.448,"eixo_na_terra":true},{"t":-0.25556,"lat":34.0994,"lon":-10.6882,"largura_km":404.883,"eixo_na_terra":true},{"t":-0.25,"lat":34.2003,"lon":-10.5975,"largura_km":404.32,"eixo_na_terra":true},{"t":-0.24444,"lat":34.3011,"lon":-10.5071,"largura_km":403.758,"eixo_na_terra":true},{"t":-0.23889,"lat":34.402,"lon":-10.4171,"largura_km":403.197,"eixo_na_terra":true},{"t":-0.23333,"lat":34.503,"lon":-10.3273,"largura_km":402.638,"eixo_na_terra":true},{"t":-0.22778,"lat":34.6039,"lon":-10.2379,"largura_km":402.08,"eixo_na_terra":true},{"t":-0.22222,"lat":34.7049,"lon":-10.1487,"largura_km":401.524,"eixo_na_terra":true},{"t":-0.21667,"lat":34.8059,"lon":-10.0598,"largura_km":400.969,"eixo_na_terra":true},{"t":-0.21111,"lat":34.907,"lon":-9.9713,"largura_km":400.415,"eixo_na_terra":true},{"t":-0.20556,"lat":35.0081,"lon":-9.883,"largura_km":399.864,"eixo_na_terra":true},{"t":-0.2,"lat":35.1093,"lon":-9.7949,"largura_km":399.314,"eixo_na_terra":true},{"t":-0.19444,"lat":35.2105,"lon":-9.7071,"largura_km":398.765,"eixo_na_terra":true},{"t":-0.18889,"lat":35.3117,"lon":-9.6196,"largura_km":398.219,"eixo_na_terra":true},{"t":-0.18333,"lat":35.413,"lon":-9.5324,"largura_km":397.674,"eixo_na_terra":true},{"t":-0.17778,"lat":35.5143,"lon":-9.4454,"largura_km":397.131,"eixo_na_terra":true},{"t":-0.17222,"lat":35.6156,"lon":-9.3586,"largura_km":396.589,"eixo_na_terra":true},{"t":-0.16667,"lat":35.717,"lon":-9.2721,"largura_km":396.05,"eixo_na_terra":true},{"t":-0.16111,"lat":35.8185,"lon":-9.1858,"largura_km":395.514,"eixo_na_terra":true},{"t":-0.15556,"lat":35.92,"lon":-9.0997,"largura_km":394.98,"eixo_na_terra":true},{"t":-0.15,"lat":36.0215,"lon":-9.0139,"largura_km":394.448,"eixo_na_terra":true},{"t":-0.14444,"lat":36.1231,"lon":-8.9283,"largura_km":393.918,"eixo_na_terra":true},{"t":-0.13889,"lat":36.2247,"lon":-8.8428,"largura_km":393.39,"eixo_na_terra":true},{"t":-0.13333,"lat":36.3264,"lon":-8.7576,"largura_km":392.863,"eixo_na_terra":true},{"t":-0.12778,"lat":36.4282,"lon":-8.6726,"largura_km":392.339,"eixo_na_terra":true},{"t":-0.12222,"lat":36.53,"lon":-8.5878,"largura_km":391.818,"eixo_na_terra":true},{"t":-0.11667,"lat":36.6318,"lon":-8.5031,"largura_km":391.298,"eixo_na_terra":true},{"t":-0.11111,"lat":36.7337,"lon":-8.4187,"largura_km":390.78,"eixo_na_terra":true},{"t":-0.10556,"lat":36.8356,"lon":-8.3344,"largura_km":390.265,"eixo_na_terra":true},{"t":-0.1,"lat":36.9376,"lon":-8.2503,"largura_km":389.752,"eixo_na_terra":true},{"t":-0.09444,"lat":37.0397,"lon":-8.1663,"largura_km":389.241,"eixo_na_terra":true},{"t":-0.08889,"lat":37.1418,"lon":-8.0826,"largura_km":388.732,"eixo_na_terra":true},{"t":-0.08333,"lat":37.244,"lon":-7.999,"largura_km":388.226,"eixo_na_terra":true},{"t":-0.07778,"lat":37.3462,"lon":-7.9155,"largura_km":387.722,"eixo_na_terra":true},{"t":-0.07222,"lat":37.4485,"lon":-7.8322,"largura_km":387.22,"eixo_na_terra":true},{"t":-0.06667,"lat":37.5508,"lon":-7.749,"largura_km":386.721,"eixo_na_terra":true},{"t":-0.06111,"lat":37.6532,"lon":-7.666,"largura_km":386.224,"eixo_na_terra":true},{"t":-0.05556,"lat":37.7557,"lon":-7.5831,"largura_km":385.73,"eixo_na_terra":true},{"t":-0.05,"lat":37.8582,"lon":-7.5003,"largura_km":385.238,"eixo_na_terra":true},{"t":-0.04444,"lat":37.9608,"lon":-7.4176,"largura_km":384.749,"eixo_na_terra":true},{"t":-0.03889,"lat":38.0635,"lon":-7.3351,"largura_km":384.262,"eixo_na_terra":true},{"t":-0.03333,"lat":38.1662,"lon":-7.2527,"largura_km":383.777,"eixo_na_terra":true},{"t":-0.02778,"lat":38.269,"lon":-7.1704,"largura_km":383.295,"eixo_na_terra":true},{"t":-0.02222,"lat":38.3718,"lon":-7.0882,"largura_km":382.816,"eixo_na_terra":true},{"t":-0.01667,"lat":38.4747,"lon":-7.0061,"largura_km":382.339,"eixo_na_terra":true},{"t":-0.01111,"lat":38.5777,"lon":-6.9241,"largura_km":381.865,"eixo_na_terra":true},{"t":-0.00556,"lat":38.6808,"lon":-6.8421,"largura_km":381.393,"eixo_na_terra":true},{"t":-0.0,"lat":38.7839,"lon":-6.7603,"largura_km":380.924,"eixo_na_terra":true},{"t":0.00556,"lat":38.8871,"lon":-6.6785,"largura_km":380.458,"eixo_na_terra":true},{"t":0.01111,"lat":38.9904,"lon":-6.5969,"largura_km":379.994,"eixo_na_terra":true},{"t":0.01667,"lat":39.0937,"lon":-6.5153,"largura_km":379.533,"eixo_na_terra":true},{"t":0.02222,"lat":39.1971,"lon":-6.4337,"largura_km":379.075,"eixo_na_terra":true},{"t":0.02778,"lat":39.3006,"lon":-6.3522,"largura_km":378.619,"eixo_na_terra":true},{"t":0.03333,"lat":39.4042,"lon":-6.2708,"largura_km":378.167,"eixo_na_terra":true},{"t":0.03889,"lat":39.5078,"lon":-6.1895,"largura_km":377.716,"eixo_na_terra":true},{"t":0.04444,"lat":39.6115,"lon":-6.1081,"largura_km":377.269,"eixo_na_terra":true},{"t":0.05,"lat":39.7153,"lon":-6.0269,"largura_km":376.824,"eixo_na_terra":true},{"t":0.05556,"lat":39.8192,"lon":-5.9456,"largura_km":376.382,"eixo_na_terra":true},{"t":0.06111,"lat":39.9231,"lon":-5.8644,"largura_km":375.943,"eixo_na_terra":true},{"t":0.06667,"lat":40.0272,"lon":-5.7833,"largura_km":375.507,"eixo_na_terra":true},{"t":0.07222,"lat":40.1313,"lon":-5.7021,"largura_km":375.073,"eixo_na_terra":true},{"t":0.07778,"lat":40.2355,"lon":-5.621,"largura_km":374.643,"eixo_na_terra":true},{"t":0.08333,"lat":40.3397,"lon":-5.5399,"largura_km":374.215,"eixo_na_terra":true},{"t":0.08889,"lat":40.4441,"lon":-5.4588,"largura_km":373.79,"eixo_na_terra":true},{"t":0.09444,"lat":40.5485,"lon":-5.3777,"largura_km":373.367,"eixo_na_terra":true},{"t":0.1,"lat":40.6531,"lon":-5.2966,"largura_km":372.948,"eixo_na_terra":true},{"t":0.10556,"lat":40.7577,"lon":-5.2156,"largura_km":372.531,"eixo_na_terra":true},{"t":0.11111,"lat":40.8624,"lon":-5.1345,"largura_km":372.118,"eixo_na_terra":true},{"t":0.11667,"lat":40.9672,"lon":-5.0534,"largura_km":371.707,"eixo_na_terra":true},{"t":0.12222,"lat":41.072,"lon":-4.9723,"largura_km":371.299,"eixo_na_terra":true},{"t":0.12778,"lat":41.177,"lon":-4.8911,"largura_km":370.894,"eixo_na_terra":true},{"t":0.13333,"lat":41.2821,"lon":-4.81,"largura_km":370.492,"eixo_na_terra":true},{"t":0.13889,"lat":41.3872,"lon":-4.7288,"largura_km":370.093,"eixo_na_terra":true},{"t":0.14444,"lat":41.4924,"lon":-4.6476,"largura_km":369.697,"eixo_na_terra":true},{"t":0.15,"lat":41.5978,"lon":-4.5663,"largura_km":369.303,"eixo_na_terra":true},{"t":0.15556,"lat":41.7032,"lon":-4.485,"largura_km":368.913,"eixo_na_terra":true},{"t":0.16111,"lat":41.8087,"lon":-4.4037,"largura_km":368.526,"eixo_na_terra":true},{"t":0.16667,"lat":41.9143,"lon":-4.3223,"largura_km":368.141,"eixo_na_terra":true},{"t":0.17222,"lat":42.0201,"lon":-4.2409,"largura_km":367.76,"eixo_na_terra":true},{"t":0.17778,"lat":42.1259,"lon":-4.1593,"largura_km":367.381,"eixo_na_terra":true},{"t":0.18333,"lat":42.2318,"lon":-4.0778,"largura_km":367.005,"eixo_na_terra":true},{"t":0.18889,"lat":42.3378,"lon":-3.9961,"largura_km":366.633,"eixo_na_terra":true},{"t":0.19444,"lat":42.4439,"lon":-3.9144,"largura_km":366.263,"eixo_na_terra":true},{"t":0.2,"lat":42.5501,"lon":-3.8326,"largura_km":365.896,"eixo_na_terra":true},{"t":0.20556,"lat":42.6564,"lon":-3.7507,"largura_km":365.533,"eixo_na_terra":true},{"t":0.21111,"lat":42.7628,"lon":-3.6688,"largura_km":365.172,"eixo_na_terra":true},{"t":0.21667,"lat":42.8694,"lon":-3.5867,"largura_km":364.814,"eixo_na_terra":true},{"t":0.22222,"lat":42.976,"lon":-3.5045,"largura_km":364.459,"eixo_na_terra":true},{"t":0.22778,"lat":43.0827,"lon":-3.4223,"largura_km":364.108,"eixo_na_terra":true},{"t":0.23333,"lat":43.1896,"lon":-3.3399,"largura_km":363.759,"eixo_na_terra":true},{"t":0.23889,"lat":43.2965,"lon":-3.2574,"largura_km":363.413,"eixo_na_terra":true},{"t":0.24444,"lat":43.4036,"lon":-3.1748,"largura_km":363.071,"eixo_na_terra":true},{"t":0.25,"lat":43.5107,"lon":-3.0921,"largura_km":362.731,"eixo_na_terra":true},{"t":0.25556,"lat":43.618,"lon":-3.0093,"largura_km":362.394,"eixo_na_terra":true},{"t":0.26111,"lat":43.7254,"lon":-2.9263,"largura_km":362.06,"eixo_na_terra":true},{"t":0.26667,"lat":43.8329,"lon":-2.8432,"largura_km":361.73,"eixo_na_terra":true},{"t":0.27222,"lat":43.9405,"lon":-2.7599,"largura_km":361.402,"eixo_na_terra":true},{"t":0.27778,"lat":44.0483,"lon":-2.6765,"largura_km":361.078,"eixo_na_terra":true},{"t":0.28333,"lat":44.1561,"lon":-2.5929,"largura_km":360.756,"eixo_na_terra":true},{"t":0.28889,"lat":44.2641,"lon":-2.5092,"largura_km":360.438,"eixo_na_terra":true},{"t":0.29444,"lat":44.3722,"lon":-2.4254,"largura_km":360.122,"eixo_na_terra":true},{"t":0.3,"lat":44.4804,"lon":-2.3413,"largura_km":359.81,"eixo_na_terra":true},{"t":0.30556,"lat":44.5887,"lon":-2.2571,"largura_km":359.5,"eixo_na_terra":true},{"t":0.31111,"lat":44.6971,"lon":-2.1727,"largura_km":359.194,"eixo_na_terra":true},{"t":0.31667,"lat":44.8057,"lon":-2.0881,"largura_km":358.891,"eixo_na_terra":true},{"t":0.32222,"lat":44.9144,"lon":-2.0034,"largura_km":358.59,"eixo_na_terra":true},{"t":0.32778,"lat":45.0232,"lon":-1.9184,"largura_km":358.293,"eixo_na_terra":true},{"t":0.33333,"lat":45.1322,"lon":-1.8333,"largura_km":357.999,"eixo_na_terra":true},{"t":0.33889,"lat":45.2412,"lon":-1.7479,"largura_km":357.709,"eixo_na_terra":true},{"t":0.34444,"lat":45.3504,"lon":-1.6624,"largura_km":357.422,"eixo_na_terra":true},{"t":0.35,"lat":45.4597,"lon":-1.5766,"largura_km":357.138,"eixo_na_terra":true},{"t":0.35556,"lat":45.5692,"lon":-1.4906,"largura_km":356.857,"eixo_na_terra":true},{"t":0.36111,"lat":45.6788,"lon":-1.4044,"largura_km":356.579,"eixo_na_terra":true},{"t":0.36667,"lat":45.7885,"lon":-1.3179,"largura_km":356.304,"eixo_na_terra":true},{"t":0.37222,"lat":45.8983,"lon":-1.2313,"largura_km":356.032,"eixo_na_terra":true},{"t":0.37778,"lat":46.0083,"lon":-1.1443,"largura_km":355.764,"eixo_na_terra":true},{"t":0.38333,"lat":46.1184,"lon":-1.0571,"largura_km":355.498,"eixo_na_terra":true},{"t":0.38889,"lat":46.2287,"lon":-0.9697,"largura_km":355.236,"eixo_na_terra":true},{"t":0.39444,"lat":46.3391,"lon":-0.882,"largura_km":354.976,"eixo_na_terra":true},{"t":0.4,"lat":46.4496,"lon":-0.7941,"largura_km":354.72,"eixo_na_terra":true},{"t":0.40556,"lat":46.5603,"lon":-0.7058,"largura_km":354.467,"eixo_na_terra":true},{"t":0.41111,"lat":46.6711,"lon":-0.6173,"largura_km":354.216,"eixo_na_terra":true},{"t":0.41667,"lat":46.7821,"lon":-0.5286,"largura_km":353.969,"eixo_na_terra":true},{"t":0.42222,"lat":46.8932,"lon":-0.4395,"largura_km":353.725,"eixo_na_terra":true},{"t":0.42778,"lat":47.0044,"lon":-0.3501,"largura_km":353.484,"eixo_na_terra":true},{"t":0.43333,"lat":47.1158,"lon":-0.2604,"largura_km":353.246,"eixo_na_terra":true},{"t":0.43889,"lat":47.2273,"lon":-0.1705,"largura_km":353.012,"eixo_na_terra":true},{"t":0.44444,"lat":47.339,"lon":-0.0802,"largura_km":352.78,"eixo_na_terra":true},{"t":0.45,"lat":47.4509,"lon":0.0105,"largura_km":352.552,"eixo_na_terra":true},{"t":0.45556,"lat":47.5628,"lon":0.1014,"largura_km":352.326,"eixo_na_terra":true},{"t":0.46111,"lat":47.675,"lon":0.1927,"largura_km":352.104,"eixo_na_terra":true},{"t":0.46667,"lat":47.7873,"lon":0.2843,"largura_km":351.884,"eixo_na_terra":true},{"t":0.47222,"lat":47.8997,"lon":0.3763,"largura_km":351.668,"eixo_na_terra":true},{"t":0.47778,"lat":48.0123,"lon":0.4686,"largura_km":351.455,"eixo_na_terra":true},{"t":0.48333,"lat":48.1251,"lon":0.5613,"largura_km":351.245,"eixo_na_terra":true},{"t":0.48889,"lat":48.238,"lon":0.6543,"largura_km":351.038,"eixo_na_terra":true},{"t":0.49444,"lat":48.3511,"lon":0.7478,"largura_km":350.835,"eixo_na_terra":true},{"t":0.5,"lat":48.4643,"lon":0.8416,"largura_km":350.634,"eixo_na_terra":true},{"t":0.50556,"lat":48.5777,"lon":0.9358,"largura_km":350.437,"eixo_na_terra":true},{"t":0.51111,"lat":48.6913,"lon":1.0304,"largura_km":350.242,"eixo_na_terra":true},{"t":0.51667,"lat":48.805,"lon":1.1254,"largura_km":350.051,"eixo_na_terra":true},{"t":0.52222,"lat":48.9189,"lon":1.2208,"largura_km":349.863,"eixo_na_terra":true},{"t":0.52778,"lat":49.033,"lon":1.3166,"largura_km":349.678,"eixo_na_terra":true},{"t":0.53333,"lat":49.1472,"lon":1.4129,"largura_km":349.496,"eixo_na_terra":true},{"t":0.53889,"lat":49.2616,"lon":1.5096,"largura_km":349.317,"eixo_na_terra":true},{"t":0.54444,"lat":49.3762,"lon":1.6067,"largura_km":349.141,"eixo_na_terra":true},{"t":0.55,"lat":49.491,"lon":1.7043,"largura_km":348.969,"eixo_na_terra":true},{"t":0.55556,"lat":49.6059,"lon":1.8024,"largura_km":348.799,"eixo_na_terra":true},{"t":0.56111,"lat":49.721,"lon":1.9009,"largura_km":348.633,"eixo_na_terra":true},{"t":0.56667,"lat":49.8363,"lon":1.9999,"largura_km":348.47,"eixo_na_terra":true},{"t":0.57222,"lat":49.9518,"lon":2.0993,"largura_km":348.312,"eixo_na_terra":true}]},"features":[{"type":"Feature","properties":{},"geometry":{"type":"Polygon","coordinates":[[[-23.934375285346846,26.015940379517758],[-23.558134231303995,26.226724844319808],[-23.19211053198535,26.436809628595054],[-22.83567479474982,26.64624925905635],[-22.48825604441663,26.85509346430013],[-22.149334335272613,27.06338778068212],[-21.818434520565972,27.271174063615334],[-21.49512096524529,27.478490921762436],[-21.178993033040342,27.685374087901682],[-20.869681213597403,27.891856737425993],[-20.566843782062335,28.097969763260412],[-20.27016390424859,28.303742014292467],[-19.836050931402326,28.61182007113035],[-19.553520243558125,28.816854989822215],[-19.139421818949245,29.123939641128718],[-18.869488479287497,29.32838239761388],[-18.492388442542733,29.618235991531385],[-18.233501478666255,29.822227445842767],[-17.852978415403072,30.12792781339994],[-17.604253968499336,30.331561364060676],[-17.238207831442196,30.63680139230709],[-16.998654731808074,30.840176525754707],[-16.645694263034898,31.145097721465458],[-16.299987557512395,31.44988989197713],[-15.96112457657307,31.754596689523353],[-15.62872273500534,32.05925958702984],[-15.302424113391282,32.36391811339539],[-14.981893010468184,32.66861006075287],[-14.66681378546275,32.97337166783546],[-14.356888948784444,33.27823778288164],[-14.051837466296774,33.583242008949554],[-13.751393247954752,33.88841683405481],[-13.455303796155931,34.19379374817022],[-12.985618773501926,34.68661059478501],[-12.699872232034295,34.99265739368826],[-12.41765993044703,35.2990130562168],[-11.954610699893635,35.81036827906781],[-11.680849453019619,36.1176835891836],[-11.40991378695361,36.425408449867156],[-11.141626631840268,36.73356936993925],[-10.875816745646148,37.04219255412935],[-10.350969899620338,37.660929302983675],[-9.834101212309065,38.28182403403874],[-9.578278967109782,38.593144223261596],[-9.239562387362469,39.009199855551046],[-8.819517346834914,39.530899888471204],[-8.319530339200583,40.15948633638645],[-7.822957342203381,40.79104357803687],[-7.246521393136732,41.53189080952196],[-6.753720974690793,42.17059771624758],[-6.261009339562975,42.812941993292945],[-4.4381295250837525,45.20295394211288],[-3.662481513206444,46.216719990365576],[-2.9725805318425387,47.111360319403644],[-2.35675554244915,47.902166294031574],[-1.998899327779327,48.357594806082375],[-1.6361885383883532,48.815711096674185],[-0.988427002629578,49.624169029312036],[-0.6100310023146562,50.09017584911953],[-0.3219173596419864,50.4416843110702],[-0.02985715384750165,50.7949606456258],[0.26638177878709257,51.15005198869744],[3.7911945379361214,48.784398287763906],[3.4130443144171068,48.3534714732919],[3.121823037761885,48.01784652182992],[2.739600358296684,47.57244726921793],[2.3638929616177506,47.129379993633606],[1.9942583043977606,46.68857167734798],[1.630273986678219,46.24995136892757],[1.271535974577148,45.81345007165599],[0.8299025172734673,45.27070117906308],[0.4815756837092522,44.838724789002086],[0.05180956588145591,44.30142874091235],[-0.3723081846094374,43.766992054605446],[-0.87469383016861,43.12927788403936],[-1.7805039752291236,41.96974513390565],[-3.474601142618326,39.786979880146326],[-4.194605055726356,38.86241167141354],[-4.915490671961379,37.94355738783284],[-5.640377509041002,37.02985804898233],[-6.045987471690069,36.52427063531716],[-6.4543694006800365,36.02000817026773],[-6.866094335027299,35.51697534710815],[-7.1982752107824695,35.115369984734585],[-7.4492471155169255,34.814612334990684],[-7.8857746137065305,34.29791906492465],[-8.227489370236299,33.89821508726671],[-8.573026406276654,33.49903234059852],[-9.01086388792038,33.00070692353056],[-9.455953554858752,32.5030091180343],[-9.90906275418746,32.00583090874762],[-10.277870636514876,31.60838744972249],[-10.763481695125222,31.096027577187836],[-11.146861083633837,30.698952704070855],[-11.537447389482054,30.30193506459713],[-11.935780033847038,29.904907290024692],[-12.34243597451831,29.50779879038456],[-12.653260902124373,29.209869921083566],[-13.201213536375292,28.697429421088984],[-13.637058431133084,28.29959610162429],[-14.084041704793378,27.90135361741763],[-14.427100982049922,27.602346235443584],[-14.54301982603522,27.50260676974455],[-14.915563634967953,27.187712155215465],[-15.276241272971447,26.887844952959878],[-15.521209879117066,26.68769253507041],[-15.769962002141028,26.48732942897386],[-16.150524935561407,26.186354151824652],[-16.27944406673663,26.08590570417162],[-16.694865618316044,25.768825202324127],[-17.09879178140625,25.466382675814526],[-17.513678000738366,25.16321435886443],[-17.940279764243087,24.85924462067407],[-18.553690904425935,24.437272438493803],[-19.011609235119238,24.131034407802954],[-24.321530323924776,25.804396186551127],[-23.934375285346846,26.015940379517758]]]}}]}