{"type":"FeatureCollection","features":[{"type":"Feature","properties":{"t_inicio":-0.7555555555555671,"t_fim":0.572222222222206},"geometry":{"type":"LineString","coordinates":[[-21.444028522671942,25.001890011132634],[-21.273353983168818,25.105633443748456],[-21.104734825376397,25.209229921626402],[-20.938113740897847,25.312684688802563],[-20.77343583635934,25.416002781575774],[-20.610648491417237,25.519189040697345],[-20.44970122729444,25.62224812266076],[-20.29054558490725,25.725184510171374],[-20.133135011740706,25.82800252186796],[-19.97742475671697,25.930706321360564],[-19.82337177237656,26.033299925642684],[-19.67093462376033,26.1357872129301],[-19.520073403438232,26.238171929973387],[-19.37074965218727,26.340457698887075],[-19.222926284863433,26.442648023533746],[-19.076567521060042,26.544746295498403],[-18.931638820177966,26.646755799684726],[-18.78810682057025,26.7486797195623],[-18.645939282452332,26.850521142091058],[-18.505105034296378,26.952283062347085],[-18.36557392245311,27.053968387871652],[-18.22731676376742,27.15557994276355],[-18.09030530097084,27.257120471533167],[-17.954512160656748,27.358592642735072],[-17.819910813655383,27.459999052394558],[-17.686475537644014,27.56134222724241],[-17.55418138184035,27.6626246277708],[-17.423004133636937,27.763848651122494],[-17.292920287049583,27.865016633824354],[-17.163907012859113,27.966130854375297],[-17.035942130336025,28.067193535698223],[-16.90900408044797,28.16820684746465],[-16.78307190045456,28.26917290830002],[-16.658125199802157,28.370093787877206],[-16.534144137239707,28.47097150890519],[-16.411109399078214,28.571808049019168],[-16.289002178526687,28.672605342578294],[-16.1678041560383,28.773365282376332],[-16.047497480607092,28.8740897212706],[-15.928064751960449,28.974780473733894],[-15.809489003593285,29.07543931733376],[-15.69175368659711,29.176067994143583],[-15.574842654237898,29.276668212089],[-15.458740147240633,29.377241646233596],[-15.343430779741425,29.477789940007035],[-15.228899525869451,29.578314706378922],[-15.11513170692524,29.678817528981334],[-15.002112979122273,29.77929996318287],[-14.889829321861782,29.87976353711655],[-14.778267026512765,29.980209752664383],[-14.66741268566983,30.080640086400674],[-14.55725318286477,30.181055990496134],[-14.44777568270797,30.281458893585068],[-14.338967621437405,30.381850201597377],[-14.23081669785472,30.482231298557036],[-14.123310864629445,30.58260354734909],[-14.016438319951703,30.682968290456337],[-13.910187499517917,30.78332685066745],[-13.804547068831084,30.883680531757882],[-13.699505915801979,30.98403061914491],[-13.595053143636449,31.08437838051779],[-13.491178063994596,31.184725066444738],[-13.387870190408819,31.285071910957335],[-13.285119231949636,31.385420132113683],[-13.182915087126787,31.485770932541225],[-13.081247838014576,31.58612549996024],[-12.980107744592146,31.686485007688738],[-12.879485239287533,31.786850615129765],[-12.77937092171777,31.887223468241945],[-12.679755553614882,31.987604699993845],[-12.580630053929838,32.087995430802934],[-12.48198549410813,32.188396768959905],[-12.3838130935261,32.288809811039016],[-12.286104215084663,32.38923564229491],[-12.188850360951335,32.489675337046585],[-12.092043168444263,32.59012995904919],[-11.995674406053865,32.69060056185393],[-11.899735969593962,32.79108818915679],[-11.80421987847842,32.891593875136394],[-11.70911827211819,32.992118644781705],[-11.614423406432081,33.09266351420963],[-11.520127650468908,33.19322949097318],[-11.426223483134322,33.29381757436075],[-11.3327034900189,33.394428755686356],[-11.239560360324276,33.49506401857179],[-11.146786883881134,33.59572433922051],[-11.054375948257814,33.69641068668416],[-10.962320535954063,33.79712402312135],[-10.870613721677216,33.89786530404961],[-10.779248669698347,33.99863547859042],[-10.688218631283405,34.09943548970776],[-10.597516942197728,34.20026627444038],[-10.507137020281448,34.30112876412804],[-10.417072363091165,34.40202388463188],[-10.327316545607573,34.50295255654955],[-10.237863218004634,34.60391569542451],[-10.148706103478844,34.70491421195062],[-10.059838996136591,34.80594901217163],[-9.971255758936309,34.907020997675865],[-9.882950321684234,35.00813106578656],[-9.794916679081553,35.1092801097476],[-9.707148888820484,35.21046901890515],[-9.619641069728345,35.311698678885335],[-9.53238739995669,35.41296997176781],[-9.44538211521484,35.514283776255745],[-9.358619507045603,35.6156409678423],[-9.272093921141561,35.717042418973364],[-9.185799755700259,35.81848899920729],[-9.099731459817804,35.91998157537114],[-9.01388353191794,36.02152101171416],[-8.92825051821643,36.12310817005803],[-8.842827011219072,36.22474390994451],[-8.75760764825128,36.326429088780124],[-8.672587110020118,36.42816456197854],[-8.587760119204574,36.5299511831],[-8.50312143907604,36.631789803988916],[-8.418665872145482,36.73368127490846],[-8.334388258837407,36.8356264446736],[-8.250283476189793,36.93762616078147],[-8.166346436578294,37.039681269540004],[-8.082572086463585,37.14179261619446],[-7.998955405162576,37.24396104505213],[-7.915491403639862,37.34618739960521],[-7.832175123321747,37.44847252265186],[-7.749001634928675,37.550817256415854],[-7.6659660373281895,37.653222442664195],[-7.583063456405853,37.75568892282384],[-7.500289043953728,37.85821753809627],[-7.417637976575861,37.960809129571246],[-7.335105454610357,38.06346453833892],[-7.252686701066182,38.166184605600776],[-7.170376960575709,38.268970172779426],[-7.08817149836068,38.3718220816271],[-7.006065599211922,38.4747411743332],[-6.924054566482141,38.57772829363073],[-6.84213372109059,38.680784282901826],[-6.7602984005395115,38.78390998628222],[-6.67854395794177,38.88710624876494],[-6.59686576105878,38.9903739163031],[-6.515259191348605,39.09371383591205],[-6.433719643023039,39.19712685577049],[-6.35224252211367,39.30061382532125],[-6.270823245546694,39.40417559537117],[-6.189457240224328,39.50781301819049],[-6.108139942115201,39.61152694761162],[-6.026866795349974,39.71531823912741],[-5.945633251323841,39.81918774998896],[-5.864434767805278,39.92313633930301],[-5.783266808049177,40.02716486812879],[-5.702124839915484,40.131274199574726],[-5.621004334992506,40.235465198894694],[-5.539900767722884,40.3397387335839],[-5.458809614534744,40.444095673474735],[-5.377726352974605,40.54853689083226],[-5.296646460843306,40.653063260449464],[-5.215565415334368,40.75767565974256],[-5.134478692173786,40.862374968846055],[-5.0533817647609,40.96716207070764],[-4.9722701033109615,41.07203785118335],[-4.8911391739970895,41.17700319913232],[-4.809984438093181,41.28205900651192],[-4.728801351116147,41.38720616847264],[-4.647585361966662,41.4924455834533],[-4.566331912069927,41.5977781532763],[-4.485036434514029,41.70320478324288],[-4.4036943531859265,41.808726382228805],[-4.322301081906005,41.914343862780036],[-4.240852023558716,42.02005814120881],[-4.1593425692205415,42.125870137689866],[-4.077768097284093,42.2317807763571],[-3.9961239725776068,42.33779098540032],[-3.914405545480804,42.44390169716269],[-3.832608151034549,42.5501138482382],[-3.7507271080462488,42.65642837956995],[-3.668757718188658,42.76284623654849],[-3.5866952650924304,42.8693683691109],[-3.504535013432303,42.975995731840236],[-3.4222722080057792,43.08272928406566],[-3.3399020728040227,43.18956998996291],[-3.257419810075419,43.2965188186556],[-3.174820599379359,43.403576744316936],[-3.0920995966323517,43.51074474627228],[-3.0092519331436733,43.61802380910219],[-2.9262727146411294,43.725414922746324],[-2.843157020287208,43.83291908260804],[-2.7598999016829566,43.94053728965961],[-2.676496381861398,44.04827055054857],[-2.592941454268896,44.1561198777046],[-2.509230081733108,44.264086289447185],[-2.4253571954193376,44.37217081009467],[-2.341317693772055,44.480374470073556],[-2.2571064414427724,44.5886983060292],[-2.1727182682036528,44.69714336093739],[-2.0881479678450887,44.80571068421677],[-2.0033902970578197,44.914401331842534],[-1.9184399742986216,45.023216366460986],[-1.8332916786388296,45.13215685750531],[-1.7479400485952965,45.24122388131237],[-1.6623796809427631,45.350418521240826],[-1.5766051295071861,45.459741867790235],[-1.4906109039400235,45.56919501872153],[-1.4043914684712604,45.67877907917875],[-1.3179412406419146,45.78849516181183],[-1.2312545900146574,45.898344386901094],[-1.144325836861583,46.008327882482725],[-1.057149250829184,46.11844678447586],[-0.9697190495786572,46.22870223681097],[-0.8820293974014248,46.33909539155981],[-0.7940744038094749,46.4496274090667],[-0.7058481220980752,46.56029945808141],[-0.6173445478818849,46.6711127158937],[-0.528557617602246,46.78206836846926],[-0.4394812070050875,46.89316761058734],[-0.3501091295888159,47.004411645980106],[-0.26043513502099813,47.11580168747368],[-0.17045290752201936,47.22733895713082],[-0.08015606421662369,47.3390246863954],[0.010461846550356313,47.45086011623883],[0.1014073469322625,47.562846497308165],[0.19268703133707277,47.674985090076106],[0.2843075682206404,47.787277164993085],[0.37627570191938275,47.89972400264102],[0.4685982545234424,48.01232689388944],[0.5612821277912303,48.125087140053296],[0.6543343051069428,48.23800605305315],[0.7477618534830413,48.351084955577164],[0.8415719256073544,48.46432518124561],[0.9357717619385539,48.57772807477729],[1.0303686928502884,48.69129499215841],[1.1253701408247707,48.805027300813556],[1.2207836226997415,48.91892637977908],[1.3166167519679561,49.03299361987894],[1.4128772411330033,49.14723042390286],[1.509572904121967,49.26163820678693],[1.6067116587570922,49.376218395796776],[1.704301529288955,49.49097243071323],[1.8023506489927286,49.60590176402064],[1.90086726282874,49.721007861097675],[1.9998597301717496,49.83629220041106],[2.099336527608557,49.951756273711815]]}}]}