{"type":"FeatureCollection","features":[{"type":"Feature","properties":{"magnitude":0.5,"de":0.5,"ate":0.8,"percentagem":50.0},"geometry":{"type":"Polygon","coordinates":[[[-34.5,30.179999999999996],[-33.202079489313604,30.719999999999985],[-31.8599999999999,31.34062917513067],[-30.599999999999856,31.98141666626431],[-29.339999999999804,32.68310473365415],[-28.128039166019374,33.41999999999993],[-26.948543633746283,34.19999999999991],[-25.79999999999967,35.023465487024936],[-24.6941316319371,35.879999999999875],[-23.579999999999586,36.81008486151259],[-22.499999999999545,37.77958162138676],[-21.419999999999504,38.81906301752422],[-20.399999999999466,39.867335544059515],[-19.328067640815448,41.039999999999765],[-18.29430314591115,42.23999999999974],[-17.219999999999345,43.55729196717943],[-16.147399773360416,44.939999999999685],[-34.5,44.939999999999685],[-34.5,30.179999999999996]]]}},{"type":"Feature","properties":{"magnitude":0.8,"de":0.8,"ate":0.95,"percentagem":80.0},"geometry":{"type":"MultiPolygon","coordinates":[[[[-13.417788639789826,30.0],[-12.291711299069014,31.079999999999977],[-11.169698982054292,32.219999999999956],[-10.050129550222385,33.41999999999993],[-8.930199403789976,34.6799999999999],[-6.575011972783049,37.499999999999844],[-3.5399999999988268,41.35958461577199],[-3.5399999999988268,30.0],[-13.417788639789826,30.0]]],[[[-34.5,30.0],[-34.5,30.175997738689805],[-33.06634658177096,30.779999999999983],[-31.679999999999897,31.42861472646362],[-30.29999999999984,32.14279634210794],[-29.005862716656928,32.87999999999994],[-27.839999999999748,33.60458371278367],[-26.699999999999704,34.372698445498536],[-25.618023144378377,35.15999999999989],[-24.545610096399113,35.99999999999987],[-23.476543277115727,36.89999999999985],[-22.413734109059014,37.85999999999983],[-21.358918169840926,38.87999999999981],[-20.312795928812122,39.95999999999979],[-19.27496396099062,41.09999999999977],[-18.24408606381057,42.29999999999974],[-17.217847513377126,43.55999999999971],[-16.147399773360416,44.939999999999685],[-3.5399999999988268,44.939999999999685],[-3.5399999999988268,44.530167488520746],[-7.379999999998971,39.547555109504124],[-9.867424399572183,36.47999999999986],[-11.459999999999127,34.645878252929805],[-13.019999999999186,32.9675904319689],[-14.579999999999245,31.413631562075416],[-16.122778159003982,30.0],[-34.5,30.0]]]]}},{"type":"Feature","properties":{"magnitude":0.95,"de":0.95,"ate":0.99,"percentagem":95.0},"geometry":{"type":"Polygon","coordinates":[[[-16.122778159003982,30.0],[-13.417788639789826,30.0],[-12.291711299069014,31.079999999999977],[-11.159999999999116,32.230130455071006],[-9.995599168144492,33.479999999999926],[-8.82609348872252,34.7999999999999],[-6.479999999998938,37.6178295209667],[-3.5399999999988268,41.35958461577199],[-3.5399999999988268,44.530167488520746],[-7.799999999998988,39.01553996501973],[-9.26714053199548,37.19999999999985],[-10.619999999999095,35.59886873979456],[-11.999999999999147,34.051156281144415],[-13.3799999999992,32.59782800133953],[-14.741434639623812,31.259999999999973],[-16.122778159003982,30.0]]]}}]}