{"type":"FeatureCollection","properties":{"largura_maxima_km":211.305,"largura_sobre_pt_km":204.603,"linha_central_sobre_pt":true,"desenhavel_como_area":true,"perfil_largura":[{"t":-1.02222,"lat":38.1836,"lon":-39.9393,"largura_km":200.473,"eixo_na_terra":true},{"t":-1.01667,"lat":38.1483,"lon":-39.7625,"largura_km":200.569,"eixo_na_terra":true},{"t":-1.01111,"lat":38.1126,"lon":-39.5865,"largura_km":200.665,"eixo_na_terra":true},{"t":-1.00556,"lat":38.0766,"lon":-39.4112,"largura_km":200.759,"eixo_na_terra":true},{"t":-1.0,"lat":38.0402,"lon":-39.2366,"largura_km":200.853,"eixo_na_terra":true},{"t":-0.99444,"lat":38.0035,"lon":-39.0627,"largura_km":200.945,"eixo_na_terra":true},{"t":-0.98889,"lat":37.9665,"lon":-38.8896,"largura_km":201.037,"eixo_na_terra":true},{"t":-0.98333,"lat":37.9291,"lon":-38.7171,"largura_km":201.13,"eixo_na_terra":true},{"t":-0.97778,"lat":37.8915,"lon":-38.5453,"largura_km":201.222,"eixo_na_terra":true},{"t":-0.97222,"lat":37.8535,"lon":-38.3742,"largura_km":201.313,"eixo_na_terra":true},{"t":-0.96667,"lat":37.8151,"lon":-38.2039,"largura_km":201.403,"eixo_na_terra":true},{"t":-0.96111,"lat":37.7765,"lon":-38.0341,"largura_km":201.495,"eixo_na_terra":true},{"t":-0.95556,"lat":37.7375,"lon":-37.8651,"largura_km":201.586,"eixo_na_terra":true},{"t":-0.95,"lat":37.6982,"lon":-37.6967,"largura_km":201.676,"eixo_na_terra":true},{"t":-0.94444,"lat":37.6586,"lon":-37.529,"largura_km":201.765,"eixo_na_terra":true},{"t":-0.93889,"lat":37.6187,"lon":-37.362,"largura_km":201.853,"eixo_na_terra":true},{"t":-0.93333,"lat":37.5785,"lon":-37.1956,"largura_km":201.94,"eixo_na_terra":true},{"t":-0.92778,"lat":37.538,"lon":-37.0298,"largura_km":202.027,"eixo_na_terra":true},{"t":-0.92222,"lat":37.4972,"lon":-36.8647,"largura_km":202.113,"eixo_na_terra":true},{"t":-0.91667,"lat":37.4561,"lon":-36.7003,"largura_km":202.198,"eixo_na_terra":true},{"t":-0.91111,"lat":37.4146,"lon":-36.5364,"largura_km":202.283,"eixo_na_terra":true},{"t":-0.90556,"lat":37.3729,"lon":-36.3732,"largura_km":202.366,"eixo_na_terra":true},{"t":-0.9,"lat":37.3309,"lon":-36.2107,"largura_km":202.449,"eixo_na_terra":true},{"t":-0.89444,"lat":37.2886,"lon":-36.0487,"largura_km":202.532,"eixo_na_terra":true},{"t":-0.88889,"lat":37.246,"lon":-35.8874,"largura_km":202.616,"eixo_na_terra":true},{"t":-0.88333,"lat":37.2031,"lon":-35.7266,"largura_km":202.698,"eixo_na_terra":true},{"t":-0.87778,"lat":37.1599,"lon":-35.5665,"largura_km":202.78,"eixo_na_terra":true},{"t":-0.87222,"lat":37.1164,"lon":-35.407,"largura_km":202.863,"eixo_na_terra":true},{"t":-0.86667,"lat":37.0727,"lon":-35.2481,"largura_km":202.945,"eixo_na_terra":true},{"t":-0.86111,"lat":37.0286,"lon":-35.0897,"largura_km":203.027,"eixo_na_terra":true},{"t":-0.85556,"lat":36.9843,"lon":-34.932,"largura_km":203.107,"eixo_na_terra":true},{"t":-0.85,"lat":36.9397,"lon":-34.7748,"largura_km":203.187,"eixo_na_terra":true},{"t":-0.84444,"lat":36.8948,"lon":-34.6182,"largura_km":203.266,"eixo_na_terra":true},{"t":-0.83889,"lat":36.8497,"lon":-34.4622,"largura_km":203.344,"eixo_na_terra":true},{"t":-0.83333,"lat":36.8042,"lon":-34.3068,"largura_km":203.422,"eixo_na_terra":true},{"t":-0.82778,"lat":36.7585,"lon":-34.1519,"largura_km":203.499,"eixo_na_terra":true},{"t":-0.82222,"lat":36.7126,"lon":-33.9976,"largura_km":203.575,"eixo_na_terra":true},{"t":-0.81667,"lat":36.6663,"lon":-33.8439,"largura_km":203.65,"eixo_na_terra":true},{"t":-0.81111,"lat":36.6198,"lon":-33.6907,"largura_km":203.725,"eixo_na_terra":true},{"t":-0.80556,"lat":36.573,"lon":-33.538,"largura_km":203.8,"eixo_na_terra":true},{"t":-0.8,"lat":36.526,"lon":-33.3859,"largura_km":203.875,"eixo_na_terra":true},{"t":-0.79444,"lat":36.4787,"lon":-33.2344,"largura_km":203.949,"eixo_na_terra":true},{"t":-0.78889,"lat":36.4311,"lon":-33.0834,"largura_km":204.023,"eixo_na_terra":true},{"t":-0.78333,"lat":36.3833,"lon":-32.9329,"largura_km":204.098,"eixo_na_terra":true},{"t":-0.77778,"lat":36.3352,"lon":-32.7829,"largura_km":204.172,"eixo_na_terra":true},{"t":-0.77222,"lat":36.2869,"lon":-32.6335,"largura_km":204.246,"eixo_na_terra":true},{"t":-0.76667,"lat":36.2383,"lon":-32.4846,"largura_km":204.319,"eixo_na_terra":true},{"t":-0.76111,"lat":36.1894,"lon":-32.3362,"largura_km":204.391,"eixo_na_terra":true},{"t":-0.75556,"lat":36.1403,"lon":-32.1883,"largura_km":204.462,"eixo_na_terra":true},{"t":-0.75,"lat":36.091,"lon":-32.0409,"largura_km":204.533,"eixo_na_terra":true},{"t":-0.74444,"lat":36.0414,"lon":-31.8941,"largura_km":204.603,"eixo_na_terra":true},{"t":-0.73889,"lat":35.9915,"lon":-31.7477,"largura_km":204.673,"eixo_na_terra":true},{"t":-0.73333,"lat":35.9414,"lon":-31.6019,"largura_km":204.741,"eixo_na_terra":true},{"t":-0.72778,"lat":35.8911,"lon":-31.4565,"largura_km":204.81,"eixo_na_terra":true},{"t":-0.72222,"lat":35.8405,"lon":-31.3116,"largura_km":204.877,"eixo_na_terra":true},{"t":-0.71667,"lat":35.7897,"lon":-31.1673,"largura_km":204.944,"eixo_na_terra":true},{"t":-0.71111,"lat":35.7386,"lon":-31.0234,"largura_km":205.01,"eixo_na_terra":true},{"t":-0.70556,"lat":35.6873,"lon":-30.88,"largura_km":205.078,"eixo_na_terra":true},{"t":-0.7,"lat":35.6357,"lon":-30.737,"largura_km":205.144,"eixo_na_terra":true},{"t":-0.69444,"lat":35.5839,"lon":-30.5946,"largura_km":205.211,"eixo_na_terra":true},{"t":-0.68889,"lat":35.5319,"lon":-30.4526,"largura_km":205.279,"eixo_na_terra":true},{"t":-0.68333,"lat":35.4797,"lon":-30.311,"largura_km":205.345,"eixo_na_terra":true},{"t":-0.67778,"lat":35.4272,"lon":-30.17,"largura_km":205.411,"eixo_na_terra":true},{"t":-0.67222,"lat":35.3744,"lon":-30.0294,"largura_km":205.476,"eixo_na_terra":true},{"t":-0.66667,"lat":35.3215,"lon":-29.8892,"largura_km":205.541,"eixo_na_terra":true},{"t":-0.66111,"lat":35.2683,"lon":-29.7495,"largura_km":205.605,"eixo_na_terra":true},{"t":-0.65556,"lat":35.2149,"lon":-29.6103,"largura_km":205.668,"eixo_na_terra":true},{"t":-0.65,"lat":35.1612,"lon":-29.4715,"largura_km":205.731,"eixo_na_terra":true},{"t":-0.64444,"lat":35.1073,"lon":-29.3331,"largura_km":205.793,"eixo_na_terra":true},{"t":-0.63889,"lat":35.0532,"lon":-29.1952,"largura_km":205.855,"eixo_na_terra":true},{"t":-0.63333,"lat":34.9989,"lon":-29.0578,"largura_km":205.916,"eixo_na_terra":true},{"t":-0.62778,"lat":34.9444,"lon":-28.9207,"largura_km":205.976,"eixo_na_terra":true},{"t":-0.62222,"lat":34.8896,"lon":-28.7841,"largura_km":206.036,"eixo_na_terra":true},{"t":-0.61667,"lat":34.8346,"lon":-28.6479,"largura_km":206.095,"eixo_na_terra":true},{"t":-0.61111,"lat":34.7794,"lon":-28.5121,"largura_km":206.154,"eixo_na_terra":true},{"t":-0.60556,"lat":34.7239,"lon":-28.3768,"largura_km":206.214,"eixo_na_terra":true},{"t":-0.6,"lat":34.6683,"lon":-28.2419,"largura_km":206.273,"eixo_na_terra":true},{"t":-0.59444,"lat":34.6124,"lon":-28.1074,"largura_km":206.333,"eixo_na_terra":true},{"t":-0.58889,"lat":34.5563,"lon":-27.9733,"largura_km":206.393,"eixo_na_terra":true},{"t":-0.58333,"lat":34.5,"lon":-27.8396,"largura_km":206.452,"eixo_na_terra":true},{"t":-0.57778,"lat":34.4435,"lon":-27.7063,"largura_km":206.511,"eixo_na_terra":true},{"t":-0.57222,"lat":34.3867,"lon":-27.5734,"largura_km":206.569,"eixo_na_terra":true},{"t":-0.56667,"lat":34.3298,"lon":-27.4409,"largura_km":206.626,"eixo_na_terra":true},{"t":-0.56111,"lat":34.2726,"lon":-27.3088,"largura_km":206.683,"eixo_na_terra":true},{"t":-0.55556,"lat":34.2152,"lon":-27.1771,"largura_km":206.739,"eixo_na_terra":true},{"t":-0.55,"lat":34.1577,"lon":-27.0458,"largura_km":206.795,"eixo_na_terra":true},{"t":-0.54444,"lat":34.0999,"lon":-26.9149,"largura_km":206.85,"eixo_na_terra":true},{"t":-0.53889,"lat":34.0419,"lon":-26.7843,"largura_km":206.905,"eixo_na_terra":true},{"t":-0.53333,"lat":33.9836,"lon":-26.6542,"largura_km":206.959,"eixo_na_terra":true},{"t":-0.52778,"lat":33.9252,"lon":-26.5244,"largura_km":207.013,"eixo_na_terra":true},{"t":-0.52222,"lat":33.8666,"lon":-26.3949,"largura_km":207.066,"eixo_na_terra":true},{"t":-0.51667,"lat":33.8078,"lon":-26.2659,"largura_km":207.118,"eixo_na_terra":true},{"t":-0.51111,"lat":33.7487,"lon":-26.1372,"largura_km":207.17,"eixo_na_terra":true},{"t":-0.50556,"lat":33.6895,"lon":-26.0089,"largura_km":207.222,"eixo_na_terra":true},{"t":-0.5,"lat":33.63,"lon":-25.881,"largura_km":207.274,"eixo_na_terra":true},{"t":-0.49444,"lat":33.5704,"lon":-25.7534,"largura_km":207.327,"eixo_na_terra":true},{"t":-0.48889,"lat":33.5105,"lon":-25.6261,"largura_km":207.38,"eixo_na_terra":true},{"t":-0.48333,"lat":33.4505,"lon":-25.4993,"largura_km":207.432,"eixo_na_terra":true},{"t":-0.47778,"lat":33.3902,"lon":-25.3727,"largura_km":207.484,"eixo_na_terra":true},{"t":-0.47222,"lat":33.3298,"lon":-25.2465,"largura_km":207.536,"eixo_na_terra":true},{"t":-0.46667,"lat":33.2691,"lon":-25.1207,"largura_km":207.587,"eixo_na_terra":true},{"t":-0.46111,"lat":33.2083,"lon":-24.9952,"largura_km":207.638,"eixo_na_terra":true},{"t":-0.45556,"lat":33.1473,"lon":-24.87,"largura_km":207.688,"eixo_na_terra":true},{"t":-0.45,"lat":33.086,"lon":-24.7452,"largura_km":207.737,"eixo_na_terra":true},{"t":-0.44444,"lat":33.0246,"lon":-24.6207,"largura_km":207.786,"eixo_na_terra":true},{"t":-0.43889,"lat":32.9629,"lon":-24.4966,"largura_km":207.835,"eixo_na_terra":true},{"t":-0.43333,"lat":32.9011,"lon":-24.3727,"largura_km":207.883,"eixo_na_terra":true},{"t":-0.42778,"lat":32.8391,"lon":-24.2492,"largura_km":207.93,"eixo_na_terra":true},{"t":-0.42222,"lat":32.7769,"lon":-24.126,"largura_km":207.977,"eixo_na_terra":true},{"t":-0.41667,"lat":32.7145,"lon":-24.0032,"largura_km":208.024,"eixo_na_terra":true},{"t":-0.41111,"lat":32.6519,"lon":-23.8806,"largura_km":208.07,"eixo_na_terra":true},{"t":-0.40556,"lat":32.5891,"lon":-23.7584,"largura_km":208.115,"eixo_na_terra":true},{"t":-0.4,"lat":32.5261,"lon":-23.6365,"largura_km":208.161,"eixo_na_terra":true},{"t":-0.39444,"lat":32.4629,"lon":-23.5148,"largura_km":208.205,"eixo_na_terra":true},{"t":-0.38889,"lat":32.3996,"lon":-23.3935,"largura_km":208.25,"eixo_na_terra":true},{"t":-0.38333,"lat":32.336,"lon":-23.2725,"largura_km":208.296,"eixo_na_terra":true},{"t":-0.37778,"lat":32.2723,"lon":-23.1518,"largura_km":208.342,"eixo_na_terra":true},{"t":-0.37222,"lat":32.2083,"lon":-23.0314,"largura_km":208.388,"eixo_na_terra":true},{"t":-0.36667,"lat":32.1442,"lon":-22.9113,"largura_km":208.433,"eixo_na_terra":true},{"t":-0.36111,"lat":32.0799,"lon":-22.7914,"largura_km":208.478,"eixo_na_terra":true},{"t":-0.35556,"lat":32.0154,"lon":-22.6719,"largura_km":208.523,"eixo_na_terra":true},{"t":-0.35,"lat":31.9508,"lon":-22.5527,"largura_km":208.567,"eixo_na_terra":true},{"t":-0.34444,"lat":31.8859,"lon":-22.4337,"largura_km":208.61,"eixo_na_terra":true},{"t":-0.33889,"lat":31.8208,"lon":-22.315,"largura_km":208.653,"eixo_na_terra":true},{"t":-0.33333,"lat":31.7556,"lon":-22.1966,"largura_km":208.696,"eixo_na_terra":true},{"t":-0.32778,"lat":31.6902,"lon":-22.0785,"largura_km":208.738,"eixo_na_terra":true},{"t":-0.32222,"lat":31.6246,"lon":-21.9606,"largura_km":208.78,"eixo_na_terra":true},{"t":-0.31667,"lat":31.5588,"lon":-21.843,"largura_km":208.821,"eixo_na_terra":true},{"t":-0.31111,"lat":31.4928,"lon":-21.7257,"largura_km":208.862,"eixo_na_terra":true},{"t":-0.30556,"lat":31.4267,"lon":-21.6086,"largura_km":208.903,"eixo_na_terra":true},{"t":-0.3,"lat":31.3603,"lon":-21.4918,"largura_km":208.943,"eixo_na_terra":true},{"t":-0.29444,"lat":31.2938,"lon":-21.3753,"largura_km":208.982,"eixo_na_terra":true},{"t":-0.28889,"lat":31.2271,"lon":-21.259,"largura_km":209.021,"eixo_na_terra":true},{"t":-0.28333,"lat":31.1603,"lon":-21.143,"largura_km":209.06,"eixo_na_terra":true},{"t":-0.27778,"lat":31.0932,"lon":-21.0272,"largura_km":209.098,"eixo_na_terra":true},{"t":-0.27222,"lat":31.026,"lon":-20.9117,"largura_km":209.136,"eixo_na_terra":true},{"t":-0.26667,"lat":30.9585,"lon":-20.7964,"largura_km":209.174,"eixo_na_terra":true},{"t":-0.26111,"lat":30.8909,"lon":-20.6814,"largura_km":209.213,"eixo_na_terra":true},{"t":-0.25556,"lat":30.8232,"lon":-20.5666,"largura_km":209.252,"eixo_na_terra":true},{"t":-0.25,"lat":30.7552,"lon":-20.4521,"largura_km":209.291,"eixo_na_terra":true},{"t":-0.24444,"lat":30.6871,"lon":-20.3377,"largura_km":209.33,"eixo_na_terra":true},{"t":-0.23889,"lat":30.6188,"lon":-20.2237,"largura_km":209.368,"eixo_na_terra":true},{"t":-0.23333,"lat":30.5503,"lon":-20.1098,"largura_km":209.405,"eixo_na_terra":true},{"t":-0.22778,"lat":30.4816,"lon":-19.9962,"largura_km":209.443,"eixo_na_terra":true},{"t":-0.22222,"lat":30.4128,"lon":-19.8828,"largura_km":209.48,"eixo_na_terra":true},{"t":-0.21667,"lat":30.3437,"lon":-19.7696,"largura_km":209.516,"eixo_na_terra":true},{"t":-0.21111,"lat":30.2745,"lon":-19.6567,"largura_km":209.552,"eixo_na_terra":true},{"t":-0.20556,"lat":30.2052,"lon":-19.544,"largura_km":209.588,"eixo_na_terra":true},{"t":-0.2,"lat":30.1356,"lon":-19.4314,"largura_km":209.623,"eixo_na_terra":true},{"t":-0.19444,"lat":30.0659,"lon":-19.3191,"largura_km":209.658,"eixo_na_terra":true},{"t":-0.18889,"lat":29.996,"lon":-19.207,"largura_km":209.693,"eixo_na_terra":true},{"t":-0.18333,"lat":29.9259,"lon":-19.0952,"largura_km":209.727,"eixo_na_terra":true},{"t":-0.17778,"lat":29.8556,"lon":-18.9835,"largura_km":209.761,"eixo_na_terra":true},{"t":-0.17222,"lat":29.7852,"lon":-18.872,"largura_km":209.794,"eixo_na_terra":true},{"t":-0.16667,"lat":29.7146,"lon":-18.7607,"largura_km":209.827,"eixo_na_terra":true},{"t":-0.16111,"lat":29.6438,"lon":-18.6497,"largura_km":209.86,"eixo_na_terra":true},{"t":-0.15556,"lat":29.5729,"lon":-18.5388,"largura_km":209.892,"eixo_na_terra":true},{"t":-0.15,"lat":29.5017,"lon":-18.4281,"largura_km":209.924,"eixo_na_terra":true},{"t":-0.14444,"lat":29.4304,"lon":-18.3176,"largura_km":209.955,"eixo_na_terra":true},{"t":-0.13889,"lat":29.359,"lon":-18.2073,"largura_km":209.986,"eixo_na_terra":true},{"t":-0.13333,"lat":29.2873,"lon":-18.0971,"largura_km":210.017,"eixo_na_terra":true},{"t":-0.12778,"lat":29.2155,"lon":-17.9872,"largura_km":210.048,"eixo_na_terra":true},{"t":-0.12222,"lat":29.1435,"lon":-17.8774,"largura_km":210.078,"eixo_na_terra":true},{"t":-0.11667,"lat":29.0713,"lon":-17.7678,"largura_km":210.11,"eixo_na_terra":true},{"t":-0.11111,"lat":28.999,"lon":-17.6584,"largura_km":210.142,"eixo_na_terra":true},{"t":-0.10556,"lat":28.9264,"lon":-17.5492,"largura_km":210.173,"eixo_na_terra":true},{"t":-0.1,"lat":28.8538,"lon":-17.4401,"largura_km":210.204,"eixo_na_terra":true},{"t":-0.09444,"lat":28.7809,"lon":-17.3312,"largura_km":210.234,"eixo_na_terra":true},{"t":-0.08889,"lat":28.7079,"lon":-17.2225,"largura_km":210.264,"eixo_na_terra":true},{"t":-0.08333,"lat":28.6346,"lon":-17.1139,"largura_km":210.294,"eixo_na_terra":true},{"t":-0.07778,"lat":28.5613,"lon":-17.0055,"largura_km":210.323,"eixo_na_terra":true},{"t":-0.07222,"lat":28.4877,"lon":-16.8972,"largura_km":210.352,"eixo_na_terra":true},{"t":-0.06667,"lat":28.414,"lon":-16.7891,"largura_km":210.381,"eixo_na_terra":true},{"t":-0.06111,"lat":28.3401,"lon":-16.6812,"largura_km":210.409,"eixo_na_terra":true},{"t":-0.05556,"lat":28.266,"lon":-16.5734,"largura_km":210.437,"eixo_na_terra":true},{"t":-0.05,"lat":28.1918,"lon":-16.4657,"largura_km":210.464,"eixo_na_terra":true},{"t":-0.04444,"lat":28.1173,"lon":-16.3582,"largura_km":210.492,"eixo_na_terra":true},{"t":-0.03889,"lat":28.0428,"lon":-16.2508,"largura_km":210.518,"eixo_na_terra":true},{"t":-0.03333,"lat":27.968,"lon":-16.1436,"largura_km":210.545,"eixo_na_terra":true},{"t":-0.02778,"lat":27.8931,"lon":-16.0365,"largura_km":210.571,"eixo_na_terra":true},{"t":-0.02222,"lat":27.818,"lon":-15.9295,"largura_km":210.596,"eixo_na_terra":true},{"t":-0.01667,"lat":27.7427,"lon":-15.8227,"largura_km":210.622,"eixo_na_terra":true},{"t":-0.01111,"lat":27.6672,"lon":-15.716,"largura_km":210.647,"eixo_na_terra":true},{"t":-0.00556,"lat":27.5916,"lon":-15.6094,"largura_km":210.671,"eixo_na_terra":true},{"t":-0.0,"lat":27.5158,"lon":-15.503,"largura_km":210.695,"eixo_na_terra":true},{"t":0.00556,"lat":27.4398,"lon":-15.3966,"largura_km":210.719,"eixo_na_terra":true},{"t":0.01111,"lat":27.3637,"lon":-15.2904,"largura_km":210.743,"eixo_na_terra":true},{"t":0.01667,"lat":27.2874,"lon":-15.1843,"largura_km":210.766,"eixo_na_terra":true},{"t":0.02222,"lat":27.2109,"lon":-15.0783,"largura_km":210.789,"eixo_na_terra":true},{"t":0.02778,"lat":27.1342,"lon":-14.9724,"largura_km":210.811,"eixo_na_terra":true},{"t":0.03333,"lat":27.0574,"lon":-14.8667,"largura_km":210.833,"eixo_na_terra":true},{"t":0.03889,"lat":26.9804,"lon":-14.761,"largura_km":210.855,"eixo_na_terra":true},{"t":0.04444,"lat":26.9032,"lon":-14.6554,"largura_km":210.877,"eixo_na_terra":true},{"t":0.05,"lat":26.8258,"lon":-14.55,"largura_km":210.899,"eixo_na_terra":true},{"t":0.05556,"lat":26.7483,"lon":-14.4446,"largura_km":210.921,"eixo_na_terra":true},{"t":0.06111,"lat":26.6706,"lon":-14.3393,"largura_km":210.943,"eixo_na_terra":true},{"t":0.06667,"lat":26.5927,"lon":-14.2342,"largura_km":210.965,"eixo_na_terra":true},{"t":0.07222,"lat":26.5147,"lon":-14.1291,"largura_km":210.987,"eixo_na_terra":true},{"t":0.07778,"lat":26.4364,"lon":-14.0241,"largura_km":211.007,"eixo_na_terra":true},{"t":0.08333,"lat":26.358,"lon":-13.9191,"largura_km":211.028,"eixo_na_terra":true},{"t":0.08889,"lat":26.2795,"lon":-13.8143,"largura_km":211.048,"eixo_na_terra":true},{"t":0.09444,"lat":26.2007,"lon":-13.7095,"largura_km":211.068,"eixo_na_terra":true},{"t":0.1,"lat":26.1218,"lon":-13.6048,"largura_km":211.088,"eixo_na_terra":true},{"t":0.10556,"lat":26.0427,"lon":-13.5002,"largura_km":211.107,"eixo_na_terra":true},{"t":0.11111,"lat":25.9634,"lon":-13.3957,"largura_km":211.125,"eixo_na_terra":true},{"t":0.11667,"lat":25.884,"lon":-13.2912,"largura_km":211.144,"eixo_na_terra":true},{"t":0.12222,"lat":25.8043,"lon":-13.1868,"largura_km":211.162,"eixo_na_terra":true},{"t":0.12778,"lat":25.7245,"lon":-13.0824,"largura_km":211.179,"eixo_na_terra":true},{"t":0.13333,"lat":25.6446,"lon":-12.9781,"largura_km":211.196,"eixo_na_terra":true},{"t":0.13889,"lat":25.5644,"lon":-12.8739,"largura_km":211.213,"eixo_na_terra":true},{"t":0.14444,"lat":25.4841,"lon":-12.7697,"largura_km":211.229,"eixo_na_terra":true},{"t":0.15,"lat":25.4035,"lon":-12.6656,"largura_km":211.245,"eixo_na_terra":true},{"t":0.15556,"lat":25.3229,"lon":-12.5615,"largura_km":211.261,"eixo_na_terra":true},{"t":0.16111,"lat":25.242,"lon":-12.4574,"largura_km":211.276,"eixo_na_terra":true},{"t":0.16667,"lat":25.1609,"lon":-12.3534,"largura_km":211.291,"eixo_na_terra":true},{"t":0.17222,"lat":25.0797,"lon":-12.2495,"largura_km":211.305,"eixo_na_terra":true}]},"features":[{"type":"Feature","properties":{},"geometry":{"type":"Polygon","coordinates":[[[-12.894873886394606,26.827192368925022],[-12.263266879712376,26.344372649874774],[-11.948309212739076,26.100550948752364],[-11.529068710452691,25.772935671147607],[-12.958242807201856,24.382728998015022],[-13.37124728512103,24.70289594880565],[-13.784954398337334,25.020251362544915],[-14.199540782492477,25.334813797616718],[-14.615180399032425,25.646599348119896],[-15.032044816263664,25.955621707770344],[-15.436358016389164,26.251753262992636],[-15.85611900981661,26.555324697367954],[-16.277604460072126,26.85616053799057],[-16.700978909734204,27.15426541445612],[-17.126405714619068,27.449641773525972],[-17.554047255709435,27.742289904828862],[-17.876329074376827,27.959984572542464],[-18.308234927602427,28.24785258389795],[-18.728113742964865,28.52342323332637],[-19.16541249336484,28.805855419909523],[-19.49533052236609,29.015872103930498],[-19.93794194048519,29.293475129622735],[-20.383810133170982,29.568300912858053],[-20.83309630364687,29.840333913449122],[-21.172401292517293,30.042515346280993],[-21.61259445872969,30.300625498471433],[-21.956787994838265,30.4991259145678],[-22.419211451080827,30.761286080603718],[-22.768743499623554,30.95601207424906],[-23.238539071326954,31.21309933902516],[-23.593792188261602,31.40398822128547],[-24.05526628989,31.647463874822215],[-24.41654082321719,31.834489182393323],[-24.902511645451114,32.08121050313742],[-25.27028889285333,32.26424657593302],[-25.640976773890714,32.4455455250338],[-26.01465069147011,32.62508970241761],[-26.50067249932738,32.85383862334767],[-26.88151180680191,33.02926578444395],[-27.265593042414366,33.202873983130665],[-27.65299572944653,33.37464181991411],[-28.043800500547803,33.54454696616669],[-28.438089160853224,33.71256613928116],[-28.95157940884576,33.92632615881547],[-29.35421092401151,34.08990534478804],[-29.760606236808485,34.25151466209899],[-30.17085300916017,34.411126396200046],[-30.585040465214718,34.56871171818734],[-31.125047668179832,34.76890546411885],[-31.54866540344466,34.921706320096185],[-31.97653141205359,35.07237724095917],[-32.40874270966597,35.2208841514312],[-32.845398392321556,35.36719164018885],[-33.28659975370471,35.51126290926888],[-33.71305793921124,35.64699962748411],[-34.16353106712006,35.786552105516236],[-34.618865770193054,35.923750405913175],[-35.07917341924286,36.05855164958149],[-35.544568296300156,36.19091126412188],[-35.9950015070977,36.31535184262516],[-36.47078293432017,36.44276428858743],[-36.952011010234344,36.56759197300337],[-37.438813482051074,36.689782797077925],[-37.9313220237014,36.80928253870404],[-38.2628979989492,36.887426205000416],[-38.744142023437604,36.99760813898201],[-39.25238626620626,37.10973548707466],[-39.766854195721464,37.21895477801076],[-40.113366053698485,37.29011976439816],[-39.770537155985096,39.0794982307715],[-39.411140089460275,39.00861637174497],[-38.87758897344014,38.89968513356394],[-38.503886428868526,38.820673426231735],[-37.98127380887658,38.7065779085051],[-37.63635442284371,38.62886880356341],[-37.124102849918586,38.509884075033014],[-36.61788067368627,38.38804849450303],[-36.117552677933986,38.26342109957662],[-35.76650111109123,38.17340178237234],[-35.27585783891544,38.04416651654779],[-34.790764172319626,37.912287507936036],[-34.31109832270448,37.77781584005954],[-33.836741655276256,37.64080066252364],[-33.36757850796019,37.50128927336879],[-33.03784814985411,37.40080250107254],[-32.577230163857536,37.25715976398372],[-32.272878065377114,37.16007468030052],[-31.82036089377067,37.01249279573017],[-31.372564134954843,36.862601298606194],[-30.929385440401376,36.71043875956011],[-30.471817629725138,36.54927335436278],[-30.03770372893041,36.39261484021155],[-29.607910608816837,36.23379369312197],[-29.18234363479823,36.072842990109606],[-28.760909848920562,35.9097945570927],[-28.343517883672746,35.74467900877192],[-27.91204276866631,35.57012785899397],[-27.502582385690147,35.40090816063954],[-27.096896317468776,35.2297072404752],[-26.694898806177093,35.05655119434583],[-26.296505314432295,34.88146507484163],[-25.770776289117862,34.645055981887175],[-25.363290846377737,34.45755793729471],[-24.976419013407423,34.276155385648],[-24.592795421463762,34.092920705873965],[-24.212341045985397,33.90787379410783],[-23.834977719148895,33.72103365453303],[-23.336501313945206,33.46915521697099],[-22.96605088797969,33.27819991234346],[-22.582148950007394,33.07690327824505],[-22.21738665490463,32.88244612251572],[-21.855309002778455,32.686283386497415],[-21.495842152963746,32.488428793192206],[-21.020487602960287,32.22201315089056],[-20.54947166164564,31.952641242713803],[-20.183422535326628,31.739552556577966],[-19.835256379229776,31.533920983104625],[-19.374443108800648,31.257214594046207],[-19.031297129234133,31.04779768535203],[-18.57691968259087,30.766073663924352],[-18.238407871465853,30.552913464318756],[-17.78995306096658,30.266221793692853],[-17.344652946647017,29.976709264453543],[-16.997982294121528,29.74800282951378],[-16.557884067544677,29.453529336777095],[-16.120477835744197,29.15625809284315],[-15.794088962835048,28.931471093000287],[-15.360989974077569,28.629311917970735],[-14.93012032412139,28.324360397143952],[-14.501310123888317,28.016614222523064],[-14.074388263576623,27.706068767168777],[-13.741418345732427,27.461027164316018],[-13.31744306814764,27.14552175226295],[-12.894873886394606,26.827192368925022]]]}}]}