{"type":"FeatureCollection","features":[{"type":"Feature","properties":{"t_inicio":-1.0222222222222328,"t_fim":0.1722222222222074},"geometry":{"type":"LineString","coordinates":[[-39.939299428083274,38.18361153448907],[-39.76253769176199,38.14827172408222],[-39.58650617206473,38.1125900191852],[-39.41119900393721,38.07656900861585],[-39.23661039212263,38.04021124500613],[-39.06273460958201,38.0035192454625],[-38.889565995959686,37.96649549220877],[-38.71709895609189,37.929142433212206],[-38.54532795855721,37.89146248279301],[-38.37424753426754,37.85345802221827],[-38.20385227509817,37.81513140028026],[-38.03413683255553,37.77648493386015],[-37.86509591648149,37.737520908477194],[-37.69672429379315,37.69824157882402],[-37.52901678725641,37.65864916928848],[-37.36196827429288,37.61874587446241],[-37.195573685818715,37.578533859637574],[-37.02982800511418,37.53801526128963],[-36.86472626672321,37.497192187549885],[-36.70026355538198,37.45606671866563],[-36.536435004975516,37.41464090744943],[-36.37323579752112,37.3729167797172],[-36.210661162178496,37.33089633471602],[-36.04870637428496,37.288581545541675],[-35.88736675441547,37.245974359546125],[-35.726637667466406,37.20307669873551],[-35.56651452176237,37.15989046015866],[-35.4069927681856,37.11641751628662],[-35.24806789932697,37.072659715383246],[-35.089735448657734,37.02861888186724],[-34.931990989722124,36.98429681666595],[-34.77483013534933,36.93969529756088],[-34.61824853688472,36.89481607952551],[-34.46224188343959,36.84966089505532],[-34.30680590115901,36.8042314544904],[-34.15193635250691,36.75852944633093],[-33.99762903556831,36.712556537545396],[-33.843879783367754,36.66631437387211],[-33.690684463203866,36.61980458011407],[-33.53803897599903,36.57302876042714],[-33.38593925566448,36.52598849860218],[-33.234381268479524,36.47868535834077],[-33.08336101248517,36.4311208835251],[-32.932874516891104,36.383296598481955],[-32.78291784149644,36.33521400824104],[-32.633487076122776,36.28687459878771],[-32.484578340060295,36.238279837310365],[-32.336187781525695,36.18943117244264],[-32.188311577131884,36.140330034500145],[-32.04094593136949,36.0909778357127],[-31.894087076099083,36.041375970451305],[-31.747731270054317,35.99152581545046],[-31.60187479835571,35.94142873002593],[-31.45651397203443,35.89108605628788],[-31.311645127566038,35.84049911934959],[-31.16726462641384,35.78966922753196],[-31.02336885458152,35.73859767256371],[-30.87995422217486,35.68728572977742],[-30.73701716297242,35.635734658301814],[-30.594554134004454,35.583945701249746],[-30.452561615140382,35.531920085902705],[-30.31103610868422,35.47965902389129],[-30.16997413897792,35.42716371137229],[-30.029372252012337,35.37443532920203],[-29.889227015045492,35.32147504310619],[-29.749535016228094,35.2682840038464],[-29.6102928642361,35.21486334738326],[-29.471497187910018,35.16121419503629],[-29.333144635900766,35.107337653640556],[-29.19523187632194,35.05323481570022],[-29.057755596408526,34.99890675953909],[-28.92071250218129,34.944354549448],[-28.784099318117427,34.88957923582946],[-28.647912786826566,34.83458185533931],[-28.51214966873269,34.77936343102564],[-28.376806741761158,34.7239249724648],[-28.2418808010311,34.66826747589499],[-28.1073686585529,34.61239192434693],[-27.97326714293058,34.55629928777208],[-27.839573099069042,34.49999052316833],[-27.706283387885918,34.44346657470313],[-27.573394886027984,34.3867283738342],[-27.44090448559203,34.32977683942792],[-27.308809093849845,34.27261287787526],[-27.17710563297757,34.21523738320547],[-27.045791039788867,34.15765123719747],[-26.914862265472124,34.0998553094891],[-26.78431627533152,34.04185045768408],[-26.654150048531562,33.98363752745689],[-26.524360577845442,33.9252173526556],[-26.3949448694066,33.86659075540248],[-26.26589994246396,33.807758546192694],[-26.137222829140228,33.74872152399108],[-26.008910574193322,33.6894804763267],[-25.880960234781014,33.63003617938578],[-25.753368880228578,33.57038939810252],[-25.626133591799004,33.51054088624811],[-25.499251462466475,33.45049138651798],[-25.37271959669218,33.39024163061717],[-25.246535110202842,33.32979233934386],[-25.120695129771946,33.26914422267135],[-24.99519679300323,33.208297979828075],[-24.870037248116518,33.14725429937605],[-24.74521365373613,33.08601385928774],[-24.620723178681175,33.024577327021035],[-24.496563001758176,32.962945359592766],[-24.372730311555785,32.90111860365064],[-24.249222306241336,32.83909769554347],[-24.12603619335954,32.77688326138991],[-24.003169189632814,32.71447591714571],[-23.880618520763505,32.65187626866934],[-23.758381421238,32.58908491178617],[-23.636455134132063,32.52610243235119],[-23.51483691091829,32.46292940631021],[-23.39352401127468,32.39956639975966],[-23.272513702894827,32.336013969004945],[-23.151803261299563,32.27227266061741],[-23.031389969649922,32.208343011489795],[-22.911271118561274,32.14422554889052],[-22.791444005918834,32.07992079051635],[-22.671905936694287,32.01542924454398],[-22.552654222763522,31.950751409679985],[-22.433686182725438,31.8858877752097],[-22.3149991417217,31.820838821044635],[-22.196590431257505,31.7556050177686],[-22.07845738902327,31.69018682668264],[-21.96059735871708,31.624584699848565],[-21.843007689867903,31.558799080131237],[-21.725685737659802,31.49283040123969],[-21.608628862756433,31.42667908776694],[-21.49183443112645,31.360345555228374],[-21.375299813869617,31.293830210099344],[-21.259022387042933,31.227133449851035],[-21.14299953148793,31.160255662985485],[-21.027228632657966,31.09319722906923],[-20.91170708044592,31.025958518765734],[-20.796432269012513,30.958539893866707],[-20.68140159661459,30.8909417073222],[-20.566612465434048,30.823164303269454],[-20.452062281406427,30.755208017060696],[-20.337748454050285,30.687073175289616],[-20.223668396296205,30.618760095816757],[-20.109819524316038,30.5502690877938],[-19.99619925735226,30.481600451686496],[-19.882805017547128,30.412754479296602],[-19.769634229771896,30.343731453782645],[-19.656684321455884,30.274531649679485],[-19.54395272241527,30.205155332916654],[-19.431436864681984,30.135602760835734],[-19.31913418233185,30.06587418220643],[-19.207042111313,29.995969837241535],[-19.09515808927347,29.925889957610753],[-18.983479555388783,29.85563476645342],[-18.87200395018874,29.785204478389918],[-18.760728715384033,29.714599299532146],[-18.649651293692102,29.643819427492698],[-18.538769128662693,29.572865051392927],[-18.42807966450249,29.501736351869862],[-18.317580345899188,29.430433501081996],[-18.207268617845074,29.35895666271377],[-18.09714192545954,29.28730599197911],[-17.9871977138109,29.21548163562364],[-17.8774334277374,29.143483731925762],[-17.767846511667358,29.071312410696574],[-17.658434409438144,28.998967793278595],[-17.549194564114515,28.926449992543294],[-17.440124417805464,28.853759112887474],[-17.331221411480385,28.78089525022837],[-17.222482984783824,28.707858491997637],[-17.113906575849086,28.63464891713401],[-17.00548962111074,28.561266596074915],[-16.89722955511553,28.487711590746677],[-16.789123810332313,28.413983954553554],[-16.681169816960136,28.340083732365578],[-16.573365002735272,28.26601096050509],[-16.46570679273654,28.191765666731964],[-16.35819260918896,28.117347870227682],[-16.250819871266003,28.04275758157801],[-16.143585994890003,27.96799480275438],[-16.036488392530885,27.893059527094064],[-15.929524473003056,27.81795173927893],[-15.822691641260406,27.74267141531284],[-15.715987298189503,27.66721852249786],[-15.609408840400704,27.591593019408865],[-15.502953660017283,27.515794855867004],[-15.39661914446225,27.439823972911622],[-15.29040267624336,27.363680302770796],[-15.184301632735554,27.28736376883052],[-15.078313385961195,27.21087428560236],[-14.97243530236807,27.1342117586897],[-14.86666474260457,27.0573760847525],[-14.760999061292836,26.980367151470553],[-14.655435606798932,26.903184837505194],[-14.549971721000531,26.82582901245956],[-14.444604739051698,26.748299536837234],[-14.339331989145165,26.670596261999275],[-14.23415079227135,26.592719030119717],[-14.129058461974552,26.51466767413942],[-14.024052304106249,26.436442017718267],[-13.919129616574793,26.358041875185656],[-13.814287689092453,26.279467051489394],[-13.709523802918653,26.20071734214275],[-13.604835230600088,26.121792533169803],[-13.500219235707135,26.04269240104908],[-13.395673072566893,25.96341671265527],[-13.291193985992322,25.88396522519914],[-13.186779211007746,25.80433768616565],[-13.082425972570263,25.724533833250067],[-12.978131485287378,25.644553394292217],[-12.873892953130479,25.564396087208724],[-12.769707569143975,25.484061619923313],[-12.665572515150188,25.403549690295012],[-12.561484961449878,25.322859986044254],[-12.457442066518155,25.241992184677017],[-12.353440976695708,25.160945953406635],[-12.249478825875144,25.079720949073486]]}}]}