{"type":"FeatureCollection","features":[{"type":"Feature","properties":{"magnitude":0.6,"percentagem":60.0,"territorio":"continente"},"geometry":{"type":"LineString","coordinates":[[-5.540000000000106,38.272812392698235],[-5.550038711239818,38.27999999999995],[-5.580000000000105,38.30144282975221],[-5.605952508912512,38.31999999999995],[-5.620000000000104,38.33004028732681],[-5.660000000000104,38.358604917731384],[-5.661954953991721,38.35999999999995],[-5.700000000000102,38.38713787999928],[-5.718047948975261,38.39999999999995],[-5.7400000000001015,38.4156377435782],[-5.774230494373302,38.43999999999995],[-5.780000000000101,38.44410446900277],[-5.8200000000001,38.47253904400041],[-5.830504351370335,38.47999999999995],[-5.860000000000099,38.50094097048222],[-5.886869555315929,38.519999999999946],[-5.900000000000098,38.529309645045785],[-5.940000000000097,38.557645352460625],[-5.943326379925402,38.559999999999945],[-5.980000000000096,38.585949011189044],[-5.999876609972021,38.59999999999994],[-6.0200000000000955,38.61421930831857],[-6.05651919922951,38.639999999999944],[-6.060000000000095,38.64245620733256],[-6.100000000000094,38.670660945034086],[-6.113256404287632,38.67999999999994],[-6.140000000000093,38.69883255043041],[-6.170087570224281,38.71999999999994],[-6.180000000000092,38.726970653322475],[-6.220000000000091,38.755075887205436],[-6.227013741975191,38.75999999999994],[-6.26000000000009,38.7831484987152],[-6.2840359152873155,38.79999999999994],[-6.3000000000000895,38.811187507300474],[-6.340000000000088,38.83919298840219],[-6.341153485410974,38.83999999999994],[-6.380000000000088,38.86716631588657],[-6.398369123319404,38.87999999999994],[-6.420000000000087,38.89510594394468],[-6.45568118261744,38.91999999999994],[-6.460000000000086,38.923011840118036],[-6.500000000000085,38.95088519968457],[-6.5130921431794775,38.95999999999994],[-6.540000000000084,38.978725172824355],[-6.570601348954604,38.999999999999936],[-6.580000000000084,39.00653132263742],[-6.620000000000083,39.03430438251384],[-6.6282099846086,39.039999999999935],[-6.660000000000082,39.06204443803527],[-6.685918860393873,39.079999999999934],[-6.700000000000081,39.08975058258381],[-6.74000000000008,39.11742313107376],[-6.743727719165444,39.11999999999993],[-6.780000000000079,39.145063017827226],[-6.801638816355858,39.15999999999993],[-6.820000000000078,39.1726689097041],[-6.859650537946133,39.19999999999993],[-6.860000000000078,39.20024077808516],[-6.900000000000077,39.227780224223835],[-6.917766379427228,39.23999999999993],[-6.940000000000076,39.25528562737481],[-6.9759841420767845,39.27999999999993],[-6.980000000000075,39.28275692794022],[-7.020000000000074,39.31019540263536],[-7.034306776323668,39.319999999999936],[-7.060000000000073,39.33760009221242],[-7.092733201035356,39.35999999999993],[-7.1000000000000725,39.36497060372729],[-7.140000000000072,39.39230793146428],[-7.1512652988652485,39.39999999999993],[-7.180000000000071,39.41961169367659],[-7.2099030358951275,39.43999999999993],[-7.22000000000007,39.446881205907445],[-7.260000000000069,39.474117221704454],[-7.268647304963347,39.479999999999926],[-7.300000000000068,39.50131985366726],[-7.327499034238552,39.519999999999925],[-7.340000000000067,39.52848816723005],[-7.3800000000000665,39.55562271653392],[-7.386458219619998,39.559999999999924],[-7.420000000000066,39.58272402611519],[-7.445526651161588,39.59999999999992],[-7.460000000000065,39.60979095232147],[-7.500000000000063,39.63682389090165],[-7.504703535939557,39.63999999999992],[-7.540000000000063,39.66382369656691],[-7.563991410290313,39.67999999999992],[-7.580000000000062,39.69078905726802],[-7.620000000000061,39.717720251108716],[-7.623388816152979,39.71999999999992],[-7.6600000000000605,39.74461838176401],[-7.682898904810203,39.75999999999992],[-7.70000000000006,39.77148200919343],[-7.740000000000059,39.798311334384096],[-7.742519692654547,39.79999999999991],[-7.780000000000058,39.82510762921718],[-7.802254798508281,39.83999999999992],[-7.820000000000057,39.85186936583125],[-7.860000000000056,39.878596708455284],[-7.8621018690519255,39.87999999999992],[-7.900000000000055,39.90529101677536],[-7.922064826827942,39.919999999999916],[-7.940000000000055,39.931950715092476],[-7.980000000000054,39.9585759711145],[-7.982141121228789,39.959999999999916],[-8.020000000000053,39.985168152190234],[-8.042334797937356,39.999999999999915],[-8.060000000000052,40.011725674628536],[-8.100000000000051,40.03824874978012],[-8.102643298421098,40.03999999999991],[-8.14000000000005,40.064738672676484],[-8.163070593810744,40.07999999999991],[-8.18000000000005,40.091193891390255],[-8.220000000000049,40.117614701054094],[-8.223614324306745,40.11999999999991],[-8.260000000000048,40.144002244467934],[-8.284278171323637,40.15999999999991],[-8.300000000000047,40.170355041182745],[-8.340000000000046,40.19667351027573],[-8.345060198108698,40.19999999999991],[-8.380000000000045,40.22295856237005],[-8.4059635633614,40.23999999999991],[-8.420000000000044,40.249208828216936],[-8.460000000000043,40.275424891071694],[-8.466986995712093,40.27999999999991],[-8.500000000000043,40.301607349309066],[-8.528132879942158,40.31999999999991],[-8.540000000000042,40.32775498465748],[-8.580000000000041,40.35386858490293],[-8.589400870795425,40.35999999999991],[-8.62000000000004,40.37994835587794],[-8.650792309353355,40.399999999999906],[-8.66000000000004,40.405993270168054],[-8.700000000000038,40.43200436060869],[-8.712308055975917,40.439999999999905],[-8.740000000000038,40.45798135987947],[-8.77394811930318,40.479999999999905],[-8.780000000000037,40.483923471453544],[-8.820000000000036,40.50983201394777],[-8.835714863969349,40.519999999999904],[-8.860000000000035,40.53570616586698],[-8.897606658085994,40.5599999999999],[-8.900000000000034,40.56154540180015],[-8.940000000000033,40.587351367137586],[-8.959627688764666,40.5999999999999],[-8.980000000000032,40.61312260468267],[-9.020000000000032,40.63885905003351],[-9.021774814739864,40.6399999999999],[-9.06000000000003,40.664562268391016],[-9.08405300681333,40.6799999999999],[-9.10000000000003,40.69023053299405],[-9.14000000000003,40.715864375113874],[-9.146459431142866,40.7199999999999],[-9.180000000000028,40.74146459145155],[-9.208997378234,40.7599999999999],[-9.220000000000027,40.7670298328286],[-9.260000000000026,40.79256106547717],[-9.271666508901212,40.7999999999999],[-9.300000000000026,40.8180582351269],[-9.334467448032377,40.8399999999999],[-9.340000000000025,40.843520411107164],[-9.380000000000024,40.868949036523816],[-9.397402741249639,40.879999999999896],[-9.420000000000023,40.89434312282135],[-9.460000000000022,40.91970223830682],[-9.460470078284994,40.91999999999989],[-9.500000000000021,40.94502822795333],[-9.523674908274788,40.959999999999894],[-9.54000000000002,40.970319202067124],[-9.58000000000002,40.9955757347817],[-9.587013687141171,40.99999999999989],[-9.620000000000019,41.02079860329519],[-9.650489878176126,41.03999999999989],[-9.660000000000018,41.04598644405505],[-9.700000000000017,41.07114041801071],[-9.714103681799049,41.07999999999989],[-9.740000000000016,41.096260149438876],[-9.777854608543123,41.11999999999989],[-9.780000000000015,41.121344843164806],[-9.820000000000014,41.146396290392595],[-9.84174707073463,41.15999999999989],[-9.860000000000014,41.17141287616376],[-9.900000000000013,41.196394893157695],[-9.905777873535733,41.19999999999989],[-9.940000000000012,41.22134337691679],[-9.96995095387231,41.23999999999989],[-9.980000000000011,41.24625681566883],[-10.02000000000001,41.27113637822238],[-10.034265976510882,41.27999999999989],[-10.06000000000001,41.29598172469311],[-10.098722523905495,41.31999999999989],[-10.100000000000009,41.32079202210271],[-10.140000000000008,41.345569182802976],[-10.163325533934003,41.359999999999886],[-10.180000000000007,41.37031140248165],[-10.220000000000006,41.395019233374065],[-10.228071597433415,41.39999999999988],[-10.260000000000005,41.41969339008135],[-10.29296388627921,41.439999999999884],[-10.300000000000004,41.44433250022355],[-10.340000000000003,41.46893803451846],[-10.358003710876082,41.479999999999876],[-10.380000000000003,41.49350910412119],[-10.420000000000002,41.51804538942657],[-10.423189499230128,41.51999999999988],[-10.46,41.54254843852462],[-10.488525962552544,41.55999999999988],[-10.5,41.56701644940009]]}},{"type":"Feature","properties":{"magnitude":0.9,"percentagem":90.0,"territorio":"acores"},"geometry":{"type":"LineString","coordinates":[[-24.04000000000017,37.32976440702463],[-24.08000000000017,37.34799361741074],[-24.106391128040084,37.35999999999997],[-24.120000000000168,37.36618874747801],[-24.160000000000167,37.384350093280545],[-24.194531736520272,37.39999999999997],[-24.200000000000166,37.40247725081485],[-24.240000000000165,37.4205708629906],[-24.280000000000165,37.43863023194379],[-24.283038437443334,37.43999999999997],[-24.320000000000164,37.45665617710506],[-24.360000000000163,37.474648004540065],[-24.371917658896457,37.479999999999976],[-24.400000000000162,37.49260628680369],[-24.440000000000165,37.510530704907055],[-24.461167486448854,37.51999999999997],[-24.48000000000016,37.52842144384812],[-24.52000000000016,37.546278585263046],[-24.550791541536967,37.55999999999997],[-24.56000000000016,37.56410190054859],[-24.600000000000158,37.58189189835913],[-24.640000000000157,37.59964792752181],[-24.640794311283464,37.599999999999966],[-24.680000000000156,37.617370897446506],[-24.720000000000155,37.635059978253395],[-24.731188696661768,37.639999999999965],[-24.760000000000154,37.652715836244134],[-24.800000000000153,37.670338102839224],[-24.82196896084067,37.679999999999964],[-24.840000000000153,37.68792696890686],[-24.88000000000015,37.70548255582198],[-24.913138909675943,37.71999999999996],[-24.92000000000015,37.72300454999393],[-24.96000000000015,37.74049359213366],[-25.00000000000015,37.757948944794535],[-25.0047074004711,37.75999999999996],[-25.04000000000015,37.77537146706461],[-25.080000000000148,37.79276047290533],[-25.096681152583997,37.79999999999996],[-25.120000000000147,37.810116436233],[-25.160000000000146,37.82743923105509],[-25.189056856769643,37.83999999999996],[-25.200000000000145,37.84472875555479],[-25.240000000000144,37.86198547548179],[-25.280000000000143,37.8792087257843],[-25.281840510413495,37.87999999999996],[-25.320000000000142,37.89639946267699],[-25.36000000000014,37.91355683786239],[-25.375046587594042,37.91999999999996],[-25.40000000000014,37.930681449356825],[-25.440000000000143,37.947773086324126],[-25.468667379326373,37.95999999999996],[-25.48000000000014,37.96483169243318],[-25.520000000000138,37.98185772835445],[-25.560000000000137,37.998850516678836],[-25.562710041180793,37.99999999999996],[-25.600000000000136,38.01581102129198],[-25.640000000000136,38.03273840992982],[-25.65718890900054,38.03999999999996],[-25.680000000000135,38.04963322260111],[-25.720000000000134,38.066495349382755],[-25.75209577091106,38.079999999999956],[-25.760000000000133,38.08332458984481],[-25.800000000000132,38.10012159282647],[-25.84000000000013,38.116885572167504],[-25.847443344428438,38.119999999999955],[-25.88000000000013,38.13361739810808],[-25.92000000000013,38.15031645635701],[-25.943237170766473,38.159999999999954],[-25.96000000000013,38.16698302310657],[-26.000000000000128,38.183617298864846],[-26.039472810955452,38.19999999999995],[-26.040000000000127,38.200218725706804],[-26.080000000000126,38.21678835775646],[-26.120000000000125,38.23332519181297],[-26.13617335624225,38.23999999999995],[-26.160000000000124,38.24982989106479],[-26.200000000000124,38.26630228524398],[-26.233326089122006,38.27999999999995],[-26.240000000000123,38.282742156765345],[-26.280000000000122,38.29915025028568],[-26.32000000000012,38.31552570776364],[-26.330947783242244,38.31999999999995],[-26.36000000000012,38.33186934496843],[-26.40000000000012,38.348180706300724],[-26.429038858104974,38.35999999999995],[-26.44000000000012,38.36445982720406],[-26.480000000000118,38.380707231971],[-26.520000000000117,38.39692216330966],[-26.527605294921432,38.39999999999995],[-26.560000000000116,38.41310554265117],[-26.60000000000012,38.429256722513465],[-26.626656601584802,38.43999999999995],[-26.640000000000114,38.4453758960405],[-26.680000000000113,38.461463464296095],[-26.720000000000113,38.477518722323616],[-26.72619216866936,38.47999999999995],[-26.76000000000011,38.49354264623482],[-26.80000000000011,38.509534498217235],[-26.826226258678787,38.519999999999946],[-26.84000000000011,38.52549452567297],[-26.88000000000011,38.54142311169883],[-26.92000000000011,38.55731955120742],[-26.926756164974755,38.559999999999945],[-26.960000000000107,38.57318481990602],[-27.000000000000107,38.58901819939195],[-27.027796273644853,38.599999999999945],[-27.040000000000106,38.60481987968804],[-27.080000000000105,38.62059033939049],[-27.120000000000104,38.63632881672338],[-27.12934657826181,38.639999999999944],[-27.160000000000103,38.65203622776592],[-27.200000000000106,38.667711991524065],[-27.231416647599005,38.67999999999994],[-27.2400000000001,38.68335612074067],[-27.2800000000001,38.69896931124758],[-27.3200000000001,38.714550683897656],[-27.334014289796777,38.71999999999994],[-27.3600000000001,38.73010103175246],[-27.400000000000098,38.7456200375403],[-27.43713899234531,38.75999999999994],[-27.440000000000097,38.76110740850679],[-27.480000000000096,38.77656418777613],[-27.520000000000095,38.791989313996275],[-27.540811822766585,38.79999999999994],[-27.560000000000095,38.807383389634786],[-27.600000000000094,38.82274649581393],[-27.640000000000093,38.838078047768946],[-27.645022980206843,38.83999999999994],[-27.680000000000092,38.853379124147764],[-27.72000000000009,38.8686488625729],[-27.749793399638254,38.87999999999994],[-27.76000000000009,38.88388745307923],[-27.80000000000009,38.89909551824235],[-27.84000000000009,38.91427219432569],[-27.855123937586963,38.91999999999994],[-27.880000000000088,38.92941826830708],[-27.920000000000087,38.94453347758777],[-27.960000000000086,38.959617396774256],[-27.961016322821145,38.95999999999994],[-28.000000000000085,38.97467124839551],[-28.040000000000088,38.989693907191395],[-28.067495244621426,38.999999999999936],[-28.080000000000084,39.004685759149474],[-28.120000000000083,39.01964729759719],[-28.160000000000082,39.034577711266984],[-28.17455359395408,39.039999999999935],[-28.20000000000008,39.04947781973466],[-28.24000000000008,39.06434731928334],[-28.28000000000008,39.07918579310564],[-28.28219865509951,39.079999999999934],[-28.32000000000008,39.09399445001273],[-28.360000000000078,39.1087722158167],[-28.39045199349184,39.11999999999993],[-28.400000000000077,39.12351935390042],[-28.440000000000076,39.13823655136159],[-28.48000000000008,39.15292288842685],[-28.499312132989434,39.15999999999993],[-28.520000000000074,39.16757904942946],[-28.560000000000073,39.18220502394345],[-28.600000000000072,39.196800237088496],[-28.608785273645953,39.19999999999993],[-28.64000000000007,39.21136571039681],[-28.68000000000007,39.22590076658496],[-28.718882247908823,39.23999999999993],[-28.72000000000007,39.2404051960221],[-28.76000000000007,39.254880234428356],[-28.800000000000068,39.26932467665969],[-28.829622260959404,39.27999999999993],[-28.840000000000067,39.28373888800618],[-28.880000000000067,39.29812351761934],[-28.920000000000066,39.31247764997349],[-28.941003075653043,39.31999999999993],[-28.960000000000065,39.32680192978818],[-29.000000000000064,39.34109645442169],[-29.040000000000063,39.35536058065221],[-29.053034552491994,39.35999999999993],[-29.080000000000062,39.36959521441695],[-29.12000000000006,39.38379993753349],[-29.16000000000006,39.39797436103216],[-29.165726755920353,39.39999999999993],[-29.20000000000006,39.41211963311507],[-29.24000000000006,39.426234857791314],[-29.279091245709296,39.43999999999993],[-29.280000000000058,39.44031991129116],[-29.320000000000057,39.4543760751729],[-29.360000000000056,39.46840210406491],[-29.393144428932843,39.479999999999926],[-29.400000000000055,39.482398256079044],[-29.440000000000055,39.496365427845056],[-29.480000000000054,39.5103025631544],[-29.507888936815796,39.519999999999925],[-29.520000000000053,39.524210094774965],[-29.560000000000052,39.53808857624948],[-29.60000000000005,39.55193711969007],[-29.623335659224857,39.559999999999924],[-29.64000000000005,39.56575631077161],[-29.68000000000005,39.57954640326896],[-29.72000000000005,39.593306656034606],[-29.73949571302166,39.59999999999992],[-29.760000000000048,39.60703778516245],[-29.800000000000047,39.62073978945507],[-29.840000000000046,39.634412052187734],[-29.856380447251503,39.63999999999993],[-29.880000000000045,39.648055396647365],[-29.920000000000044,39.66166961293459],[-29.960000000000043,39.67525418569327],[-29.974001448474795,39.67999999999992],[-30.000000000000043,39.68881002144087],[-30.04000000000004,39.70233674931831],[-30.08000000000004,39.71583393154874],[-30.092370546246208,39.71999999999992],[-30.12000000000004,39.72930253318262],[-30.16000000000004,39.742742071612334],[-30.200000000000042,39.756152162117196],[-30.211499818746717,39.75999999999992],[-30.240000000000038,39.769533802850255],[-30.28000000000004,39.782886450131514],[-30.320000000000036,39.79620974704155],[-30.33140159857311,39.79999999999992],[-30.360000000000035,39.809504698674715],[-30.400000000000034,39.82277075241552],[-30.440000000000033,39.83600755316113],[-30.452088478690435,39.83999999999992],[-30.480000000000032,39.849216086057844],[-30.52000000000003,39.86239584314712],[-30.560000000000034,39.87554644443071],[-30.573573318553137,39.87999999999992],[-30.60000000000003,39.88866882749229],[-30.640000000000033,39.9017625840726],[-30.680000000000028,39.91482728184163],[-30.695869250400325,39.919999999999916],[-30.720000000000027,39.92786378248365],[-30.760000000000026,39.94087183392476],[-30.800000000000026,39.95385092334538],[-30.818989685731033,39.95999999999991],[-30.840000000000025,39.96680180747493],[-30.880000000000024,39.97972444834798],[-30.920000000000023,39.99261822377939],[-30.94294832196549,39.999999999999915],[-30.960000000000022,40.0054837557733],[-31.00000000000002,40.01832127982554],[-31.04000000000002,40.03113003479495],[-31.067759149299675,40.039999999999914],[-31.08000000000002,40.04391047747886],[-31.12000000000002,40.05666317760916],[-31.160000000000018,40.0693872047874],[-31.193436457758338,40.07999999999991],[-31.200000000000017,40.08208281941582],[-31.240000000000016,40.09475098765067],[-31.280000000000015,40.1073905788285],[-31.319994844454765,40.11999999999991],[-31.320000000000014,40.120001625065676],[-31.360000000000014,40.13258555253597],[-31.400000000000013,40.14514099860095],[-31.44000000000001,40.157667995128286],[-31.447461284257688,40.15999999999991],[-31.48000000000001,40.17016771142099],[-31.52000000000001,40.18263930233501],[-31.56000000000001,40.19508253904127],[-31.575840621032384,40.19999999999991],[-31.60000000000001,40.20749829996974],[-31.640000000000008,40.219886324747165],[-31.680000000000007,40.232246090386504],[-31.705148470798044,40.23999999999991],[-31.720000000000006,40.24457815029452],[-31.760000000000005,40.25688289698094],[-31.800000000000004,40.26915947933175],[-31.83540079797273,40.27999999999991],[-31.840000000000003,40.28140809089811],[-31.880000000000003,40.29362984654975],[-31.92,40.305823532394164],[-31.96,40.31798917997732],[-31.966624972952093,40.31999999999991],[-32.0,40.33012799728165]]}},{"type":"Feature","properties":{"magnitude":0.95,"percentagem":95.0,"territorio":"acores"},"geometry":{"type":"LineString","coordinates":[[-24.952619398755065,36.0],[-24.96000000000015,36.00335980589713],[-25.00000000000015,36.021540159385275],[-25.04000000000015,36.03968556233807],[-25.04069419076127,36.04],[-25.080000000000148,36.057796507118454],[-25.120000000000147,36.07587256928911],[-25.129148058704292,36.08],[-25.160000000000146,36.09391414283565],[-25.200000000000145,36.11192099600717],[-25.21797697553827,36.12],[-25.240000000000144,36.12989332065258],[-25.280000000000143,36.1478310971506],[-25.307184706930236,36.16],[-25.320000000000142,36.165734295393364],[-25.36000000000014,36.18360312806904],[-25.39677506402709,36.199999999999996],[-25.40000000000014,36.20143732255483],[-25.44000000000014,36.21923734476805],[-25.48000000000014,36.23700274795292],[-25.486759268896684,36.239999999999995],[-25.520000000000138,36.254734003873864],[-25.560000000000137,36.272430791749834],[-25.57713791362626,36.279999999999994],[-25.600000000000136,36.29009336259877],[-25.640000000000136,36.30772166975201],[-25.66791146463028,36.31999999999999],[-25.680000000000135,36.32531567870672],[-25.720000000000134,36.342875640175386],[-25.75908393353052,36.35999999999999],[-25.760000000000133,36.36040121047974],[-25.800000000000132,36.377892961737686],[-25.84000000000013,36.39535037100864],[-25.850671314699223,36.39999999999999],[-25.88000000000013,36.41277389362507],[-25.92000000000013,36.430163290984204],[-25.94266741183411,36.43999999999999],[-25.96000000000013,36.44751869545952],[-26.000000000000128,36.464840217432325],[-26.03507537817912,36.47999999999999],[-26.040000000000127,36.4821276272663],[-26.080000000000126,36.49938141075962],[-26.120000000000125,36.51660107083028],[-26.127908460350042,36.51999999999999],[-26.160000000000124,36.53378713172866],[-26.200000000000124,36.550939253762365],[-26.2211681542926,36.55999999999999],[-26.240000000000123,36.56805764142662],[-26.280000000000122,36.58514236325155],[-26.31485320871164,36.59999999999999],[-26.32000000000012,36.6021932012344],[-26.36000000000012,36.619210661007486],[-26.40000000000012,36.63619421847691],[-26.4089784666408,36.639999999999986],[-26.44000000000012,36.65314440898817],[-26.480000000000118,36.67006090673289],[-26.503544585840025,36.679999999999986],[-26.520000000000117,36.686943869370026],[-26.560000000000116,36.70379344634241],[-26.598550121632055,36.719999999999985],[-26.600000000000115,36.72060930451848],[-26.640000000000114,36.73739209994896],[-26.680000000000113,36.75414121648654],[-26.69401628125704,36.759999999999984],[-26.720000000000113,36.77085713034171],[-26.76000000000011,36.78753966929855],[-26.78993351562591,36.79999999999998],[-26.80000000000011,36.804188800427006],[-26.84000000000011,36.82080490170747],[-26.880000000000113,36.837387484683546],[-26.886312409763256,36.839999999999975],[-26.92000000000011,36.85393717693814],[-26.960000000000107,36.87045352722993],[-26.98316296415279,36.87999999999998],[-27.000000000000107,36.88693675826331],[-27.040000000000106,36.90338701636554],[-27.080000000000105,36.91980391769817],[-27.080478537264984,36.91999999999999],[-27.120000000000104,36.93618821557975],[-27.160000000000103,36.95253923062726],[-27.17828470420202,36.95999999999998],[-27.200000000000102,36.96885738834289],[-27.2400000000001,36.985142658109076],[-27.276565984105105,36.99999999999998],[-27.2800000000001,37.00139479808027],[-27.3200000000001,37.017614463732144],[-27.3600000000001,37.03380100054364],[-27.375346497360475,37.03999999999998],[-27.400000000000098,37.04995491100143],[-27.440000000000097,37.06607605066658],[-27.474617371647817,37.07999999999998],[-27.480000000000096,37.08216426331335],[-27.520000000000095,37.09822014739752],[-27.560000000000095,37.11424306609818],[-27.574397683442616,37.119999999999976],[-27.600000000000094,37.13023355411882],[-27.640000000000093,37.14619142484544],[-27.674682184306832,37.159999999999975],[-27.680000000000092,37.16211653404325],[-27.72000000000009,37.178009498683586],[-27.76000000000009,37.19386966205735],[-27.77548923635235,37.199999999999974],[-27.80000000000009,37.20969755072087],[-27.84000000000009,37.225493016146],[-27.87681214963572,37.239999999999974],[-27.880000000000088,37.24125584383724],[-27.920000000000087,37.25698675345022],[-27.960000000000086,37.27268502649392],[-27.978673822289934,37.27999999999997],[-28.000000000000085,37.28835113665835],[-28.040000000000084,37.30398506245301],[-28.08000000000008,37.31958645039911],[-28.081062100384006,37.31999999999997],[-28.120000000000083,37.335156149033395],[-28.160000000000082,37.35069339852332],[-28.184005860424048,37.35999999999997],[-28.20000000000008,37.366198548363286],[-28.24000000000008,37.381671801804345],[-28.28000000000008,37.397112682867004],[-28.28749301694296,37.39999999999997],[-28.32000000000008,37.412521922046054],[-28.360000000000078,37.427899016116946],[-28.391541586155977,37.43999999999997],[-28.400000000000077,37.443244020682],[-28.440000000000076,37.45855747023625],[-28.480000000000075,37.47383871326538],[-28.49615805264212,37.479999999999976],[-28.520000000000074,37.48908830625545],[-28.560000000000073,37.504306113991866],[-28.600000000000072,37.519491814539535],[-28.60134092923014,37.51999999999997],[-28.64000000000007,37.53464629970519],[-28.68000000000007,37.54976877426439],[-28.7071163932632,37.55999999999997],[-28.72000000000007,37.56485953053655],[-28.76000000000007,37.57991892157665],[-28.800000000000068,37.59494637175113],[-28.813476975920285,37.599999999999966],[-28.840000000000067,37.60994251608494],[-28.880000000000067,37.62490709206242],[-28.920000000000066,37.63983982675049],[-28.92042980894721,37.639999999999965],[-28.960000000000065,37.654741661052256],[-29.000000000000064,37.66961173085967],[-29.028000739216765,37.679999999999964],[-29.040000000000063,37.68445033723896],[-29.080000000000062,37.699257884470775],[-29.12000000000006,37.7140337570302],[-29.136182388845356,37.71999999999996],[-29.16000000000006,37.72877854546785],[-29.20000000000006,37.74349210464442],[-29.24000000000006,37.75817408886349],[-29.244983658374444,37.75999999999996],[-29.280000000000058,37.77282535907234],[-29.320000000000057,37.78744523901374],[-29.354422176121485,37.79999999999996],[-29.360000000000056,37.80203377693006],[-29.400000000000055,37.81659169458459],[-29.440000000000055,37.83111820402395],[-29.464506252660023,37.83999999999996],[-29.480000000000054,37.84561371145376],[-29.520000000000053,37.86007846745378],[-29.560000000000052,37.87451191499545],[-29.575238943743408,37.87999999999996],[-29.60000000000005,37.888914689134076],[-29.640000000000047,37.9032865919189],[-29.680000000000046,37.91762728599731],[-29.68663054293159,37.91999999999996],[-29.72000000000005,37.93193762307289],[-29.760000000000048,37.946216980884145],[-29.79869347539625,37.95999999999996],[-29.800000000000047,37.96046526206774],[-29.840000000000046,37.974683424955245],[-29.880000000000045,37.98887054579718],[-29.91144535870969,37.99999999999996],[-29.920000000000044,38.00302687095161],[-29.960000000000043,38.017153004929625],[-30.000000000000043,38.031248196530164],[-30.024887509891737,38.03999999999996],[-30.040000000000042,38.04531285895893],[-30.08000000000004,38.05934727149085],[-30.12000000000004,38.073350841263455],[-30.139031093907384,38.079999999999956],[-30.16000000000004,38.08732413315676],[-30.20000000000004,38.10126713136576],[-30.240000000000038,38.11517938637203],[-30.253887515653556,38.119999999999955],[-30.280000000000037,38.1290615987694],[-30.320000000000036,38.142913489401664],[-30.360000000000035,38.15673473631469],[-30.369468425609085,38.159999999999954],[-30.400000000000034,38.17052615906878],[-30.440000000000033,38.18428724845736],[-30.480000000000036,38.19801779352584],[-30.485785725645663,38.19999999999995],[-30.52000000000003,38.21171871526728],[-30.56000000000003,38.22538930929684],[-30.60000000000003,38.23902945831002],[-30.602851575003427,38.23999999999995],[-30.64000000000003,38.252640166413535],[-30.680000000000028,38.2662205704857],[-30.720000000000027,38.27977062873894],[-30.720678396438856,38.279999999999944],[-30.760000000000026,38.29329140929053],[-30.800000000000026,38.306781928290135],[-30.839280008404238,38.31999999999995],[-30.840000000000025,38.32024221964518],[-30.880000000000024,38.33367333831648],[-30.920000000000023,38.347074276578496],[-30.958668100864077,38.35999999999995],[-30.960000000000022,38.36044510261102],[-31.00000000000002,38.37378684544834],[-31.04000000000002,38.38709850672549],[-31.078854825741157,38.39999999999995],[-31.08000000000002,38.40038014980083],[-31.12000000000002,38.41363282008771],[-31.160000000000018,38.42685550751893],[-31.19985367459378,38.43999999999995],[-31.200000000000017,38.440048248604214],[-31.240000000000016,38.45321214898939],[-31.280000000000015,38.46634616506892],[-31.320000000000018,38.47945032935695],[-31.321681139923562,38.47999999999995],[-31.360000000000014,38.492525716172395],[-31.400000000000013,38.50557136271967],[-31.440000000000012,38.518587255818694],[-31.444350249163147,38.51999999999994],[-31.48000000000001,38.531574402833506],[-31.52000000000001,38.54453198096375],[-31.56000000000001,38.557459903812415],[-31.56787522341996,38.559999999999945],[-31.60000000000001,38.570359087263256],[-31.640000000000008,38.58322889735874],[-31.68000000000001,38.59606915015354],[-31.692270837499855,38.599999999999945],[-31.720000000000006,38.60888064476435],[-31.760000000000005,38.62166298644644],[-31.800000000000004,38.6344158686139],[-31.817552193813416,38.639999999999944],[-31.840000000000003,38.64713994757242],[-31.880000000000003,38.65983511967427],[-31.92,38.672500929843906],[-31.943734730602046,38.67999999999994],[-31.96,38.68513786477936],[-32.0,38.69774616531934]]}},{"type":"Feature","properties":{"magnitude":0.99,"percentagem":99.0,"territorio":"acores"},"geometry":{"type":"LineString","coordinates":[[-28.143890145800633,36.0],[-28.160000000000082,36.00645840989483],[-28.20000000000008,36.02246456542315],[-28.24000000000008,36.038437226973],[-28.24392045474256,36.04],[-28.28000000000008,36.0543769033936],[-28.32000000000008,36.07028320378093],[-28.344482802351155,36.08],[-28.360000000000078,36.08615631806753],[-28.400000000000077,36.101996400829265],[-28.440000000000076,36.11780315431332],[-28.445569137390084,36.12],[-28.480000000000075,36.13357708636619],[-28.52000000000007,36.149317832436864],[-28.547199333270605,36.16],[-28.560000000000073,36.16502552845666],[-28.600000000000072,36.18070041097599],[-28.640000000000068,36.196342129612546],[-28.649371239691895,36.199999999999996],[-28.68000000000007,36.211951157876086],[-28.72000000000007,36.22752722371678],[-28.75209633339198,36.239999999999995],[-28.76000000000007,36.243070340839616],[-28.800000000000068,36.258580897995756],[-28.840000000000067,36.27405845727546],[-28.85538441578497,36.279999999999994],[-28.880000000000067,36.2895034199435],[-28.920000000000066,36.30491568172903],[-28.959232335423984,36.31999999999999],[-28.960000000000065,36.32029505675378],[-29.000000000000064,36.33564216533235],[-29.040000000000063,36.350956442571565],[-29.063668298034976,36.35999999999999],[-29.080000000000062,36.36623817498535],[-29.12000000000006,36.38148751053767],[-29.16000000000006,36.39670411443619],[-29.168680026096617,36.39999999999999],[-29.20000000000006,36.4118885154902],[-29.24000000000006,36.42704038939739],[-29.274284571278027,36.43999999999999],[-29.280000000000058,36.44215972359805],[-29.320000000000057,36.45724701195807],[-29.360000000000056,36.47230173589615],[-29.38049466067224,36.47999999999999],[-29.400000000000055,36.48732424786333],[-29.440000000000055,36.50231459811846],[-29.480000000000054,36.517272484008465],[-29.487307493748766,36.51999999999999],[-29.520000000000053,36.53219848343237],[-29.560000000000052,36.547092207586026],[-29.594740204428557,36.55999999999999],[-29.60000000000005,36.56195365664406],[-29.64000000000005,36.57678336349093],[-29.68000000000005,36.59158077370908],[-29.70280478648386,36.59999999999999],[-29.72000000000005,36.60634621598399],[-29.760000000000048,36.62107982085746],[-29.800000000000047,36.63578122942088],[-29.811500729364354,36.639999999999986],[-29.840000000000046,36.650450972661844],[-29.880000000000045,36.66508878783658],[-29.920000000000044,36.6796945070942],[-29.92083818238431,36.679999999999986],[-29.960000000000043,36.69426885828889],[-30.000000000000043,36.70881119607583],[-30.030841117659396,36.719999999999985],[-30.040000000000042,36.72332170324718],[-30.08000000000004,36.73780080372412],[-30.12000000000004,36.752247976425124],[-30.141507008719575,36.759999999999984],[-30.16000000000004,36.766663591808936],[-30.20000000000004,36.78104773893598],[-30.240000000000038,36.79540005879934],[-30.252845414702534,36.79999999999998],[-30.280000000000037,36.80972108696205],[-30.320000000000036,36.824010592867154],[-30.360000000000035,36.83826837204379],[-30.364867364476662,36.83999999999998],[-30.400000000000034,36.8524951166178],[-30.440000000000033,36.866690293302014],[-30.477587815826613,36.87999999999998],[-30.480000000000032,36.88085388964209],[-30.52000000000003,36.89498660744207],[-30.56000000000003,36.90908776673729],[-30.5910210584217,36.91999999999998],[-30.60000000000003,36.923157573216116],[-30.64000000000003,36.93719648472796],[-30.680000000000028,36.95120393825546],[-30.70517145330851,36.95999999999998],[-30.720000000000027,36.96518025565252],[-30.760000000000026,36.97912567227134],[-30.800000000000026,36.993039731401126],[-30.820050990383997,36.99999999999998],[-30.840000000000025,37.00692285940698],[-30.880000000000027,37.020775092249245],[-30.920000000000023,37.03459606806028],[-30.935671924720488,37.03999999999998],[-30.960000000000022,37.04838630523687],[-31.00000000000002,37.06214566510123],[-31.04000000000002,37.0758738683423],[-31.052046783029724,37.07999999999997],[-31.08000000000002,37.08957151208462],[-31.12000000000002,37.10323830941341],[-31.160000000000018,37.116874050464986],[-31.16918837031695,37.119999999999976],[-31.200000000000017,37.1304793969638],[-31.240000000000016,37.14405394180545],[-31.280000000000012,37.15759753064222],[-31.287109776731434,37.159999999999975],[-31.320000000000014,37.171110874848125],[-31.360000000000014,37.18459347682028],[-31.400000000000013,37.19804522297461],[-31.405824384620566,37.199999999999974],[-31.440000000000012,37.21146685856319],[-31.48000000000001,37.22485782681671],[-31.52000000000001,37.238218039342755],[-31.52534587579464,37.239999999999974],[-31.56000000000001,37.25154825868092],[-31.60000000000001,37.2648479018646],[-31.640000000000008,37.27811688930333],[-31.64568823901,37.27999999999997],[-31.680000000000007,37.29135598341685],[-31.720000000000006,37.304564609643016],[-31.760000000000005,37.31774267998789],[-31.766865777678333,37.31999999999997],[-31.800000000000004,37.3308909385301],[-31.840000000000003,37.34400885534089],[-31.88,37.35709631600452],[-31.888893117809737,37.35999999999997],[-31.92,37.370154027226],[-31.96,37.38318154156046],[-32.0,37.39617869934186]]}},{"type":"Feature","properties":{"magnitude":0.9,"percentagem":90.0,"territorio":"madeira"},"geometry":{"type":"LineString","coordinates":[[-15.040000000000063,32.31505660745904],[-15.077729371192982,32.33999999999994],[-15.080000000000062,32.34150038937398],[-15.120000000000061,32.367906894177565],[-15.138339290197461,32.37999999999994],[-15.16000000000006,32.394276105485545],[-15.199075940969461,32.41999999999994],[-15.20000000000006,32.4206080071316],[-15.240000000000059,32.446902584656954],[-15.259947433654869,32.45999999999994],[-15.280000000000058,32.473159824075076],[-15.320000000000057,32.49937971040328],[-15.320947173778302,32.499999999999936],[-15.360000000000054,32.5255622294634],[-15.382083670227917,32.539999999999935],[-15.400000000000055,32.551707369489236],[-15.440000000000055,32.577815116286],[-15.443350743863661,32.579999999999934],[-15.480000000000054,32.603885456799595],[-15.50475549937045,32.61999999999993],[-15.520000000000053,32.62991838079542],[-15.560000000000052,32.655913874729336],[-15.566293832443277,32.65999999999994],[-15.600000000000051,32.68187192736416],[-15.627970532908247,32.69999999999993],[-15.64000000000005,32.70779252937084],[-15.68000000000005,32.733675667867864],[-15.68978411579591,32.73999999999994],[-15.720000000000049,32.759521333852014],[-15.751736496927432,32.77999999999993],[-15.760000000000048,32.78532951840126],[-15.800000000000047,32.811100209516546],[-15.813829385593536,32.81999999999993],[-15.840000000000046,32.83683340044965],[-15.87606123369194,32.85999999999993],[-15.880000000000045,32.862529082374934],[-15.920000000000044,32.8881872446627],[-15.938437550837065,32.899999999999935],[-15.960000000000043,32.91380788232581],[-16.000000000000043,32.93939098649396],[-16.0009531420891,32.93999999999993],[-16.040000000000042,32.964936548953695],[-16.063616639821845,32.979999999999926],[-16.08000000000004,32.99044456511801],[-16.12000000000004,33.015915026491555],[-16.126421987971668,33.019999999999925],[-16.16000000000004,33.04134792818054],[-16.189374802133845,33.059999999999924],[-16.20000000000004,33.066743264415],[-16.240000000000038,33.09210102864361],[-16.252474206217872,33.09999999999992],[-16.280000000000037,33.11742121775784],[-16.315720310676866,33.13999999999992],[-16.320000000000036,33.14270382523575],[-16.360000000000035,33.16794884798384],[-16.37911814075484,33.17999999999992],[-16.400000000000034,33.193156282200455],[-16.440000000000033,33.21832612199148],[-16.44266285916045,33.21999999999992],[-16.480000000000032,33.243458368314506],[-16.506362262125222,33.25999999999992],[-16.52000000000003,33.26855301459727],[-16.56000000000003,33.29361005878576],[-16.57021212978389,33.29999999999992],[-16.60000000000003,33.31862950167847],[-16.634215169597923,33.33999999999992],[-16.64000000000003,33.34361133608237],[-16.680000000000028,33.36855556613406],[-16.698374744332206,33.37999999999992],[-16.720000000000027,33.39346218782837],[-16.760000000000026,33.41833119662561],[-16.76268695256191,33.419999999999916],[-16.800000000000026,33.443162602195756],[-16.82715950851145,33.459999999999916],[-16.840000000000025,33.467956393694166],[-16.880000000000024,33.49271257580682],[-16.89178844697081,33.499999999999915],[-16.920000000000023,33.51743115196954],[-16.956575362389223,33.539999999999914],[-16.960000000000022,33.54211211284886],[-17.00000000000002,33.56675547457891],[-17.021525785335065,33.57999999999991],[-17.04000000000002,33.591361226758096],[-17.08000000000002,33.61592937102756],[-17.086634868898248,33.61999999999991],[-17.12000000000002,33.64045992175971],[-17.15190812333192,33.65999999999991],[-17.160000000000018,33.664952863631555],[-17.200000000000017,33.68940821496597],[-17.217346028511358,33.69999999999991],[-17.240000000000016,33.71382597159375],[-17.280000000000015,33.738206128407676],[-17.28294634114772,33.73999999999991],[-17.320000000000014,33.76254871344307],[-17.348716443411682,33.77999999999991]]}},{"type":"Feature","properties":{"magnitude":0.95,"percentagem":95.0,"territorio":"madeira"},"geometry":{"type":"LineString","coordinates":[[-15.040000000000063,30.3594307690707],[-15.069999807013229,30.37999999999998],[-15.080000000000062,30.386853138156766],[-15.120000000000061,30.41423815104197],[-15.128424221347167,30.41999999999998],[-15.16000000000006,30.441585761494398],[-15.186965971736088,30.45999999999998],[-15.20000000000006,30.46889605370091],[-15.240000000000057,30.496168937645702],[-15.245624159258572,30.49999999999998],[-15.280000000000058,30.523404302200927],[-15.30440245532381,30.539999999999978],[-15.320000000000057,30.55060226957316],[-15.360000000000056,30.57776277672715],[-15.363297858216125,30.579999999999977],[-15.400000000000055,30.604885656144802],[-15.422316020839364,30.619999999999976],[-15.440000000000055,30.631971063638755],[-15.480000000000052,30.65901895846653],[-15.481452138506441,30.659999999999975],[-15.520000000000053,30.6860291263146],[-15.540713533562473,30.699999999999974],[-15.560000000000052,30.71300175163141],[-15.600000000000051,30.7399368108103],[-15.600093923685128,30.739999999999974],[-15.640000000000052,30.766834053297373],[-15.659601962778165,30.779999999999973],[-15.68000000000005,30.79369368671451],[-15.719230561847564,30.819999999999972],[-15.720000000000049,30.82051568980444],[-15.760000000000048,30.84729981483367],[-15.778988383593298,30.85999999999997],[-15.800000000000047,30.8740462590332],[-15.838868708051692,30.89999999999997],[-15.840000000000046,30.900755011582184],[-15.880000000000045,30.92742582536369],[-15.898879978781808,30.93999999999997],[-15.920000000000044,30.954058895257425],[-15.959015554312844,30.97999999999997],[-15.960000000000043,30.9806542160902],[-16.000000000000043,31.007211535564615],[-16.019284040659112,31.019999999999968],[-16.040000000000042,31.03373105811667],[-16.079678441263972,31.059999999999967],[-16.08000000000004,31.060212778043017],[-16.12000000000004,31.08665643187983],[-16.140207972986378,31.099999999999966],[-16.16000000000004,31.113062245926418],[-16.20000000000004,31.139430196932373],[-16.200865206095948,31.139999999999965],[-16.240000000000038,31.165760036040417],[-16.261659292904397,31.179999999999964],[-16.280000000000037,31.192051992107288],[-16.320000000000036,31.21830601789641],[-16.322583429472534,31.219999999999963],[-16.360000000000035,31.244521904579003],[-16.38364563289891,31.259999999999962],[-16.400000000000034,31.270699864696596],[-16.440000000000033,31.296839824327225],[-16.444840669480428,31.29999999999996],[-16.480000000000032,31.322941628336935],[-16.50617474279653,31.33999999999996],[-16.52000000000003,31.349005465853292],[-16.56000000000003,31.37503122967621],[-16.567644743284294,31.37999999999996],[-16.60000000000003,31.401018831964603],[-16.629254491792814,31.41999999999996],[-16.64000000000003,31.42696843135635],[-16.680000000000028,31.452879880888478],[-16.691003588635876,31.459999999999958],[-16.720000000000027,31.478753173415708],[-16.7528928705126,31.499999999999957],[-16.760000000000026,31.50458843009719],[-16.800000000000026,31.530385457892976],[-16.814925265954628,31.539999999999957],[-16.840000000000025,31.556144343435687],[-16.877097993103384,31.579999999999956],[-16.880000000000024,31.581865163566377],[-16.920000000000023,31.607547673087183],[-16.939417960441425,31.619999999999955],[-16.960000000000022,31.63319206504481],[-17.00000000000002,31.65879834256046],[-17.001879027004456,31.659999999999958],[-17.04000000000002,31.684366270816625],[-17.06448998422644,31.699999999999953],[-17.08000000000002,31.709896093016184],[-17.12000000000002,31.735387713530976],[-17.127245188511342,31.739999999999952],[-17.160000000000018,31.760841026849633],[-17.190149778551334,31.77999999999995],[-17.200000000000017,31.78625621334934],[-17.240000000000016,31.811633108495176],[-17.25320358178627,31.81999999999995],[-17.280000000000015,31.83697174784784],[-17.31640591598685,31.85999999999995],[-17.320000000000014,31.862272242739397],[-17.360000000000014,31.887534354566668],[-17.379762855149004,31.89999999999995],[-17.400000000000013,31.912758270832597],[-17.440000000000012,31.937943989769728],[-17.443268806920518,31.939999999999948],[-17.48000000000001,31.963091308881083],[-17.506931791860236,31.979999999999947],[-17.52000000000001,31.988200462647868],[-17.56000000000001,32.013271321812404],[-17.57074786663853,32.019999999999946],[-17.60000000000001,32.038303858056494],[-17.634719312434335,32.059999999999945],[-17.640000000000008,32.06329821941999],[-17.680000000000007,32.088254187725276],[-17.698850247661674,32.099999999999945],[-17.720000000000006,32.113171917651044],[-17.760000000000005,32.13805143061665],[-17.763136175821487,32.139999999999944],[-17.800000000000004,32.16289252228204],[-17.827585090844543,32.17999999999994],[-17.840000000000003,32.18769543161784],[-17.880000000000003,32.21246002058419],[-17.892193187002572,32.21999999999994],[-17.92,32.237186288305836],[-17.956961680477427,32.25999999999994],[-17.96,32.26187437175775],[-18.0,32.28652403152158]]}},{"type":"Feature","properties":{"magnitude":0.99,"percentagem":99.0,"territorio":"madeira"},"geometry":{"type":"LineString","coordinates":[[-16.058166748838154,29.5],[-16.08000000000004,29.51487494766264],[-16.116919474290995,29.54],[-16.12000000000004,29.54209533959922],[-16.16000000000004,29.569277526925596],[-16.175795852961528,29.58],[-16.20000000000004,29.59642175222973],[-16.234791429488244,29.619999999999997],[-16.240000000000038,29.623528056164165],[-16.280000000000037,29.650596117151636],[-16.293911576478827,29.659999999999997],[-16.320000000000036,29.677626095500294],[-16.353153459769832,29.699999999999996],[-16.360000000000035,29.70461807920426],[-16.400000000000034,29.731571776105067],[-16.412521037587414,29.739999999999995],[-16.440000000000033,29.758487284016454],[-16.472012731362067,29.779999999999994],[-16.480000000000032,29.785364728201483],[-16.52000000000003,29.812203835694916],[-16.531631464952415,29.819999999999993],[-16.56000000000003,29.839004662520118],[-16.591376521759855,29.859999999999992],[-16.60000000000003,29.86576736066481],[-16.64000000000003,29.892491665750235],[-16.651250199675125,29.89999999999999],[-16.680000000000028,29.919177613498324],[-16.711252221707454,29.93999999999999],[-16.720000000000027,29.94582537167244],[-16.760000000000026,29.972434673559093],[-16.77138469729381,29.97999999999999],[-16.800000000000026,29.999005556719084],[-16.83164733721172,30.01999999999999],[-16.840000000000025,30.02553819340467],[-16.880000000000024,30.052032303398388],[-16.892042529816877,30.059999999999988],[-16.920000000000023,30.078487948758458],[-16.952569491588104,30.099999999999987],[-16.960000000000022,30.10490529466805],[-17.00000000000002,30.131284036055302],[-17.013231387789144,30.139999999999986],[-17.04000000000002,30.157624282519095],[-17.07402642753996,30.179999999999986],[-17.08000000000002,30.18392618041125],[-17.12000000000002,30.21018938834021],[-17.134959082392104,30.219999999999985],[-17.160000000000018,30.236414086740613],[-17.196026009271854,30.259999999999984],[-17.200000000000017,30.262600391233015],[-17.240000000000016,30.28874791259196],[-17.25723354757838,30.299999999999983],[-17.280000000000015,30.31485692550247],[-17.31857622463776,30.339999999999982],[-17.320000000000014,30.340927502882437],[-17.360000000000014,30.36695919617567],[-17.380062842241255,30.37999999999998],[-17.400000000000013,30.392952397719498],[-17.440000000000012,30.41890708913392],[-17.441686028836397,30.41999999999998],[-17.48000000000001,30.444822860973698],[-17.503455152419782,30.45999999999998],[-17.52000000000001,30.47070013663066],[-17.56000000000001,30.496538788334252],[-17.565363857829905,30.49999999999998],[-17.60000000000001,30.522338562869813],[-17.627418793540244,30.539999999999978],[-17.640000000000008,30.54809980928148],[-17.680000000000007,30.57382230984087],[-17.689617401568853,30.579999999999973],[-17.720000000000006,30.59950599122749],[-17.751962212694643,30.619999999999976],[-17.760000000000005,30.625151116000303],[-17.800000000000004,30.650757365129493],[-17.814455183005183,30.659999999999975],[-17.840000000000003,30.676324868362364],[-17.877093990956645,30.699999999999974],[-17.880000000000003,30.70185378986928],[-17.92,30.72734369829464],[-17.939885860468806,30.739999999999974],[-17.96,30.75279494900935],[-18.0,30.77820753621897]]}}]}