{"type":"FeatureCollection","features":[{"type":"Feature","properties":{"magnitude":0.4,"percentagem":40.0,"territorio":"continente"},"geometry":{"type":"LineString","coordinates":[[-10.5,37.94441485525229],[-10.46,37.94614732473463],[-10.420000000000002,37.94786976200984],[-10.380000000000003,37.94958217691197],[-10.340000000000003,37.9512845792583],[-10.300000000000004,37.95297697884939],[-10.260000000000005,37.95465938546904],[-10.220000000000006,37.95633180888441],[-10.180000000000007,37.95799425884604],[-10.140000000000008,37.95964674508788],[-10.131397156144617,37.95999999999996],[-10.100000000000009,37.961289586998525],[-10.06000000000001,37.96292256706509],[-10.02000000000001,37.96454561012646],[-9.980000000000013,37.966158725853624],[-9.940000000000012,37.96776192390117],[-9.900000000000013,37.96935521390734],[-9.860000000000014,37.97093860549402],[-9.820000000000014,37.97251210826681],[-9.780000000000015,37.97407573181507],[-9.740000000000016,37.97562948571194],[-9.700000000000017,37.97717337951437],[-9.660000000000018,37.978707422763186],[-9.620000000000019,37.98023162498313],[-9.58000000000002,37.98174599568285],[-9.54000000000002,37.983250544355],[-9.500000000000021,37.98474528047622],[-9.460000000000022,37.98623021350722],[-9.420000000000023,37.987705352892796],[-9.380000000000024,37.98917070806186],[-9.340000000000025,37.99062628842751],[-9.300000000000026,37.99207210338702],[-9.260000000000026,37.993508162321916],[-9.220000000000027,37.99493447459799],[-9.180000000000028,37.99635104956536],[-9.140000000000029,37.997757896558475],[-9.10000000000003,37.999155024896176],[-9.075638678753105,37.99999999999996],[-9.06000000000003,38.00054257448437],[-9.020000000000032,38.001920625119915],[-8.980000000000032,38.00328898263778],[-8.940000000000033,38.004647656297415],[-8.900000000000034,38.00599665534282],[-8.860000000000035,38.00733598900267],[-8.820000000000036,38.00866566649019],[-8.780000000000037,38.009985697003316],[-8.740000000000038,38.01129608972467],[-8.700000000000038,38.01259685382159],[-8.66000000000004,38.01388799844621],[-8.62000000000004,38.01516953273548],[-8.580000000000041,38.01644146581117],[-8.540000000000042,38.017703806779956],[-8.500000000000043,38.01895656473339],[-8.460000000000043,38.02019974874804],[-8.420000000000044,38.02143336788538],[-8.380000000000045,38.02265743119196],[-8.340000000000046,38.02387194769936],[-8.300000000000047,38.025076926424276],[-8.260000000000048,38.026272376368496],[-8.220000000000049,38.027458306519],[-8.18000000000005,38.028634725847944],[-8.14000000000005,38.02980164331271],[-8.100000000000051,38.03095906785596],[-8.060000000000052,38.032107008405674],[-8.020000000000053,38.033245473875105],[-7.980000000000054,38.03437447316293],[-7.940000000000055,38.03549401515319],[-7.900000000000055,38.036604108715395],[-7.860000000000056,38.03770476270449],[-7.820000000000057,38.03879598596098],[-7.780000000000058,38.03987778731084],[-7.775441347324973,38.03999999999996],[-7.740000000000058,38.04095040500884],[-7.700000000000061,38.04201364566362],[-7.6600000000000605,38.043067488549966],[-7.6200000000000605,38.0441119424387],[-7.580000000000063,38.0451470160864],[-7.540000000000063,38.046172718235354],[-7.500000000000065,38.047189057613565],[-7.460000000000064,38.04819604293489],[-7.420000000000066,38.04919368289899],[-7.3800000000000665,38.05018198619137],[-7.340000000000067,38.05116096148346],[-7.300000000000068,38.052130617432596],[-7.260000000000069,38.05309096268208],[-7.22000000000007,38.054042005861206],[-7.180000000000071,38.05498375558528],[-7.140000000000072,38.05591622045569],[-7.1000000000000725,38.056839409059904],[-7.060000000000073,38.05775332997151],[-7.020000000000074,38.05865799175022],[-6.980000000000075,38.05955340294199],[-6.940000000000076,38.060439572078955],[-6.900000000000077,38.061316507679514],[-6.860000000000078,38.06218421824835],[-6.820000000000078,38.063042712276435],[-6.780000000000079,38.063891998241125],[-6.74000000000008,38.06473208460614],[-6.700000000000081,38.065562979821586],[-6.660000000000082,38.066384692324064],[-6.620000000000083,38.06719723053658],[-6.580000000000084,38.06800060286867],[-6.540000000000084,38.06879481771646],[-6.500000000000085,38.06957988346255],[-6.460000000000086,38.07035580847621],[-6.420000000000087,38.071122601113295],[-6.380000000000088,38.07188026971634],[-6.340000000000089,38.072628822614554],[-6.3000000000000895,38.073368268123886],[-6.26000000000009,38.07409861454705],[-6.220000000000091,38.07481987017347],[-6.180000000000092,38.07553204327947],[-6.140000000000093,38.07623514212817],[-6.100000000000094,38.0769291749696],[-6.060000000000095,38.07761415004064],[-6.0200000000000955,38.078290075565135],[-5.980000000000096,38.07895695975392],[-5.940000000000097,38.07961481080475],[-5.916252794291497,38.079999999999956],[-5.900000000000097,38.08026370083013],[-5.860000000000099,38.08090366530204],[-5.8200000000001,38.08153461898435],[-5.780000000000101,38.08215657002497],[-5.740000000000101,38.08276952655904],[-5.700000000000101,38.0833734967088],[-5.660000000000103,38.08396848858369],[-5.620000000000104,38.08455451028038],[-5.580000000000105,38.08513156988279],[-5.540000000000106,38.08569967546211]]}},{"type":"Feature","properties":{"magnitude":0.4,"percentagem":40.0,"territorio":"acores"},"geometry":{"type":"LineString","coordinates":[[-28.348806661383776,36.0],[-28.32000000000008,36.00535700357724],[-28.28000000000008,36.01277916252282],[-28.24000000000008,36.020184721242806],[-28.20000000000008,36.02757370180606],[-28.160000000000082,36.03494612624203],[-28.132518835929552,36.040000000000006],[-28.120000000000083,36.04230252231035],[-28.080000000000084,36.04964351272473],[-28.040000000000084,36.0569680089179],[-28.000000000000085,36.06427603276662],[-27.960000000000086,36.07156760610831],[-27.920000000000087,36.078842750741124],[-27.913623401293826,36.08],[-27.880000000000088,36.08610283213461],[-27.84000000000009,36.09334677924572],[-27.80000000000009,36.100574358876656],[-27.76000000000009,36.10778559267369],[-27.72000000000009,36.114980502244],[-27.692031626085317,36.12],[-27.680000000000092,36.122159585810365],[-27.640000000000093,36.129323492565085],[-27.600000000000094,36.1364711357607],[-27.560000000000095,36.14360253685324],[-27.520000000000095,36.15071771725981],[-27.480000000000096,36.15781669835861],[-27.467670663239588,36.16],[-27.440000000000097,36.164900585627535],[-27.4000000000001,36.171968795482265],[-27.3600000000001,36.1790208660275],[-27.3200000000001,36.18605681849124],[-27.2800000000001,36.19307667406274],[-27.240459531107515,36.199999999999996],[-27.2400000000001,36.2000804717377],[-27.200000000000102,36.20706974668528],[-27.160000000000103,36.214042984184914],[-27.120000000000104,36.221000205276546],[-27.080000000000105,36.22794143096152],[-27.040000000000106,36.23486668220272],[-27.010282380721534,36.239999999999995],[-27.000000000000107,36.24177637473964],[-26.960000000000104,36.24867127206837],[-26.92000000000011,36.25555025373708],[-26.88000000000011,36.262413340560286],[-26.84000000000011,36.26926055331422],[-26.80000000000011,36.27609191273688],[-26.777064495664256,36.279999999999994],[-26.76000000000011,36.28290808732557],[-26.720000000000113,36.28970931692845],[-26.680000000000113,36.29649475132827],[-26.640000000000114,36.303264411115734],[-26.600000000000115,36.31001831684351],[-26.560000000000116,36.3167564890263],[-26.540701316450516,36.31999999999999],[-26.520000000000117,36.32347972499541],[-26.480000000000118,36.330187988854256],[-26.44000000000012,36.336880576645996],[-26.40000000000012,36.343557508739146],[-26.36000000000012,36.35021880546442],[-26.32000000000012,36.35686448711481],[-26.301083968352362,36.35999999999999],[-26.280000000000122,36.363495356005316],[-26.240000000000123,36.370111348253324],[-26.200000000000124,36.37671178225938],[-26.160000000000124,36.383296678171476],[-26.120000000000125,36.38986605610008],[-26.080000000000126,36.39641993611822],[-26.058099047750808,36.39999999999999],[-26.040000000000123,36.402959001757665],[-26.000000000000128,36.409483408743576],[-25.96000000000013,36.41599237401249],[-25.92000000000013,36.42248591749358],[-25.88000000000013,36.42896405907884],[-25.84000000000013,36.43542681862304],[-25.811628395188016,36.43999999999999],[-25.800000000000132,36.44187463720033],[-25.760000000000133,36.44830813755441],[-25.720000000000134,36.45472631142709],[-25.680000000000135,36.4611291785305],[-25.640000000000136,36.4675167585399],[-25.600000000000136,36.47388907109368],[-25.561548854155426,36.47999999999999],[-25.560000000000134,36.480246191234244],[-25.520000000000138,36.486589455935764],[-25.48000000000014,36.492917508113145],[-25.44000000000014,36.499230367263394],[-25.40000000000014,36.505528052846884],[-25.36000000000014,36.51181058428742],[-25.320000000000142,36.518077980972265],[-25.30770420499805,36.51999999999999],[-25.280000000000143,36.5243312395746],[-25.240000000000144,36.53056983218669],[-25.200000000000145,36.536793344248714],[-25.160000000000146,36.54300179500806],[-25.120000000000147,36.549195203675836],[-25.080000000000148,36.55537358942695],[-25.049975402220447,36.55999999999999],[-25.04000000000015,36.5615373190179],[-25.00000000000015,36.567687106693874],[-24.96000000000015,36.57382192504342],[-24.92000000000015,36.57994179310282],[-24.88000000000015,36.58604672987245],[-24.840000000000153,36.59213675431675],[-24.800000000000153,36.598211885364336],[-24.788198347005498,36.59999999999999],[-24.760000000000154,36.60427311004071],[-24.720000000000155,36.61031988063566],[-24.680000000000156,36.61635181071331],[-24.640000000000157,36.62236891906521],[-24.600000000000158,36.62837122444732],[-24.56000000000016,36.6343587455801],[-24.5222202312396,36.639999999999986],[-24.52000000000016,36.64033157642736],[-24.48000000000016,36.64629093788005],[-24.44000000000016,36.65223556736056],[-24.400000000000162,36.65816548345358],[-24.360000000000163,36.664080704708596],[-24.320000000000164,36.66998124963988],[-24.280000000000165,36.67586713672662],[-24.251843919835395,36.679999999999986],[-24.240000000000165,36.681738779936985],[-24.200000000000166,36.687596738944485],[-24.160000000000167,36.6934400916892],[-24.120000000000168,36.699268856516085],[-24.08000000000017,36.705083051735315],[-24.04000000000017,36.71088269562222]]}},{"type":"Feature","properties":{"magnitude":0.2,"percentagem":20.0,"territorio":"madeira"},"geometry":{"type":"LineString","coordinates":[[-18.0,30.3493334977438],[-17.96,30.353130739209536],[-17.92,30.356914445455338],[-17.880000000000003,30.36068463382402],[-17.840000000000003,30.364441321624657],[-17.800000000000004,30.368184526132694],[-17.760000000000005,30.37191426459003],[-17.720000000000006,30.37563055420507],[-17.680000000000007,30.37933341215283],[-17.67277312075477,30.37999999999998],[-17.640000000000008,30.38302326409542],[-17.60000000000001,30.386699807030798],[-17.56000000000001,30.3903629679645],[-17.52000000000001,30.39401276394085],[-17.48000000000001,30.39764921197112],[-17.440000000000012,30.401272329033624],[-17.400000000000013,30.404882132073773],[-17.360000000000014,30.408478638004148],[-17.320000000000014,30.412061863704626],[-17.280000000000015,30.41563182602237],[-17.240000000000016,30.419188541771977],[-17.23084009597413,30.41999999999998],[-17.200000000000017,30.422732399039287],[-17.160000000000018,30.426263151887458],[-17.12000000000002,30.429780706769193],[-17.08000000000002,30.433285080371576],[-17.04000000000002,30.43677628934946],[-17.00000000000002,30.44025435032556],[-16.960000000000022,30.44371927989049],[-16.920000000000023,30.447171094602858],[-16.880000000000024,30.4506098109893],[-16.840000000000025,30.45403544554462],[-16.800000000000026,30.457448014731817],[-16.76997248899439,30.45999999999998],[-16.760000000000026,30.460847650819122],[-16.720000000000027,30.46423460147093],[-16.680000000000028,30.467608534318398],[-16.64000000000003,30.47096946570018],[-16.60000000000003,30.474317411923476],[-16.56000000000003,30.477652389264144],[-16.52000000000003,30.48097441396671],[-16.480000000000032,30.4842835022445],[-16.440000000000033,30.48757967027971],[-16.400000000000034,30.490862934223404],[-16.360000000000035,30.49413331019566],[-16.320000000000036,30.49739081428563],[-16.28783402982399,30.499999999999975],[-16.280000000000037,30.50063554990759],[-16.240000000000038,30.503867802733183],[-16.20000000000004,30.507087230137603],[-16.16000000000004,30.510293848089024],[-16.12000000000004,30.513487672525038],[-16.08000000000004,30.51666871935268],[-16.040000000000042,30.519837004448576],[-16.000000000000043,30.522992543658972],[-15.960000000000043,30.526135352799773],[-15.920000000000044,30.52926544765669],[-15.880000000000045,30.53238284398525],[-15.840000000000046,30.535487557510873],[-15.800000000000047,30.538579603928973],[-15.781549727772802,30.539999999999978],[-15.760000000000048,30.5416592283278],[-15.720000000000049,30.54472641170627],[-15.68000000000005,30.547780973277796],[-15.64000000000005,30.550822928620363],[-15.600000000000051,30.55385229328227],[-15.560000000000052,30.556869082782242],[-15.520000000000053,30.559873312609415],[-15.480000000000054,30.562864998223482],[-15.440000000000055,30.565844155054705],[-15.400000000000055,30.568810798504003],[-15.360000000000056,30.571764943943034],[-15.320000000000057,30.57470660671425],[-15.280000000000058,30.577635802130995],[-15.247577584164556,30.579999999999977],[-15.240000000000059,30.580552622347163],[-15.20000000000006,30.583457333004624],[-15.16000000000006,30.586349620481677],[-15.120000000000063,30.589229499977705],[-15.080000000000062,30.592096986663307],[-15.040000000000063,30.59495209568034]]}}]}