{"type":"FeatureCollection","features":[{"type":"Feature","properties":{"magnitude":0.2,"de":0.2,"ate":0.5,"percentagem":20.0},"geometry":{"type":"Polygon","coordinates":[[[-34.5,30.0],[-17.662749456807507,30.0],[-13.799999999999217,32.10948675942151],[-3.5399999999988268,37.91987071815448],[-3.5399999999988268,44.939999999999685],[-20.08224333347115,44.939999999999685],[-24.23999999999961,42.793384872653554],[-27.839999999999748,41.06628388623601],[-31.21249541165138,39.599999999999795],[-34.5,38.33436751653851],[-34.5,30.0]]]}},{"type":"Feature","properties":{"magnitude":0.5,"de":0.5,"ate":0.8,"percentagem":50.0},"geometry":{"type":"Polygon","coordinates":[[[-17.662749456807507,30.0],[-3.5399999999988268,30.0],[-3.5399999999988268,37.91987071815448],[-13.799999999999216,32.1094867594215],[-17.662749456807507,30.0]]]}}]}