{"type":"FeatureCollection","properties":{"largura_maxima_km":168.145,"largura_sobre_pt_km":160.146,"linha_central_sobre_pt":false,"desenhavel_como_area":true,"perfil_largura":[{"t":-0.01667,"lat":31.1653,"lon":-39.9249,"largura_km":158.589,"eixo_na_terra":true},{"t":-0.01111,"lat":31.1268,"lon":-39.8226,"largura_km":158.614,"eixo_na_terra":true},{"t":-0.00556,"lat":31.088,"lon":-39.7203,"largura_km":158.639,"eixo_na_terra":true},{"t":-0.0,"lat":31.0492,"lon":-39.6182,"largura_km":158.665,"eixo_na_terra":true},{"t":0.00556,"lat":31.0102,"lon":-39.5162,"largura_km":158.692,"eixo_na_terra":true},{"t":0.01111,"lat":30.971,"lon":-39.4144,"largura_km":158.72,"eixo_na_terra":true},{"t":0.01667,"lat":30.9318,"lon":-39.3126,"largura_km":158.748,"eixo_na_terra":true},{"t":0.02222,"lat":30.8924,"lon":-39.2109,"largura_km":158.776,"eixo_na_terra":true},{"t":0.02778,"lat":30.8528,"lon":-39.1094,"largura_km":158.806,"eixo_na_terra":true},{"t":0.03333,"lat":30.8131,"lon":-39.0079,"largura_km":158.836,"eixo_na_terra":true},{"t":0.03889,"lat":30.7733,"lon":-38.9066,"largura_km":158.867,"eixo_na_terra":true},{"t":0.04444,"lat":30.7334,"lon":-38.8054,"largura_km":158.898,"eixo_na_terra":true},{"t":0.05,"lat":30.6933,"lon":-38.7042,"largura_km":158.93,"eixo_na_terra":true},{"t":0.05556,"lat":30.6531,"lon":-38.6032,"largura_km":158.963,"eixo_na_terra":true},{"t":0.06111,"lat":30.6127,"lon":-38.5023,"largura_km":158.997,"eixo_na_terra":true},{"t":0.06667,"lat":30.5722,"lon":-38.4015,"largura_km":159.031,"eixo_na_terra":true},{"t":0.07222,"lat":30.5316,"lon":-38.3007,"largura_km":159.066,"eixo_na_terra":true},{"t":0.07778,"lat":30.4908,"lon":-38.2001,"largura_km":159.102,"eixo_na_terra":true},{"t":0.08333,"lat":30.4499,"lon":-38.0995,"largura_km":159.139,"eixo_na_terra":true},{"t":0.08889,"lat":30.4089,"lon":-37.9991,"largura_km":159.178,"eixo_na_terra":true},{"t":0.09444,"lat":30.3678,"lon":-37.8987,"largura_km":159.217,"eixo_na_terra":true},{"t":0.1,"lat":30.3265,"lon":-37.7984,"largura_km":159.257,"eixo_na_terra":true},{"t":0.10556,"lat":30.285,"lon":-37.6983,"largura_km":159.298,"eixo_na_terra":true},{"t":0.11111,"lat":30.2435,"lon":-37.5982,"largura_km":159.339,"eixo_na_terra":true},{"t":0.11667,"lat":30.2018,"lon":-37.4981,"largura_km":159.381,"eixo_na_terra":true},{"t":0.12222,"lat":30.1599,"lon":-37.3982,"largura_km":159.424,"eixo_na_terra":true},{"t":0.12778,"lat":30.118,"lon":-37.2984,"largura_km":159.467,"eixo_na_terra":true},{"t":0.13333,"lat":30.0759,"lon":-37.1986,"largura_km":159.511,"eixo_na_terra":true},{"t":0.13889,"lat":30.0336,"lon":-37.0989,"largura_km":159.556,"eixo_na_terra":true},{"t":0.14444,"lat":29.9912,"lon":-36.9993,"largura_km":159.601,"eixo_na_terra":true},{"t":0.15,"lat":29.9487,"lon":-36.8997,"largura_km":159.647,"eixo_na_terra":true},{"t":0.15556,"lat":29.9061,"lon":-36.8002,"largura_km":159.694,"eixo_na_terra":true},{"t":0.16111,"lat":29.8633,"lon":-36.7008,"largura_km":159.741,"eixo_na_terra":true},{"t":0.16667,"lat":29.8204,"lon":-36.6015,"largura_km":159.789,"eixo_na_terra":true},{"t":0.17222,"lat":29.7774,"lon":-36.5023,"largura_km":159.838,"eixo_na_terra":true},{"t":0.17778,"lat":29.7342,"lon":-36.4031,"largura_km":159.888,"eixo_na_terra":true},{"t":0.18333,"lat":29.6909,"lon":-36.3039,"largura_km":159.938,"eixo_na_terra":true},{"t":0.18889,"lat":29.6475,"lon":-36.2049,"largura_km":159.989,"eixo_na_terra":true},{"t":0.19444,"lat":29.6039,"lon":-36.1059,"largura_km":160.041,"eixo_na_terra":true},{"t":0.2,"lat":29.5602,"lon":-36.0069,"largura_km":160.093,"eixo_na_terra":true},{"t":0.20556,"lat":29.5163,"lon":-35.908,"largura_km":160.146,"eixo_na_terra":true},{"t":0.21111,"lat":29.4724,"lon":-35.8092,"largura_km":160.2,"eixo_na_terra":true},{"t":0.21667,"lat":29.4283,"lon":-35.7104,"largura_km":160.254,"eixo_na_terra":true},{"t":0.22222,"lat":29.384,"lon":-35.6117,"largura_km":160.309,"eixo_na_terra":true},{"t":0.22778,"lat":29.3396,"lon":-35.513,"largura_km":160.365,"eixo_na_terra":true},{"t":0.23333,"lat":29.2951,"lon":-35.4144,"largura_km":160.422,"eixo_na_terra":true},{"t":0.23889,"lat":29.2505,"lon":-35.3158,"largura_km":160.479,"eixo_na_terra":true},{"t":0.24444,"lat":29.2057,"lon":-35.2173,"largura_km":160.537,"eixo_na_terra":true},{"t":0.25,"lat":29.1608,"lon":-35.1189,"largura_km":160.597,"eixo_na_terra":true},{"t":0.25556,"lat":29.1158,"lon":-35.0204,"largura_km":160.657,"eixo_na_terra":true},{"t":0.26111,"lat":29.0706,"lon":-34.922,"largura_km":160.719,"eixo_na_terra":true},{"t":0.26667,"lat":29.0253,"lon":-34.8237,"largura_km":160.781,"eixo_na_terra":true},{"t":0.27222,"lat":28.9798,"lon":-34.7254,"largura_km":160.844,"eixo_na_terra":true},{"t":0.27778,"lat":28.9342,"lon":-34.6271,"largura_km":160.908,"eixo_na_terra":true},{"t":0.28333,"lat":28.8885,"lon":-34.5289,"largura_km":160.973,"eixo_na_terra":true},{"t":0.28889,"lat":28.8427,"lon":-34.4307,"largura_km":161.038,"eixo_na_terra":true},{"t":0.29444,"lat":28.7967,"lon":-34.3325,"largura_km":161.104,"eixo_na_terra":true},{"t":0.3,"lat":28.7506,"lon":-34.2344,"largura_km":161.17,"eixo_na_terra":true},{"t":0.30556,"lat":28.7043,"lon":-34.1362,"largura_km":161.238,"eixo_na_terra":true},{"t":0.31111,"lat":28.658,"lon":-34.0382,"largura_km":161.306,"eixo_na_terra":true},{"t":0.31667,"lat":28.6114,"lon":-33.9401,"largura_km":161.374,"eixo_na_terra":true},{"t":0.32222,"lat":28.5648,"lon":-33.8421,"largura_km":161.444,"eixo_na_terra":true},{"t":0.32778,"lat":28.518,"lon":-33.7441,"largura_km":161.514,"eixo_na_terra":true},{"t":0.33333,"lat":28.4711,"lon":-33.6461,"largura_km":161.585,"eixo_na_terra":true},{"t":0.33889,"lat":28.424,"lon":-33.5481,"largura_km":161.657,"eixo_na_terra":true},{"t":0.34444,"lat":28.3768,"lon":-33.4501,"largura_km":161.729,"eixo_na_terra":true},{"t":0.35,"lat":28.3295,"lon":-33.3522,"largura_km":161.803,"eixo_na_terra":true},{"t":0.35556,"lat":28.282,"lon":-33.2543,"largura_km":161.877,"eixo_na_terra":true},{"t":0.36111,"lat":28.2344,"lon":-33.1564,"largura_km":161.951,"eixo_na_terra":true},{"t":0.36667,"lat":28.1867,"lon":-33.0584,"largura_km":162.027,"eixo_na_terra":true},{"t":0.37222,"lat":28.1388,"lon":-32.9606,"largura_km":162.103,"eixo_na_terra":true},{"t":0.37778,"lat":28.0908,"lon":-32.8627,"largura_km":162.18,"eixo_na_terra":true},{"t":0.38333,"lat":28.0427,"lon":-32.7648,"largura_km":162.258,"eixo_na_terra":true},{"t":0.38889,"lat":27.9944,"lon":-32.6669,"largura_km":162.336,"eixo_na_terra":true},{"t":0.39444,"lat":27.946,"lon":-32.569,"largura_km":162.415,"eixo_na_terra":true},{"t":0.4,"lat":27.8975,"lon":-32.4711,"largura_km":162.495,"eixo_na_terra":true},{"t":0.40556,"lat":27.8488,"lon":-32.3732,"largura_km":162.576,"eixo_na_terra":true},{"t":0.41111,"lat":27.8,"lon":-32.2753,"largura_km":162.657,"eixo_na_terra":true},{"t":0.41667,"lat":27.751,"lon":-32.1774,"largura_km":162.739,"eixo_na_terra":true},{"t":0.42222,"lat":27.7019,"lon":-32.0795,"largura_km":162.822,"eixo_na_terra":true},{"t":0.42778,"lat":27.6527,"lon":-31.9816,"largura_km":162.906,"eixo_na_terra":true},{"t":0.43333,"lat":27.6033,"lon":-31.8837,"largura_km":162.991,"eixo_na_terra":true},{"t":0.43889,"lat":27.5538,"lon":-31.7857,"largura_km":163.076,"eixo_na_terra":true},{"t":0.44444,"lat":27.5042,"lon":-31.6878,"largura_km":163.162,"eixo_na_terra":true},{"t":0.45,"lat":27.4544,"lon":-31.5898,"largura_km":163.249,"eixo_na_terra":true},{"t":0.45556,"lat":27.4045,"lon":-31.4918,"largura_km":163.337,"eixo_na_terra":true},{"t":0.46111,"lat":27.3544,"lon":-31.3938,"largura_km":163.426,"eixo_na_terra":true},{"t":0.46667,"lat":27.3042,"lon":-31.2957,"largura_km":163.516,"eixo_na_terra":true},{"t":0.47222,"lat":27.2539,"lon":-31.1976,"largura_km":163.607,"eixo_na_terra":true},{"t":0.47778,"lat":27.2034,"lon":-31.0995,"largura_km":163.698,"eixo_na_terra":true},{"t":0.48333,"lat":27.1528,"lon":-31.0014,"largura_km":163.791,"eixo_na_terra":true},{"t":0.48889,"lat":27.102,"lon":-30.9032,"largura_km":163.884,"eixo_na_terra":true},{"t":0.49444,"lat":27.0511,"lon":-30.8051,"largura_km":163.978,"eixo_na_terra":true},{"t":0.5,"lat":27.0001,"lon":-30.7068,"largura_km":164.073,"eixo_na_terra":true},{"t":0.50556,"lat":26.9489,"lon":-30.6086,"largura_km":164.168,"eixo_na_terra":true},{"t":0.51111,"lat":26.8976,"lon":-30.5102,"largura_km":164.265,"eixo_na_terra":true},{"t":0.51667,"lat":26.8462,"lon":-30.4119,"largura_km":164.362,"eixo_na_terra":true},{"t":0.52222,"lat":26.7946,"lon":-30.3135,"largura_km":164.46,"eixo_na_terra":true},{"t":0.52778,"lat":26.7428,"lon":-30.2151,"largura_km":164.559,"eixo_na_terra":true},{"t":0.53333,"lat":26.6909,"lon":-30.1166,"largura_km":164.658,"eixo_na_terra":true},{"t":0.53889,"lat":26.6389,"lon":-30.018,"largura_km":164.759,"eixo_na_terra":true},{"t":0.54444,"lat":26.5868,"lon":-29.9194,"largura_km":164.86,"eixo_na_terra":true},{"t":0.55,"lat":26.5345,"lon":-29.8208,"largura_km":164.962,"eixo_na_terra":true},{"t":0.55556,"lat":26.482,"lon":-29.7221,"largura_km":165.064,"eixo_na_terra":true},{"t":0.56111,"lat":26.4294,"lon":-29.6233,"largura_km":165.168,"eixo_na_terra":true},{"t":0.56667,"lat":26.3767,"lon":-29.5245,"largura_km":165.272,"eixo_na_terra":true},{"t":0.57222,"lat":26.3238,"lon":-29.4256,"largura_km":165.377,"eixo_na_terra":true},{"t":0.57778,"lat":26.2708,"lon":-29.3267,"largura_km":165.483,"eixo_na_terra":true},{"t":0.58333,"lat":26.2176,"lon":-29.2276,"largura_km":165.59,"eixo_na_terra":true},{"t":0.58889,"lat":26.1643,"lon":-29.1285,"largura_km":165.697,"eixo_na_terra":true},{"t":0.59444,"lat":26.1109,"lon":-29.0294,"largura_km":165.806,"eixo_na_terra":true},{"t":0.6,"lat":26.0573,"lon":-28.9301,"largura_km":165.915,"eixo_na_terra":true},{"t":0.60556,"lat":26.0035,"lon":-28.8308,"largura_km":166.025,"eixo_na_terra":true},{"t":0.61111,"lat":25.9496,"lon":-28.7314,"largura_km":166.136,"eixo_na_terra":true},{"t":0.61667,"lat":25.8956,"lon":-28.632,"largura_km":166.247,"eixo_na_terra":true},{"t":0.62222,"lat":25.8414,"lon":-28.5324,"largura_km":166.36,"eixo_na_terra":true},{"t":0.62778,"lat":25.787,"lon":-28.4327,"largura_km":166.473,"eixo_na_terra":true},{"t":0.63333,"lat":25.7326,"lon":-28.333,"largura_km":166.587,"eixo_na_terra":true},{"t":0.63889,"lat":25.6779,"lon":-28.2332,"largura_km":166.702,"eixo_na_terra":true},{"t":0.64444,"lat":25.6231,"lon":-28.1333,"largura_km":166.817,"eixo_na_terra":true},{"t":0.65,"lat":25.5682,"lon":-28.0332,"largura_km":166.934,"eixo_na_terra":true},{"t":0.65556,"lat":25.5131,"lon":-27.9331,"largura_km":167.051,"eixo_na_terra":true},{"t":0.66111,"lat":25.4579,"lon":-27.8329,"largura_km":167.169,"eixo_na_terra":true},{"t":0.66667,"lat":25.4025,"lon":-27.7326,"largura_km":167.288,"eixo_na_terra":true},{"t":0.67222,"lat":25.347,"lon":-27.6322,"largura_km":167.408,"eixo_na_terra":true},{"t":0.67778,"lat":25.2913,"lon":-27.5316,"largura_km":167.529,"eixo_na_terra":true},{"t":0.68333,"lat":25.2355,"lon":-27.431,"largura_km":167.65,"eixo_na_terra":true},{"t":0.68889,"lat":25.1795,"lon":-27.3302,"largura_km":167.773,"eixo_na_terra":true},{"t":0.69444,"lat":25.1233,"lon":-27.2293,"largura_km":167.896,"eixo_na_terra":true},{"t":0.7,"lat":25.067,"lon":-27.1283,"largura_km":168.02,"eixo_na_terra":true},{"t":0.70556,"lat":25.0106,"lon":-27.0272,"largura_km":168.145,"eixo_na_terra":true}]},"features":[{"type":"Feature","properties":{},"geometry":{"type":"Polygon","coordinates":[[[-27.326552795775626,26.062647826917544],[-26.510287002555913,25.613282601574475],[-27.531899991842693,24.40958470957087],[-28.42643808560109,24.909949296929838],[-29.31309893723241,25.398079843492837],[-30.193601891322942,25.87428138491769],[-30.97240040262116,26.28776586351707],[-31.360784406187776,26.491098262179527],[-31.833622065917268,26.735995531647063],[-32.608239237380985,27.130439577100564],[-33.38239510526972,27.516052218714304],[-33.76958829735685,27.70557236199336],[-34.1570077210844,27.892912801212244],[-34.544763002045215,28.07808030151848],[-34.93296201835042,28.261080428813237],[-35.32171104882261,28.44191757727845],[-35.69897140684162,28.615080501678815],[-36.08911229502337,28.791638373101655],[-36.48011124174485,28.96603935456258],[-36.872069508452455,29.138283401412263],[-37.265087412985594,29.30836939527118],[-37.95571735495531,29.60081992145689],[-38.35216021212102,29.764956876851556],[-38.737552507844015,29.921891837018414],[-39.13691191801655,30.081716328028712],[-39.537892760326116,30.239355915203504],[-39.94059197395066,30.3948024844414],[-40.24380233343197,30.509942781802792],[-39.60016489605334,31.824054569543833],[-39.28988130559293,31.70681350258055],[-38.877798953309025,31.548600462147352],[-38.1608511058819,31.266550565401072],[-37.43619246774071,30.97277999992277],[-36.7285088663306,30.67758844319899],[-36.0245965701144,30.37589450968089],[-35.62384014348373,30.2005833285469],[-35.224028229500675,30.023153448803416],[-34.51403761001225,29.701920709274],[-34.116288283837065,29.51862063522426],[-33.71907573576911,29.33319390694441],[-33.0249091360908,29.003564792308154],[-32.23238540597305,28.618807198512652],[-31.4398210465595,28.22540684918011],[-30.634142907744547,27.817061129367517],[-29.838486139873936,27.405990489019107],[-29.039692231131596,26.98592846879754],[-28.23662302146508,26.556709169098305],[-27.326552795775626,26.062647826917544]]]}}]}