{"type":"FeatureCollection","features":[{"type":"Feature","properties":{"t_inicio":-0.01666666666668082,"t_fim":0.7055555555555388},"geometry":{"type":"LineString","coordinates":[[-39.92490739185587,31.165347781014507],[-39.822563146884704,31.1267588219228],[-39.720337112166675,31.088033165244784],[-39.618227742703,31.04917096785543],[-39.51623349367003,31.010172382567383],[-39.414352820311876,30.971037558134732],[-39.31258417783317,30.931766639256377],[-39.210926021291755,30.892359766578753],[-39.10937680549122,30.852817076698283],[-39.00793498487366,30.813138702163215],[-38.90659901341232,30.77332477147495],[-38.80536734450391,30.73337540908909],[-38.704238430861096,30.693290735415836],[-38.603210724404875,30.653070866819863],[-38.502282676156426,30.612715915619955],[-38.4014527361291,30.57222599008787],[-38.30071935322027,30.53160119444701],[-38.20008097510254,30.490841628870324],[-38.099536048115084,30.44994738947798],[-37.99908301715453,30.408918568334386],[-37.89872032556548,30.367755253444788],[-37.79844641503087,30.326457528751416],[-37.698259725461696,30.28502547412908],[-37.59815869488668,30.243459165380205],[-37.498141759341166,30.201758674229715],[-37.39820735275583,30.159924068318816],[-37.298353906844824,30.117955411198967],[-37.19857985099341,30.075852762324814],[-37.0988836121451,30.0336161770469],[-36.99926361468812,29.991245706603806],[-36.89971828034163,29.948741398113754],[-36.80024602804076,29.90610329456567],[-36.70084527382164,29.863331434809893],[-36.60151443070538,29.82042585354813],[-36.50225190858137,29.77738658132304],[-36.40305611409002,29.734213644507303],[-36.30392545050455,29.690907065292077],[-36.20485831761229,29.647466861674932],[-36.1058531115948,29.603893047447283],[-36.00690822490739,29.56018563218131],[-35.90802204615778,29.516344621216156],[-35.809192959983676,29.472370015643826],[-35.71041934692951,29.428261812294302],[-35.61169958332232,29.384020003720227],[-35.51303204114646,29.33964457818094],[-35.41441508791726,29.29513551962601],[-35.31584708655387,29.25049280767809],[-35.217326395250694,29.205716417615253],[-35.11885136734793,29.16080632035278],[-35.020420351200755,29.115762482424167],[-34.92203169004739,29.070584865961695],[-34.823683721875994,29.02527342867632],[-34.725374779290235,28.979828123836963],[-34.62710318937337,28.934248900249074],[-34.528867273551214,28.8885357022327],[-34.430665347453726,28.842688469599782],[-34.33249572077489,28.796707137630918],[-34.23435669713143,28.750591637051286],[-34.13624657391989,28.704341894006095],[-34.03816364217212,28.657957830035187],[-33.940106186409196,28.61143936204706],[-33.842072484493855,28.56478640229212],[-33.744060807480935,28.517998858335233],[-33.6460694194665,28.471076633027625],[-33.54809657743479,28.424019624477882],[-33.45014053110364,28.376827726022437],[-33.35219952276796,28.32950082619512],[-33.25427178714125,28.282038808695937],[-33.15635555119525,28.23444155235926],[-33.05844903399745,28.18670893112102],[-32.96055044654679,28.13884081398518],[-32.86265799160688,28.090837064989437],[-32.76476986353748,28.042697543169965],[-32.66688424812344,27.99442210252547],[-32.56899932240145,27.946010591980293],[-32.47111325448461,27.89746285534663],[-32.37322420338441,27.848778731285947],[-32.27533031883044,27.799958053269393],[-32.17742974108742,27.7510006495374],[-32.079520600769825,27.701906343058265],[-31.981601018653777,27.652674951485828],[-31.883669105486348,27.603306287116137],[-31.785722961792004,27.55380015684323],[-31.68776067767621,27.504156362113775],[-31.589780332626276,27.454374698880805],[-31.491779995309088,27.404454957556347],[-31.393757723365894,27.354396922963044],[-31.29571156320398,27.30420037428462],[-31.197639549785094,27.25386508501537],[-31.099539706410667,27.20339082290838],[-31.00141004450353,27.1527773499227],[-30.903248563386654,27.102024422169404],[-30.80505325005771,27.051131789856257],[-30.706822078960613,27.000099197231446],[-30.6085530117532,26.94892638252582],[-30.51024399707086,26.89761307789408],[-30.41189297028683,26.84615900935451],[-30.313497853268046,26.79456389672755],[-30.215056554127244,26.74282745357288],[-30.116566966970794,26.6909493871253],[-30.0180269716422,26.638929398229074],[-29.919434433461504,26.586767181270858],[-29.82078720295982,26.53446242411139],[-29.72208311560979,26.48201480801532],[-29.6233199915508,26.429424007579886],[-29.524495635309876,26.376689690661777],[-29.425607835517383,26.32381151830262],[-29.326654364617667,26.27078914465263],[-29.227632978574775,26.217622216892842],[-29.128541416572432,26.164310375155416],[-29.029377400709166,26.110853252442446],[-28.93013863568723,26.057250474542812],[-28.830822808496407,26.003501659947286],[-28.731427588091407,25.94960641976189],[-28.63195062506375,25.89556435761918],[-28.532389551307176,25.84137506958772],[-28.43274197967679,25.78703814407961],[-28.333005503641914,25.732553161755817],[-28.233177696932046,25.677919695429633],[-28.13325611317623,25.62313730996787],[-28.033238285535248,25.56820556218996],[-27.933121726326846,25.51312400076479],[-27.832903926643354,25.45789216610526],[-27.73258235596211,25.40250959026055],[-27.632154461747774,25.346975796805943],[-27.531617669047023,25.291290300730257],[-27.43096938007477,25.23545260832066],[-27.33020697379237,25.17946221704508],[-27.22932780547697,25.123318615431867],[-27.128329206282103,25.06702128294671],[-27.027208482789348,25.010569689866944]]}}]}