{"type":"FeatureCollection","properties":{"largura_maxima_km":92.763,"largura_sobre_pt_km":83.469,"linha_central_sobre_pt":true,"desenhavel_como_area":true,"perfil_largura":[{"t":-2.12222,"lat":35.939,"lon":-28.8708,"largura_km":null,"eixo_na_terra":false},{"t":-2.11667,"lat":36.0383,"lon":-27.7635,"largura_km":null,"eixo_na_terra":false},{"t":-2.11111,"lat":36.1222,"lon":-26.7478,"largura_km":null,"eixo_na_terra":false},{"t":-2.10556,"lat":36.2301,"lon":-24.3414,"largura_km":null,"eixo_na_terra":false},{"t":-2.1,"lat":36.2946,"lon":-22.2953,"largura_km":68.252,"eixo_na_terra":true},{"t":-2.09444,"lat":36.327,"lon":-20.9298,"largura_km":70.219,"eixo_na_terra":true},{"t":-2.08889,"lat":36.3477,"lon":-19.7309,"largura_km":71.479,"eixo_na_terra":true},{"t":-2.08333,"lat":36.3599,"lon":-18.6514,"largura_km":72.522,"eixo_na_terra":true},{"t":-2.07778,"lat":36.3658,"lon":-17.6628,"largura_km":73.438,"eixo_na_terra":true},{"t":-2.07222,"lat":36.3665,"lon":-16.7465,"largura_km":74.268,"eixo_na_terra":true},{"t":-2.06667,"lat":36.363,"lon":-15.8895,"largura_km":75.034,"eixo_na_terra":true},{"t":-2.06111,"lat":36.3559,"lon":-15.0822,"largura_km":75.749,"eixo_na_terra":true},{"t":-2.05556,"lat":36.3458,"lon":-14.3175,"largura_km":76.421,"eixo_na_terra":true},{"t":-2.05,"lat":36.3331,"lon":-13.5897,"largura_km":77.06,"eixo_na_terra":true},{"t":-2.04444,"lat":36.3181,"lon":-12.8943,"largura_km":77.668,"eixo_na_terra":true},{"t":-2.03889,"lat":36.301,"lon":-12.2278,"largura_km":78.25,"eixo_na_terra":true},{"t":-2.03333,"lat":36.282,"lon":-11.587,"largura_km":78.807,"eixo_na_terra":true},{"t":-2.02778,"lat":36.2614,"lon":-10.9695,"largura_km":79.344,"eixo_na_terra":true},{"t":-2.02222,"lat":36.2393,"lon":-10.3732,"largura_km":79.861,"eixo_na_terra":true},{"t":-2.01667,"lat":36.2158,"lon":-9.7962,"largura_km":80.36,"eixo_na_terra":true},{"t":-2.01111,"lat":36.191,"lon":-9.237,"largura_km":80.843,"eixo_na_terra":true},{"t":-2.00556,"lat":36.165,"lon":-8.6942,"largura_km":81.311,"eixo_na_terra":true},{"t":-2.0,"lat":36.1379,"lon":-8.1665,"largura_km":81.766,"eixo_na_terra":true},{"t":-1.99444,"lat":36.1098,"lon":-7.653,"largura_km":82.208,"eixo_na_terra":true},{"t":-1.98889,"lat":36.0807,"lon":-7.1527,"largura_km":82.638,"eixo_na_terra":true},{"t":-1.98333,"lat":36.0508,"lon":-6.6647,"largura_km":83.058,"eixo_na_terra":true},{"t":-1.97778,"lat":36.02,"lon":-6.1883,"largura_km":83.469,"eixo_na_terra":true},{"t":-1.97222,"lat":35.9885,"lon":-5.7228,"largura_km":83.869,"eixo_na_terra":true},{"t":-1.96667,"lat":35.9562,"lon":-5.2676,"largura_km":84.261,"eixo_na_terra":true},{"t":-1.96111,"lat":35.9231,"lon":-4.8221,"largura_km":84.643,"eixo_na_terra":true},{"t":-1.95556,"lat":35.8895,"lon":-4.3859,"largura_km":85.017,"eixo_na_terra":true},{"t":-1.95,"lat":35.8552,"lon":-3.9584,"largura_km":85.383,"eixo_na_terra":true},{"t":-1.94444,"lat":35.8203,"lon":-3.5392,"largura_km":85.742,"eixo_na_terra":true},{"t":-1.93889,"lat":35.7848,"lon":-3.1279,"largura_km":86.093,"eixo_na_terra":true},{"t":-1.93333,"lat":35.7488,"lon":-2.7242,"largura_km":86.438,"eixo_na_terra":true},{"t":-1.92778,"lat":35.7122,"lon":-2.3277,"largura_km":86.776,"eixo_na_terra":true},{"t":-1.92222,"lat":35.6752,"lon":-1.9381,"largura_km":87.108,"eixo_na_terra":true},{"t":-1.91667,"lat":35.6376,"lon":-1.5551,"largura_km":87.435,"eixo_na_terra":true},{"t":-1.91111,"lat":35.5997,"lon":-1.1785,"largura_km":87.755,"eixo_na_terra":true},{"t":-1.90556,"lat":35.5612,"lon":-0.808,"largura_km":88.071,"eixo_na_terra":true},{"t":-1.9,"lat":35.5224,"lon":-0.4433,"largura_km":88.381,"eixo_na_terra":true},{"t":-1.89444,"lat":35.4832,"lon":-0.0842,"largura_km":88.687,"eixo_na_terra":true},{"t":-1.88889,"lat":35.4435,"lon":0.2694,"largura_km":88.988,"eixo_na_terra":true},{"t":-1.88333,"lat":35.4035,"lon":0.6178,"largura_km":89.284,"eixo_na_terra":true},{"t":-1.87778,"lat":35.3632,"lon":0.9612,"largura_km":89.575,"eixo_na_terra":true},{"t":-1.87222,"lat":35.3224,"lon":1.2997,"largura_km":89.862,"eixo_na_terra":true},{"t":-1.86667,"lat":35.2814,"lon":1.6334,"largura_km":90.144,"eixo_na_terra":true},{"t":-1.86111,"lat":35.24,"lon":1.9627,"largura_km":90.422,"eixo_na_terra":true},{"t":-1.85556,"lat":35.1983,"lon":2.2875,"largura_km":90.697,"eixo_na_terra":true},{"t":-1.85,"lat":35.1563,"lon":2.608,"largura_km":90.967,"eixo_na_terra":true},{"t":-1.84444,"lat":35.114,"lon":2.9245,"largura_km":91.233,"eixo_na_terra":true},{"t":-1.83889,"lat":35.0714,"lon":3.2369,"largura_km":91.497,"eixo_na_terra":true},{"t":-1.83333,"lat":35.0285,"lon":3.5454,"largura_km":91.757,"eixo_na_terra":true},{"t":-1.82778,"lat":34.9854,"lon":3.8502,"largura_km":92.013,"eixo_na_terra":true},{"t":-1.82222,"lat":34.942,"lon":4.1512,"largura_km":92.266,"eixo_na_terra":true},{"t":-1.81667,"lat":34.8984,"lon":4.4488,"largura_km":92.516,"eixo_na_terra":true},{"t":-1.81111,"lat":34.8545,"lon":4.7428,"largura_km":92.763,"eixo_na_terra":true}]},"features":[{"type":"Feature","properties":{},"geometry":{"type":"Polygon","coordinates":[[[1.4897078405045932,35.70808019878103],[2.1512645689606416,35.62772860410772],[3.11140051040627,35.504734844420994],[4.035942145248214,35.379019985405066],[4.648947238348001,35.29160092868605],[4.844827673221232,34.414873124461096],[3.9617738947311523,34.54928736780806],[3.0461718173331747,34.681550937074334],[2.1106516279761536,34.80941853101289],[1.4553362954193858,34.89463113255709],[0.4372583268254857,35.02010971295186],[-0.266842630401527,35.102066187307486],[-0.9930585898612208,35.18254209327723],[-1.3650080339007218,35.222187359845854],[-2.110501370216525,35.29854020176764],[-2.90000786602468,35.37479131362325],[-3.305672437832868,35.41218352871184],[-4.140586588740575,35.48538166424488],[-5.009651922770104,35.556281531407436],[-5.91663913297225,35.62462820651026],[-6.86607086035832,35.690116648258076],[-7.8429816674574795,35.75121334948835],[-8.894366313614228,35.80986834209319],[-9.443150759804496,35.837643132278856],[-10.008992746756348,35.86427170447882],[-10.59336345194572,35.88965594366016],[-11.197959417359357,35.913682862279984],[-11.824754139848608,35.93622121316021],[-12.476065922967962,35.957117037724586],[-13.154648732397732,35.976187708978394],[-13.837999826035741,35.992696043001196],[-14.580863796327549,36.00749240339514],[-15.363249296835193,36.019654776275175],[-16.19150228877629,36.028764962569475],[-17.073880029435202,36.03427963217116],[-18.021470115248633,36.035470330698054],[-19.049770372872217,36.03132041746947],[-20.21935137287494,36.01989274625598],[-21.580117740684955,35.99813125675041],[-21.688229381332057,36.04190865826491],[-21.897005735660912,36.02024507091359],[-22.111042665072205,36.00326062875216],[-22.347302605235086,35.98884399619308],[-22.604464825664706,35.97703381900679],[-22.881061862822094,35.9678295757415],[-23.175471423762303,35.96119428969975],[-23.485904684171942,35.95705814832346],[-23.810478709541954,35.955322996872546],[-24.238824189286106,35.931224399688475],[-24.68613706059557,35.9127091971779],[-25.183395834493922,35.897374131220694],[-25.914091041954027,35.88119440296078],[-26.431057678998854,35.849594739304884],[-26.899232334664532,35.82500269893538],[-27.439020324751198,35.79932626860505],[-29.16854988383119,35.72138417133801],[-29.889236033560017,35.68608502496463],[-30.333500214320452,35.65682498347195],[-30.33306241637507,35.66248135976169],[-30.531289520418568,35.65183443320687],[-30.53306684244753,35.78317240203395],[-30.84912227304153,35.76945789853017],[-30.884613827277917,36.14635004200388],[-30.538342373243456,36.17301593513102],[-30.538434055601385,36.179790945214386],[-30.095043374033718,36.20707738630866],[-28.99250017868735,36.28865907919172],[-28.123054524954227,36.34632393783227],[-27.543901784824072,36.37976785708946],[-27.008576821485406,36.406223976830134],[-26.509334871486544,36.42635218076326],[-26.163606073418286,36.43731092609865],[-25.815099739831737,36.46233121207545],[-25.578105268680645,36.47720587226804],[-25.100030981263103,36.50208464563734],[-24.74236902443863,36.516194035715756],[-24.50625858904175,36.523336591806626],[-24.273079151704735,36.52863137034209],[-23.930631204838562,36.53307809513273],[-23.708338429657772,36.53371351485358],[-23.385680156022943,36.531214600247246],[-23.07789999249627,36.52467209026108],[-22.862336260747625,36.51733709477235],[-23.024615958916797,36.5830486449984],[-21.651662455329983,36.626455718588595],[-20.419390122408686,36.657003786481674],[-19.283854687149756,36.67815039796732],[-18.251308573436802,36.691553323266994],[-17.299158168325675,36.69889630672902],[-16.41204090473741,36.70132602457138],[-15.578947861412189,36.69966548406215],[-14.791669949216612,36.69452934019006],[-14.017866520971722,36.68597482377139],[-13.305428848120641,36.67512582051004],[-12.62340463932145,36.66195856481965],[-11.968521003488434,36.64671954470569],[-11.338054729612509,36.62961415917607],[-10.729711031825161,36.61081575116031],[-10.141534663965672,36.59047223356734],[-9.019177551854455,36.545642950340834],[-7.959968350107772,36.495962485757595],[-6.935394680134664,36.44087146112534],[-5.9792623460381265,36.3832284929374],[-5.0654712528797745,36.3223233239613],[-4.189537812657363,36.25849991367919],[-3.347720375202698,36.1920460214508],[-2.9385980381755985,36.157910264739904],[-2.1421749145233093,36.0879563740949],[-1.3728003644374667,36.01591769514639],[-0.9975671547753677,35.97916997151824],[-0.2481249488905064,35.90251577227942],[0.46224082355735163,35.82591189810901],[1.4897078405045932,35.70808019878103]]]}}]}