{"type":"FeatureCollection","features":[{"type":"Feature","properties":{"t_inicio":-2.1166666666666734,"t_fim":-1.8111111111111189},"geometry":{"type":"LineString","coordinates":[[-29.93170060962001,35.9504241330695],[-26.02225990521754,36.16012440578605],[-23.917913626822383,36.24421169889133],[-22.295285825454926,36.29463167869571],[-20.92979019899201,36.32702054383888],[-19.730923564618365,36.34768992688595],[-18.65140064932268,36.359942805893155],[-17.66281756024472,36.36576640907675],[-16.746528028239197,36.3664673428655],[-15.889509401057524,36.3629595727553],[-15.08224029297429,36.35591237152045],[-14.317508950182003,36.34583344453073],[-13.58969733457701,36.333118904242895],[-12.894327544134399,36.31808495381531],[-12.227761846483133,36.300988854684434],[-11.586997153524464,36.28204330246776],[-10.96951995297627,36.26142658095022],[-10.373201284253526,36.23928991816603],[-9.796219023512208,36.21576293338283],[-9.236999269335286,36.190957748119075],[-8.694171386333323,36.16497214137799],[-8.166533007111411,36.13789200762713],[-7.6530224221151,36.109793297230574],[-7.152696536069129,36.08074356671634],[-6.6647130777188295,36.05080323077209],[-6.188316100781549,36.02002658331634],[-5.722824061105484,35.98846263771834],[-5.267619931671504,35.956155823884124],[-4.8221429451954805,35.92314657096387],[-4.385881648263307,35.889471797843385],[-3.958368021008937,35.85516532867589],[-3.5391724690844057,35.82025824701723],[-3.127899534776816,35.784779199316525],[-2.7241842049260185,35.74875465635631],[-2.3276887171609815,35.7122091395627],[-1.9380997846244554,35.67516541779747],[-1.555126174041618,35.63764467921416],[-1.1784965836475294,35.59966668194125],[-0.8079577768003219,35.56124988670201],[-0.44327293459764405,35.522411573954216],[-0.08422019687833426,35.48316794770695],[0.26940863407736515,35.4435342278248],[0.6178092487928097,35.40352473234588],[0.9611658631085902,35.36315295110599],[1.2996521435374007,35.32243161176832],[1.633432038752062,35.28137273919678],[1.9626605285909022,35.23998770897733],[2.287484300368817,35.198287295778904],[2.6080423609382706,35.156281717151046],[2.9244665918087094,35.11398067327491],[3.236882253670103,35.07139338311707],[3.545408445848466,35.02852861737685],[3.85015852551777,34.98539472856936],[4.151240490898033,34.94199967854371],[4.448757332150876,34.8983510636994],[4.742807353240778,34.85445613813285]]}}]}