{"type":"FeatureCollection","properties":{"largura_maxima_km":131.868,"largura_sobre_pt_km":131.868,"linha_central_sobre_pt":false,"desenhavel_como_area":true,"perfil_largura":[{"t":-1.32222,"lat":32.5621,"lon":-8.0753,"largura_km":null,"eixo_na_terra":false},{"t":-1.31667,"lat":32.3013,"lon":-7.0099,"largura_km":null,"eixo_na_terra":false},{"t":-1.31111,"lat":32.2047,"lon":-6.4441,"largura_km":null,"eixo_na_terra":false},{"t":-1.30556,"lat":32.1553,"lon":-6.0721,"largura_km":null,"eixo_na_terra":false},{"t":-1.3,"lat":32.028,"lon":-5.4245,"largura_km":null,"eixo_na_terra":false},{"t":-1.29444,"lat":31.9991,"lon":-5.0733,"largura_km":null,"eixo_na_terra":false},{"t":-1.28889,"lat":31.8702,"lon":-4.4495,"largura_km":null,"eixo_na_terra":false},{"t":-1.28333,"lat":31.6482,"lon":-3.594,"largura_km":null,"eixo_na_terra":false},{"t":-1.27778,"lat":30.8342,"lon":-1.2214,"largura_km":131.868,"eixo_na_terra":true},{"t":-1.27222,"lat":30.5993,"lon":-0.412,"largura_km":130.141,"eixo_na_terra":true},{"t":-1.26667,"lat":30.3876,"lon":0.3255,"largura_km":128.953,"eixo_na_terra":true},{"t":-1.26111,"lat":30.1944,"lon":1.0063,"largura_km":127.985,"eixo_na_terra":true},{"t":-1.25556,"lat":30.0162,"lon":1.641,"largura_km":127.142,"eixo_na_terra":true},{"t":-1.25,"lat":29.8506,"lon":2.2372,"largura_km":126.385,"eixo_na_terra":true},{"t":-1.24444,"lat":29.6957,"lon":2.8005,"largura_km":125.684,"eixo_na_terra":true},{"t":-1.23889,"lat":29.5502,"lon":3.3355,"largura_km":125.039,"eixo_na_terra":true},{"t":-1.23333,"lat":29.4129,"lon":3.8456,"largura_km":124.432,"eixo_na_terra":true},{"t":-1.22778,"lat":29.2829,"lon":4.3339,"largura_km":123.855,"eixo_na_terra":true},{"t":-1.22222,"lat":29.1594,"lon":4.8025,"largura_km":123.309,"eixo_na_terra":true}]},"features":[{"type":"Feature","properties":{},"geometry":{"type":"Polygon","coordinates":[[[-1.8885677170735562,31.64759178765302],[-0.10261075063846192,31.119444659359985],[1.3350741179291958,30.70296025819908],[2.5814716290501565,30.349717940730844],[3.1379871745034507,30.19418254955503],[3.6930888590051154,30.041313579479077],[5.651471866325494,28.371553013383178],[4.752394819221649,28.59978068991942],[3.80813308574659,28.844126733340765],[2.7494463254274137,29.124675870151837],[1.5747715905732775,29.442890197848946],[0.9133847717893104,29.625553844894796],[0.16156872870965344,29.83703112852899],[0.14339754618800796,29.847080044332216],[-0.050439846124675114,29.893053123259726],[-0.2768262366472527,29.954390380349672],[-0.4410803003561341,30.00280787056669],[-0.6416888505940355,30.065573811014026],[-0.8021422042663175,30.105249220592192],[-1.0498611140766343,30.173280095131133],[-1.230438196443231,30.22684768784423],[-1.4547000073110288,30.297120217965045],[-1.6294889250539768,30.341463294035744],[-1.905210706756975,30.418271668378544],[-2.107512189257136,30.47867967028367],[-2.36358068106872,30.559016387772008],[-2.5581558673803215,30.609736916943188],[-2.7634280817474064,30.666976532463487],[-3.1061586893457616,30.768898542401747],[-3.4083670259695977,30.86378860797707],[-3.6326604708336845,30.923997740991457],[-4.007365375967595,31.03177672749465],[-4.2898001625537745,31.117329443367066],[-4.668234982353671,31.236181765229837],[-5.09585221629186,31.356325605353934],[-5.429012236877895,31.454917020477644],[-5.8089021922205575,31.570952339897264],[-6.355213622825088,31.74238969008787],[-6.757875921114817,31.858729897881283],[-6.997798847705496,31.929834204418636],[-7.570393729307398,32.10311346672116],[-8.937773338504542,32.52701446841204],[-8.932931280639552,32.53962413825978],[-9.530818612966243,32.720251807481105],[-9.470987327915006,32.828016995541326],[-9.660421509746868,32.889288217978326],[-9.345660758930618,33.05374908977897],[-9.341033983783687,33.0620826111699],[-9.478652550581728,33.108256806731085],[-9.032899907194958,33.43622101961937],[-8.977167933760514,33.49046511943446],[-9.356141501065508,33.63383257185046],[-9.195088116017871,33.79597022946119],[-8.78154790460548,33.68086269076393],[-8.688785278043099,33.77114883827095],[-6.918050135848944,33.20948882269578],[-6.3266497548032135,33.01917179140202],[-5.935417031912446,32.89134804699866],[-5.388686821420492,32.727562513230254],[-4.840758506858947,32.557451010792114],[-4.315041789727275,32.387977500643885],[-3.9589311523275144,32.269293457655046],[-1.8885677170735562,31.64759178765302]]]}}]}