{"type":"FeatureCollection","features":[{"type":"Feature","properties":{"t_inicio":-1.3000000000000096,"t_fim":-1.222222222222232},"geometry":{"type":"LineString","coordinates":[[-6.090305475956484,32.29704454463048],[-4.417985047673142,31.785924078448506],[-3.1654450607562126,31.40875112016604],[-2.125969474840531,31.099804861961672],[-1.221378561030349,30.834200491290023],[-0.4120217151030374,30.59930310440601],[0.3254955082985589,30.387649891521647],[1.0063440119382676,30.194396245113634],[1.6410242069183028,30.016185539363182],[2.2371599044176946,29.850578217171552],[2.8004931362840466,29.69573503218365],[3.335476111877597,29.55022847559837],[3.845643379805722,29.412924164558405],[4.333856391827112,29.28290286053974],[4.802470176244185,29.159407299011296]]}}]}