{"type":"FeatureCollection","features":[{"type":"Feature","properties":{"magnitude":0.2,"de":0.2,"ate":0.5,"percentagem":20.0},"geometry":{"type":"Polygon","coordinates":[[[-22.446058345465605,29.999999999999996],[-17.75356081632654,30.0],[-17.692394355052965,31.91999999999996],[-17.552752866941976,33.83999999999992],[-17.336208528939334,35.75999999999988],[-17.042209544158975,37.679999999999836],[-16.681239028076906,39.53999999999979],[-16.241403688829976,41.39999999999976],[-15.735426914019072,43.199999999999726],[-15.164808544315743,44.939999999999685],[-20.19558553913499,44.939999999999685],[-20.659566573385398,43.19999999999972],[-21.061210578850222,41.45999999999975],[-21.416949178074578,39.6599999999998],[-21.725797249576758,37.799999999999834],[-21.98634164082192,35.879999999999875],[-22.191079413719933,33.959999999999916],[-22.346255284649388,31.97999999999996],[-22.446058345465605,29.999999999999996]]]}},{"type":"Feature","properties":{"magnitude":0.5,"de":0.5,"ate":0.8,"percentagem":50.0},"geometry":{"type":"Polygon","coordinates":[[[-17.75356081632654,30.0],[-12.905007672343983,30.0],[-12.997511405099003,31.319999999999972],[-12.982081437317799,32.759999999999934],[-12.854556995633727,34.259999999999906],[-12.618885939658934,35.75999999999988],[-12.286353085472904,37.19999999999985],[-11.85481498859708,38.579999999999814],[-11.339999999999122,39.82909286345003],[-10.799999999999102,40.824538387667886],[-10.379999999999086,41.41766145447788],[-9.899999999999068,41.91464936006447],[-9.659999999999059,42.089352616999435],[-9.41999999999905,42.21155766977634],[-9.17999999999904,42.27688252732044],[-8.999999999999034,42.28482010574844],[-8.819999999999027,42.25363614542771],[-3.5399999999988268,40.61396901024609],[-3.5399999999988268,44.939999999999685],[-15.164808544315743,44.939999999999685],[-15.735426914019072,43.19999999999972],[-16.241403688829976,41.399999999999764],[-16.681239028076906,39.53999999999979],[-17.042209544158975,37.679999999999836],[-17.336208528939334,35.75999999999988],[-17.552752866941976,33.83999999999992],[-17.69239435505297,31.91999999999996],[-17.75356081632654,30.0]]]}},{"type":"Feature","properties":{"magnitude":0.8,"de":0.8,"ate":0.95,"percentagem":80.0},"geometry":{"type":"Polygon","coordinates":[[[-12.905007672343983,30.0],[-3.7452012992409314,30.0],[-10.259999999999081,32.050229971007944],[-10.432874007494485,32.219999999999956],[-10.53090622436617,32.45999999999995],[-10.599679651480622,32.819999999999936],[-10.61892150783872,33.23999999999993],[-10.556945529602686,33.89999999999992],[-10.379999999999086,34.55008037455679],[-10.259999999999081,34.799921685880996],[-10.139999999999077,34.96483796199357],[-10.019999999999072,35.058509652084155],[-9.899999999999068,35.08184974788905],[-3.5399999999988268,33.14754380860675],[-3.5399999999988268,40.61396901024609],[-8.939999999999031,42.27897775647394],[-9.239999999999043,42.26619232229051],[-9.599999999999056,42.124966353402456],[-9.899999999999068,41.91464936006447],[-10.259999999999081,41.55994560666552],[-10.619999999999097,41.09706690635485],[-10.919999999999106,40.627082155430394],[-11.219999999999118,40.07499184734673],[-11.51999999999913,39.430604020037],[-12.057640932970951,37.97999999999983],[-12.479999999999166,36.420318531832066],[-12.782206089963761,34.7999999999999],[-12.961460844755875,33.11999999999993],[-13.00175986807091,31.499999999999968],[-12.905007672343983,30.0]]]}},{"type":"Feature","properties":{"magnitude":0.95,"de":0.95,"ate":0.99,"percentagem":95.0},"geometry":{"type":"Polygon","coordinates":[[[-10.319999999999084,32.0843432206852],[-3.7452012992409314,30.0],[-3.5399999999988268,30.0],[-3.5399999999988268,33.14754380860675],[-9.839999999999065,35.06651365009038],[-10.019999999999072,35.058509652084155],[-10.19999999999908,34.891745406863166],[-10.350324358228338,34.619999999999905],[-10.476303585083151,34.259999999999906],[-10.566941584506463,33.83999999999992],[-10.615496749314902,33.35999999999993],[-10.61066255467035,32.93999999999994],[-10.559999999999093,32.57306377395302],[-10.463884000918348,32.27999999999995],[-10.319999999999084,32.0843432206852]]]}}]}