{"type":"FeatureCollection","features":[{"type":"Feature","properties":{"magnitude":0.6,"percentagem":60.0,"territorio":"continente"},"geometry":{"type":"LineString","coordinates":[[-5.540000000000106,41.67824489318444],[-5.580000000000105,41.675070509351556],[-5.620000000000104,41.67191348125716],[-5.660000000000103,41.66877379066915],[-5.700000000000102,41.66565141934532],[-5.7400000000001015,41.66254634903348],[-5.780000000000101,41.659458561471546],[-5.8200000000001,41.65638803838792],[-5.860000000000099,41.6533347615014],[-5.900000000000098,41.65029871252153],[-5.940000000000097,41.64727987314861],[-5.980000000000096,41.644278225074046],[-6.0200000000000955,41.64129374998022],[-6.03743878789142,41.63999999999988],[-6.060000000000095,41.63832850696792],[-6.100000000000094,41.635381984965626],[-6.140000000000093,41.63245255969987],[-6.180000000000092,41.629540212835295],[-6.220000000000091,41.626644926028476],[-6.26000000000009,41.62376668092824],[-6.3000000000000895,41.62090545917573],[-6.340000000000089,41.61806124240464],[-6.380000000000088,41.615234012241274],[-6.420000000000087,41.61242375030476],[-6.460000000000086,41.60963043820719],[-6.500000000000085,41.606854057553754],[-6.540000000000084,41.604094589942925],[-6.580000000000084,41.601352016966544],[-6.599839818351018,41.59999999999988],[-6.620000000000083,41.59862802266669],[-6.660000000000082,41.59592254084628],[-6.700000000000082,41.593233877475654],[-6.74000000000008,41.59056201413901],[-6.780000000000079,41.58790693241485],[-6.820000000000078,41.58526861387607],[-6.860000000000078,41.58264704009008],[-6.900000000000077,41.58004219261895],[-6.940000000000076,41.577454053019565],[-6.980000000000075,41.57488260284376],[-7.020000000000074,41.57232782363849],[-7.060000000000073,41.56978969694593],[-7.1000000000000725,41.5672682043036],[-7.140000000000072,41.56476332724456],[-7.180000000000071,41.562275047297554],[-7.21681714554174,41.55999999999988],[-7.22000000000007,41.55980358928478],[-7.260000000000069,41.55735148554533],[-7.300000000000068,41.55491590291083],[-7.340000000000067,41.55249682291261],[-7.3800000000000665,41.550094227078404],[-7.420000000000066,41.54770809693254],[-7.460000000000065,41.545338413996],[-7.500000000000064,41.542985159786596],[-7.540000000000063,41.540648315819105],[-7.580000000000062,41.53832786360539],[-7.620000000000061,41.53602378465452],[-7.6600000000000605,41.533736060472876],[-7.70000000000006,41.53146467256438],[-7.740000000000059,41.529209602430555],[-7.780000000000058,41.52697083157057],[-7.820000000000057,41.52474834148153],[-7.860000000000056,41.52254211365849],[-7.900000000000055,41.5203521295947],[-7.906478952969485,41.51999999999988],[-7.940000000000055,41.51818062005799],[-7.980000000000054,41.51602573191193],[-8.020000000000053,41.513887011857314],[-8.060000000000052,41.51176444140116],[-8.100000000000051,41.50965800204923],[-8.14000000000005,41.50756767530621],[-8.18000000000005,41.50549344267593],[-8.220000000000049,41.50343528566134],[-8.260000000000048,41.501393185764684],[-8.300000000000047,41.49936712448764],[-8.340000000000046,41.49735708333142],[-8.380000000000045,41.49536304379689],[-8.420000000000044,41.4933849873847],[-8.460000000000043,41.49142289559537],[-8.500000000000043,41.48947674992944],[-8.540000000000042,41.48754653188757],[-8.580000000000041,41.48563222297068],[-8.62000000000004,41.48373380467996],[-8.66000000000004,41.48185125851722],[-8.699669233183236,41.47999999999988],[-8.700000000000038,41.479984585000146],[-8.740000000000038,41.478136007860506],[-8.780000000000037,41.4763032276958],[-8.820000000000036,41.47448622603219],[-8.860000000000035,41.47268498439685],[-8.900000000000034,41.47089948431832],[-8.940000000000033,41.46912970732631],[-8.980000000000032,41.46737563495205],[-9.020000000000032,41.465637248728235],[-9.06000000000003,41.46391453018929],[-9.10000000000003,41.462207460871355],[-9.140000000000029,41.460516022312405],[-9.180000000000028,41.45884019605242],[-9.220000000000027,41.4571799636334],[-9.260000000000026,41.45553530659961],[-9.300000000000026,41.453906206497535],[-9.340000000000025,41.452292644876046],[-9.380000000000024,41.45069460328653],[-9.420000000000023,41.44911206328294],[-9.460000000000022,41.44754500642196],[-9.500000000000021,41.44599341426304],[-9.54000000000002,41.444457268368545],[-9.58000000000002,41.44293655030386],[-9.620000000000019,41.44143124163742],[-9.658424516727651,41.43999999999988],[-9.660000000000018,41.43994139604086],[-9.700000000000017,41.43846866268328],[-9.740000000000018,41.43701126439654],[-9.780000000000014,41.43556918278532],[-9.820000000000014,41.43414239945796],[-9.860000000000014,41.432730896026534],[-9.900000000000013,41.431334654107026],[-9.940000000000012,41.42995365531926],[-9.980000000000011,41.428587881287186],[-10.02000000000001,41.427237313638834],[-10.06000000000001,41.425901934006475],[-10.100000000000009,41.4245817240267],[-10.140000000000008,41.42327666534048],[-10.180000000000007,41.421986739593336],[-10.220000000000006,41.42071192843537],[-10.260000000000005,41.41945221352133],[-10.300000000000004,41.41820757651079],[-10.340000000000003,41.41697799906818],[-10.380000000000003,41.41576346286287],[-10.420000000000002,41.414563949569306],[-10.46,41.41337944086705],[-10.5,41.41220991844088]]}}]}