{"type":"FeatureCollection","properties":{"largura_maxima_km":306.98,"largura_sobre_pt_km":300.093,"linha_central_sobre_pt":true,"desenhavel_como_area":true,"perfil_largura":[{"t":-1.61667,"lat":32.5344,"lon":-42.5386,"largura_km":null,"eixo_na_terra":false},{"t":-1.61111,"lat":32.7551,"lon":-42.1284,"largura_km":null,"eixo_na_terra":false},{"t":-1.60556,"lat":33.0146,"lon":-41.8332,"largura_km":null,"eixo_na_terra":false},{"t":-1.6,"lat":33.246,"lon":-41.5043,"largura_km":null,"eixo_na_terra":false},{"t":-1.59444,"lat":33.5437,"lon":-40.7949,"largura_km":null,"eixo_na_terra":false},{"t":-1.58889,"lat":33.7808,"lon":-40.424,"largura_km":null,"eixo_na_terra":false},{"t":-1.58333,"lat":33.9936,"lon":-40.1903,"largura_km":null,"eixo_na_terra":false},{"t":-1.57778,"lat":34.2167,"lon":-39.8371,"largura_km":null,"eixo_na_terra":false},{"t":-1.57222,"lat":34.4518,"lon":-39.3955,"largura_km":null,"eixo_na_terra":false},{"t":-1.56667,"lat":34.7828,"lon":-38.5388,"largura_km":null,"eixo_na_terra":false},{"t":-1.56111,"lat":35.462,"lon":-36.0414,"largura_km":297.241,"eixo_na_terra":true},{"t":-1.55556,"lat":35.7387,"lon":-35.3068,"largura_km":292.584,"eixo_na_terra":true},{"t":-1.55,"lat":36.0012,"lon":-34.6212,"largura_km":290.983,"eixo_na_terra":true},{"t":-1.54444,"lat":36.2517,"lon":-33.9764,"largura_km":290.484,"eixo_na_terra":true},{"t":-1.53889,"lat":36.4922,"lon":-33.366,"largura_km":290.474,"eixo_na_terra":true},{"t":-1.53333,"lat":36.7238,"lon":-32.7854,"largura_km":290.735,"eixo_na_terra":true},{"t":-1.52778,"lat":36.9478,"lon":-32.2307,"largura_km":291.131,"eixo_na_terra":true},{"t":-1.52222,"lat":37.1651,"lon":-31.6988,"largura_km":291.603,"eixo_na_terra":true},{"t":-1.51667,"lat":37.3762,"lon":-31.1874,"largura_km":292.127,"eixo_na_terra":true},{"t":-1.51111,"lat":37.5819,"lon":-30.6942,"largura_km":292.662,"eixo_na_terra":true},{"t":-1.50556,"lat":37.7826,"lon":-30.2175,"largura_km":293.208,"eixo_na_terra":true},{"t":-1.5,"lat":37.9788,"lon":-29.7558,"largura_km":293.758,"eixo_na_terra":true},{"t":-1.49444,"lat":38.1708,"lon":-29.3078,"largura_km":294.3,"eixo_na_terra":true},{"t":-1.48889,"lat":38.359,"lon":-28.8724,"largura_km":294.83,"eixo_na_terra":true},{"t":-1.48333,"lat":38.5437,"lon":-28.4486,"largura_km":295.346,"eixo_na_terra":true},{"t":-1.47778,"lat":38.725,"lon":-28.0355,"largura_km":295.853,"eixo_na_terra":true},{"t":-1.47222,"lat":38.9033,"lon":-27.6324,"largura_km":296.344,"eixo_na_terra":true},{"t":-1.46667,"lat":39.0787,"lon":-27.2385,"largura_km":296.819,"eixo_na_terra":true},{"t":-1.46111,"lat":39.2514,"lon":-26.8533,"largura_km":297.283,"eixo_na_terra":true},{"t":-1.45556,"lat":39.4215,"lon":-26.4763,"largura_km":297.73,"eixo_na_terra":true},{"t":-1.45,"lat":39.5893,"lon":-26.1068,"largura_km":298.161,"eixo_na_terra":true},{"t":-1.44444,"lat":39.7547,"lon":-25.7445,"largura_km":298.577,"eixo_na_terra":true},{"t":-1.43889,"lat":39.9181,"lon":-25.389,"largura_km":298.977,"eixo_na_terra":true},{"t":-1.43333,"lat":40.0794,"lon":-25.0398,"largura_km":299.363,"eixo_na_terra":true},{"t":-1.42778,"lat":40.2387,"lon":-24.6967,"largura_km":299.735,"eixo_na_terra":true},{"t":-1.42222,"lat":40.3962,"lon":-24.3592,"largura_km":300.093,"eixo_na_terra":true},{"t":-1.41667,"lat":40.552,"lon":-24.0272,"largura_km":300.439,"eixo_na_terra":true},{"t":-1.41111,"lat":40.706,"lon":-23.7003,"largura_km":300.773,"eixo_na_terra":true},{"t":-1.40556,"lat":40.8585,"lon":-23.3784,"largura_km":301.093,"eixo_na_terra":true},{"t":-1.4,"lat":41.0094,"lon":-23.0611,"largura_km":301.404,"eixo_na_terra":true},{"t":-1.39444,"lat":41.1588,"lon":-22.7482,"largura_km":301.703,"eixo_na_terra":true},{"t":-1.38889,"lat":41.3068,"lon":-22.4396,"largura_km":301.99,"eixo_na_terra":true},{"t":-1.38333,"lat":41.4534,"lon":-22.135,"largura_km":302.266,"eixo_na_terra":true},{"t":-1.37778,"lat":41.5987,"lon":-21.8343,"largura_km":302.531,"eixo_na_terra":true},{"t":-1.37222,"lat":41.7427,"lon":-21.5374,"largura_km":302.786,"eixo_na_terra":true},{"t":-1.36667,"lat":41.8855,"lon":-21.244,"largura_km":303.03,"eixo_na_terra":true},{"t":-1.36111,"lat":42.0272,"lon":-20.954,"largura_km":303.264,"eixo_na_terra":true},{"t":-1.35556,"lat":42.1677,"lon":-20.6672,"largura_km":303.489,"eixo_na_terra":true},{"t":-1.35,"lat":42.307,"lon":-20.3836,"largura_km":303.704,"eixo_na_terra":true},{"t":-1.34444,"lat":42.4453,"lon":-20.1031,"largura_km":303.91,"eixo_na_terra":true},{"t":-1.33889,"lat":42.5826,"lon":-19.8254,"largura_km":304.107,"eixo_na_terra":true},{"t":-1.33333,"lat":42.7189,"lon":-19.5505,"largura_km":304.295,"eixo_na_terra":true},{"t":-1.32778,"lat":42.8542,"lon":-19.2783,"largura_km":304.476,"eixo_na_terra":true},{"t":-1.32222,"lat":42.9885,"lon":-19.0087,"largura_km":304.648,"eixo_na_terra":true},{"t":-1.31667,"lat":43.1219,"lon":-18.7416,"largura_km":304.812,"eixo_na_terra":true},{"t":-1.31111,"lat":43.2545,"lon":-18.4769,"largura_km":304.969,"eixo_na_terra":true},{"t":-1.30556,"lat":43.3861,"lon":-18.2145,"largura_km":305.118,"eixo_na_terra":true},{"t":-1.3,"lat":43.5169,"lon":-17.9543,"largura_km":305.26,"eixo_na_terra":true},{"t":-1.29444,"lat":43.6469,"lon":-17.6963,"largura_km":305.395,"eixo_na_terra":true},{"t":-1.28889,"lat":43.7761,"lon":-17.4403,"largura_km":305.523,"eixo_na_terra":true},{"t":-1.28333,"lat":43.9045,"lon":-17.1864,"largura_km":305.645,"eixo_na_terra":true},{"t":-1.27778,"lat":44.0322,"lon":-16.9344,"largura_km":305.76,"eixo_na_terra":true},{"t":-1.27222,"lat":44.1591,"lon":-16.6843,"largura_km":305.869,"eixo_na_terra":true},{"t":-1.26667,"lat":44.2853,"lon":-16.436,"largura_km":305.972,"eixo_na_terra":true},{"t":-1.26111,"lat":44.4108,"lon":-16.1894,"largura_km":306.068,"eixo_na_terra":true},{"t":-1.25556,"lat":44.5355,"lon":-15.9446,"largura_km":306.159,"eixo_na_terra":true},{"t":-1.25,"lat":44.6596,"lon":-15.7013,"largura_km":306.245,"eixo_na_terra":true},{"t":-1.24444,"lat":44.7831,"lon":-15.4597,"largura_km":306.326,"eixo_na_terra":true},{"t":-1.23889,"lat":44.9059,"lon":-15.2196,"largura_km":306.401,"eixo_na_terra":true},{"t":-1.23333,"lat":45.0281,"lon":-14.9809,"largura_km":306.471,"eixo_na_terra":true},{"t":-1.22778,"lat":45.1496,"lon":-14.7437,"largura_km":306.536,"eixo_na_terra":true},{"t":-1.22222,"lat":45.2705,"lon":-14.5079,"largura_km":306.596,"eixo_na_terra":true},{"t":-1.21667,"lat":45.3909,"lon":-14.2734,"largura_km":306.651,"eixo_na_terra":true},{"t":-1.21111,"lat":45.5106,"lon":-14.0402,"largura_km":306.702,"eixo_na_terra":true},{"t":-1.20556,"lat":45.6298,"lon":-13.8083,"largura_km":306.748,"eixo_na_terra":true},{"t":-1.2,"lat":45.7484,"lon":-13.5776,"largura_km":306.789,"eixo_na_terra":true},{"t":-1.19444,"lat":45.8665,"lon":-13.348,"largura_km":306.826,"eixo_na_terra":true},{"t":-1.18889,"lat":45.9841,"lon":-13.1196,"largura_km":306.859,"eixo_na_terra":true},{"t":-1.18333,"lat":46.1011,"lon":-12.8923,"largura_km":306.888,"eixo_na_terra":true},{"t":-1.17778,"lat":46.2176,"lon":-12.6661,"largura_km":306.912,"eixo_na_terra":true},{"t":-1.17222,"lat":46.3335,"lon":-12.4408,"largura_km":306.933,"eixo_na_terra":true},{"t":-1.16667,"lat":46.449,"lon":-12.2166,"largura_km":306.95,"eixo_na_terra":true},{"t":-1.16111,"lat":46.564,"lon":-11.9934,"largura_km":306.963,"eixo_na_terra":true},{"t":-1.15556,"lat":46.6785,"lon":-11.771,"largura_km":306.972,"eixo_na_terra":true},{"t":-1.15,"lat":46.7925,"lon":-11.5496,"largura_km":306.978,"eixo_na_terra":true},{"t":-1.14444,"lat":46.9061,"lon":-11.3291,"largura_km":306.98,"eixo_na_terra":true},{"t":-1.13889,"lat":47.0191,"lon":-11.1093,"largura_km":306.979,"eixo_na_terra":true},{"t":-1.13333,"lat":47.1318,"lon":-10.8904,"largura_km":306.975,"eixo_na_terra":true},{"t":-1.12778,"lat":47.244,"lon":-10.6723,"largura_km":306.968,"eixo_na_terra":true},{"t":-1.12222,"lat":47.3557,"lon":-10.455,"largura_km":306.957,"eixo_na_terra":true},{"t":-1.11667,"lat":47.467,"lon":-10.2383,"largura_km":306.943,"eixo_na_terra":true},{"t":-1.11111,"lat":47.5779,"lon":-10.0224,"largura_km":306.926,"eixo_na_terra":true},{"t":-1.10556,"lat":47.6883,"lon":-9.8072,"largura_km":306.907,"eixo_na_terra":true},{"t":-1.1,"lat":47.7984,"lon":-9.5926,"largura_km":306.884,"eixo_na_terra":true},{"t":-1.09444,"lat":47.908,"lon":-9.3787,"largura_km":306.859,"eixo_na_terra":true},{"t":-1.08889,"lat":48.0173,"lon":-9.1653,"largura_km":306.832,"eixo_na_terra":true},{"t":-1.08333,"lat":48.1261,"lon":-8.9526,"largura_km":306.802,"eixo_na_terra":true},{"t":-1.07778,"lat":48.2345,"lon":-8.7404,"largura_km":306.769,"eixo_na_terra":true},{"t":-1.07222,"lat":48.3426,"lon":-8.5287,"largura_km":306.734,"eixo_na_terra":true},{"t":-1.06667,"lat":48.4502,"lon":-8.3176,"largura_km":306.696,"eixo_na_terra":true},{"t":-1.06111,"lat":48.5575,"lon":-8.107,"largura_km":306.656,"eixo_na_terra":true},{"t":-1.05556,"lat":48.6644,"lon":-7.8968,"largura_km":306.614,"eixo_na_terra":true},{"t":-1.05,"lat":48.771,"lon":-7.6872,"largura_km":306.57,"eixo_na_terra":true},{"t":-1.04444,"lat":48.8772,"lon":-7.4779,"largura_km":306.523,"eixo_na_terra":true},{"t":-1.03889,"lat":48.983,"lon":-7.2691,"largura_km":306.474,"eixo_na_terra":true},{"t":-1.03333,"lat":49.0884,"lon":-7.0607,"largura_km":306.423,"eixo_na_terra":true},{"t":-1.02778,"lat":49.1936,"lon":-6.8526,"largura_km":306.371,"eixo_na_terra":true},{"t":-1.02222,"lat":49.2983,"lon":-6.6449,"largura_km":306.316,"eixo_na_terra":true},{"t":-1.01667,"lat":49.4027,"lon":-6.4376,"largura_km":306.259,"eixo_na_terra":true},{"t":-1.01111,"lat":49.5068,"lon":-6.2306,"largura_km":306.2,"eixo_na_terra":true},{"t":-1.00556,"lat":49.6106,"lon":-6.0239,"largura_km":306.14,"eixo_na_terra":true},{"t":-1.0,"lat":49.714,"lon":-5.8175,"largura_km":306.077,"eixo_na_terra":true},{"t":-0.99444,"lat":49.817,"lon":-5.6114,"largura_km":306.013,"eixo_na_terra":true},{"t":-0.98889,"lat":49.9198,"lon":-5.4055,"largura_km":305.947,"eixo_na_terra":true}]},"features":[{"type":"Feature","properties":{},"geometry":{"type":"Polygon","coordinates":[[[-40.88027194352236,32.46210437832471],[-41.123359327332764,32.38377848584593],[-41.39058780682234,32.299878580787684],[-41.68590568275761,32.209314257069764],[-42.386158144214505,32.00116471350191],[-43.32230847845727,31.73205299212665],[-43.972044298474145,31.548730076236076],[-45.00920738334088,31.258895001302033],[-45.025804185125075,31.337494079201033],[-45.945541998960095,31.084754061119465],[-45.521816804959506,31.715212139686177],[-46.16869102152633,32.41905525595858],[-46.48583168817703,32.34225204935769],[-46.61882737010737,32.77648308250789],[-46.91685974153262,32.71661323962067],[-47.04667753143775,32.95662932539355],[-46.75308679849813,33.06050100572567],[-46.88447407868017,33.14368322988165],[-46.74384669593545,33.18467130508873],[-46.7498037819704,33.204121196889524],[-45.97012361118317,33.44007610336713],[-44.04607515502821,34.02924931525381],[-43.47188400571173,34.22386826644001],[-42.96383627685731,34.39145932242269],[-42.71127350632986,34.47310370607297],[-42.2091842588469,34.63196827817167],[-41.95973817808317,34.70913437979843],[-41.39424055496835,34.87943593474692],[-39.937007035886666,35.404863063944546],[-38.895354708266495,35.78439145202476],[-37.9693093683037,36.129860248928956],[-37.127862204060534,36.45023472526643],[-36.351692138975636,36.75110352335349],[-35.62779895255534,37.03622818059482],[-34.98803046574818,37.28983806714143],[-34.38207339050933,37.53334264706964],[-33.7674567402118,37.78560691165196],[-33.217468659418785,38.012305599522655],[-32.689820188640795,38.23224424239272],[-32.18208375196781,38.44613230867424],[-31.657939923817196,38.670751422290216],[-30.726980000020944,39.07268459953244],[-30.28219723388304,39.267259153519596],[-29.428558624632558,39.645227906373194],[-28.61701226534376,40.00999549476718],[-28.22520327141001,40.18796374699869],[-27.46651911224143,40.53594972385771],[-27.09861958083212,40.70626882618271],[-26.35579001979437,41.05415295331813],[-25.666390969726706,41.37970367946571],[-24.673534086029633,41.85436038470337],[-24.03602629013949,42.16259736012913],[-23.415939804484935,42.464890577600755],[-22.515169081342663,42.90815790275725],[-21.362278832346817,43.482149240429095],[-20.529063183967594,43.90123094697986],[-19.71947681217739,44.31150270903431],[-18.672453995954015,44.846084860456784],[-17.657869692089037,45.36777484516548],[-15.709539527281834,46.37718154294962],[-12.050089558932314,48.28409876643051],[-10.497385761058922,49.090698002042544],[-8.781541084763717,49.9749981584318],[-7.301853399209676,50.72918498614366],[-3.618474972660408,49.09005888799584],[-4.425482960150077,48.69183942506682],[-5.23706209686037,48.288517913714905],[-6.054240063210443,47.879883539719415],[-7.085273576541567,47.3612563028929],[-8.762675307888912,46.51206660843975],[-12.94806502351031,44.38384070326159],[-14.857493836770288,43.41939692045714],[-16.34049084366592,42.67689182621457],[-17.108269166520586,42.2955713878153],[-17.896136244608726,41.906821490789966],[-18.981867850339825,41.37580920160259],[-20.11385489382195,40.82861929673402],[-20.699616726281135,40.5482720791324],[-21.944877554885977,39.95979960940453],[-22.90402433775904,39.512703509230626],[-23.56850038210331,39.206579236562625],[-24.60828518113277,38.733738378304395],[-25.366817137184682,38.39472787375367],[-26.123630439543547,38.05971485198608],[-26.914602505428945,37.714243942301955],[-28.21444680658999,37.1584453157359],[-28.659311407243706,36.97083816969959],[-29.158336385836492,36.76400459377031],[-30.1227824688317,36.366649418591045],[-31.20618151511701,35.93145604747893],[-31.808100301087222,35.695144777452825],[-32.395059193902995,35.46794185394491],[-32.517318554289886,35.413103496399586],[-32.69462454654655,35.34119591272458],[-32.89186030296656,35.26861776242001],[-33.028881277586436,35.221880470291616],[-33.13856833205068,35.173827673888105],[-33.32417863873394,35.09960705234975],[-33.53081317415382,35.02438396801731],[-33.680987361484064,34.97362884570561],[-33.79619321437343,34.924087529371704],[-33.89108499776023,34.88579874492992],[-34.097682682917196,34.80813698480781],[-34.20934716459425,34.76879506893431],[-34.37522765709804,34.71328022073931],[-34.49697640092529,34.661978698624594],[-34.70412631212474,34.58176375732348],[-34.93532520261414,34.49964645535438],[-35.1203832525377,34.438368099289896],[-35.25007326247743,34.38493330765108],[-35.47169832023434,34.30069253511016],[-35.71957107556085,34.21390630793612],[-35.928734473970444,34.145446435175145],[-36.068364397442565,34.08934220787443],[-36.184765265275985,34.04508314829314],[-36.43936307854136,33.954024596580105],[-36.57771204720444,33.90720169991776],[-36.81839133215325,33.82943829618818],[-36.97099896429137,33.769845240035465],[-37.23556678978309,33.67366610718237],[-37.533823895178784,33.57280251123654],[-37.818104654500104,33.48229175771889],[-37.98872994495537,33.41784312710777],[-38.13353026037379,33.36569931904651],[-38.453136671317964,33.25653278360281],[-38.6286566774927,33.199329574548294],[-38.978836250349026,33.089748673855716],[-39.177056615787706,33.01783365776238],[-39.53208937308051,32.89650936715883],[-39.94237657357888,32.76442166968424],[-40.409403821600115,32.62139233869257],[-40.658436331376095,32.53565036812025],[-40.88027194352236,32.46210437832471]]]}}]}