{"type":"FeatureCollection","features":[{"type":"Feature","properties":{"t_inicio":-1.583333333333342,"t_fim":-0.9888888888888996},"geometry":{"type":"LineString","coordinates":[[-39.809399858471636,34.115667802210226],[-38.68477394522313,34.50474682051765],[-37.7089300905501,34.85113911977326],[-36.83655308053113,35.16773910564799],[-36.04144363737066,35.46200970289721],[-35.30683719512194,35.738731267578125],[-34.62123970766976,36.00118457483948],[-33.976364796688074,36.251737134837455],[-33.3660055430455,36.492164014674614],[-32.78537025092277,36.72383681407792],[-32.23066834156185,36.947841535233955],[-31.698840079197737,37.16505554920797],[-31.18737341711619,37.376199777627534],[-30.694175922582474,37.58187519919715],[-30.217482798507945,37.78258907946187],[-29.755789297636113,37.9787742534543],[-29.307800061576188,38.170803586286105],[-28.87239047701263,38.35900100867423],[-28.44857673930045,38.54365006983241],[-28.035492339764403,38.72500065818072],[-27.632369368718003,38.90327434800594],[-27.238523481243533,39.07866870066328],[-26.853341685407827,39.251360759881344],[-26.47627233131226,39.421509918430054],[-26.106816834940446,39.58926028909084],[-25.744522783063246,39.754742680862925],[-25.38897814766142,39.91807625791051],[-25.03980639923492,40.07936994138603],[-24.696662354049124,40.23872360123852],[-24.35922862497779,40.396229075241536],[-24.027212572103167,40.5519710449142],[-23.700343669698896,40.706027792166665],[-23.378371222176895,40.85847185594787],[-23.061062374105802,41.00937060459431],[-22.748200369330164,41.15878673674677],[-22.439583022124395,41.30677872144195],[-22.13502136966042,41.453401186173174],[-21.83433848019314,41.59870526025004],[-21.537368395528972,41.74273887959577],[-21.243955189744895,41.88554705814949],[-20.95395212891748,42.027172130240864],[-20.66722091892717,42.16765396764551],[-20.383631030316053,42.30703017448146],[-20.10305909076925,42.445336262651836],[-19.825388337126128,42.58260581015608],[-19.55050811994471,42.71887060427199],[-19.27831345459117,42.85416077133908],[-19.00870461362416,42.98850489464551],[-18.741586755926676,43.12193012172483],[-18.476869588615955,43.254462262202665],[-18.214467058260027,43.38612587719172],[-17.95429706835546,43.516944361110454],[-17.69628122038722,43.646940016695496],[-17.44034457610894,43.77613412388791],[-17.186415438956374,43.904547003193215],[-16.934425152744666,44.03219807404794],[-16.68430791600798,44.15910590866503],[-16.43600061052092,44.28528828177905],[-16.18944264269885,44.410762216665844],[-15.944575796715071,44.5355440277725],[-15.701344098292452,44.6596493602572],[-15.459693688236428,44.78309322670828],[-15.2195727048707,44.9058900412846],[-14.980931174620537,45.02805365149467],[-14.743720910063814,45.149597367810976],[-14.507895414834877,45.27053399129676],[-14.273409794826932,45.39087583940572],[-14.040220675188152,45.510634770099735],[-13.80828612265708,45.62982220441653],[-13.577565572821527,45.74844914760706],[-13.348019761924434,45.86652620895162],[-13.119610662873754,45.98406362035351],[-12.892301425142136,46.10107125380187],[-12.666056318271274,46.21755863778497],[-12.44084067871944,46.33353497273088],[-12.21662085981194,46.449009145544146],[-11.993364184576194,46.563989743302095],[-11.771038901259374,46.67848506616921],[-11.549614141343511,46.79250313958293],[-11.329059879888916,46.906051725760456],[-11.109346898048045,47.01913833457159],[-10.890446747607086,47.13177023381966],[-10.672331717420263,47.243954458969064],[-10.454974801615379,47.355697822355104],[-10.238349669456852,47.467006921909004],[-10.022430636760078,47.57788814942866],[-9.807192638761194,47.68834769842339],[-9.59261120435076,47.79839157155887],[-9.37866243158885,47.90802558772633],[-9.165322964422899,48.017255388759104],[-8.952569970536388,48.126086445816796],[-8.740381120261702,48.23452406545726],[-8.528734566494052,48.342573395414064],[-8.31760892554837,48.45023943009659],[-8.106983258905302,48.55752701582853],[-7.896837055795402,48.66444085583925],[-7.687150216574082,48.77098551502227],[-7.477903036843713,48.87716542447317],[-7.269076192281091,48.982984885819256],[-7.060650724132017,49.08844807535212],[-6.852608025336622,49.19355904797349],[-6.644929827251758,49.29832174096456],[-6.437598186938942,49.40273997758767],[-6.230595474987183,49.50681747052922],[-6.02390436384411,49.61055782519181],[-5.8175078166279945,49.71396454284354],[-5.61138907639679,49.81704102363116],[-5.405531655850666,49.919790569464276]]}}]}