{"type":"FeatureCollection","features":[{"type":"Feature","properties":{"magnitude":0.2,"de":0.2,"ate":0.5,"percentagem":20.0},"geometry":{"type":"Polygon","coordinates":[[[-34.5,30.0],[-28.875122209747296,30.0],[-25.78190896670197,30.659999999999982],[-24.17999999999961,30.938811207918157],[-22.61999999999955,31.170250154443714],[-19.43999999999943,31.523867851107493],[-16.139999999999304,31.731330840125167],[-13.13999999999919,31.78764897310804],[-10.019999999999072,31.721318212876817],[-6.839999999998952,31.531638069225885],[-3.5399999999988268,31.2142681540587],[-3.5399999999988268,41.76835515013593],[-7.679999999998984,42.03892657629554],[-9.719999999999061,42.113097509749245],[-11.759999999999138,42.14657498171603],[-13.739999999999213,42.13895276240919],[-15.719999999999288,42.09061637488249],[-17.699999999999363,42.00033061863298],[-19.619999999999436,41.871519920564666],[-21.53999999999951,41.700856918561385],[-23.45999999999958,41.48710226469423],[-25.319999999999652,41.23772046851721],[-27.179999999999723,40.94551319386694],[-29.039999999999793,40.60929462740417],[-30.839999999999865,40.240926078898255],[-32.69999999999993,39.81476793587617],[-34.5,39.35736672977268],[-34.5,30.0]]]}},{"type":"Feature","properties":{"magnitude":0.5,"de":0.5,"ate":0.8,"percentagem":50.0},"geometry":{"type":"Polygon","coordinates":[[[-28.875122209747296,30.0],[-3.5399999999988268,30.0],[-3.5399999999988268,31.2142681540587],[-6.959999999998956,31.540924754698395],[-10.319999999999084,31.732991463159983],[-13.559999999999206,31.787038544413726],[-16.739999999999327,31.705233817810026],[-19.859999999999445,31.486016620936958],[-22.919999999999558,31.12876576365567],[-25.919999999999675,30.63398738031765],[-28.875122209747296,30.0]]]}}]}