{"type":"FeatureCollection","properties":{"largura_maxima_km":409.54,"largura_sobre_pt_km":384.137,"linha_central_sobre_pt":false,"desenhavel_como_area":true,"perfil_largura":[{"t":0.8,"lat":26.5607,"lon":-39.976,"largura_km":383.253,"eixo_na_terra":true},{"t":0.80556,"lat":26.6149,"lon":-39.8702,"largura_km":383.115,"eixo_na_terra":true},{"t":0.81111,"lat":26.6693,"lon":-39.764,"largura_km":382.978,"eixo_na_terra":true},{"t":0.81667,"lat":26.7241,"lon":-39.6574,"largura_km":382.843,"eixo_na_terra":true},{"t":0.82222,"lat":26.7792,"lon":-39.5505,"largura_km":382.709,"eixo_na_terra":true},{"t":0.82778,"lat":26.8346,"lon":-39.4431,"largura_km":382.577,"eixo_na_terra":true},{"t":0.83333,"lat":26.8903,"lon":-39.3353,"largura_km":382.447,"eixo_na_terra":true},{"t":0.83889,"lat":26.9464,"lon":-39.2271,"largura_km":382.318,"eixo_na_terra":true},{"t":0.84444,"lat":27.0027,"lon":-39.1185,"largura_km":382.191,"eixo_na_terra":true},{"t":0.85,"lat":27.0594,"lon":-39.0094,"largura_km":382.066,"eixo_na_terra":true},{"t":0.85556,"lat":27.1165,"lon":-38.9,"largura_km":381.943,"eixo_na_terra":true},{"t":0.86111,"lat":27.1738,"lon":-38.7901,"largura_km":381.821,"eixo_na_terra":true},{"t":0.86667,"lat":27.2315,"lon":-38.6797,"largura_km":381.701,"eixo_na_terra":true},{"t":0.87222,"lat":27.2895,"lon":-38.5689,"largura_km":381.584,"eixo_na_terra":true},{"t":0.87778,"lat":27.3479,"lon":-38.4576,"largura_km":381.469,"eixo_na_terra":true},{"t":0.88333,"lat":27.4066,"lon":-38.3459,"largura_km":381.355,"eixo_na_terra":true},{"t":0.88889,"lat":27.4656,"lon":-38.2337,"largura_km":381.244,"eixo_na_terra":true},{"t":0.89444,"lat":27.525,"lon":-38.121,"largura_km":381.134,"eixo_na_terra":true},{"t":0.9,"lat":27.5848,"lon":-38.0078,"largura_km":381.027,"eixo_na_terra":true},{"t":0.90556,"lat":27.6449,"lon":-37.8941,"largura_km":380.921,"eixo_na_terra":true},{"t":0.91111,"lat":27.7053,"lon":-37.7799,"largura_km":380.817,"eixo_na_terra":true},{"t":0.91667,"lat":27.7662,"lon":-37.6652,"largura_km":380.716,"eixo_na_terra":true},{"t":0.92222,"lat":27.8273,"lon":-37.55,"largura_km":380.616,"eixo_na_terra":true},{"t":0.92778,"lat":27.8889,"lon":-37.4343,"largura_km":380.518,"eixo_na_terra":true},{"t":0.93333,"lat":27.9508,"lon":-37.318,"largura_km":380.423,"eixo_na_terra":true},{"t":0.93889,"lat":28.0131,"lon":-37.2012,"largura_km":380.329,"eixo_na_terra":true},{"t":0.94444,"lat":28.0757,"lon":-37.0838,"largura_km":380.238,"eixo_na_terra":true},{"t":0.95,"lat":28.1388,"lon":-36.9659,"largura_km":380.149,"eixo_na_terra":true},{"t":0.95556,"lat":28.2022,"lon":-36.8474,"largura_km":380.062,"eixo_na_terra":true},{"t":0.96111,"lat":28.266,"lon":-36.7283,"largura_km":379.977,"eixo_na_terra":true},{"t":0.96667,"lat":28.3302,"lon":-36.6086,"largura_km":379.895,"eixo_na_terra":true},{"t":0.97222,"lat":28.3948,"lon":-36.4883,"largura_km":379.815,"eixo_na_terra":true},{"t":0.97778,"lat":28.4597,"lon":-36.3674,"largura_km":379.737,"eixo_na_terra":true},{"t":0.98333,"lat":28.5251,"lon":-36.2459,"largura_km":379.661,"eixo_na_terra":true},{"t":0.98889,"lat":28.5909,"lon":-36.1238,"largura_km":379.588,"eixo_na_terra":true},{"t":0.99444,"lat":28.6571,"lon":-36.001,"largura_km":379.517,"eixo_na_terra":true},{"t":1.0,"lat":28.7237,"lon":-35.8776,"largura_km":379.448,"eixo_na_terra":true},{"t":1.00556,"lat":28.7907,"lon":-35.7535,"largura_km":379.382,"eixo_na_terra":true},{"t":1.01111,"lat":28.8582,"lon":-35.6287,"largura_km":379.318,"eixo_na_terra":true},{"t":1.01667,"lat":28.9261,"lon":-35.5033,"largura_km":379.257,"eixo_na_terra":true},{"t":1.02222,"lat":28.9944,"lon":-35.3771,"largura_km":379.198,"eixo_na_terra":true},{"t":1.02778,"lat":29.0631,"lon":-35.2503,"largura_km":379.141,"eixo_na_terra":true},{"t":1.03333,"lat":29.1323,"lon":-35.1227,"largura_km":379.088,"eixo_na_terra":true},{"t":1.03889,"lat":29.2019,"lon":-34.9944,"largura_km":379.037,"eixo_na_terra":true},{"t":1.04444,"lat":29.2719,"lon":-34.8654,"largura_km":378.989,"eixo_na_terra":true},{"t":1.05,"lat":29.3425,"lon":-34.7356,"largura_km":378.944,"eixo_na_terra":true},{"t":1.05556,"lat":29.4134,"lon":-34.605,"largura_km":378.901,"eixo_na_terra":true},{"t":1.06111,"lat":29.4849,"lon":-34.4737,"largura_km":378.862,"eixo_na_terra":true},{"t":1.06667,"lat":29.5568,"lon":-34.3415,"largura_km":378.825,"eixo_na_terra":true},{"t":1.07222,"lat":29.6292,"lon":-34.2086,"largura_km":378.79,"eixo_na_terra":true},{"t":1.07778,"lat":29.702,"lon":-34.0748,"largura_km":378.759,"eixo_na_terra":true},{"t":1.08333,"lat":29.7754,"lon":-33.9402,"largura_km":378.73,"eixo_na_terra":true},{"t":1.08889,"lat":29.8492,"lon":-33.8048,"largura_km":378.704,"eixo_na_terra":true},{"t":1.09444,"lat":29.9236,"lon":-33.6684,"largura_km":378.681,"eixo_na_terra":true},{"t":1.1,"lat":29.9984,"lon":-33.5312,"largura_km":378.661,"eixo_na_terra":true},{"t":1.10556,"lat":30.0738,"lon":-33.3931,"largura_km":378.644,"eixo_na_terra":true},{"t":1.11111,"lat":30.1496,"lon":-33.2541,"largura_km":378.629,"eixo_na_terra":true},{"t":1.11667,"lat":30.226,"lon":-33.1141,"largura_km":378.618,"eixo_na_terra":true},{"t":1.12222,"lat":30.303,"lon":-32.9732,"largura_km":378.61,"eixo_na_terra":true},{"t":1.12778,"lat":30.3804,"lon":-32.8313,"largura_km":378.605,"eixo_na_terra":true},{"t":1.13333,"lat":30.4584,"lon":-32.6884,"largura_km":378.603,"eixo_na_terra":true},{"t":1.13889,"lat":30.537,"lon":-32.5445,"largura_km":378.604,"eixo_na_terra":true},{"t":1.14444,"lat":30.6161,"lon":-32.3996,"largura_km":378.608,"eixo_na_terra":true},{"t":1.15,"lat":30.6958,"lon":-32.2537,"largura_km":378.615,"eixo_na_terra":true},{"t":1.15556,"lat":30.7761,"lon":-32.1067,"largura_km":378.626,"eixo_na_terra":true},{"t":1.16111,"lat":30.8569,"lon":-31.9586,"largura_km":378.64,"eixo_na_terra":true},{"t":1.16667,"lat":30.9384,"lon":-31.8094,"largura_km":378.658,"eixo_na_terra":true},{"t":1.17222,"lat":31.0204,"lon":-31.659,"largura_km":378.679,"eixo_na_terra":true},{"t":1.17778,"lat":31.1031,"lon":-31.5075,"largura_km":378.703,"eixo_na_terra":true},{"t":1.18333,"lat":31.1863,"lon":-31.3549,"largura_km":378.731,"eixo_na_terra":true},{"t":1.18889,"lat":31.2702,"lon":-31.201,"largura_km":378.762,"eixo_na_terra":true},{"t":1.19444,"lat":31.3548,"lon":-31.0459,"largura_km":378.798,"eixo_na_terra":true},{"t":1.2,"lat":31.44,"lon":-30.8896,"largura_km":378.837,"eixo_na_terra":true},{"t":1.20556,"lat":31.5258,"lon":-30.732,"largura_km":378.88,"eixo_na_terra":true},{"t":1.21111,"lat":31.6123,"lon":-30.573,"largura_km":378.927,"eixo_na_terra":true},{"t":1.21667,"lat":31.6995,"lon":-30.4128,"largura_km":378.978,"eixo_na_terra":true},{"t":1.22222,"lat":31.7874,"lon":-30.2512,"largura_km":379.033,"eixo_na_terra":true},{"t":1.22778,"lat":31.876,"lon":-30.0882,"largura_km":379.092,"eixo_na_terra":true},{"t":1.23333,"lat":31.9653,"lon":-29.9238,"largura_km":379.155,"eixo_na_terra":true},{"t":1.23889,"lat":32.0553,"lon":-29.7579,"largura_km":379.222,"eixo_na_terra":true},{"t":1.24444,"lat":32.1461,"lon":-29.5905,"largura_km":379.293,"eixo_na_terra":true},{"t":1.25,"lat":32.2376,"lon":-29.4216,"largura_km":379.368,"eixo_na_terra":true},{"t":1.25556,"lat":32.3299,"lon":-29.2512,"largura_km":379.448,"eixo_na_terra":true},{"t":1.26111,"lat":32.423,"lon":-29.0792,"largura_km":379.532,"eixo_na_terra":true},{"t":1.26667,"lat":32.5169,"lon":-28.9055,"largura_km":379.62,"eixo_na_terra":true},{"t":1.27222,"lat":32.6116,"lon":-28.7302,"largura_km":379.713,"eixo_na_terra":true},{"t":1.27778,"lat":32.7071,"lon":-28.5532,"largura_km":379.811,"eixo_na_terra":true},{"t":1.28333,"lat":32.8035,"lon":-28.3744,"largura_km":379.913,"eixo_na_terra":true},{"t":1.28889,"lat":32.9007,"lon":-28.1939,"largura_km":380.02,"eixo_na_terra":true},{"t":1.29444,"lat":32.9988,"lon":-28.0115,"largura_km":380.133,"eixo_na_terra":true},{"t":1.3,"lat":33.0978,"lon":-27.8272,"largura_km":380.25,"eixo_na_terra":true},{"t":1.30556,"lat":33.1977,"lon":-27.6409,"largura_km":380.372,"eixo_na_terra":true},{"t":1.31111,"lat":33.2986,"lon":-27.4527,"largura_km":380.499,"eixo_na_terra":true},{"t":1.31667,"lat":33.4004,"lon":-27.2625,"largura_km":380.631,"eixo_na_terra":true},{"t":1.32222,"lat":33.5031,"lon":-27.0702,"largura_km":380.769,"eixo_na_terra":true},{"t":1.32778,"lat":33.6069,"lon":-26.8757,"largura_km":380.913,"eixo_na_terra":true},{"t":1.33333,"lat":33.7117,"lon":-26.679,"largura_km":381.062,"eixo_na_terra":true},{"t":1.33889,"lat":33.8176,"lon":-26.4801,"largura_km":381.217,"eixo_na_terra":true},{"t":1.34444,"lat":33.9245,"lon":-26.2788,"largura_km":381.378,"eixo_na_terra":true},{"t":1.35,"lat":34.0325,"lon":-26.0752,"largura_km":381.545,"eixo_na_terra":true},{"t":1.35556,"lat":34.1416,"lon":-25.869,"largura_km":381.719,"eixo_na_terra":true},{"t":1.36111,"lat":34.2519,"lon":-25.6603,"largura_km":381.901,"eixo_na_terra":true},{"t":1.36667,"lat":34.3634,"lon":-25.449,"largura_km":382.09,"eixo_na_terra":true},{"t":1.37222,"lat":34.4761,"lon":-25.235,"largura_km":382.287,"eixo_na_terra":true},{"t":1.37778,"lat":34.59,"lon":-25.0182,"largura_km":382.491,"eixo_na_terra":true},{"t":1.38333,"lat":34.7052,"lon":-24.7986,"largura_km":382.702,"eixo_na_terra":true},{"t":1.38889,"lat":34.8218,"lon":-24.5759,"largura_km":382.921,"eixo_na_terra":true},{"t":1.39444,"lat":34.9396,"lon":-24.3502,"largura_km":383.147,"eixo_na_terra":true},{"t":1.4,"lat":35.0589,"lon":-24.1214,"largura_km":383.382,"eixo_na_terra":true},{"t":1.40556,"lat":35.1796,"lon":-23.8892,"largura_km":383.625,"eixo_na_terra":true},{"t":1.41111,"lat":35.3018,"lon":-23.6537,"largura_km":383.876,"eixo_na_terra":true},{"t":1.41667,"lat":35.4255,"lon":-23.4146,"largura_km":384.137,"eixo_na_terra":true},{"t":1.42222,"lat":35.5508,"lon":-23.1719,"largura_km":384.407,"eixo_na_terra":true},{"t":1.42778,"lat":35.6777,"lon":-22.9255,"largura_km":384.687,"eixo_na_terra":true},{"t":1.43333,"lat":35.8063,"lon":-22.6751,"largura_km":384.979,"eixo_na_terra":true},{"t":1.43889,"lat":35.9366,"lon":-22.4206,"largura_km":385.285,"eixo_na_terra":true},{"t":1.44444,"lat":36.0688,"lon":-22.1619,"largura_km":385.603,"eixo_na_terra":true},{"t":1.45,"lat":36.2028,"lon":-21.8988,"largura_km":385.933,"eixo_na_terra":true},{"t":1.45556,"lat":36.3387,"lon":-21.6311,"largura_km":386.275,"eixo_na_terra":true},{"t":1.46111,"lat":36.4766,"lon":-21.3586,"largura_km":386.63,"eixo_na_terra":true},{"t":1.46667,"lat":36.6167,"lon":-21.0811,"largura_km":386.999,"eixo_na_terra":true},{"t":1.47222,"lat":36.7589,"lon":-20.7984,"largura_km":387.383,"eixo_na_terra":true},{"t":1.47778,"lat":36.9033,"lon":-20.5102,"largura_km":387.788,"eixo_na_terra":true},{"t":1.48333,"lat":37.0502,"lon":-20.2162,"largura_km":388.215,"eixo_na_terra":true},{"t":1.48889,"lat":37.1995,"lon":-19.9163,"largura_km":388.661,"eixo_na_terra":true},{"t":1.49444,"lat":37.3513,"lon":-19.61,"largura_km":389.127,"eixo_na_terra":true},{"t":1.5,"lat":37.5059,"lon":-19.2971,"largura_km":389.615,"eixo_na_terra":true},{"t":1.50556,"lat":37.6634,"lon":-18.9772,"largura_km":390.132,"eixo_na_terra":true},{"t":1.51111,"lat":37.8238,"lon":-18.6499,"largura_km":390.683,"eixo_na_terra":true},{"t":1.51667,"lat":37.9873,"lon":-18.3148,"largura_km":391.263,"eixo_na_terra":true},{"t":1.52222,"lat":38.1542,"lon":-17.9714,"largura_km":391.875,"eixo_na_terra":true},{"t":1.52778,"lat":38.3246,"lon":-17.6192,"largura_km":392.54,"eixo_na_terra":true},{"t":1.53333,"lat":38.4987,"lon":-17.2576,"largura_km":393.249,"eixo_na_terra":true},{"t":1.53889,"lat":38.6768,"lon":-16.886,"largura_km":394.014,"eixo_na_terra":true},{"t":1.54444,"lat":38.859,"lon":-16.5037,"largura_km":394.853,"eixo_na_terra":true},{"t":1.55,"lat":39.0458,"lon":-16.1099,"largura_km":395.771,"eixo_na_terra":true},{"t":1.55556,"lat":39.2374,"lon":-15.7037,"largura_km":396.792,"eixo_na_terra":true},{"t":1.56111,"lat":39.4342,"lon":-15.2842,"largura_km":397.952,"eixo_na_terra":true},{"t":1.56667,"lat":39.6367,"lon":-14.8502,"largura_km":399.288,"eixo_na_terra":true},{"t":1.57222,"lat":39.8452,"lon":-14.4003,"largura_km":400.878,"eixo_na_terra":true},{"t":1.57778,"lat":40.0603,"lon":-13.9331,"largura_km":402.849,"eixo_na_terra":true},{"t":1.58333,"lat":40.2828,"lon":-13.4469,"largura_km":405.474,"eixo_na_terra":true},{"t":1.58889,"lat":40.5132,"lon":-12.9395,"largura_km":409.54,"eixo_na_terra":true},{"t":1.59444,"lat":42.3462,"lon":-9.3075,"largura_km":null,"eixo_na_terra":false},{"t":1.6,"lat":42.5699,"lon":-8.7176,"largura_km":null,"eixo_na_terra":false},{"t":1.60556,"lat":42.5708,"lon":-8.6186,"largura_km":null,"eixo_na_terra":false},{"t":1.61111,"lat":42.8036,"lon":-8.0073,"largura_km":null,"eixo_na_terra":false},{"t":1.61667,"lat":42.9031,"lon":-7.6619,"largura_km":null,"eixo_na_terra":false},{"t":1.62222,"lat":42.8841,"lon":-7.5598,"largura_km":null,"eixo_na_terra":false},{"t":1.62778,"lat":43.0931,"lon":-7.0467,"largura_km":null,"eixo_na_terra":false},{"t":1.63333,"lat":43.0425,"lon":-6.9237,"largura_km":null,"eixo_na_terra":false},{"t":1.63889,"lat":43.3525,"lon":-6.0622,"largura_km":null,"eixo_na_terra":false},{"t":1.64444,"lat":43.3459,"lon":-6.0646,"largura_km":null,"eixo_na_terra":false},{"t":1.65,"lat":43.1973,"lon":-6.1092,"largura_km":null,"eixo_na_terra":false},{"t":1.65556,"lat":43.4001,"lon":-5.4666,"largura_km":null,"eixo_na_terra":false},{"t":1.66111,"lat":43.3089,"lon":-5.6488,"largura_km":null,"eixo_na_terra":false},{"t":1.66667,"lat":43.4657,"lon":-5.1372,"largura_km":null,"eixo_na_terra":false},{"t":1.67222,"lat":43.654,"lon":-4.5404,"largura_km":null,"eixo_na_terra":false},{"t":1.67778,"lat":43.7241,"lon":-4.3762,"largura_km":null,"eixo_na_terra":false},{"t":1.68333,"lat":43.5287,"lon":-4.4804,"largura_km":null,"eixo_na_terra":false},{"t":1.68889,"lat":43.7553,"lon":-3.7711,"largura_km":null,"eixo_na_terra":false},{"t":1.69444,"lat":43.8717,"lon":-3.4915,"largura_km":null,"eixo_na_terra":false},{"t":1.7,"lat":43.8878,"lon":-3.0979,"largura_km":null,"eixo_na_terra":false},{"t":1.70556,"lat":44.1251,"lon":-2.5285,"largura_km":null,"eixo_na_terra":false},{"t":1.71111,"lat":44.1497,"lon":-2.2686,"largura_km":null,"eixo_na_terra":false},{"t":1.71667,"lat":44.3352,"lon":-1.6242,"largura_km":null,"eixo_na_terra":false},{"t":1.72222,"lat":44.3639,"lon":-1.3525,"largura_km":null,"eixo_na_terra":false},{"t":1.72778,"lat":44.7101,"lon":-0.2774,"largura_km":null,"eixo_na_terra":false},{"t":1.73333,"lat":45.076,"lon":0.8879,"largura_km":null,"eixo_na_terra":false}]},"features":[{"type":"Feature","properties":{},"geometry":{"type":"Polygon","coordinates":[[[-39.83303656141857,28.65294286850047],[-39.04732266768664,29.06259149049367],[-38.26813546489848,29.474298260497036],[-37.43273249107153,29.92023390472765],[-36.441319426037296,30.45467703936065],[-35.66892039162323,30.8741396431291],[-34.73255586610304,31.385301645303656],[-31.158326736703458,33.34668565236066],[-29.407305476037436,34.30338112690908],[-27.714707597720377,35.22122765099674],[-26.906166825387402,35.65619160182085],[-26.057022588866857,36.110171452176644],[-25.39035324765669,36.46439107527398],[-24.15947200525102,37.11185122362804],[-23.407328896172686,37.50441973034855],[-22.61674382864723,37.91382748085913],[-22.065861537404345,38.19708332176579],[-21.13436394500019,38.67065650137634],[-20.209282767180866,39.1375331355363],[-19.55733483028314,39.463509394561285],[-18.441541456461863,40.01346825430508],[-17.697475179450947,40.3772998739945],[-16.407923563214695,40.9971872787194],[-15.977670188295178,41.2025217804759],[-14.972891573541148,41.674441099530824],[-13.877580848430199,42.18128803445815],[-12.66780245918045,42.73202354400108],[-11.949719404282291,43.05222630493586],[-11.180805816176758,43.39119983721627],[-10.36764004289004,43.74031900800459],[-9.915010059610978,43.95462048880401],[-9.576461315729745,44.110484885248994],[-9.230330597025699,44.266385799853126],[-8.876525507640821,44.422303790516686],[-8.514932963982403,44.57822968894865],[-8.086458856295785,44.758516598122014],[-7.551693836960084,44.98713796304576],[-7.041432384836373,45.19893445242286],[-6.4483867541709685,45.44824729976242],[-5.815847191567162,45.70662773904471],[-5.13178750399473,45.988424097532615],[-3.428431025969246,46.671171227922876],[-2.5629513883466757,47.010484876417564],[-0.5455662689155361,47.785943663421364],[-0.540245637205528,47.77930409844978],[0.17536032944138924,48.048048390794726],[0.17796634564333508,48.04401255856484],[0.9687272887610732,48.3435416377396],[0.9397667246910449,47.92029795632209],[1.8686149592061838,48.23771853639979],[1.6256078061686103,47.32631595275913],[2.561357933670479,46.94650135079497],[1.8740924034379194,46.665123760585075],[3.323334327249569,45.76554168525263],[2.66445090979499,45.513657002057776],[3.0631073333166796,45.31073756564702],[2.074223308800357,44.93658703055135],[2.207685384529725,44.74273306522847],[2.0572045662942284,44.68590541690639],[2.175073793150517,44.57951166885701],[2.1457637326262504,44.56873870233486],[2.177971674288017,44.54548571921052],[0.4649759295984097,43.9296262806237],[-0.20888714044096446,43.68325374048427],[-2.0968835463572466,42.976251000112995],[-3.570108472206045,42.4092724884248],[-4.768303964576168,41.93819479883646],[-5.37195789406573,41.69541436598222],[-5.797288835781418,41.52645395411322],[-6.348443822345132,41.30118313865985],[-6.708908865555104,41.15608074409164],[-7.220919048100569,40.943840143069146],[-7.528737379952492,40.81851981326449],[-8.014330791245413,40.61467048696267],[-8.279063073791194,40.50582063165607],[-8.745052367134491,40.30794382365051],[-8.974878487133557,40.21259970917504],[-9.424513520776998,40.01965264669856],[-9.62543424463524,39.935620004650225],[-10.061065688311459,39.74686347857305],[-10.237630337951998,39.67246457134986],[-10.661029774813699,39.487352107460794],[-10.816779468049093,39.42127022250717],[-10.9996063945581,39.33973479101261],[-11.367077199142887,39.18056360166882],[-11.550387121570651,39.098138623355595],[-11.891906302811975,38.949155103474524],[-12.075450473066752,38.86598584402334],[-12.394041830091728,38.72606740381894],[-12.577615903910782,38.642277827014986],[-12.875793940297994,38.510485679227685],[-13.059229057639868,38.42618234891147],[-13.33911018262795,38.301721951126325],[-13.522266038374198,38.21699711274343],[-13.78565049890332,38.09918893160391],[-13.968409934479496,38.01412295703768],[-14.217331122179846,37.902165658251604],[-14.399108115473751,37.81704377998751],[-14.575714065247098,37.73659760807921],[-14.802153774142141,37.6372266371648],[-15.66459149791774,37.23651875509395],[-16.84393506624133,36.6785070822213],[-17.529101972244234,36.35155610790928],[-18.182333289408746,36.03707229854312],[-19.109523191179875,35.58610133272381],[-19.981538013741584,35.15711726617547],[-20.80564803602482,34.747461765217736],[-21.644642717487784,34.32503874339919],[-22.38712998382968,33.9489571267467],[-23.096566711411185,33.5867289686734],[-23.996717384650424,33.123210030514855],[-24.850465380283737,32.679721162063636],[-25.86045940556926,32.15050705555532],[-26.628013202969015,31.745255153065994],[-27.363558742850017,31.354621305367623],[-28.24261455057018,30.885128071226536],[-29.08150793784162,30.434734724353625],[-30.655261911476117,29.584965027660118],[-33.60361369903225,27.98545485051622],[-34.906972666443835,27.280118393864328],[-36.22754104829835,26.570785962682134],[-37.144475545369176,26.082874794484688],[-38.029544130579495,25.616731666216694],[-38.88636136915554,25.171018384097028],[-39.61540437205565,24.79686654392189],[-40.27228871517275,28.426496465904286],[-39.83303656141857,28.65294286850047]]]}}]}