{"type":"FeatureCollection","features":[{"type":"Feature","properties":{"t_inicio":0.799999999999983,"t_fim":1.661111111111091},"geometry":{"type":"LineString","coordinates":[[-39.97600868128791,26.560731494687733],[-39.870198836483695,26.614880823259796],[-39.764006387015115,26.66934052276191],[-39.65742545309911,26.724112746606],[-39.55045006518779,26.77919968753687],[-39.44307416174615,26.834603578492594],[-39.33529158696368,26.890326693490632],[-39.22709608839696,26.946371348541067],[-39.118481314541185,27.00273990258776],[-39.00944081232734,27.05943475847834],[-38.899968024542744,27.11645836396456],[-38.79005628717141,27.173813212733418],[-38.6796988266519,27.231501845471],[-38.568888757048654,27.28952685095963],[-38.45761907713384,27.347890867210094],[-38.34588266737637,27.40659658262998],[-38.23367228683378,27.465646737229584],[-38.120980569943754,27.525044123867016],[-38.00780002321076,27.58479158953392],[-37.894123021783855,27.64489203668335],[-37.779941805921055,27.705348424601613],[-37.66524847733555,27.766163770826058],[-37.55003499541911,27.827341152609932],[-37.43429317333738,27.888883708437273],[-37.3180146739914,27.950794639588974],[-37.20119100584057,28.0130772117629],[-37.083813518579944,28.07573475674947],[-36.9658733986665,28.138770674166086],[-36.847361664687696,28.20218843325208],[-36.72826916256486,28.26599157472699],[-36.60858656058488,28.33018371271516],[-36.48830434425224,28.39476853673936],[-36.36741281095317,28.459749813786427],[-36.24590206442389,28.525131390448067],[-36.12376200901372,28.590917195140513],[-36.000982343733796,28.65711124040622],[-35.87755255608147,28.72371762530146],[-35.75346191562991,28.790740537873827],[-35.62869946737209,28.85818425773371],[-35.50325402480695,28.92605315872414],[-35.377114162756584,28.994351711693707],[-35.25026820989993,29.063084487377377],[-35.12270424101081,29.1322561593902],[-34.99441006888446,29.201871507339867],[-34.86537323593831,29.271935420063322],[-34.735581005469726,29.342452898993844],[-34.605020352554504,29.413429061665088],[-34.47367795456694,29.484869145358825],[-34.34154018130266,29.556778510903733],[-34.20859308468388,29.629162646632818],[-34.07482238802422,29.702027172507805],[-33.940213474831495,29.77537784441909],[-33.804751377122415,29.849220558670492],[-33.66842076322399,29.92356135665857],[-33.531205925033476,29.998406429756994],[-33.39309076470701,30.073762124416792],[-33.25405878074585,30.149634947494913],[-33.11409305344631,30.226031571822862],[-32.97317622967745,30.302958842029355],[-32.83129050694842,30.380423780631116],[-32.688417616724564,30.45843359440709],[-32.544538806948395,30.53699568107242],[-32.39963482371917,30.616117636269436],[-32.253685892080455,30.69580726089449],[-32.10667169586287,30.77607256878044],[-31.95857135652409,30.85692179475622],[-31.809363410925016,30.938363403106216],[-31.659025787975793,31.020406096454277],[-31.507535784081057,31.103058825098493],[-31.354870037308302,31.186330796824922],[-31.201004500196888,31.270231487231225],[-31.045914411120236,31.354770650592354],[-30.889574264105534,31.43995833130389],[-30.7319577770088,31.525804875941116],[-30.573037857934423,31.61232094597447],[-30.412786569779996,31.69951753118626],[-30.251175092776634,31.787405963835717],[-30.08817368488556,31.87599793362511],[-29.923751639898597,31.96530550352207],[-29.757877243079093,32.0553411264997],[-29.59051772416393,32.14611766325972],[-29.421639207533417,32.237648401010944],[-29.251206659337583,32.329947073380566],[-29.07918383134944,32.42302788154299],[-28.905533201294446,32.516905516659115],[-28.73021590938302,32.61159518372624],[-28.553191690746786,32.70711262694921],[-28.37441880345193,32.80347415675294],[-28.193853951731228,32.900696678568636],[-28.01145220404169,32.998797723537436],[-27.827166905515753,33.097795481291534],[-27.64094958433185,33.19770883498627],[-27.45274985148029,33.29855739877564],[-27.26251529334803,33.40036155794363],[-27.07019135648403,33.50314251192477],[-26.87572122384057,33.60692232047286],[-26.67904568170769,33.71172395326482],[-26.48010297647332,33.817571343257235],[-26.278828660243676,33.92448944414949],[-26.07515542424889,34.032504292346815],[-25.86901291883379,34.141643073862404],[-25.660327558692586,34.251934196648925],[-25.449022311844487,34.36340736890884],[-25.235016470663368,34.47609368399971],[-25.018225403064292,34.59002571262708],[-24.798560281707722,34.705237603105665],[-24.575927788805302,34.821765190569884],[-24.35022979379002,34.93964611613174],[-24.12136300074573,35.058919957117126],[-23.889218562059256,35.17962836966849],[-23.653681654263266,35.30181524518161],[-23.414631011453764,35.42552688225501],[-23.17193841098836,35.5508121760776],[-22.925468105371323,35.67772282746825],[-22.675076193292227,35.80631357412216],[-22.420609921672764,35.93664244702085],[-22.161906909256146,36.068771055439726],[-21.89879428070148,36.202764904556176],[-21.631087698264537,36.33869375033963],[-21.358590275882676,36.47663199722411],[-21.081091357753138,36.61665914504684],[-20.798365140179357,36.75886029293395],[-20.510169111417923,36.903326709271795],[-20.216242279305817,37.05015647868691],[-19.916303150333732,37.19945523916216],[-19.610047416251064,37.351337025145206],[-19.297145294819558,37.50592523591544],[-18.977238459430055,37.6633537527573],[-18.64993647722352,37.823768233910165],[-18.314812656122882,37.987327623179254],[-17.97139917643375,38.15420591698568],[-17.619181350546228,38.3245942461719],[-17.257590812174527,38.49870334399216],[-16.885997380844913,38.676766491713806],[-16.50369927276202,38.85904306000643],[-16.109911228172024,39.045822800508965],[-15.703749986760897,39.23743109162548],[-15.284216349815011,39.43423541166069],[-14.850172795436663,39.636653409941964],[-14.400315221633804,39.845163086663185],[-13.933136818943808,40.06031579719197],[-13.446881217544956,40.282753102868234],[-12.939480743257917,40.51322895863994],[-12.40847355912669,40.75263946285306],[-11.850890141587143,41.00206358252522],[-11.263093973886043,41.26282025372947],[-10.640551657534814,41.536550709954746],[-9.977490014634299,41.82534117566971],[-9.266363867136704,42.1319131371233],[-8.496988612451418,42.459933178913424],[-7.655036788154433,42.814549525577085],[-6.719214986804559,43.20339863958223],[-5.655350837597069,43.63871165867277],[-4.401863241275407,44.14248563761251],[-2.8233092775125783,44.763000384470274],[-0.4452812832157349,45.668971847132205]]}}]}