{"type":"FeatureCollection","features":[{"type":"Feature","properties":{"magnitude":0.5,"de":0.5,"ate":0.8,"percentagem":50.0},"geometry":{"type":"MultiPolygon","coordinates":[[[[-20.074444034222154,30.0],[-15.899999999999295,32.09716037502976],[-11.81999999999914,34.03165011895368],[-7.679999999998984,35.87648662574649],[-3.5399999999988268,37.60461551554934],[-3.5399999999988268,30.0],[-20.074444034222154,30.0]]],[[[-34.5,37.590413253231105],[-34.5,44.939999999999685],[-20.216396647932452,44.93999999999969],[-23.219999999999573,43.46187130774708],[-26.399999999999693,41.848114258524234],[-34.5,37.590413253231105]]]]}},{"type":"Feature","properties":{"magnitude":0.8,"de":0.8,"ate":0.95,"percentagem":80.0},"geometry":{"type":"MultiPolygon","coordinates":[[[[-32.784000878714764,30.0],[-27.959999999999752,32.652174272925116],[-24.299999999999613,34.616288452371975],[-20.75999999999948,36.452025517615155],[-17.399999999999352,38.12563044830088],[-13.979999999999222,39.7551275341729],[-10.49999999999909,41.33457178768565],[-7.019999999998958,42.83475843222681],[-3.5399999999988268,44.2570388784176],[-3.5399999999988268,37.60461551554934],[-7.679999999998984,35.87648662574649],[-11.81999999999914,34.03165011895368],[-15.899999999999295,32.09716037502976],[-20.074444034222154,30.0],[-32.784000878714764,30.0]]],[[[-34.5,30.0],[-34.5,37.590413253231105],[-26.399999999999693,41.848114258524234],[-23.219999999999573,43.46187130774708],[-20.216396647932452,44.93999999999969],[-3.5399999999988268,44.939999999999685],[-3.5399999999988268,44.70917057480173],[-7.259999999998968,43.224655988506115],[-10.919999999999106,41.67940959092985],[-14.579999999999245,40.04876832696901],[-18.299999999999386,38.3041113238427],[-21.719999999999516,36.62511302345429],[-25.25999999999965,34.81792239200378],[-28.859999999999786,32.92064944265667],[-34.28843176775163,30.0],[-34.5,30.0]]]]}},{"type":"Feature","properties":{"magnitude":0.95,"de":0.95,"ate":0.99,"percentagem":95.0},"geometry":{"type":"Polygon","coordinates":[[[-34.28843176775163,30.0],[-32.784000878714764,30.0],[-27.959999999999752,32.652174272925116],[-24.299999999999613,34.616288452371975],[-20.75999999999948,36.452025517615155],[-17.399999999999352,38.12563044830088],[-13.979999999999222,39.7551275341729],[-10.49999999999909,41.33457178768565],[-7.019999999998959,42.83475843222681],[-3.5399999999988268,44.2570388784176],[-3.5399999999988268,44.70917057480173],[-7.1999999999989654,43.24928004058795],[-10.799999999999102,41.73142382117217],[-14.339999999999236,40.158318170397294],[-17.939999999999372,38.47673671828716],[-21.419999999999508,36.77514127809172],[-25.01999999999964,34.94246107902602],[-28.73999999999978,32.98465141764959],[-34.28843176775163,30.0]]]}}]}