{"type":"FeatureCollection","features":[{"type":"Feature","properties":{"t_inicio":1.2444444444444258,"t_fim":1.6277777777777578},"geometry":{"type":"LineString","coordinates":[[-39.957982148003396,30.892163907346223],[-39.71293888455844,30.880215829918612],[-39.46583527778097,30.867645820643375],[-39.21662511857468,30.85444181676284],[-38.96526044040522,30.84059131285951],[-38.71169142404116,30.82608133730471],[-38.45586629557306,30.81089842705935],[-38.197731217122765,30.795028600683622],[-37.937230169592084,30.77845732939711],[-37.6743048267316,30.761169506013697],[-37.40889441973164,30.743149411557564],[-37.14093559144908,30.7243806793439],[-36.87036223928507,30.704846256284778],[-36.59710534561489,30.68452836115336],[-36.321092794544285,30.663408439507585],[-36.042249173620945,30.641467114940596],[-35.760495558964465,30.6186841362842],[-35.47574928208894,30.595038320346138],[-35.187923676476686,30.570507489709726],[-34.89692780171214,30.54506840506391],[-34.60266614270154,30.518696691463536],[-34.305038281172386,30.491366757838797],[-34.00393853626781,30.46305170898188],[-33.699255570607534,30.433723249131095],[-33.390871957674705,30.403351576149163],[-33.07866370578631,30.371905265147088],[-32.76249973320341,30.339351140235216],[-32.44224128811226,30.30565413288409],[-32.1177413062326,30.270777125142715],[-31.788843697659814,30.234680775683444],[-31.455382553177515,30.197323326313235],[-31.117181258645843,30.158660386196875],[-30.774051504114084,30.118644690566363],[-30.425792171954242,30.077225830123353],[-30.07218808546625,30.034349946656157],[-29.713008595947628,29.989959389559797],[-29.348005982000075,29.94399232693084],[-28.976913629657673,29.896382303660378],[-28.599443955517046,29.8470577374069],[-28.21528602708807,29.79594134141516],[-27.82410282462314,29.742949460751525],[-27.425528076136715,29.68799130550943],[-27.019162581403037,29.630968060711208],[-26.604569920355146,29.571771847738077],[-26.181271415037855,29.51028450580988],[-25.748740180077164,29.446376153825124],[-25.306394051698987,29.37990348208443],[-24.853587125663495,29.31070770910095],[-24.38959955435999,29.238612119476585],[-23.91362514438748,29.1634190726979],[-23.424756145914216,29.08490633672959],[-22.92196441543868,29.00282255002239],[-22.404077835875654,28.91688154421227],[-21.86975044779453,28.82675515675134],[-21.317424112157482,28.732064010997778],[-20.7452785716614,28.63236551306957],[-20.151165308529386,28.5271379631093],[-19.53251826989211,28.41575912190047],[-18.886230732267336,28.297476664925135],[-18.20848114876398,28.171366418921902],[-17.494479494021988,28.036271567962913],[-16.738084671658413,27.89071100961099],[-15.93120251273018,27.732735238443876],[-15.062787683539312,27.559687545818313],[-14.117075150064807,27.36778113295386],[-13.070159360943649,27.151281617832158],[-11.882520606700666,26.900722084972998],[-10.479411208479917,26.59822155495369],[-8.679940413148074,26.20056971581059],[-5.566700941352508,25.48899271815191]]}}]}