{"type":"FeatureCollection","properties":{"largura_maxima_km":348.369,"largura_sobre_pt_km":344.799,"linha_central_sobre_pt":true,"desenhavel_como_area":true,"perfil_largura":[{"t":1.63333,"lat":25.0154,"lon":-27.186,"largura_km":328.274,"eixo_na_terra":true},{"t":1.63889,"lat":25.1547,"lon":-27.0025,"largura_km":328.519,"eixo_na_terra":true},{"t":1.64444,"lat":25.2952,"lon":-26.8166,"largura_km":328.767,"eixo_na_terra":true},{"t":1.65,"lat":25.4368,"lon":-26.6283,"largura_km":329.019,"eixo_na_terra":true},{"t":1.65556,"lat":25.5795,"lon":-26.4375,"largura_km":329.274,"eixo_na_terra":true},{"t":1.66111,"lat":25.7233,"lon":-26.2443,"largura_km":329.532,"eixo_na_terra":true},{"t":1.66667,"lat":25.8684,"lon":-26.0484,"largura_km":329.794,"eixo_na_terra":true},{"t":1.67222,"lat":26.0146,"lon":-25.8498,"largura_km":330.061,"eixo_na_terra":true},{"t":1.67778,"lat":26.1622,"lon":-25.6485,"largura_km":330.334,"eixo_na_terra":true},{"t":1.68333,"lat":26.311,"lon":-25.4444,"largura_km":330.611,"eixo_na_terra":true},{"t":1.68889,"lat":26.4611,"lon":-25.2373,"largura_km":330.895,"eixo_na_terra":true},{"t":1.69444,"lat":26.6126,"lon":-25.0271,"largura_km":331.183,"eixo_na_terra":true},{"t":1.7,"lat":26.7655,"lon":-24.8138,"largura_km":331.475,"eixo_na_terra":true},{"t":1.70556,"lat":26.9198,"lon":-24.5973,"largura_km":331.772,"eixo_na_terra":true},{"t":1.71111,"lat":27.0756,"lon":-24.3774,"largura_km":332.073,"eixo_na_terra":true},{"t":1.71667,"lat":27.233,"lon":-24.1541,"largura_km":332.379,"eixo_na_terra":true},{"t":1.72222,"lat":27.3919,"lon":-23.9271,"largura_km":332.689,"eixo_na_terra":true},{"t":1.72778,"lat":27.5524,"lon":-23.6965,"largura_km":333.005,"eixo_na_terra":true},{"t":1.73333,"lat":27.7147,"lon":-23.4619,"largura_km":333.325,"eixo_na_terra":true},{"t":1.73889,"lat":27.8786,"lon":-23.2234,"largura_km":333.65,"eixo_na_terra":true},{"t":1.74444,"lat":28.0444,"lon":-22.9807,"largura_km":333.985,"eixo_na_terra":true},{"t":1.75,"lat":28.212,"lon":-22.7336,"largura_km":334.327,"eixo_na_terra":true},{"t":1.75556,"lat":28.3815,"lon":-22.4821,"largura_km":334.674,"eixo_na_terra":true},{"t":1.76111,"lat":28.5531,"lon":-22.2258,"largura_km":335.027,"eixo_na_terra":true},{"t":1.76667,"lat":28.7267,"lon":-21.9647,"largura_km":335.386,"eixo_na_terra":true},{"t":1.77222,"lat":28.9025,"lon":-21.6984,"largura_km":335.753,"eixo_na_terra":true},{"t":1.77778,"lat":29.0805,"lon":-21.4268,"largura_km":336.13,"eixo_na_terra":true},{"t":1.78333,"lat":29.2609,"lon":-21.1496,"largura_km":336.513,"eixo_na_terra":true},{"t":1.78889,"lat":29.4437,"lon":-20.8665,"largura_km":336.905,"eixo_na_terra":true},{"t":1.79444,"lat":29.6291,"lon":-20.5773,"largura_km":337.304,"eixo_na_terra":true},{"t":1.8,"lat":29.8171,"lon":-20.2816,"largura_km":337.717,"eixo_na_terra":true},{"t":1.80556,"lat":30.0079,"lon":-19.9791,"largura_km":338.138,"eixo_na_terra":true},{"t":1.81111,"lat":30.2017,"lon":-19.6695,"largura_km":338.569,"eixo_na_terra":true},{"t":1.81667,"lat":30.3985,"lon":-19.3523,"largura_km":339.009,"eixo_na_terra":true},{"t":1.82222,"lat":30.5986,"lon":-19.0271,"largura_km":339.46,"eixo_na_terra":true},{"t":1.82778,"lat":30.8021,"lon":-18.6934,"largura_km":339.921,"eixo_na_terra":true},{"t":1.83333,"lat":31.0092,"lon":-18.3508,"largura_km":340.394,"eixo_na_terra":true},{"t":1.83889,"lat":31.2202,"lon":-17.9985,"largura_km":340.882,"eixo_na_terra":true},{"t":1.84444,"lat":31.4352,"lon":-17.6361,"largura_km":341.387,"eixo_na_terra":true},{"t":1.85,"lat":31.6546,"lon":-17.2627,"largura_km":341.91,"eixo_na_terra":true},{"t":1.85556,"lat":31.8786,"lon":-16.8775,"largura_km":342.449,"eixo_na_terra":true},{"t":1.86111,"lat":32.1076,"lon":-16.4798,"largura_km":343.004,"eixo_na_terra":true},{"t":1.86667,"lat":32.3419,"lon":-16.0683,"largura_km":343.577,"eixo_na_terra":true},{"t":1.87222,"lat":32.582,"lon":-15.6421,"largura_km":344.175,"eixo_na_terra":true},{"t":1.87778,"lat":32.8284,"lon":-15.1997,"largura_km":344.799,"eixo_na_terra":true},{"t":1.88333,"lat":33.0816,"lon":-14.7396,"largura_km":345.446,"eixo_na_terra":true},{"t":1.88889,"lat":33.3422,"lon":-14.2601,"largura_km":346.119,"eixo_na_terra":true},{"t":1.89444,"lat":33.6112,"lon":-13.7589,"largura_km":346.829,"eixo_na_terra":true},{"t":1.9,"lat":33.8893,"lon":-13.2337,"largura_km":347.58,"eixo_na_terra":true},{"t":1.90556,"lat":34.1777,"lon":-12.6814,"largura_km":348.369,"eixo_na_terra":true},{"t":1.91111,"lat":35.8392,"lon":-9.2988,"largura_km":null,"eixo_na_terra":false},{"t":1.91667,"lat":36.1763,"lon":-8.5648,"largura_km":null,"eixo_na_terra":false},{"t":1.92222,"lat":36.3247,"lon":-8.2245,"largura_km":null,"eixo_na_terra":false},{"t":1.92778,"lat":36.4678,"lon":-7.8841,"largura_km":null,"eixo_na_terra":false},{"t":1.93333,"lat":36.6508,"lon":-7.507,"largura_km":null,"eixo_na_terra":false},{"t":1.93889,"lat":36.6151,"lon":-7.4899,"largura_km":null,"eixo_na_terra":false},{"t":1.94444,"lat":37.0149,"lon":-6.6524,"largura_km":null,"eixo_na_terra":false},{"t":1.95,"lat":37.0183,"lon":-6.5934,"largura_km":null,"eixo_na_terra":false},{"t":1.95556,"lat":37.0131,"lon":-6.5551,"largura_km":null,"eixo_na_terra":false},{"t":1.96111,"lat":37.1737,"lon":-6.0328,"largura_km":null,"eixo_na_terra":false},{"t":1.96667,"lat":37.4035,"lon":-5.5886,"largura_km":null,"eixo_na_terra":false},{"t":1.97222,"lat":37.3375,"lon":-5.6772,"largura_km":null,"eixo_na_terra":false},{"t":1.97778,"lat":37.5038,"lon":-5.0912,"largura_km":null,"eixo_na_terra":false},{"t":1.98333,"lat":37.7349,"lon":-4.6499,"largura_km":null,"eixo_na_terra":false},{"t":1.98889,"lat":37.7405,"lon":-4.5737,"largura_km":null,"eixo_na_terra":false},{"t":1.99444,"lat":37.8184,"lon":-4.3284,"largura_km":null,"eixo_na_terra":false},{"t":2.0,"lat":37.9645,"lon":-3.9172,"largura_km":null,"eixo_na_terra":false},{"t":2.00556,"lat":38.1987,"lon":-3.2832,"largura_km":null,"eixo_na_terra":false},{"t":2.01111,"lat":38.4804,"lon":-2.6912,"largura_km":null,"eixo_na_terra":false},{"t":2.01667,"lat":38.6818,"lon":-2.1057,"largura_km":null,"eixo_na_terra":false},{"t":2.02222,"lat":39.0249,"lon":-0.9701,"largura_km":null,"eixo_na_terra":false},{"t":2.02778,"lat":39.4494,"lon":0.2104,"largura_km":null,"eixo_na_terra":false}]},"features":[{"type":"Feature","properties":{},"geometry":{"type":"Polygon","coordinates":[[[-27.135723023875755,26.989062207750287],[-26.740293625985657,27.284943791754472],[-26.28893402254559,27.618706873597546],[-25.86923965928355,27.925825019272054],[-25.436743627757323,28.2387804206627],[-24.990548045942347,28.557928999295033],[-24.529652292353603,28.883666130829905],[-23.808256986546553,29.385605134501684],[-22.99166952343927,29.9421110737057],[-22.45725620005473,30.300089318782277],[-22.18185644242419,30.482597743996973],[-21.613354338335768,30.85516321069055],[-21.319662508062635,31.045448025832744],[-20.647057860233843,31.475326577883457],[-20.006214514176094,31.878326082530215],[-19.673328162047852,32.084989995746625],[-18.979995999064215,32.509650066625305],[-18.618329112017932,32.728110998586764],[-18.168400696756493,32.99647798932917],[-17.781797519697847,33.22506613513826],[-17.382387145634596,33.4588056806952],[-16.969129295041853,33.69808909012569],[-16.540838872188232,33.94336257916717],[-16.096156198920283,34.19513708072555],[-15.538578447038901,34.506074765499136],[-15.052226342074277,34.774278576226415],[-14.543467110868448,35.0512351726376],[-14.009633453682483,35.33793859848794],[-13.332914042066136,35.69485379639107],[-12.732000816510379,36.00745891496495],[-12.092753895401302,36.33473190141975],[-12.093055155178748,36.332048918227244],[-11.816525547671858,36.47471009277297],[-11.546034483379913,36.610995492313315],[-11.244077409246469,36.75947924878478],[-10.81858765228111,36.9717223212265],[-10.465588052034146,37.14217883825976],[-10.027534152736166,37.35643087224722],[-9.156439777104879,37.771157038712424],[-8.180380488305047,38.22503523855037],[-7.058154912969314,38.73313270579078],[-6.5779655729541275,38.94582188825467],[-5.711869782037297,39.323872065171464],[-5.112212983326174,39.58064076545619],[-3.9533070856885786,40.06577535162358],[-3.079437653844991,40.42294760002046],[-1.9637524380409843,40.865803189048926],[-1.5078601196803474,41.039942235099275],[-0.8374517073664265,41.30194862665571],[-0.8357885460197705,41.29665615196381],[-0.08313965786683752,41.58414851389944],[-0.07884101827070492,41.56010970880355],[0.7839065636600822,41.88331682218887],[0.7610545818737416,40.99700269444209],[0.9229872642640942,41.047785865780476],[1.4227596452305136,40.25442241817708],[1.3392794763439504,40.21687888737035],[1.591625143327633,39.87795599415047],[1.0853846703212646,39.664974323733986],[1.2517068828047684,39.45727046368291],[1.1584674463840994,39.41809740586805],[1.4730535006016225,39.15323679612572],[1.0913327158378678,39.02848120483118],[1.1194649787322792,39.00679114986992],[1.734993989192617,38.61816542148879],[-0.2308479005440347,37.8908264516305],[-1.339505370728432,37.46553774152693],[-2.186826450815748,37.134636249769116],[-2.700513923492224,36.928126510937666],[-3.8560448221351886,36.457803043919355],[-5.134017797894447,35.91945739738416],[-6.20952766871869,35.45235451881428],[-7.156377098455133,35.03019992501725],[-8.00735646444778,34.64180496522977],[-8.78368663729589,34.279874730602295],[-9.191164747253595,34.08500231498768],[-9.499935388709744,33.93937165785709],[-9.90001376752997,33.74450587427822],[-10.166552669926721,33.61666708454695],[-10.559813838629282,33.42185840900203],[-10.786707613643054,33.311388692763536],[-11.178286082933937,33.114323027957965],[-11.369710586895648,33.019835709451165],[-11.761331267803484,32.8198041335237],[-11.922000413823108,32.73947395812271],[-12.313578756923619,32.53665455283369],[-12.531602384024769,32.426400264787134],[-12.53187053044826,32.424012185125605],[-13.04591096892733,32.15494864847191],[-13.537070939372171,31.89443337940411],[-14.007668134171467,31.641635952917532],[-14.45965878558016,31.395854158634048],[-14.894711836155409,31.156487809544718],[-15.3142646299857,30.92301905988695],[-15.719565456947606,30.694997356912125],[-16.491650056724126,30.25376173827338],[-17.146654527143596,29.872752860540032],[-17.496541240466513,29.66614925712019],[-18.16867608511879,29.263797173923358],[-18.491998776440255,29.06765570399681],[-19.115484519909415,28.684587637544226],[-19.41646056154434,28.497362166172948],[-19.998667247379075,28.13086926883103],[-20.280530248351454,27.9513681866588],[-20.827182927344126,27.599335439418756],[-21.298906196902777,27.291707307848636],[-21.555186585838896,27.122698462996528],[-22.29670386239937,26.62707209807339],[-22.770008548818765,26.305506446419724],[-23.22790962550431,25.99048532994617],[-23.671479757105487,25.68160410168205],[-24.101678499693207,25.37849968542319],[-24.519368242138796,25.08084479853649],[-24.882357465050433,24.819711541862276],[-25.27827512503154,24.531630561253326],[-25.663752225710397,24.248210806423025],[-26.039379135657043,23.969225677823545],[-26.40569617727172,23.694467223037122],[-27.89557589145059,26.411855090364902],[-27.52061672998812,26.698113055928502],[-27.135723023875755,26.989062207750287]]]}}]}