{"type":"FeatureCollection","features":[{"type":"Feature","properties":{"t_inicio":1.6333333333333133,"t_fim":1.9666666666666455},"geometry":{"type":"LineString","coordinates":[[-27.18604978393944,25.015362608779856],[-27.002469564128262,25.15474130245831],[-26.81656883326127,25.29519963405078],[-26.62828169885472,25.43676355038941],[-26.437539342814574,25.57946011295513],[-26.244269837628707,25.723317566505095],[-26.04839794750626,25.868365413257532],[-25.8498449129317,26.01463449319543],[-25.648528216914883,26.162157071118376],[-25.444361331002114,26.310966931151228],[-25.237253438869402,26.461099479506608],[-25.027109135034607,26.61259185640215],[-24.813828095899765,26.765483058151574],[-24.59730471995897,26.919814070585613],[-24.377427733568823,27.07562801511818],[-24.154079758172657,27.232970308956894],[-23.927136834276297,27.391888841172864],[-23.696467896781513,27.552434166595408],[-23.46193419546978,27.71465971979309],[-23.223388653471716,27.878622051749357],[-22.980675155425246,28.044381092251733],[-22.73362775568168,28.212000441500713],[-22.482069795318694,28.381547695023873],[-22.22581291480205,28.553094806675276],[-21.964655946837127,28.72671849533248],[-21.698383671169978,28.902500701910057],[-21.426765409724908,29.080529104527614],[-21.149553436352818,29.260897701157017],[-20.866481170418297,29.443707470896015],[-20.577261117235793,29.62906712726097],[-20.28158251064582,29.81709397967693],[-19.979108603385498,30.007914922819232],[-19.66947353879516,30.201667577829102],[-19.35227872205911,30.398501614954395],[-19.027088589604773,30.598580294217967],[-18.69342565009461,30.80208226978583],[-18.350764637751325,31.00920371547348],[-17.998525575914726,31.22016084423921],[-17.636065492014637,31.4351929149051],[-17.262668449239783,31.65456584662398],[-16.877533457380565,31.878576598539418],[-16.479759684280594,32.10755852272395],[-16.068328193085648,32.34188796890995],[-15.64207915319082,32.581992518989445],[-15.19968307430105,32.8283613721315],[-14.739604029573485,33.08155861045057],[-14.260051961643228,33.34224038756673],[-13.758919831000384,33.611177560124446],[-13.233699270872023,33.88928603215794],[-12.68136502374827,34.177668294397954],[-12.098212764686167,34.47767166773404],[-11.4796250520468,34.790972285077466],[-10.819722180722636,35.1197002627224],[-10.110820164547562,35.466633846144084],[-9.342547116972042,35.83551563488141],[-8.500311179743107,36.23160038494946],[-7.562422112765631,36.6626832821864],[-6.49405746371383,37.14125349143303],[-5.23241619860417,37.689788090296574],[-3.6391342382857204,38.35770325665296],[-1.2266911799317484,39.31870769300791]]}}]}