{"type":"FeatureCollection","features":[{"type":"Feature","properties":{"magnitude":0.2,"de":0.2,"ate":0.5,"percentagem":20.0},"geometry":{"type":"Polygon","coordinates":[[[-34.5,41.93999999999974],[-32.15999999999991,43.61832975200541],[-30.240933969461874,44.939999999999685],[-34.5,44.939999999999685],[-34.5,41.93999999999974]]]}},{"type":"Feature","properties":{"magnitude":0.5,"de":0.5,"ate":0.8,"percentagem":50.0},"geometry":{"type":"MultiPolygon","coordinates":[[[[-8.494900572383207,30.0],[-6.059999999998922,31.172562237515702],[-3.5399999999988268,32.30845653164711],[-3.5399999999988268,30.0],[-8.494900572383207,30.0]]],[[[-34.5,30.0],[-34.5,41.92442949266462],[-32.39999999999992,43.44881162426946],[-30.240933969461874,44.939999999999685],[-3.5399999999988268,44.939999999999685],[-3.5399999999988268,44.671335784962885],[-7.439999999998975,43.086321950169555],[-11.219999999999118,41.396849776355225],[-14.819999999999254,39.63299143330943],[-18.35999999999939,37.7357999167947],[-21.419999999999504,35.95290235157308],[-24.419999999999618,34.064314508686024],[-27.35999999999973,32.067160756278156],[-30.18742609692885,29.999999999999996],[-34.5,30.0]]]]}},{"type":"Feature","properties":{"magnitude":0.8,"de":0.8,"ate":0.95,"percentagem":80.0},"geometry":{"type":"MultiPolygon","coordinates":[[[[-19.553218461106628,30.0],[-17.63999999999936,31.17363580512714],[-15.719999999999288,32.2930612437847],[-13.799999999999216,33.357251861844624],[-11.81999999999914,34.40009293333998],[-9.779999999999063,35.41982929418058],[-7.739999999998986,36.38720760758426],[-5.639999999998906,37.33145712815527],[-3.5399999999988268,38.22631055750026],[-3.5399999999988268,32.30845653164711],[-6.059999999998922,31.172562237515702],[-8.494900572383207,30.0],[-19.553218461106628,30.0]]],[[[-30.179999999999836,30.005626536198623],[-27.179999999999723,32.19380081380345],[-24.059999999999604,34.298684783214114],[-20.879999999999484,36.27771944663888],[-17.63999999999936,38.13553757887508],[-14.279999999999234,39.90780738339171],[-10.799999999999102,41.59249949144103],[-7.199999999998965,43.188338589169575],[-3.5399999999988268,44.671335784962885],[-3.5399999999988268,38.56987984037789],[-5.759999999998911,37.64561491725713],[-7.996080013046317,36.659999999999854],[-10.139999999999077,35.66031109887025],[-12.299999999999159,34.59553235264205],[-14.399999999999238,33.50140125951896],[-16.439999999999316,32.37937459071791],[-18.47227991489918,31.199999999999974],[-20.43355286615899,30.0],[-30.179999999999836,30.005626536198623]]]]}},{"type":"Feature","properties":{"magnitude":0.95,"de":0.95,"ate":0.99,"percentagem":95.0},"geometry":{"type":"Polygon","coordinates":[[[-20.43355286615899,30.0],[-19.553218461106628,30.0],[-17.699999999999363,31.1377276188798],[-15.77999999999929,32.25893205108215],[-13.859999999999218,33.32480238459296],[-11.879999999999143,34.36927538589462],[-9.839999999999065,35.390598707652046],[-7.799999999998988,36.3594723428031],[-5.699999999998909,37.30517782935923],[-3.5399999999988268,38.22631055750026],[-3.5399999999988268,38.56987984037789],[-5.759999999998911,37.645614917257134],[-7.996080013046317,36.659999999999854],[-10.139999999999077,35.66031109887026],[-12.299999999999159,34.59553235264205],[-14.399999999999238,33.50140125951896],[-16.439999999999316,32.37937459071791],[-18.47227991489918,31.199999999999974],[-20.43355286615899,30.0]]]}}]}