{"type":"FeatureCollection","properties":{"largura_maxima_km":193.936,"largura_sobre_pt_km":183.773,"linha_central_sobre_pt":false,"desenhavel_como_area":true,"perfil_largura":[{"t":-1.55,"lat":28.8663,"lon":-15.7775,"largura_km":null,"eixo_na_terra":false},{"t":-1.54444,"lat":29.6404,"lon":-14.2169,"largura_km":null,"eixo_na_terra":false},{"t":-1.53889,"lat":30.0244,"lon":-13.5208,"largura_km":null,"eixo_na_terra":false},{"t":-1.53333,"lat":30.2676,"lon":-13.2919,"largura_km":null,"eixo_na_terra":false},{"t":-1.52778,"lat":30.6182,"lon":-12.6523,"largura_km":null,"eixo_na_terra":false},{"t":-1.52222,"lat":30.8833,"lon":-12.2867,"largura_km":null,"eixo_na_terra":false},{"t":-1.51667,"lat":31.2852,"lon":-11.584,"largura_km":null,"eixo_na_terra":false},{"t":-1.51111,"lat":31.6559,"lon":-10.9006,"largura_km":null,"eixo_na_terra":false},{"t":-1.50556,"lat":32.669,"lon":-8.4689,"largura_km":178.607,"eixo_na_terra":true},{"t":-1.5,"lat":33.1045,"lon":-7.5239,"largura_km":179.732,"eixo_na_terra":true},{"t":-1.49444,"lat":33.5012,"lon":-6.6665,"largura_km":180.888,"eixo_na_terra":true},{"t":-1.48889,"lat":33.8681,"lon":-5.8764,"largura_km":181.937,"eixo_na_terra":true},{"t":-1.48333,"lat":34.211,"lon":-5.1399,"largura_km":182.896,"eixo_na_terra":true},{"t":-1.47778,"lat":34.5341,"lon":-4.4475,"largura_km":183.773,"eixo_na_terra":true},{"t":-1.47222,"lat":34.8405,"lon":-3.7922,"largura_km":184.586,"eixo_na_terra":true},{"t":-1.46667,"lat":35.1324,"lon":-3.1685,"largura_km":185.344,"eixo_na_terra":true},{"t":-1.46111,"lat":35.4119,"lon":-2.5723,"largura_km":186.061,"eixo_na_terra":true},{"t":-1.45556,"lat":35.6802,"lon":-2.0001,"largura_km":186.735,"eixo_na_terra":true},{"t":-1.45,"lat":35.9387,"lon":-1.4493,"largura_km":187.371,"eixo_na_terra":true},{"t":-1.44444,"lat":36.1882,"lon":-0.9176,"largura_km":187.974,"eixo_na_terra":true},{"t":-1.43889,"lat":36.4298,"lon":-0.403,"largura_km":188.549,"eixo_na_terra":true},{"t":-1.43333,"lat":36.6639,"lon":0.096,"largura_km":189.1,"eixo_na_terra":true},{"t":-1.42778,"lat":36.8914,"lon":0.5808,"largura_km":189.629,"eixo_na_terra":true},{"t":-1.42222,"lat":37.1127,"lon":1.0527,"largura_km":190.137,"eixo_na_terra":true},{"t":-1.41667,"lat":37.3282,"lon":1.5126,"largura_km":190.623,"eixo_na_terra":true},{"t":-1.41111,"lat":37.5384,"lon":1.9616,"largura_km":191.091,"eixo_na_terra":true},{"t":-1.40556,"lat":37.7436,"lon":2.4003,"largura_km":191.541,"eixo_na_terra":true},{"t":-1.4,"lat":37.9441,"lon":2.8296,"largura_km":191.975,"eixo_na_terra":true},{"t":-1.39444,"lat":38.1403,"lon":3.25,"largura_km":192.394,"eixo_na_terra":true},{"t":-1.38889,"lat":38.3323,"lon":3.6621,"largura_km":192.799,"eixo_na_terra":true},{"t":-1.38333,"lat":38.5205,"lon":4.0665,"largura_km":193.19,"eixo_na_terra":true},{"t":-1.37778,"lat":38.7049,"lon":4.4636,"largura_km":193.569,"eixo_na_terra":true},{"t":-1.37222,"lat":38.8859,"lon":4.8539,"largura_km":193.936,"eixo_na_terra":true}]},"features":[{"type":"Feature","properties":{},"geometry":{"type":"Polygon","coordinates":[[[-15.495632297140986,28.680755326184347],[-16.013886514279193,28.461399810050473],[-15.98274982045187,28.6016333705355],[-16.060655881834517,28.64519277416151],[-16.571544644786115,28.434305968895234],[-16.541622133255647,28.620408902130503],[-16.98094689957827,28.439929267348674],[-16.855747667685236,29.08975027591337],[-17.234776342292605,29.30167554501357],[-17.06220876403327,29.37458694747541],[-17.328873138350957,29.493300276798195],[-17.10622251405393,29.595482883446138],[-17.164373369367297,29.63006378771281],[-15.806821642200305,30.227822156787475],[-14.98380835396558,30.588011328057018],[-14.339131635620049,30.887642142353645],[-13.631137367074246,31.210226515844006],[-13.181037180704664,31.410825997652676],[-12.537115431137103,31.69061090508006],[-9.948475187333713,32.89773878055595],[-8.877974137441583,33.398583754709264],[-7.922916700179599,33.84760873451142],[-5.574758473701934,34.95696896375527],[-3.0323249664905916,36.16618108459585],[0.563432527018108,37.880039526389254],[1.8944909667944216,38.51249029253229],[3.1435234940367422,39.103761983515234],[6.432747300538551,38.601326753716044],[4.894236398474334,37.89952428483336],[3.2398821949965964,37.14002897518571],[-2.3544902123886686,34.558125637653646],[-4.3528013187339525,33.63920560460978],[-5.1319068491118855,33.28314738132277],[-6.023976966944645,32.87850860307626],[-6.053512870315366,32.872443487215044],[-6.213265273347702,32.79109875717851],[-6.305081804723557,32.746328767103215],[-6.50126003056215,32.65446948166882],[-6.713922255276827,32.559633310936874],[-6.9899803640237135,32.44238307033968],[-7.200527015592968,32.33896434222632],[-7.414072494382083,32.239593738116135],[-7.646233198528478,32.13629905732033],[-7.95864555979358,32.00342195801203],[-8.196755179023114,31.887810030426458],[-8.434272540580025,31.7781152399187],[-8.561240455193115,31.72125704042743],[-8.831819904232816,31.60342211572336],[-9.058378017518258,31.507759242851346],[-9.336786598941785,31.37449355367277],[-9.610419474964488,31.249305930940853],[-9.912027092819642,31.11611952048135],[-10.360799372752359,30.92485312013309],[-10.706723541723761,30.762296003318777],[-11.044027338499404,30.609895265274236],[-11.423645755791483,30.443342041756303],[-12.04324566804212,30.17919387687168],[-12.32279418995995,30.050141960272114],[-12.542047723727933,29.950946534286466],[-13.04383780657082,29.72848558828907],[-13.661166921203119,29.46069258489774],[-14.035576762522112,29.300267419124612],[-15.14659218568661,28.828489529337162],[-15.492704269488797,28.677009916541813],[-15.495632297140986,28.680755326184347]]]}}]}