{"type":"FeatureCollection","features":[{"type":"Feature","properties":{"t_inicio":-1.5277777777777866,"t_fim":-1.3722222222222316},"geometry":{"type":"LineString","coordinates":[[-14.808714604141642,29.81165884808477],[-12.35105586491602,30.90436186704277],[-10.781866283542684,31.612445299909872],[-9.53451364349172,32.1804651562226],[-8.468871729937007,32.66900076473729],[-7.523919052702752,33.10447156175938],[-6.666543710723204,33.501233462213634],[-5.876398114202516,33.868120262104235],[-5.139920683609148,34.21102742093045],[-4.447537459370153,34.5341222780699],[-3.7921925207305662,34.840479998761396],[-3.1685089248945246,35.132446893796434],[-2.5722780664665947,35.41186166649538],[-2.0001328234263838,35.68019711624601],[-1.4493295930274144,35.93865469148548],[-0.9175979204120495,36.18822976030941],[-0.4030337456242705,36.42975797583591],[0.09597826151264144,36.663949028236836],[0.5808224138098694,36.89141174062457],[1.0526956934850205,37.112673077292484],[1.5126413658703655,37.3281927778266],[1.9615752202485623,37.53837478812368],[2.4003063222788796,37.7435763058968],[2.8295536185020183,37.94411502246756],[3.2499593629328842,38.14027498200999],[3.6621000786059312,38.3323113678814],[4.066495585371229,38.52045444689878],[4.463616495018755,38.70491284590384],[4.8538904800826685,38.88587629383288]]}}]}