{"type":"FeatureCollection","features":[{"type":"Feature","properties":{"magnitude":0.2,"de":0.2,"ate":0.5,"percentagem":20.0},"geometry":{"type":"Polygon","coordinates":[[[-34.5,30.0],[-20.362352608235184,30.0],[-19.824883908600754,31.739999999999966],[-19.39365783118451,33.53999999999992],[-19.063506879079068,35.399999999999885],[-18.8346630969284,37.319999999999844],[-18.714062357472052,39.2399999999998],[-18.700723810817173,41.15999999999976],[-18.797542319967377,43.07999999999972],[-19.002569065017347,44.939999999999685],[-25.400551895946187,44.939999999999685],[-25.408328008832925,43.9199999999997],[-25.46833963976634,42.959999999999724],[-25.58372294652342,41.999999999999744],[-25.74818271383954,41.09999999999977],[-25.958932465781633,40.25999999999978],[-26.219999999999686,39.46512616402623],[-26.519999999999694,38.75065448335855],[-26.87999999999971,38.07683587913606],[-27.239999999999725,37.54611353995601],[-27.644498138021543,37.07999999999985],[-28.079999999999757,36.70172248791492],[-28.499999999999773,36.43916554395513],[-31.189369001999733,35.399999999999885],[-34.5,34.21418998596682],[-34.5,30.0]]]}},{"type":"Feature","properties":{"magnitude":0.5,"de":0.5,"ate":0.8,"percentagem":50.0},"geometry":{"type":"Polygon","coordinates":[[[-34.5,44.939999999999685],[-34.5,34.21418998596682],[-32.66734461979608,34.8599999999999],[-28.67999999999978,36.353997117532764],[-28.320560250861526,36.539999999999864],[-28.019999999999754,36.74704567580071],[-27.719999999999743,37.00579132769908],[-27.41999999999973,37.323425141632725],[-26.939999999999714,37.97954233891849],[-26.544222062532942,38.69999999999982],[-26.192514023678676,39.53999999999979],[-25.89249536406267,40.49999999999977],[-25.664165508278565,41.519999999999754],[-25.49999999999966,42.64313035131494],[-25.412964266959293,43.799999999999706],[-25.400551895946187,44.939999999999685],[-34.5,44.939999999999685]]]}}]}