{"type":"FeatureCollection","features":[{"type":"Feature","properties":{"magnitude":0.4,"percentagem":40.0,"territorio":"continente"},"geometry":{"type":"LineString","coordinates":[[-10.243585485072042,36.0],[-10.220000000000006,36.01073635263873],[-10.180000000000007,36.02894195851763],[-10.15570026035453,36.040000000000006],[-10.140000000000008,36.047146781760745],[-10.100000000000009,36.0653527218677],[-10.067812295154294,36.08],[-10.06000000000001,36.08355608617547],[-10.02000000000001,36.101762291251376],[-9.980000000000011,36.11996414648211],[-9.979921205843201,36.12],[-9.940000000000012,36.13817052954694],[-9.900000000000013,36.15637254773157],[-9.89202780922439,36.16],[-9.860000000000014,36.17457729925883],[-9.820000000000014,36.19277941075967],[-9.804130468239899,36.199999999999996],[-9.780000000000015,36.21098246251894],[-9.740000000000016,36.22918459753532],[-9.716228782926601,36.239999999999995],[-9.700000000000017,36.24738588108839],[-9.660000000000018,36.26558796965739],[-9.628322351995953,36.279999999999994],[-9.620000000000019,36.28378741635898],[-9.58000000000002,36.301989388356176],[-9.540410772821444,36.31999999999999],[-9.54000000000002,36.320186929354875],[-9.500000000000021,36.33838871449528],[-9.460000000000022,36.35658594467482],[-9.452494787516143,36.35999999999999],[-9.420000000000023,36.37478580857321],[-9.380000000000024,36.392982748563384],[-9.364572895908772,36.39999999999999],[-9.340000000000025,36.41118053072475],[-9.300000000000026,36.42937710987517],[-9.276644628224535,36.43999999999999],[-9.260000000000026,36.447572740723096],[-9.220000000000027,36.465768888225625],[-9.18870957634478,36.47999999999999],[-9.180000000000028,36.483962297981286],[-9.140000000000029,36.50215794287105],[-9.100767330747955,36.51999999999999],[-9.10000000000003,36.520349061553965],[-9.06000000000003,36.53854413271028],[-9.020000000000032,36.55673447512197],[-9.012818545959533,36.55999999999999],[-8.980000000000032,36.57492731628638],[-8.940000000000033,36.59311698056399],[-8.924861846819006,36.59999999999999],[-8.900000000000034,36.611307351788625],[-8.860000000000035,36.629496266457565],[-8.836896705045385,36.639999999999986],[-8.820000000000036,36.64768409705407],[-8.780000000000037,36.66587219048705],[-8.748922705350914,36.67999999999999],[-8.740000000000038,36.6840574095696],[-8.700000000000038,36.70224460998749],[-8.660939430976894,36.719999999999985],[-8.66000000000004,36.72042714647364],[-8.62000000000004,36.73861338194641],[-8.580000000000041,36.75679471369024],[-8.572947478860636,36.759999999999984],[-8.540000000000042,36.77497836300583],[-8.500000000000043,36.793158624373866],[-8.48494553825118,36.79999999999998],[-8.460000000000043,36.811339409464075],[-8.420000000000044,36.82951852818478],[-8.396933051880834,36.83999999999998],[-8.380000000000045,36.84769637727766],[-8.340000000000046,36.86587428093193],[-8.308909596938847,36.87999999999998],[-8.300000000000047,36.8840491220634],[-8.260000000000048,36.90222573808557],[-8.220874749072854,36.91999999999998],[-8.220000000000049,36.92039749910032],[-8.18000000000005,36.93857275477898],[-8.14000000000005,36.956742930604435],[-8.132829082369696,36.95999999999998],[-8.100000000000051,36.97491518581072],[-8.060000000000052,36.99308389487191],[-8.04477128017168,36.99999999999998],[-8.020000000000053,37.01125288564647],[-7.980000000000054,37.029420054903554],[-7.956700790672556,37.03999999999998],[-7.940000000000055,37.04758570842131],[-7.900000000000055,37.06575126469224],[-7.868617183169285,37.07999999999998],[-7.860000000000056,37.08391350794154],[-7.820000000000057,37.102077377903186],[-7.780520025343063,37.119999999999976],[-7.780000000000057,37.120236137686895],[-7.74000000000006,37.138398247876054],[-7.70000000000006,37.156555101011094],[-7.692409906983758,37.159999999999975],[-7.6600000000000605,37.17471372762715],[-7.620000000000061,37.19286871362078],[-7.604285427327547,37.199999999999974],[-7.580000000000062,37.21102366985143],[-7.540000000000063,37.22917671492554],[-7.516146078494914,37.239999999999974],[-7.500000000000064,37.247327926924854],[-7.460000000000065,37.26547895716487],[-7.427991421504737,37.27999999999997],[-7.420000000000066,37.28362635090639],[-7.3800000000000665,37.30177529226238],[-7.340000000000067,37.319918832272464],[-7.339821039144084,37.31999999999997],[-7.300000000000068,37.33806557182817],[-7.260000000000069,37.356206914850205],[-7.251635507904344,37.35999999999997],[-7.22000000000007,37.37434964716091],[-7.180000000000071,37.392488718841655],[-7.163433329173092,37.39999999999997],[-7.140000000000072,37.41062736925022],[-7.1000000000000725,37.42876409510478],[-7.075214057045761,37.43999999999997],[-7.060000000000073,37.446898588778865],[-7.020000000000074,37.46503289419198],[-6.986977243860297,37.47999999999997],[-6.980000000000075,37.4831631561251],[-6.940000000000076,37.50129496635223],[-6.900000000000077,37.519421196258065],[-6.898722601610702,37.51999999999997],[-6.860000000000078,37.53755016153343],[-6.820000000000078,37.555673787282196],[-6.8104503931241975,37.55999999999997],[-6.780000000000079,37.57379832938492],[-6.74000000000008,37.59191927594341],[-6.7221592775005155,37.599999999999966],[-6.700000000000081,37.610039319259585],[-6.660000000000082,37.628157511469304],[-6.633848799816455,37.639999999999965],[-6.620000000000083,37.64627298021652],[-6.580000000000084,37.66438834279481],[-6.545518503307675,37.679999999999964],[-6.540000000000084,37.68249916102337],[-6.500000000000085,37.700611618564544],[-6.460000000000086,37.718718315924406],[-6.457168273594111,37.71999999999996],[-6.420000000000087,37.736827187135354],[-6.380000000000088,37.7549308696674],[-6.368797969112994,37.75999999999996],[-6.340000000000089,37.773034896578565],[-6.3000000000000895,37.79113548860397],[-6.280406451644085,37.79999999999996],[-6.26000000000009,37.80923459468278],[-6.220000000000091,37.827332020403865],[-6.1919932568088125,37.83999999999996],[-6.180000000000092,37.84542612895618],[-6.140000000000093,37.863520312457624],[-6.103557918299654,37.87999999999996],[-6.100000000000094,37.88160934662914],[-6.060000000000095,37.899700211879235],[-6.0200000000000955,37.91778513627612],[-6.015100539487273,37.91999999999996],[-5.980000000000096,37.935871565508705],[-5.940000000000097,37.95395306109333],[-5.926620483962452,37.95999999999996],[-5.900000000000098,37.97203421991457],[-5.860000000000099,37.99011221039807],[-5.838116861115276,37.99999999999996],[-5.8200000000001,38.00818802139653],[-5.780000000000101,38.026262430377955],[-5.749589196654613,38.03999999999996],[-5.7400000000001015,38.04433281598814],[-5.700000000000102,38.06240356695574],[-5.661037014268856,38.079999999999956],[-5.660000000000102,38.080468449459296],[-5.620000000000104,38.09853546579177],[-5.580000000000105,38.11659635986297],[-5.572460677638978,38.119999999999955],[-5.540000000000106,38.134657972286966]]}}]}