{"type":"FeatureCollection","features":[{"type":"Feature","properties":{"magnitude":0.2,"de":0.2,"ate":0.5,"percentagem":20.0},"geometry":{"type":"Polygon","coordinates":[[[-20.939999999999486,33.61693637901175],[-13.118772874501026,30.0],[-3.5399999999988268,30.0],[-3.5399999999988268,40.203458279772235],[-9.479999999999052,42.990735886434535],[-13.720908441146143,44.939999999999685],[-34.5,44.939999999999685],[-34.49999999999999,39.48215078120657],[-30.419999999999845,37.815267996938296],[-25.919999999999675,35.86614048686139],[-20.939999999999486,33.61693637901175]]]}},{"type":"Feature","properties":{"magnitude":0.5,"de":0.5,"ate":0.8,"percentagem":50.0},"geometry":{"type":"Polygon","coordinates":[[[-9.479999999999052,42.990735886434535],[-3.5399999999988268,40.203458279772235],[-3.5399999999988268,44.939999999999685],[-13.720908441146143,44.939999999999685],[-9.479999999999052,42.990735886434535]]]}}]}