{"type":"FeatureCollection","properties":{"largura_maxima_km":207.952,"largura_sobre_pt_km":194.127,"linha_central_sobre_pt":true,"desenhavel_como_area":true,"perfil_largura":[{"t":-2.29444,"lat":47.6736,"lon":-35.598,"largura_km":null,"eixo_na_terra":false},{"t":-2.28889,"lat":47.6035,"lon":-34.5278,"largura_km":null,"eixo_na_terra":false},{"t":-2.28333,"lat":47.5373,"lon":-33.5934,"largura_km":null,"eixo_na_terra":false},{"t":-2.27778,"lat":47.4482,"lon":-32.5457,"largura_km":null,"eixo_na_terra":false},{"t":-2.27222,"lat":47.4077,"lon":-31.9592,"largura_km":null,"eixo_na_terra":false},{"t":-2.26667,"lat":47.4018,"lon":-31.6678,"largura_km":null,"eixo_na_terra":false},{"t":-2.26111,"lat":47.2973,"lon":-30.8753,"largura_km":null,"eixo_na_terra":false},{"t":-2.25556,"lat":47.2816,"lon":-30.5793,"largura_km":null,"eixo_na_terra":false},{"t":-2.25,"lat":47.2205,"lon":-29.9137,"largura_km":null,"eixo_na_terra":false},{"t":-2.24444,"lat":47.1723,"lon":-29.2855,"largura_km":null,"eixo_na_terra":false},{"t":-2.23889,"lat":47.0692,"lon":-28.5335,"largura_km":null,"eixo_na_terra":false},{"t":-2.23333,"lat":46.9272,"lon":-27.4871,"largura_km":null,"eixo_na_terra":false},{"t":-2.22778,"lat":46.2888,"lon":-23.5959,"largura_km":207.952,"eixo_na_terra":true},{"t":-2.22222,"lat":46.0941,"lon":-22.5698,"largura_km":206.875,"eixo_na_terra":true},{"t":-2.21667,"lat":45.9053,"lon":-21.6189,"largura_km":205.878,"eixo_na_terra":true},{"t":-2.21111,"lat":45.7213,"lon":-20.7306,"largura_km":204.951,"eixo_na_terra":true},{"t":-2.20556,"lat":45.5417,"lon":-19.8954,"largura_km":204.077,"eixo_na_terra":true},{"t":-2.2,"lat":45.3657,"lon":-19.106,"largura_km":203.255,"eixo_na_terra":true},{"t":-2.19444,"lat":45.193,"lon":-18.3568,"largura_km":202.473,"eixo_na_terra":true},{"t":-2.18889,"lat":45.0232,"lon":-17.643,"largura_km":201.727,"eixo_na_terra":true},{"t":-2.18333,"lat":44.8561,"lon":-16.9609,"largura_km":201.016,"eixo_na_terra":true},{"t":-2.17778,"lat":44.6914,"lon":-16.3073,"largura_km":200.332,"eixo_na_terra":true},{"t":-2.17222,"lat":44.5289,"lon":-15.6796,"largura_km":199.671,"eixo_na_terra":true},{"t":-2.16667,"lat":44.3685,"lon":-15.0754,"largura_km":199.036,"eixo_na_terra":true},{"t":-2.16111,"lat":44.2099,"lon":-14.4927,"largura_km":198.424,"eixo_na_terra":true},{"t":-2.15556,"lat":44.0532,"lon":-13.93,"largura_km":197.83,"eixo_na_terra":true},{"t":-2.15,"lat":43.8981,"lon":-13.3856,"largura_km":197.253,"eixo_na_terra":true},{"t":-2.14444,"lat":43.7445,"lon":-12.8582,"largura_km":196.693,"eixo_na_terra":true},{"t":-2.13889,"lat":43.5924,"lon":-12.3468,"largura_km":196.153,"eixo_na_terra":true},{"t":-2.13333,"lat":43.4417,"lon":-11.8501,"largura_km":195.629,"eixo_na_terra":true},{"t":-2.12778,"lat":43.2923,"lon":-11.3674,"largura_km":195.116,"eixo_na_terra":true},{"t":-2.12222,"lat":43.1442,"lon":-10.8978,"largura_km":194.616,"eixo_na_terra":true},{"t":-2.11667,"lat":42.9972,"lon":-10.4405,"largura_km":194.127,"eixo_na_terra":true},{"t":-2.11111,"lat":42.8514,"lon":-9.9948,"largura_km":193.649,"eixo_na_terra":true},{"t":-2.10556,"lat":42.7066,"lon":-9.56,"largura_km":193.185,"eixo_na_terra":true},{"t":-2.1,"lat":42.563,"lon":-9.1357,"largura_km":192.73,"eixo_na_terra":true},{"t":-2.09444,"lat":42.4203,"lon":-8.7213,"largura_km":192.285,"eixo_na_terra":true},{"t":-2.08889,"lat":42.2785,"lon":-8.3163,"largura_km":191.851,"eixo_na_terra":true},{"t":-2.08333,"lat":42.1377,"lon":-7.9202,"largura_km":191.425,"eixo_na_terra":true},{"t":-2.07778,"lat":41.9978,"lon":-7.5327,"largura_km":191.007,"eixo_na_terra":true},{"t":-2.07222,"lat":41.8587,"lon":-7.1534,"largura_km":190.596,"eixo_na_terra":true},{"t":-2.06667,"lat":41.7205,"lon":-6.7818,"largura_km":190.197,"eixo_na_terra":true},{"t":-2.06111,"lat":41.5831,"lon":-6.4177,"largura_km":189.803,"eixo_na_terra":true},{"t":-2.05556,"lat":41.4464,"lon":-6.0608,"largura_km":189.417,"eixo_na_terra":true},{"t":-2.05,"lat":41.3106,"lon":-5.7108,"largura_km":189.036,"eixo_na_terra":true},{"t":-2.04444,"lat":41.1754,"lon":-5.3673,"largura_km":188.662,"eixo_na_terra":true},{"t":-2.03889,"lat":41.041,"lon":-5.0302,"largura_km":188.294,"eixo_na_terra":true},{"t":-2.03333,"lat":40.9072,"lon":-4.6992,"largura_km":187.934,"eixo_na_terra":true},{"t":-2.02778,"lat":40.7741,"lon":-4.3741,"largura_km":187.58,"eixo_na_terra":true},{"t":-2.02222,"lat":40.6417,"lon":-4.0547,"largura_km":187.234,"eixo_na_terra":true},{"t":-2.01667,"lat":40.5099,"lon":-3.7407,"largura_km":186.892,"eixo_na_terra":true},{"t":-2.01111,"lat":40.3787,"lon":-3.4321,"largura_km":186.555,"eixo_na_terra":true},{"t":-2.00556,"lat":40.2482,"lon":-3.1285,"largura_km":186.223,"eixo_na_terra":true},{"t":-2.0,"lat":40.1182,"lon":-2.8299,"largura_km":185.895,"eixo_na_terra":true},{"t":-1.99444,"lat":39.9888,"lon":-2.536,"largura_km":185.571,"eixo_na_terra":true},{"t":-1.98889,"lat":39.86,"lon":-2.2468,"largura_km":185.252,"eixo_na_terra":true},{"t":-1.98333,"lat":39.7317,"lon":-1.9621,"largura_km":184.937,"eixo_na_terra":true},{"t":-1.97778,"lat":39.604,"lon":-1.6817,"largura_km":184.631,"eixo_na_terra":true},{"t":-1.97222,"lat":39.4767,"lon":-1.4055,"largura_km":184.329,"eixo_na_terra":true},{"t":-1.96667,"lat":39.3501,"lon":-1.1334,"largura_km":184.031,"eixo_na_terra":true},{"t":-1.96111,"lat":39.2239,"lon":-0.8652,"largura_km":183.736,"eixo_na_terra":true},{"t":-1.95556,"lat":39.0982,"lon":-0.601,"largura_km":183.445,"eixo_na_terra":true},{"t":-1.95,"lat":38.973,"lon":-0.3404,"largura_km":183.158,"eixo_na_terra":true},{"t":-1.94444,"lat":38.8482,"lon":-0.0836,"largura_km":182.874,"eixo_na_terra":true},{"t":-1.93889,"lat":38.724,"lon":0.1698,"largura_km":182.593,"eixo_na_terra":true},{"t":-1.93333,"lat":38.6002,"lon":0.4197,"largura_km":182.315,"eixo_na_terra":true},{"t":-1.92778,"lat":38.4768,"lon":0.6662,"largura_km":182.04,"eixo_na_terra":true},{"t":-1.92222,"lat":38.3539,"lon":0.9095,"largura_km":181.771,"eixo_na_terra":true},{"t":-1.91667,"lat":38.2314,"lon":1.1496,"largura_km":181.507,"eixo_na_terra":true},{"t":-1.91111,"lat":38.1094,"lon":1.3865,"largura_km":181.246,"eixo_na_terra":true},{"t":-1.90556,"lat":37.9877,"lon":1.6205,"largura_km":180.988,"eixo_na_terra":true},{"t":-1.9,"lat":37.8665,"lon":1.8515,"largura_km":180.733,"eixo_na_terra":true},{"t":-1.89444,"lat":37.7457,"lon":2.0796,"largura_km":180.48,"eixo_na_terra":true},{"t":-1.88889,"lat":37.6253,"lon":2.3049,"largura_km":180.23,"eixo_na_terra":true},{"t":-1.88333,"lat":37.5052,"lon":2.5275,"largura_km":179.983,"eixo_na_terra":true},{"t":-1.87778,"lat":37.3856,"lon":2.7474,"largura_km":179.738,"eixo_na_terra":true},{"t":-1.87222,"lat":37.2663,"lon":2.9646,"largura_km":179.495,"eixo_na_terra":true},{"t":-1.86667,"lat":37.1475,"lon":3.1793,"largura_km":179.256,"eixo_na_terra":true},{"t":-1.86111,"lat":37.0289,"lon":3.3915,"largura_km":179.021,"eixo_na_terra":true},{"t":-1.85556,"lat":36.9108,"lon":3.6013,"largura_km":178.787,"eixo_na_terra":true},{"t":-1.85,"lat":36.793,"lon":3.8087,"largura_km":178.559,"eixo_na_terra":true},{"t":-1.84444,"lat":36.6755,"lon":4.0137,"largura_km":178.332,"eixo_na_terra":true},{"t":-1.83889,"lat":36.5584,"lon":4.2164,"largura_km":178.108,"eixo_na_terra":true},{"t":-1.83333,"lat":36.4417,"lon":4.4169,"largura_km":177.886,"eixo_na_terra":true},{"t":-1.82778,"lat":36.3252,"lon":4.6152,"largura_km":177.666,"eixo_na_terra":true},{"t":-1.82222,"lat":36.2092,"lon":4.8114,"largura_km":177.448,"eixo_na_terra":true}]},"features":[{"type":"Feature","properties":{},"geometry":{"type":"Polygon","coordinates":[[[-29.10554693452002,46.21123146246425],[-30.91287819714239,46.44781152555911],[-32.54804402452447,46.63761433555363],[-33.36538383394083,46.729292122991566],[-34.47215309732155,46.839196000856965],[-35.38232976030406,46.92533025080514],[-36.6380064212604,47.036420682708076],[-36.64005226187444,47.05685672765982],[-37.04741324881718,47.093932981694245],[-37.05294434197795,47.113259377285004],[-37.15776163905076,47.121132470131755],[-37.15956659911038,47.15030974187911],[-37.69330326711406,47.19881506014659],[-37.63327158312984,47.26605632853287],[-38.35894224296982,47.33114371139529],[-37.606168362605445,48.041852144882945],[-37.42994914755208,48.28045782516301],[-37.410852527478625,48.31020465894359],[-37.846037713052624,49.07987273769442],[-36.65098783344814,48.98153417068709],[-36.614949026904014,49.021729148059364],[-36.57241663532455,49.017837218057025],[-36.56557986238147,49.02429194810974],[-35.16004987805593,48.88945973111972],[-34.901293755690176,48.86213253038538],[-34.29660676947293,48.802155913018076],[-33.49845027819151,48.71761878436781],[-32.802355789698424,48.6394367619924],[-32.17666928202749,48.56524040021691],[-31.603604453043772,48.49371489855816],[-31.310041924714326,48.455243642214015],[-30.67337404042604,48.37649438935039],[-30.21652740659306,48.316796132604914],[-29.780516164581,48.25731525738174],[-29.36299589368781,48.19791039353376],[-29.06094333825164,48.153129592986936],[-28.656926748647834,48.09728662249715],[-28.29574668253406,48.04513884226431],[-27.944569432311255,47.992385363721645],[-27.283679050408765,47.887227230486616],[-26.710612484756325,47.79950874588734],[-26.115667141646725,47.701349563698855],[-25.601070848002642,47.61014426153004],[-25.607119836761,47.61521934801161],[-24.236040775662786,47.37484789237373],[-23.005868194567142,47.1455540763385],[-21.9861739310586,46.94491002566175],[-20.94435963657901,46.73083568694205],[-20.064684039676308,46.541845198799415],[-19.23637490031217,46.35719834915371],[-18.372362723179265,46.157977507528756],[-17.631447075411074,45.98090028096733],[-16.92481689388933,45.80683560282242],[-16.248899135892657,45.63550331455574],[-15.533338869440911,45.4492465725615],[-14.912781830900713,45.282966095424435],[-14.315023801091115,45.11879165135948],[-13.738212323664357,44.956575698997256],[-13.180731596880833,44.79618900493757],[-12.584356279072551,44.62093321881998],[-12.063093974902529,44.464065743772586],[-11.557262338869407,44.308712086178836],[-11.065874477815157,44.154791929800815],[-10.588043254123647,44.00223274640805],[-10.122967679748683,43.850968747205805],[-9.621668480255153,43.68507731694061],[-9.181128906024014,43.536373583673615],[-8.751294735101226,43.38879443247352],[-8.331618197036732,43.24229401258609],[-7.9215958349301445,43.096829975699684],[-7.520763631846648,42.95236309778774],[-7.086547118836734,42.79350592818881],[-6.328776334370161,42.50947314665027],[-5.601499452845928,42.22889071037621],[-4.9022550998650445,41.95154476466248],[-4.192669798287909,41.662474069616316],[-3.544466018691651,41.391239391891844],[-2.918467859006057,41.12272315630992],[-2.313179573693617,40.856789866650786],[-1.7272598149604619,40.59331671815699],[-1.409826911785217,40.44820995587731],[-0.8516070080599434,40.18837287800109],[-0.578748068667494,40.05928215862589],[-0.04492945823312766,39.80269923322275],[0.4737651302286281,39.54817671166365],[1.0058227958229509,39.28177535897926],[1.252553418620323,39.15628959873946],[1.4959965009829261,39.031270692935145],[1.9733554901682737,38.782600233200185],[2.207430950330888,38.658932778332705],[2.6667499931414795,38.41289563256091],[3.334694992952393,38.0469781505874],[3.5762019787708823,37.912386975638604],[4.002634397983286,37.67134932320009],[4.624028015668955,37.31264207997246],[5.22476153254064,36.95722201343659],[4.371866750865308,35.484320802117175],[3.781403327265309,35.82785323749584],[3.3768485189645503,36.05847361301431],[2.9864661894303026,36.27729003319218],[2.5636486968118106,36.51049153871811],[2.130828724060052,36.74509212732107],[1.6875363115447044,36.98113548072344],[1.2332665731117913,37.21866803964352],[0.767475951627091,37.45773928044241],[0.3163996951976742,37.68486185308608],[-0.17357067924996272,37.92705194344416],[-0.6769330778201947,38.17094646206],[-0.9338664322558543,38.29355298819319],[-1.4587336034907707,38.540127519788044],[-1.998982967608299,38.788578665002994],[-2.2751630330237163,38.9135323899813],[-2.8087328796150928,39.1508714168655],[-3.3907612689060898,39.40422543734356],[-3.6888235364992283,39.531713048567525],[-4.299840909094371,39.788374868990836],[-4.613141258468318,39.91757719662048],[-4.93188262492032,40.04738042127265],[-5.550124563065651,40.29431911013419],[-6.227741137487271,40.558217023962506],[-6.576227803045811,40.69118745940221],[-7.293897950319149,40.959276262261824],[-7.6636732906695215,41.094440646125996],[-8.426746716794469,41.36713609996404],[-8.820776411363227,41.504723210384604],[-9.590809515442004,41.76713767012369],[-10.011759746778182,41.90730387463681],[-10.442961902417721,42.04844101557785],[-10.884979868447033,42.19059115639629],[-11.338430320355144,42.33380008596961],[-11.803989941013072,42.47811781964638],[-12.282403962505612,42.623599191532264],[-12.7744963416298,42.770304559284966],[-13.226067665084202,42.902057150362765],[-13.746696944913822,43.05124180063298],[-14.283958327650168,43.20186399201032],[-14.839125508659606,43.354015417877896],[-15.41364239909268,43.50779960106825],[-16.0091569167505,43.663334218232386],[-16.62756394150483,43.82075405164344],[-17.27106067258393,43.98021478945049],[-17.942219070816407,44.14189799391789],[-18.644082315479295,44.30601771019577],[-19.300433439201527,44.45451857356607],[-20.071166552337445,44.62396049485009],[-20.885524043524015,44.79673881609743],[-21.750233498947466,44.973320167036654],[-22.673957558847803,45.15430351240029],[-22.685994432653878,45.16440241950259],[-23.241862585824265,45.26161291882689],[-23.668178883839744,45.34048040428027],[-23.94823384198635,45.39401941954501],[-24.513702729394424,45.491130690165946],[-25.026884097690946,45.5833616844838],[-25.678355142565636,45.68952209162374],[-26.213146811892532,45.78011965625136],[-26.69477043201198,45.85341589638637],[-27.538436465880952,45.986151510943415],[-29.10554693452002,46.21123146246425]]]}}]}