{"type":"FeatureCollection","features":[{"type":"Feature","properties":{"t_inicio":-1.116666666666677,"t_fim":0.4055555555555399},"geometry":{"type":"LineString","coordinates":[[-39.817658278333255,35.67005711455685],[-39.61624991701808,35.724410302158766],[-39.41549558697278,35.77816268519948],[-39.21538479547115,35.83131952903894],[-39.01590729863065,35.883885981951984],[-38.8170530938244,35.935867078658276],[-38.61881241238464,35.987267743717155],[-38.4211757125841,36.03809279479394],[-38.224133672882374,36.088346945803046],[-38.027677185424636,36.138034809934105],[-37.83179734978205,36.18716090256608],[-37.63648546692207,36.23572964407425],[-37.44173303339869,36.2837453625353],[-37.24753173575266,36.33121229633446],[-37.0538734451128,36.37813459667934],[-36.86075021198866,36.42451633002439],[-36.66815426124742,36.47036148040989],[-36.47607798726597,36.51567395171897],[-36.28451394925116,36.56045756985623],[-36.09345486672129,36.604716084851354],[-35.902893615141124,36.64845317289063],[-35.71282322170538,36.69167243827954],[-35.523236861263,36.734377415339154],[-35.33412785237746,36.776571570238914],[-35.14548965351716,36.81825830276882],[-34.957315859370624,36.85944094805282],[-34.769600197281164,36.90012277820622],[-34.58233652379701,36.94030700393916],[-34.39551882133131,36.97999677610826],[-34.20914119492835,37.01919518721848],[-34.02319786913171,37.05790527287705],[-33.83768318494975,37.096130013201595],[-33.65259159691607,37.133872334183586],[-33.46791767023933,37.17113510900963],[-33.28365607804085,37.207921159341396],[-33.099801598675526,37.244233256556285],[-32.916349113133265,37.28007412295007],[-32.73329360251802,37.315446432902654],[-32.5506301456013,37.35035281400906],[-32.368353916447745,37.384795848175834],[-32.186460182109556,37.41877807268513],[-32.00494430038802,37.45230198122694],[-31.823801717658824,37.48537002490089],[-31.643027966759803,37.51798461318873],[-31.46261866493805,37.550148114898185],[-31.28256951185469,37.58186285907981],[-31.102876287645387,37.613131135916944],[-30.923534851034304,37.64395519759047],[-30.744541137499652,37.67433725911876],[-30.56589115748963,37.704279499173815],[-30.38758099468609,37.733784060874314],[-30.209606804315,37.76285305255645],[-30.031964811501894,37.7914885485233],[-29.854651309670686,37.81969258977323],[-29.677662658984445,37.847467184708265],[-29.5009952848269,37.87481430982298],[-29.32464567632306,37.90173591037453],[-29.14861038489761,37.928233901034346],[-28.972886022870426,37.954310166522305],[-28.797469262087077,37.97996656222374],[-28.622356832583904,38.005204914789786],[-28.447545521286344,38.030027022721946],[-28.273032170739327,38.05443465694068],[-28.098813677868748,38.078429561339455],[-27.924886992773168,38.10201345332364],[-27.75124911754466,38.12518802433572],[-27.57789710511784,38.14795494036644],[-27.404828058146336,38.17031584245278],[-27.23203912790592,38.192272347163055],[-27.059527513223003,38.213826047069304],[-26.887290459428357,38.23497851120766],[-26.715325257334854,38.25573128552686],[-26.543629242238666,38.276085893325316],[-26.372199792943036,38.29604383567699],[-26.20103433080436,38.31560659184653],[-26.03013031879928,38.33477561969383],[-25.859485260612786,38.35355235606846],[-25.689096699746273,38.37193821719409],[-25.51896221864513,38.38993459904336],[-25.349079437845404,38.407542877703335],[-25.179446015138637,38.42476440973185],[-25.01005964475479,38.44160053250499],[-24.840918056562344,38.45805256455598],[-24.672019015285343,38.4741218059056],[-24.50336031973663,38.48980953838465],[-24.334939802067282,38.505117025948195],[-24.16675532703124,38.52004551498229],[-23.998804791264917,38.53459623460314],[-23.831086122581667,38.54877039694883],[-23.663597279280083,38.56256919746406],[-23.496336249466424,38.57599381517784],[-23.32930105039017,38.589045412974464],[-23.162489727792718,38.60172513785784],[-22.995900355268816,38.61403412120947],[-22.829531033640166,38.62597347904],[-22.663379890341275,38.637544312234894],[-22.49744507881661,38.648747706794],[-22.33172477792951,38.65958473406519],[-22.166217191381804,38.670056450972666],[-22.00092054714449,38.680163900239506],[-21.83583309689851,38.68990811060471],[-21.670953115486157,38.69929009703527],[-21.506278900371996,38.70831086093295],[-21.341808771113705,38.71697139033594],[-21.17754106884226,38.725272660115934],[-21.013474155751197,38.7332156321699],[-20.84960641459486,38.74080125560779],[-20.685936248195418,38.74803046693526],[-20.522462078958142,38.75490419023204],[-20.359182348395137,38.761423337325915],[-20.19609551665704,38.76758880796263],[-20.03320006207244,38.77340148997137],[-19.87049448069513,38.778862259426276],[-19.707977285858618,38.78397198080403],[-19.545647007737927,38.7887315071375],[-19.383502192918513,38.79314168016544],[-19.221541403972083,38.79720333047879],[-19.059763219038985,38.80091727766291],[-18.898166231417292,38.80428433043657],[-18.736749049158135,38.807305286787255],[-18.575510294667453,38.809980934103116],[-18.41444860431352,38.812312049301575],[-18.25356262804064,38.81429939895459],[-18.092851028988406,38.81594373941069],[-17.93231248311679,38.81724581691398],[-17.771945678836516,38.81820636771975],[-17.611749316644875,38.81882611820761],[-17.451722108766745,38.81910578499087],[-17.291862778800606,38.81904607502377],[-17.132170061369777,38.81864768570526],[-16.972642701778028,38.81791130498041],[-16.813279455670397,38.81683761143871],[-16.65407908869821,38.815427274409856],[-16.495040376188854,38.81368095405692],[-16.336162102819742,38.811599301466735],[-16.177443062296533,38.80918295873787],[-16.018882057035825,38.806432559066025],[-15.860477897851297,38.80334872682695],[-15.702229403644395,38.79993207765691],[-15.544135401098544,38.79618321853093],[-15.386194724377134,38.792102747838314],[-15.228406214825213,38.787691255456366],[-15.070768720674778,38.78294932282133],[-14.913281096753423,38.777877522997464],[-14.755942204196487,38.77247642074375],[-14.598750910162352,38.766746572578384],[-14.441706087551154,38.7606885268413],[-14.284806614726392,38.75430282375449],[-14.128051375239664,38.747589995480155],[-13.971439257558472,38.74055056617706],[-13.814969154796756,38.733185052054665],[-13.658639964448184,38.725493961425336],[-13.502450588122429,38.71747779475462],[-13.346399931283827,38.709137044709614],[-13.190486902992745,38.70047219620535],[-13.034710415649357,38.691483726449306],[-12.879069384739978,38.68217210498424],[-12.723562728585676,38.672537793728914],[-12.568189368093073,38.66258124701717],[-12.412948226507694,38.65230291163525],[-12.257838229169039,38.64170322685723],[-12.102858303268107,38.63078262447876],[-11.948007377606757,38.619541528849126],[-11.793284382358962,38.60798035690155],[-11.638688248834228,38.5960995181817],[-11.484217909242574,38.58389941487477],[-11.329872296461417,38.571380441830655],[-11.175650343804051,38.558542986587604],[-11.021550984789997,38.545387429394225],[-10.867573152916634,38.53191414322983],[-10.713715781432654,38.51812349382333],[-10.559977803112702,38.50401583967026],[-10.40635815003364,38.48959153204855],[-10.25285575335215,38.47485091503246],[-10.099469543083416,38.45979432550516],[-9.94619844788133,38.44442209316961],[-9.793041394819596,38.42873454055807],[-9.63999730917422,38.412731983039876],[-9.4870651142069,38.39641472882796],[-9.334243730949368,38.379783078983586],[-9.181532077988976,38.36283732741976],[-9.028929071254765,38.34557776090322],[-8.876433623804814,38.32800465905459],[-8.72404464561393,38.31011829434753],[-8.5717610433625,38.291918932106],[-8.419581720225722,38.27340683050026],[-8.267505575663535,38.25458224054135],[-8.11553150521118,38.23544540607416],[-7.963658400270276,38.215996563768925],[-7.811885147900199,38.19623594311129],[-7.660210630610038,38.17616376639107],[-7.508633726150862,38.155780248689275],[-7.357153307308181,38.13508559786396],[-7.205768241694813,38.114080014534345],[-7.054477391543713,38.0927636920638],[-6.903279613501212,38.07113681654096],[-6.7521737584199855,38.0491995667598],[-6.601158671152433,38.02695211419793],[-6.450233190343596,38.00439462299356],[-6.299396148224304,37.981527249921],[-6.148646370404066,37.95835014436466],[-5.997982675663678,37.93486344829149],[-5.847403875747574,37.91106729622212],[-5.696908775156004,37.886961815200266],[-5.546496170936621,37.86254712476087],[-5.396164852475749,37.83782333689662],[-5.245913601289033,37.812790556022854],[-5.095741190811765,37.787448878941206],[-4.945646386188173,37.76179839480146],[-4.79562794406047,37.735839185061984],[-4.645684612356831,37.709571323448614],[-4.495815130078597,37.68299487591195],[-4.346018227086887,37.65610990058307],[-4.196292623887814,37.62891644772763],[-4.046637031417106,37.60141455969848],[-3.8970501508232473,37.57360427088648],[-3.7475306732499973,37.54548560766987],[-3.598077279617115,37.517058588361856],[-3.4486886404002917,37.48832322315661],[-3.2993634154094025,37.45927951407359],[-3.150100253565512,37.429927454900046],[-3.000897792676426,37.40026703113205],[-2.8517546592103997,37.37029821991356],[-2.702669468068592,37.34002098997379],[-2.5536408223554474,37.309435301562935],[-2.40466731314757,37.278541106385894],[-2.255747519260467,37.24733834753433],[-2.106880007013558,37.21582695941683],[-1.958063329993081,37.1840068676872],[-1.809296028812696,37.15187798917081],[-1.6605766308722423,37.119440231789206],[-1.511903650113851,37.086693494482475],[-1.363275586775984,37.05363766712997],[-1.2146909271447157,37.02027263046875],[-1.0661481433026836,36.9865982560102],[-0.9176456928753396,36.952614405954364],[-0.7691820187743303,36.91832093310244],[-0.6207555489382344,36.883717680766935],[-0.47236469607017284,36.84880448267973],[-0.3240078573724645,36.81358116289796],[-0.17568341427812584,36.77804753570764],[-0.027389732179216253,36.74220340552497],[0.12087483984845449,36.706048566795445],[0.26911196932383064,36.6695828038904],[0.4173233406426675,36.63280589100142],[0.5655106553636529,36.595717592032045],[0.7136756324978251,36.558317660487205],[0.8618200088024253,36.52060583935997],[1.0099455390784726,36.48258186101578],[1.1580539964727166,36.444245447074024],[1.3061471727837386,36.405596308286995],[1.4542268787727721,36.366634144415954],[1.602294944478814,36.327358644104656],[1.750353219538738,36.28776948474976],[1.8984035735120415,36.2478663323685],[2.0464478962108217,36.207648841463374],[2.1944880980348103,36.16711665488371],[2.342526110311695,36.126269403684304],[2.4905638856431267,36.08510670698075],[2.638603398256123,36.043628171801664],[2.7866466443605304,36.00183339293748],[2.934695642512253,35.95972195278605],[3.0827524339828756,35.91729342119468],[3.2308190831354295,35.874547355298716],[3.378897677806833,35.83148329935647],[3.526990329697014,35.78810078458056],[3.6750991747649095,35.744399328965386],[3.8232263736317122,35.70037843711089],[3.971374111991423,35.65603760004221],[4.119544601028707,35.61137629502554],[4.267740077845019,35.566393985379555],[4.415962805892178,35.52109012028291],[4.564215075414637,35.47546413457728],[4.712499203899824,35.429515448565915],[4.86081753653761,35.383243467807816]]}}]}