{"type":"FeatureCollection","properties":{"largura_maxima_km":143.064,"largura_sobre_pt_km":137.041,"linha_central_sobre_pt":false,"desenhavel_como_area":true,"perfil_largura":[{"t":1.04444,"lat":31.2912,"lon":-39.9136,"largura_km":143.064,"eixo_na_terra":true},{"t":1.05,"lat":30.808,"lon":-38.9649,"largura_km":137.041,"eixo_na_terra":true},{"t":1.05556,"lat":29.894,"lon":-36.9294,"largura_km":null,"eixo_na_terra":false},{"t":1.06111,"lat":29.4633,"lon":-36.2006,"largura_km":null,"eixo_na_terra":false},{"t":1.06667,"lat":29.2711,"lon":-36.1094,"largura_km":null,"eixo_na_terra":false},{"t":1.07222,"lat":28.9337,"lon":-35.6486,"largura_km":null,"eixo_na_terra":false},{"t":1.07778,"lat":28.5023,"lon":-34.9601,"largura_km":null,"eixo_na_terra":false},{"t":1.08333,"lat":27.8086,"lon":-33.6111,"largura_km":null,"eixo_na_terra":false}]},"features":[{"type":"Feature","properties":{},"geometry":{"type":"Polygon","coordinates":[[[-33.132104096468936,27.703033453322025],[-33.505585011971306,27.668288769838014],[-33.61237217293282,27.719124414013276],[-33.634325626803104,27.65669074814162],[-34.52880077832751,28.033176729661985],[-34.82628305133608,28.16049220683167],[-35.2984539549727,28.366190391781508],[-35.66771521464875,28.531720108643302],[-35.96689951709047,28.67058624139978],[-36.21209563184502,28.789365640025117],[-36.36332980895079,28.866251069824596],[-36.864140366349545,29.081178756330846],[-37.14029621265354,29.203598701981857],[-37.38306145096823,29.31463891102138],[-37.595711084636605,29.41561596678103],[-37.78057551150846,29.507440659758057],[-37.93935623655776,29.59074880984676],[-38.032802393460976,29.64277313082975],[-38.24103949470589,29.732882203933354],[-38.459674352484654,29.830306052763387],[-38.74763187761235,29.96454617879158],[-38.913980941688266,30.04648867085507],[-39.060446657548084,30.122584304679993],[-39.187421917827606,30.192927265037753],[-39.258249322602595,30.234883719134682],[-39.50021106147361,30.34161991342331],[-39.75639837684659,30.46089691114372],[-39.90658950131589,30.535012674173707],[-40.04036306715514,30.604779631931283],[-40.157749161536685,30.670148352206994],[-40.26816862551019,30.737142215517146],[-40.543023957300505,30.860876612663045],[-40.75923099105904,30.965534749099575],[-40.88559839711397,31.031091805105127],[-40.997582435119284,31.09314526253529],[-41.095057392794445,31.151573307500612],[-41.18014057286101,31.207851250934734],[-41.23374237315096,31.22318044959187],[-42.13491292183443,31.685880153358543],[-41.32066515551065,31.48580151542136],[-41.28506680290249,31.499431998609786],[-41.25818163955731,31.50601613321849],[-41.22766571384719,31.511299561808855],[-41.15580689635945,31.517894022575415],[-41.11449996391519,31.519170574501988],[-41.02123050398163,31.517598354845127],[-40.96931142095099,31.514716987108503],[-40.85502179583668,31.504684975788454],[-40.7927013976479,31.49750400008145],[-40.585359271515614,31.46712801161473],[-40.34804808775493,31.42322031702684],[-40.08158632845834,31.36544916088177],[-39.88817011019188,31.31908603160019],[-39.57501818120451,31.237570518762393],[-39.35126076681371,31.17514170564275],[-38.99372365680202,31.069203727743886],[-38.74106660339419,30.990286811011035],[-38.34104347318183,30.859301672066913],[-38.06048480994687,30.76345505919858],[-37.76884914727762,30.66067380512152],[-37.36812962765234,30.51457634598349],[-36.437104841076064,30.285803018148695],[-34.485408678720404,29.34477440081804],[-32.252405834261,28.373252317541667],[-32.31184473546409,28.32952580012459],[-32.022015977059766,28.20706832576534],[-32.738028793559494,27.74083709746137],[-33.45674309248131,28.025774901329076],[-33.55586409182246,27.879828359549112],[-33.56260022927388,27.860671385097938],[-33.4922454549027,27.837033806113013],[-33.132104096468936,27.703033453322025]]]}}]}