{"type":"FeatureCollection","features":[{"type":"Feature","properties":{"magnitude":0.8,"percentagem":80.0,"territorio":"acores"},"geometry":{"type":"LineString","coordinates":[[-24.04000000000017,36.7473436652785],[-24.068503894384804,36.759999999999984],[-24.08000000000017,36.76511028796583],[-24.120000000000168,36.782905625747105],[-24.158395061436728,36.79999999999998],[-24.160000000000167,36.80071536428309],[-24.200000000000166,36.818559136912185],[-24.240000000000165,36.836416439988994],[-24.248020592165883,36.83999999999998],[-24.280000000000165,36.85430439728999],[-24.320000000000164,36.87221016932395],[-24.337388038293298,36.87999999999998],[-24.360000000000163,36.89014160483857],[-24.400000000000162,36.90809589330284],[-24.42650038465169,36.91999999999998],[-24.44000000000016,36.9260709569423],[-24.48000000000016,36.9440738087472],[-24.515359170745118,36.95999999999998],[-24.52000000000016,36.96209265039639],[-24.56000000000016,36.98014411188237],[-24.60000000000016,36.998209035694934],[-24.603962412847494,36.99999999999998],[-24.640000000000157,37.01630699832167],[-24.680000000000156,37.03442056198368],[-24.69231127276513,37.03999999999998],[-24.720000000000155,37.05256266305062],[-24.760000000000154,37.07072491141866],[-24.780411374645908,37.07999999999998],[-24.800000000000153,37.088911300410835],[-24.840000000000153,37.10712227774779],[-24.86826421480444,37.119999999999976],[-24.88000000000015,37.12535310408399],[-24.92000000000015,37.143612854051796],[-24.955871279626383,37.159999999999975],[-24.96000000000015,37.16188826707541],[-25.00000000000015,37.1801968327278],[-25.040000000000145,37.19851876962902],[-25.04323120750051,37.199999999999974],[-25.080000000000148,37.21687440547278],[-25.120000000000147,37.23524518316002],[-25.130344908678207,37.23999999999997],[-25.160000000000146,37.25364576326708],[-25.20000000000015,37.272065423220155],[-25.21721746731572,37.27999999999997],[-25.240000000000144,37.29051109635752],[-25.280000000000147,37.30897967942343],[-25.303850328477843,37.31999999999997],[-25.320000000000142,37.32747059424047],[-25.36000000000014,37.345988140626105],[-25.3902449277244,37.35999999999997],[-25.40000000000014,37.36452444564486],[-25.44000000000014,37.38309099490935],[-25.47640269118855,37.39999999999997],[-25.48000000000014,37.40167283851483],[-25.520000000000138,37.42028842956215],[-25.560000000000137,37.43891727225021],[-25.56232301749127,37.43999999999997],[-25.600000000000136,37.45758063106387],[-25.640000000000136,37.47625853428186],[-25.648006424757824,37.47999999999997],[-25.680000000000135,37.49496778506659],[-25.720000000000134,37.51369478603426],[-25.733457436835277,37.51999999999997],[-25.760000000000133,37.53245007637757],[-25.800000000000132,37.55122621163414],[-25.818677440628313,37.55999999999997],[-25.84000000000013,37.57002768894125],[-25.880000000000127,37.58885299433768],[-25.903667814012703,37.599999999999966],[-25.92000000000013,37.607700805821416],[-25.96000000000013,37.62657531651266],[-25.988429925907838,37.639999999999965],[-26.000000000000128,37.64546960918292],[-26.040000000000127,37.664393359620156],[-26.07296513634894,37.679999999999964],[-26.080000000000126,37.68333428027351],[-26.120000000000125,37.702307304196296],[-26.15727479655841,37.71999999999996],[-26.160000000000124,37.72129499940541],[-26.200000000000124,37.7403173298338],[-26.240000000000123,37.759352734578854],[-26.2413590850926,37.75999999999996],[-26.280000000000122,37.778423615163256],[-26.32000000000012,37.79750833622235],[-26.32521836609329,37.79999999999996],[-26.36000000000012,37.816626337834464],[-26.40000000000012,37.83576040639317],[-26.40885629846767,37.83999999999996],[-26.44000000000012,37.85492567449751],[-26.480000000000118,37.874109120995534],[-26.492274196771646,37.87999999999996],[-26.520000000000117,37.89332180078371],[-26.560000000000116,37.912554654906835],[-26.57547336711437,37.91999999999996],[-26.600000000000115,37.93181489128638],[-26.640000000000114,37.951097181958446],[-26.658455107225183,37.95999999999996],[-26.680000000000113,37.97040511954148],[-26.720000000000113,37.98973687491627],[-26.741220706520217,37.99999999999996],[-26.76000000000011,38.00909265800818],[-26.80000000000011,38.0284739054613],[-26.82377144616791,38.03999999999996],[-26.84000000000011,38.04787767804925],[-26.88000000000011,38.067308444169804],[-26.906108599154507,38.079999999999956],[-26.92000000000011,38.08676034991109],[-26.960000000000107,38.10624066049371],[-26.988233430348398,38.119999999999955],[-27.000000000000107,38.125740842703976],[-27.040000000000106,38.14527072274043],[-27.07014719656372,38.159999999999954],[-27.080000000000105,38.16481932438204],[-27.120000000000104,38.18439879805285],[-27.15185114662424,38.19999999999995],[-27.160000000000103,38.20399596172279],[-27.200000000000102,38.22362505238911],[-27.233346521425275,38.23999999999995],[-27.2400000000001,38.24327092030703],[-27.2800000000001,38.2629496505021],[-27.31463455399625,38.27999999999995],[-27.3200000000001,38.2826443644982],[-27.3600000000001,38.30237275591897],[-27.395716469562075,38.31999999999995],[-27.400000000000098,38.322116457421636],[-27.440000000000097,38.3418945309205],[-27.476593485603615,38.35999999999995],[-27.480000000000096,38.36168736094401],[-27.520000000000095,38.38151513652015],[-27.557266811918215,38.39999999999995],[-27.560000000000095,38.40135723565226],[-27.600000000000094,38.4212347324432],[-27.6377376506794,38.43999999999995],[-27.640000000000093,38.44112624083246],[-27.680000000000092,38.461053477105494],[-27.718007196495947,38.47999999999995],[-27.72000000000009,38.480994534448605],[-27.76000000000009,38.50097152759235],[-27.798076636470064,38.519999999999946],[-27.80000000000009,38.52096227312143],[-27.84000000000009,38.54098903963701],[-27.877947150256016,38.559999999999945],[-27.880000000000088,38.56102961210656],[-27.920000000000087,38.5811061675992],[-27.957619910116794,38.599999999999945],[-27.960000000000086,38.60119670527319],[-28.000000000000085,38.62132306444339],[-28.037096080981502,38.639999999999944],[-28.040000000000084,38.6414637050821],[-28.080000000000084,38.66163988171695],[-28.116376820501422,38.67999999999994],[-28.120000000000083,38.68183076256376],[-28.160000000000082,38.70205676952823],[-28.19546327910583,38.71999999999994],[-28.20000000000008,38.722298027296304],[-28.24000000000008,38.74257387652446],[-28.274356600057217,38.75999999999994],[-28.28000000000008,38.762865647383265],[-28.32000000000008,38.783191349869476],[-28.353057919506224,38.79999999999994],[-28.360000000000078,38.803533769431176],[-28.400000000000077,38.82390933522141],[-28.43156836654533,38.83999999999994],[-28.440000000000076,38.84430253852727],[-28.480000000000075,38.864727976710014],[-28.509889063263056,38.87999999999994],[-28.520000000000074,38.88517209821667],[-28.560000000000073,38.90564741691418],[-28.588021124796775,38.91999999999994],[-28.600000000000072,38.926142590479714],[-28.64000000000007,38.946667796839066],[-28.665965659385783,38.95999999999994],[-28.68000000000007,38.96721415570895],[-28.72000000000007,38.98778925589318],[-28.743723768422925,38.999999999999936],[-28.76000000000007,39.008386932686335],[-28.800000000000068,39.029011931865305],[-28.821296546506694,39.039999999999935],[-28.840000000000067,39.049661058559835],[-28.880000000000067,39.07033596090143],[-28.898685081492225,39.07999999999993],[-28.920000000000066,39.09103666882024],[-28.96000000000007,39.11176147748122],[-28.975890454542196,39.11999999999993],[-29.000000000000064,39.13251389727766],[-29.040000000000063,39.153288614394654],[-29.052913740176777,39.15999999999993],[-29.080000000000062,39.17409287603814],[-29.12000000000006,39.194917502718546],[-29.12975600632367,39.19999999999993],[-29.16000000000006,39.2157737354797],[-29.200000000000063,39.23664827179265],[-29.206418314367223,39.23999999999993],[-29.24000000000006,39.25755660422877],[-29.280000000000058,39.27848104919598],[-29.282901719197298,39.27999999999993],[-29.320000000000057,39.29944160913607],[-29.359206633663533,39.31999999999993],[-29.360000000000056,39.32041647948775],[-29.400000000000055,39.341428875252674],[-29.435332273407198,39.35999999999993],[-29.440000000000055,39.362456191314955],[-29.480000000000054,39.38351852580561],[-29.51128200610377,39.39999999999993],[-29.520000000000053,39.404598413741006],[-29.560000000000052,39.425710682173765],[-29.587056862650748,39.43999999999993],[-29.60000000000005,39.446843267362766],[-29.64000000000005,39.468005463863264],[-29.66265786767609,39.479999999999926],[-29.68000000000005,39.48919087088916],[-29.72000000000005,39.510402988482994],[-29.738086039584637,39.519999999999925],[-29.760000000000048,39.531641341116334],[-29.800000000000047,39.55290337171992],[-29.81334239060382,39.55999999999993],[-29.840000000000046,39.57419479290299],[-29.880000000000045,39.59550672731412],[-29.888427926829443,39.59999999999992],[-29.920000000000044,39.616851339145384],[-29.960000000000043,39.638213167034074],[-29.963343648270214,39.63999999999992],[-30.000000000000043,39.659611090752456],[-30.038089039962532,39.67999999999992],[-30.040000000000042,39.68102408232734],[-30.08000000000004,39.70247415662041],[-30.11266383365466,39.71999999999992],[-30.12000000000004,39.72394067006391],[-30.16000000000004,39.7454406436078],[-30.187071659531565,39.75999999999992],[-30.20000000000004,39.76696079815125],[-30.240000000000038,39.7885106565098],[-30.261313495097326,39.79999999999992],[-30.280000000000037,39.81008457046793],[-30.320000000000036,39.831684298032926],[-30.335390311976873,39.83999999999992],[-30.360000000000035,39.85331208878764],[-30.400000000000034,39.87496166876956],[-30.40930307595857,39.87999999999992],[-30.440000000000033,39.89664345275347],[-30.480000000000032,39.9183428671719],[-30.483052747036886,39.919999999999916],[-30.52000000000003,39.94007875985224],[-30.5566376538595,39.959999999999916],[-30.56000000000003,39.96183028830261],[-30.60000000000003,39.98361810538833],[-30.63005887200358,39.999999999999915],[-30.64000000000003,40.00542394508682],[-30.680000000000028,40.0272615824579],[-30.7033197354018,40.039999999999914],[-30.720000000000027,40.049121846588484],[-30.760000000000026,40.07100928192268],[-30.776421182613014,40.07999999999991],[-30.800000000000026,40.09292408264431],[-30.84000000000003,40.11486129238378],[-30.849364146597576,40.11999999999991],[-30.880000000000024,40.13683074081344],[-30.92000000000002,40.15881770015531],[-30.922149554757606,40.15999999999991],[-30.960000000000022,40.180841906351226],[-30.994774286721412,40.19999999999991],[-31.00000000000002,40.202882219736246],[-31.040000000000024,40.22495766218253],[-31.06724153327316,40.23999999999991],[-31.08000000000002,40.24705292877768],[-31.12000000000002,40.26917808887543],[-31.13955387350861,40.27999999999991],[-31.160000000000018,40.29132841621245],[-31.200000000000017,40.313503264614255],[-31.21171221425565,40.31999999999991],[-31.240000000000016,40.33570875910447],[-31.280000000000015,40.35793326517287],[-31.283717456969388,40.35999999999991],[-31.320000000000014,40.380194032089975],[-31.355567095360207,40.399999999999906],[-31.360000000000014,40.402471284139516],[-31.400000000000013,40.42478430735027],[-31.427262467546424,40.439999999999905],[-31.440000000000012,40.4471170208979],[-31.480000000000008,40.469479654585115],[-31.498807320639408,40.479999999999905]]}}]}