{"type":"FeatureCollection","features":[{"type":"Feature","properties":{"magnitude":0.2,"de":0.2,"ate":0.5,"percentagem":20.0},"geometry":{"type":"Polygon","coordinates":[[[-34.5,30.0],[-12.754901612707119,30.0],[-10.439999999999088,31.21354002318127],[-8.159999999999002,32.32008950275299],[-5.879999999998915,33.336691997647875],[-3.5399999999988268,34.28750031390648],[-3.5399999999988268,44.939999999999685],[-7.600620208700489,44.939999999999685],[-9.839999999999065,44.09673281113896],[-12.05999999999915,43.19407101984501],[-14.24341381935265,42.23999999999974],[-16.439999999999316,41.21346493461887],[-19.87031479863212,39.4799999999998],[-23.519999999999584,37.477701137362594],[-27.059999999999718,35.41557083972885],[-34.5,30.951377066845765],[-34.5,30.0]]]}},{"type":"Feature","properties":{"magnitude":0.5,"de":0.5,"ate":0.8,"percentagem":50.0},"geometry":{"type":"Polygon","coordinates":[[[-34.5,30.95999999999998],[-24.899999999999636,36.68524413956301],[-21.959999999999525,38.351588205162315],[-19.259999999999422,39.79961325298872],[-16.31999999999931,41.271261734495496],[-13.439999999999202,42.59875972811009],[-10.559999999999093,43.811348942249396],[-7.600620208700489,44.939999999999685],[-34.5,44.939999999999685],[-34.5,30.95999999999998]]]}}]}