{"type":"FeatureCollection","features":[{"type":"Feature","properties":{"magnitude":0.2,"de":0.2,"ate":0.5,"percentagem":20.0},"geometry":{"type":"Polygon","coordinates":[[[-31.31999999999988,31.564386360608083],[-28.455809423891594,30.0],[-3.5399999999988268,30.0],[-3.5399999999988268,34.88921907147254],[-6.043948124959064,35.81999999999988],[-8.519999999999015,36.80884960889571],[-10.98344357275735,37.85999999999983],[-13.559999999999206,39.02944029154712],[-16.123844817729584,40.25999999999978],[-18.74529917943514,41.57999999999976],[-21.607527973244867,43.07999999999972],[-25.050581658309095,44.939999999999685],[-34.5,44.939999999999685],[-34.49999999999999,33.361456059189514],[-31.31999999999988,31.564386360608083]]]}},{"type":"Feature","properties":{"magnitude":0.5,"de":0.5,"ate":0.8,"percentagem":50.0},"geometry":{"type":"Polygon","coordinates":[[[-6.1199999999989245,35.84936332381422],[-3.5399999999988268,34.88921907147254],[-3.5399999999988268,44.939999999999685],[-25.050581658309095,44.939999999999685],[-21.607527973244867,43.07999999999972],[-18.779999999999404,41.59785166833139],[-16.139999999999304,40.26795336958508],[-13.619999999999209,39.05748949128644],[-11.099999999999113,37.911381551163274],[-8.59534067196962,36.839999999999854],[-6.1199999999989245,35.84936332381422]]]}}]}