{"type":"FeatureCollection","features":[{"type":"Feature","properties":{"magnitude":0.6,"percentagem":60.0,"territorio":"continente"},"geometry":{"type":"LineString","coordinates":[[-10.5,39.9669357765313],[-10.46,39.965205440094046],[-10.420000000000002,39.963465238159365],[-10.380000000000003,39.96171517837818],[-10.341016597450404,39.959999999999916],[-10.340000000000003,39.95995528029188],[-10.300000000000004,39.95818599857083],[-10.260000000000005,39.95640688461968],[-10.220000000000006,39.95461794605341],[-10.180000000000007,39.952819190478145],[-10.140000000000008,39.95101062549114],[-10.100000000000009,39.94919225868076],[-10.06000000000001,39.94736409762659],[-10.02000000000001,39.94552614989938],[-9.980000000000011,39.94367842306112],[-9.940000000000012,39.94182092466501],[-9.900000000000013,39.9399536622555],[-9.860000000000014,39.93807664336832],[-9.820000000000014,39.936189875530474],[-9.780000000000015,39.93429336626028],[-9.740000000000016,39.93238712306737],[-9.700000000000017,39.930471153452764],[-9.660000000000018,39.92854546490875],[-9.620000000000019,39.92661006491913],[-9.580000000000018,39.924664960958964],[-9.54000000000002,39.922710160494844],[-9.500000000000021,39.92074567098475],[-9.484890654276002,39.919999999999916],[-9.460000000000022,39.91877182686583],[-9.420000000000023,39.91678850974475],[-9.380000000000024,39.91479552860418],[-9.340000000000025,39.912792890868154],[-9.300000000000026,39.91078060395222],[-9.260000000000026,39.90875867526349],[-9.220000000000027,39.90672711220066],[-9.180000000000028,39.904685922154016],[-9.140000000000029,39.90263511250546],[-9.10000000000003,39.9005746906285],[-9.06000000000003,39.898504663888346],[-9.020000000000032,39.896425039641805],[-8.980000000000032,39.89433582523742],[-8.940000000000033,39.89223702801542],[-8.900000000000034,39.89012865530775],[-8.860000000000035,39.88801071443809],[-8.820000000000036,39.885883212721865],[-8.780000000000037,39.88374615746629],[-8.740000000000038,39.88159955597039],[-8.710324892325488,39.87999999999992],[-8.700000000000038,39.87944356374885],[-8.66000000000004,39.877278468475126],[-8.62000000000004,39.87510385150436],[-8.580000000000041,39.87291972010325],[-8.540000000000042,39.870726081530336],[-8.500000000000043,39.868522943036055],[-8.460000000000043,39.86631031186282],[-8.420000000000044,39.864088195244925],[-8.380000000000045,39.86185660040867],[-8.340000000000046,39.859615534572285],[-8.300000000000047,39.85736500494599],[-8.260000000000048,39.85510501873207],[-8.220000000000049,39.852835583124765],[-8.18000000000005,39.85055670531038],[-8.14000000000005,39.84826839246729],[-8.100000000000051,39.845970651765924],[-8.060000000000052,39.843663490368805],[-8.020000000000053,39.84134691543056],[-7.996836153042081,39.83999999999992],[-7.980000000000054,39.83902119500626],[-7.940000000000055,39.836686436898916],[-7.900000000000055,39.83434228935821],[-7.860000000000056,39.831988759507944],[-7.820000000000057,39.829625854464055],[-7.780000000000058,39.82725358133476],[-7.740000000000059,39.82487194722047],[-7.70000000000006,39.82248095921386],[-7.6600000000000605,39.82008062439987],[-7.620000000000062,39.81767094985572],[-7.580000000000062,39.815251942650896],[-7.540000000000063,39.812823609847236],[-7.500000000000064,39.8103859584989],[-7.460000000000065,39.8079389956524],[-7.420000000000066,39.80548272834656],[-7.3800000000000665,39.80301716361264],[-7.3400000000000665,39.80054230847424],[-7.33126702762801,39.79999999999992],[-7.300000000000068,39.798058687811235],[-7.260000000000069,39.79556593806149],[-7.22000000000007,39.793063921622526],[-7.180000000000071,39.79055264548846],[-7.140000000000072,39.78803211664585],[-7.1000000000000725,39.785502342073784],[-7.060000000000073,39.78296332874381],[-7.020000000000074,39.78041508362007],[-6.980000000000075,39.777857613659194],[-6.940000000000076,39.77529092581038],[-6.900000000000077,39.77271502701541],[-6.860000000000078,39.77012992420866],[-6.820000000000078,39.76753562431709],[-6.780000000000079,39.76493213426031],[-6.74000000000008,39.7623194609505],[-6.704612978636115,39.75999999999992],[-6.700000000000081,39.75969769198733],[-6.660000000000082,39.757067375122254],[-6.620000000000083,39.75442789838701],[-6.580000000000084,39.751779268665366],[-6.540000000000084,39.74912149283388],[-6.500000000000085,39.74645457776181],[-6.460000000000086,39.74377853031116],[-6.420000000000087,39.74109335733667],[-6.380000000000088,39.7383990656859],[-6.340000000000089,39.7356956621992],[-6.3000000000000895,39.73298315370966],[-6.260000000000091,39.7302615470433],[-6.220000000000091,39.727530849018855],[-6.180000000000092,39.724791066448],[-6.140000000000093,39.72204220613524],[-6.110379869005852,39.71999999999992],[-6.100000000000094,39.7192844660297],[-6.060000000000095,39.71651820978263],[-6.0200000000000955,39.713742898857575],[-5.980000000000096,39.71095854003177],[-5.940000000000097,39.70816514007527],[-5.900000000000098,39.705362705751156],[-5.860000000000099,39.70255124381545],[-5.8200000000001,39.69973076101721],[-5.780000000000101,39.696901264098436],[-5.7400000000001015,39.69406275979418],[-5.700000000000102,39.69121525483249],[-5.660000000000103,39.688358755934495],[-5.620000000000104,39.685493269814344],[-5.580000000000105,39.68261880317929],[-5.543670806398992,39.67999999999992],[-5.540000000000106,39.67973543346339]]}},{"type":"Feature","properties":{"magnitude":0.6,"percentagem":60.0,"territorio":"acores"},"geometry":{"type":"LineString","coordinates":[[-32.0,39.23116984078244],[-31.96,39.23614580287497],[-31.928918860197644,39.23999999999993],[-31.92,39.241106187108656],[-31.88,39.2460517234826],[-31.840000000000003,39.25098142109836],[-31.800000000000004,39.255895296149916],[-31.760000000000005,39.26079336480896],[-31.720000000000006,39.265675643224895],[-31.680000000000007,39.27054214752481],[-31.640000000000008,39.27539289381351],[-31.601885524699235,39.27999999999993],[-31.60000000000001,39.28022795781254],[-31.56000000000001,39.285048497332795],[-31.52000000000001,39.289853322650515],[-31.48000000000001,39.2946424497861],[-31.440000000000012,39.29941589473771],[-31.400000000000013,39.304173673481145],[-31.360000000000014,39.3089158019699],[-31.320000000000014,39.31364229613515],[-31.280000000000015,39.31835317188579],[-31.265970917901377,39.31999999999993],[-31.240000000000016,39.32304924402365],[-31.200000000000017,39.327730156788235],[-31.160000000000014,39.332395494391676],[-31.12000000000002,39.33704527265861],[-31.08000000000002,39.34167950739128],[-31.04000000000002,39.34629821436968],[-31.00000000000002,39.350901409351515],[-30.960000000000022,39.355489108072184],[-30.92053654418118,39.35999999999993],[-30.920000000000027,39.360061342341425],[-30.880000000000027,39.36461929156414],[-30.840000000000025,39.36916178728702],[-30.800000000000022,39.37368884516133],[-30.76000000000003,39.37820048081609],[-30.720000000000027,39.382696709857996],[-30.680000000000028,39.38717754787153],[-30.64000000000003,39.39164301041892],[-30.60000000000003,39.39609311304009],[-30.564761456888636,39.39999999999993],[-30.56000000000003,39.40052801000096],[-30.520000000000035,39.404948600782795],[-30.480000000000032,39.409353873847415],[-30.440000000000033,39.41374384465092],[-30.40000000000003,39.41811852862718],[-30.360000000000035,39.42247794118789],[-30.320000000000036,39.42682209772253],[-30.280000000000037,39.43115101359837],[-30.240000000000038,39.435464704160516],[-30.20000000000004,39.439763184731916],[-30.197788581238143,39.43999999999993],[-30.16000000000004,39.44404753555964],[-30.12000000000004,39.448316765064334],[-30.08000000000004,39.452570826175915],[-30.040000000000045,39.456809734133884],[-30.000000000000043,39.46103350415552],[-29.960000000000043,39.46524215143614],[-29.920000000000044,39.4694356911488],[-29.880000000000045,39.473614138444574],[-29.840000000000046,39.47777750845242],[-29.8185701437826,39.479999999999926],[-29.800000000000043,39.481926323803],[-29.760000000000048,39.486060673622546],[-29.72000000000005,39.49017998720504],[-29.68000000000005,39.4942842795964],[-29.64000000000005,39.498373565820586],[-29.60000000000005,39.50244786087953],[-29.560000000000052,39.50650717975313],[-29.520000000000053,39.51055153739937],[-29.480000000000054,39.51458094875422],[-29.440000000000055,39.51859542873176],[-29.425953163322554,39.519999999999925],[-29.400000000000055,39.52259567694066],[-29.360000000000056,39.52658139001862],[-29.320000000000057,39.53055221216623],[-29.280000000000058,39.53450815821508],[-29.24000000000006,39.53844924297493],[-29.20000000000006,39.542375481233634],[-29.16000000000006,39.54628688775725],[-29.12000000000006,39.55018347728996],[-29.080000000000062,39.554065264554175],[-29.040000000000063,39.55793226425045],[-29.01852985553691,39.559999999999924],[-29.000000000000064,39.56178496248486],[-28.960000000000065,39.56562344467531],[-28.920000000000066,39.56944717914573],[-28.880000000000067,39.573256180514946],[-28.840000000000067,39.57705046338009],[-28.800000000000068,39.5808300423166],[-28.76000000000007,39.58459493187821],[-28.72000000000007,39.58834514659702],[-28.68000000000007,39.59208070098349],[-28.64000000000007,39.595801609526454],[-28.600000000000072,39.59950788669314],[-28.594668005880095,39.59999999999992],[-28.560000000000073,39.60320039310079],[-28.520000000000074,39.6068784230811],[-28.48000000000008,39.61054186087986],[-28.440000000000076,39.61419072088337],[-28.400000000000077,39.617825017456404],[-28.360000000000078,39.62144476494226],[-28.32000000000008,39.6250499776628],[-28.28000000000008,39.6286406699184],[-28.24000000000008,39.632216855988],[-28.20000000000008,39.635778550129196],[-28.160000000000082,39.63932576657814],[-28.15236611336254,39.63999999999992],[-28.120000000000083,39.64285927633985],[-28.080000000000084,39.646378511303425],[-28.040000000000084,39.649883307123424],[-28.000000000000085,39.65337367795598],[-27.960000000000086,39.65684963793599],[-27.920000000000087,39.66031120117704],[-27.880000000000088,39.66375838177149],[-27.84000000000009,39.66719119379051],[-27.80000000000009,39.670609651284074],[-27.76000000000009,39.674013768281],[-27.72000000000009,39.67740355878892],[-27.68923191933928,39.67999999999992],[-27.680000000000092,39.68077924326251],[-27.640000000000093,39.68414131342039],[-27.60000000000009,39.687489094999556],[-27.560000000000095,39.69082260192862],[-27.520000000000095,39.69414184811515],[-27.480000000000096,39.69744684744572],[-27.440000000000097,39.700737613785925],[-27.400000000000098,39.704014160980364],[-27.3600000000001,39.70727650285276],[-27.3200000000001,39.710524653205866],[-27.2800000000001,39.7137586258216],[-27.2400000000001,39.71697843446099],[-27.202297149586087,39.719999999999914],[-27.200000000000102,39.720184141700436],[-27.160000000000103,39.72337651013422],[-27.120000000000108,39.726554751814554],[-27.080000000000105,39.72971888042452],[-27.040000000000106,39.73286890962654],[-27.00000000000011,39.736004853062255],[-26.960000000000107,39.739126724352644],[-26.92000000000011,39.74223453709803],[-26.88000000000011,39.74532830487808],[-26.84000000000011,39.748408041251885],[-26.80000000000011,39.751473759757936],[-26.76000000000011,39.75452547391415],[-26.720000000000113,39.75756319721795],[-26.687764566890547,39.75999999999992],[-26.680000000000113,39.760587098980544],[-26.640000000000114,39.763597679985786],[-26.600000000000115,39.76659430662813],[-26.560000000000116,39.76957699232837],[-26.520000000000117,39.77254575048688],[-26.480000000000118,39.775500594483646],[-26.44000000000012,39.778441537678376],[-26.40000000000012,39.78136859341039],[-26.36000000000012,39.78428177499875],[-26.32000000000012,39.78718109574224],[-26.280000000000122,39.790066568919414],[-26.240000000000123,39.79293820778863],[-26.200000000000124,39.79579602558804],[-26.160000000000124,39.79864003553567],[-26.140779484851482,39.79999999999992],[-26.120000000000125,39.80147064147],[-26.080000000000126,39.804287823480585],[-26.040000000000127,39.80709123335309],[-26.000000000000128,39.809880884230374],[-25.96000000000013,39.81265678923529],[-25.92000000000013,39.815418961470705],[-25.88000000000013,39.81816741401953],[-25.84000000000013,39.82090215994473],[-25.800000000000132,39.82362321228939],[-25.760000000000133,39.826330584076715],[-25.720000000000134,39.829024288310066],[-25.680000000000135,39.83170433797301],[-25.640000000000136,39.8343707460293],[-25.600000000000136,39.83702352542292],[-25.560000000000137,39.83966268907822],[-25.554861158997127,39.83999999999992],[-25.520000000000135,39.84228885827376],[-25.48000000000014,39.84490152344974],[-25.44000000000014,39.84750060778658],[-25.400000000000144,39.850086124135075],[-25.36000000000014,39.85265808532642],[-25.320000000000142,39.85521650417226],[-25.280000000000143,39.85776139346474],[-25.240000000000144,39.86029276597648],[-25.200000000000145,39.862810634460644],[-25.160000000000146,39.86531501165097],[-25.120000000000147,39.8678059102618],[-25.080000000000148,39.87028334298809],[-25.04000000000015,39.872747322505475],[-25.00000000000015,39.87519786147028],[-24.96000000000015,39.87763497251949],[-24.920968247785225,39.87999999999992],[-24.92000000000015,39.88005868387961],[-24.88000000000015,39.8824696181222],[-24.840000000000153,39.88486715855206],[-24.800000000000153,39.887251317734396],[-24.760000000000154,39.88962210821529],[-24.720000000000155,39.89197954252173],[-24.680000000000156,39.89432363316163],[-24.640000000000157,39.89665439262387],[-24.600000000000158,39.8989718333783],[-24.56000000000016,39.901275967875826],[-24.52000000000016,39.90356680854836],[-24.48000000000016,39.90584436780895],[-24.44000000000016,39.90810865805172],[-24.400000000000162,39.91035969165196],[-24.360000000000163,39.91259748096614],[-24.320000000000164,39.914822038331934],[-24.280000000000165,39.91703337606824],[-24.240000000000165,39.91923150647527],[-24.225931026682193,39.919999999999916],[-24.200000000000166,39.92141681883924],[-24.160000000000167,39.923589149360865],[-24.120000000000168,39.92574830572443],[-24.08000000000017,39.92789430016039],[-24.04000000000017,39.930027144880626]]}},{"type":"Feature","properties":{"magnitude":0.4,"percentagem":40.0,"territorio":"madeira"},"geometry":{"type":"LineString","coordinates":[[-18.0,33.5606114586146],[-17.96,33.56057108513047],[-17.92,33.560518175842134],[-17.880000000000003,33.5604527435796],[-17.840000000000003,33.560374801155206],[-17.800000000000004,33.56028436136351],[-17.760000000000005,33.56018143698138],[-17.720000000000006,33.56006604076806],[-17.680000000000007,33.5599381854652],[-17.640000000000008,33.5597978837968],[-17.60000000000001,33.55964514846935],[-17.56000000000001,33.559479992171845],[-17.52000000000001,33.55930242757576],[-17.48000000000001,33.559112467335105],[-17.440000000000012,33.55891012408654],[-17.400000000000013,33.558695410449296],[-17.360000000000014,33.55846833902523],[-17.320000000000014,33.55822892239894],[-17.280000000000015,33.5579771731377],[-17.240000000000016,33.55771310379153],[-17.200000000000017,33.55743672689328],[-17.160000000000018,33.55714805495853],[-17.12000000000002,33.5568471004858],[-17.08000000000002,33.55653387595642],[-17.04000000000002,33.55620839383468],[-17.00000000000002,33.55587066656776],[-16.960000000000022,33.555520706585895],[-16.920000000000023,33.555158526302264],[-16.880000000000024,33.55478413811312],[-16.840000000000025,33.5543975543978],[-16.800000000000026,33.55399878751872],[-16.760000000000026,33.55358784982146],[-16.720000000000027,33.55316475363477],[-16.680000000000028,33.55272951127059],[-16.64000000000003,33.55228213502414],[-16.60000000000003,33.551822637173856],[-16.56000000000003,33.551351029981504],[-16.52000000000003,33.55086732569219],[-16.480000000000032,33.550371536534385],[-16.440000000000033,33.549863674719944],[-16.400000000000034,33.549343752444166],[-16.360000000000035,33.548811781885796],[-16.320000000000036,33.5482677752071],[-16.280000000000037,33.54771174455387],[-16.240000000000038,33.547143702055415],[-16.20000000000004,33.54656365982468],[-16.16000000000004,33.5459716299582],[-16.12000000000004,33.545367624536205],[-16.08000000000004,33.54475165562255],[-16.040000000000042,33.54412373526484],[-16.000000000000043,33.543483875494445],[-15.960000000000043,33.542832088326485],[-15.920000000000044,33.542168385759915],[-15.880000000000047,33.5414927797775],[-15.840000000000046,33.54080528234589],[-15.800000000000047,33.540105905415665],[-15.794043655826856,33.539999999999914],[-15.760000000000048,33.53939477037256],[-15.720000000000049,33.5386718010245],[-15.68000000000005,33.53793699012855],[-15.64000000000005,33.53719034957065],[-15.600000000000051,33.53643189122086],[-15.560000000000052,33.535661626933326],[-15.520000000000053,33.5348795685463],[-15.480000000000054,33.53408572788226],[-15.440000000000055,33.53328011674782],[-15.400000000000055,33.53246274693385],[-15.360000000000056,33.53163363021548],[-15.320000000000057,33.530792778352094],[-15.280000000000058,33.529940203087435],[-15.240000000000059,33.52907591614955],[-15.20000000000006,33.528199929250896],[-15.16000000000006,33.52731225408834],[-15.120000000000061,33.52641290234317],[-15.080000000000062,33.52550188568115],[-15.040000000000063,33.52457921575252]]}}]}