{"type":"FeatureCollection","properties":{"largura_maxima_km":283.072,"largura_sobre_pt_km":283.072,"linha_central_sobre_pt":false,"desenhavel_como_area":true,"perfil_largura":[{"t":1.80556,"lat":32.5272,"lon":-39.6556,"largura_km":283.072,"eixo_na_terra":true},{"t":1.81111,"lat":31.4805,"lon":-36.9339,"largura_km":null,"eixo_na_terra":false},{"t":1.81667,"lat":31.1332,"lon":-36.2449,"largura_km":null,"eixo_na_terra":false},{"t":1.82222,"lat":30.8581,"lon":-35.8054,"largura_km":null,"eixo_na_terra":false},{"t":1.82778,"lat":30.6767,"lon":-35.5767,"largura_km":null,"eixo_na_terra":false},{"t":1.83333,"lat":30.3803,"lon":-35.1264,"largura_km":null,"eixo_na_terra":false},{"t":1.83889,"lat":30.222,"lon":-34.9481,"largura_km":null,"eixo_na_terra":false},{"t":1.84444,"lat":29.9534,"lon":-34.534,"largura_km":null,"eixo_na_terra":false},{"t":1.85,"lat":29.6942,"lon":-34.1543,"largura_km":null,"eixo_na_terra":false},{"t":1.85556,"lat":29.4196,"lon":-33.7429,"largura_km":null,"eixo_na_terra":false},{"t":1.86111,"lat":29.0716,"lon":-33.1612,"largura_km":null,"eixo_na_terra":false},{"t":1.86667,"lat":29.018,"lon":-33.3105,"largura_km":null,"eixo_na_terra":false},{"t":1.87222,"lat":28.6657,"lon":-32.6104,"largura_km":null,"eixo_na_terra":false},{"t":1.87778,"lat":28.334,"lon":-32.1854,"largura_km":null,"eixo_na_terra":false},{"t":1.88333,"lat":27.933,"lon":-31.4846,"largura_km":null,"eixo_na_terra":false}]},"features":[{"type":"Feature","properties":{},"geometry":{"type":"Polygon","coordinates":[[[-38.08543138694858,30.398070000077826],[-38.453829750496766,30.566858740777597],[-38.758596615528404,30.713491719513335],[-38.90509434106441,30.786879757252724],[-39.23776345746259,30.939902028600148],[-39.517853787946734,31.075620929849176],[-39.6541378319396,31.144572274193205],[-39.95911653047432,31.28532515681199],[-40.21967628804825,31.412364457401708],[-40.34769539562168,31.47770699134321],[-40.49954921609293,31.547054384321353],[-40.755610735033116,31.6690494638687],[-40.99619605965408,31.790809339904936],[-41.26062622707161,31.913490237516918],[-41.49191300077052,32.02742840180386],[-41.6071868077672,32.08715776931994],[-41.8562067373187,32.20292815951043],[-42.07614306481551,32.31174799296185],[-42.1863370309016,32.36921775342699],[-42.310116295894886,32.42599711278288],[-42.529588137919546,32.53154072699873],[-42.73030039591191,32.634700108517336],[-42.91200980514304,32.735294608880096],[-43.07449704210026,32.83312963567152],[-43.1484705404946,32.880947868248946],[-43.21756748172797,32.92799724682142],[-43.28176751828633,32.974249802691205],[-43.3410519378516,33.01967682074735],[-43.395403685351766,33.064248864580726],[-43.44480738462366,33.10793580278682],[-43.48924935964604,33.15070683644987],[-43.52871765529659,33.19253052780049],[-43.56320205758189,33.23337483003671],[-43.59269411328492,33.27320711829595],[-43.61718714897182,33.31199422176451],[-43.636676289295224,33.34970245690788],[-43.651158474528955,33.38629766180414],[-43.66063247726544,33.42174523156003],[-43.66509891820456,33.45601015478724],[-43.66456028096067,33.48905705111483],[-43.65902092581186,33.52085020971051],[-43.64848710231422,33.5513536287822],[-43.63296696070205,33.58053105602843],[-43.61247056199352,33.60834603000376],[-43.58700988672132,33.6347619223636],[-43.55659884220643,33.6597419809493],[-43.521253268293094,33.683249373673156],[-43.480990941463574,33.70524723315921],[-43.435831577251605,33.72569870209416],[-43.385796830873915,33.74456697923942],[-43.33091029600098,33.76181536605311],[-43.271197501589455,33.77740731386787],[-43.206685906700244,33.79130647156786],[-43.137404893229075,33.80347673370574],[-43.0633857564784,33.81388228899738],[-42.98466169350266,33.822487669129565],[-42.90126778916195,33.82925779781357],[-42.81324099982214,33.83415804001401],[-42.72062013464409,33.83715425128059],[-42.521760547818246,33.837300752239386],[-42.30503568991867,33.82943583050946],[-42.19008980631796,33.82242034082625],[-41.947278051218376,33.802072506286066],[-41.81951587420832,33.78868236683821],[-41.55154998036548,33.75533203048949],[-41.41145922668002,33.73531972981915],[-41.11935527012437,33.68849849031003],[-40.967463410438484,33.661643936406456],[-40.65231278496856,33.60094174924194],[-40.48918269986024,33.56705572516046],[-40.15214273092397,33.49212750940544],[-39.97836766379302,33.45105480456633],[-39.62065078876594,33.36162630828837],[-39.436848563137914,33.31324842963284],[-39.05970998358731,33.20912114587449],[-38.86651641699845,33.15335849447068],[-38.47124002650949,33.03441337138414],[-38.26930140203925,32.97122673872909],[-37.85718359596396,32.83742634417923],[-37.64714791837977,32.766817527109694],[-37.219478524819664,32.61820617831935],[-36.78214433160488,32.45978475238554],[-36.5600239284432,32.37691850153991],[-36.109206671673235,32.20393259332824],[-35.880636543328876,32.11383943585186],[-35.41747271736989,31.926526135358646],[-35.18299006669744,31.82933756602276],[-34.70847255573628,31.627978465752246],[-34.46852304667382,31.523840637306503],[-33.98340831541543,31.30872520252999],[-33.73828470502764,31.19777393070474],[-33.307436202800744,30.999095058828935],[-32.835956998505026,30.793909777019156],[-32.517268601796786,30.653302915343822],[-31.58481515459118,30.235485319226584],[-29.43588026659239,29.308543135214016],[-29.436097549893045,29.295057780156043],[-29.315686032057215,29.244295734964748],[-29.336447149101012,29.221049543472443],[-28.664671534217888,28.92448870467774],[-28.872958409127865,28.78343742531115],[-28.58081048820128,28.640819516658006],[-28.43263966697768,28.16781597224026],[-29.1164901223936,28.41634446417967],[-29.303225146556557,28.477217810000067],[-29.37693566494343,28.200128176068002],[-29.29954407549309,28.169782664467768],[-29.400713972677394,28.110741712240053],[-29.458691568326387,27.892794652495848],[-29.460940523188412,27.753216715614176],[-29.492559289372238,27.765480469498875],[-29.768479489091817,26.728252285408736],[-30.40935944781078,27.00058000804804],[-30.420277470273106,26.918977657294345],[-31.000107654853313,27.177364011849285],[-31.016082638974922,27.168041295304025],[-31.785242769588507,27.505782419333084],[-32.34432528954349,27.754511060968824],[-32.798161859689856,27.959328639522916],[-33.15628493588741,28.12353991997991],[-33.68572926733745,28.35762425723718],[-34.02513773706204,28.510098206895858],[-34.331849675727,28.64990636948687],[-34.61120839952673,28.779341937709805],[-34.8591662803303,28.89632919632025],[-35.21379658087844,29.05461406860009],[-35.46606229521353,29.169333157586415],[-35.700858805631185,29.277949698460162],[-36.12357945403243,29.47920661557086],[-36.40179450115281,29.604185325355406],[-36.80851482640307,29.792534165271924],[-37.17167113594738,29.967978597060384],[-37.588508103255975,30.15805253774689],[-37.761795315507584,30.239817008711178],[-38.08543138694858,30.398070000077826]]]}}]}