{"type":"FeatureCollection","features":[{"type":"Feature","properties":{"magnitude":0.8,"percentagem":80.0,"territorio":"acores"},"geometry":{"type":"LineString","coordinates":[[-27.76256046942526,36.0],[-27.80000000000009,36.01734350302101],[-27.84000000000009,36.03587525628389],[-27.848901095078933,36.04],[-27.880000000000088,36.054418991806806],[-27.920000000000087,36.07296752556483],[-27.935162560895932,36.08],[-27.960000000000086,36.091525993108746],[-28.000000000000085,36.11009125071289],[-28.021345326191682,36.12],[-28.040000000000084,36.128664416180925],[-28.080000000000084,36.147246340544186],[-28.107449849793564,36.16],[-28.120000000000083,36.16583416935373],[-28.160000000000082,36.184432702950076],[-28.193476590047986,36.199999999999996],[-28.20000000000008,36.20303516003069],[-28.24000000000008,36.22165024489406],[-28.279426004827588,36.239999999999995],[-28.28000000000008,36.240267294685246],[-28.32000000000008,36.25889887240865],[-28.360000000000078,36.27753219520508],[-28.36529640606417,36.279999999999994],[-28.400000000000077,36.29617849059221],[-28.440000000000076,36.31482821320258],[-28.451090202248807,36.31999999999999],[-28.480000000000075,36.33348900360587],[-28.520000000000074,36.35215506657708],[-28.536808082368314,36.35999999999999],[-28.560000000000073,36.37083031467047],[-28.600000000000072,36.38951265810553],[-28.62245050215508,36.39999999999999],[-28.64000000000007,36.408202326063595],[-28.680000000000067,36.42690088962061],[-28.708017916904666,36.43999999999999],[-28.72000000000007,36.44560493911641],[-28.76000000000007,36.46431966200776],[-28.79351078148306,36.47999999999999],[-28.800000000000068,36.483038054210795],[-28.840000000000067,36.5017688752023],[-28.878929550333527,36.51999999999999],[-28.880000000000067,36.52050157077647],[-28.920000000000066,36.5392484281864],[-28.96000000000006,36.557996777123584],[-28.964272968171976,36.55999999999999],[-29.000000000000064,36.57675821898618],[-29.040000000000063,36.59552250684201],[-29.049542805745105,36.59999999999999],[-29.080000000000062,36.61429814466891],[-29.12000000000006,36.63307830870204],[-29.134739944739017,36.639999999999986],[-29.16000000000006,36.651868101340085],[-29.20000000000006,36.670664078359096],[-29.21986483766988,36.67999999999999],[-29.24000000000006,36.689467984140734],[-29.280000000000058,36.708279710503334],[-29.304917936668566,36.719999999999985],[-29.320000000000057,36.72709768724447],[-29.360000000000056,36.74592509885668],[-29.389899693488033,36.759999999999984],[-29.400000000000055,36.76475710385487],[-29.440000000000055,36.78360013617032],[-29.47481055951031,36.79999999999998],[-29.480000000000054,36.80244612620275],[-29.520000000000053,36.82130471422191],[-29.55965098575396,36.83999999999998],[-29.560000000000052,36.84016464554347],[-29.60000000000005,36.85903872381287],[-29.640000000000054,36.877913994997215],[-29.644419680619222,36.87999999999998],[-29.68000000000005,36.89680205476586],[-29.72000000000005,36.915692713582864],[-29.729118732955722,36.91999999999998],[-29.760000000000048,36.93459459592201],[-29.800000000000047,36.953500575845666],[-29.813748730206264,36.95999999999998],[-29.840000000000046,36.97241623513863],[-29.880000000000045,36.99133746918686],[-29.898310121706857,36.999999999999986],[-29.920000000000044,37.01026685928644],[-29.960000000000043,37.02920328002051],[-29.982803356467542,37.03999999999998],[-30.000000000000043,37.04814635424723],[-30.040000000000045,37.06709789377108],[-30.067228883179894,37.07999999999998],[-30.08000000000004,37.0860546049113],[-30.12000000000004,37.105021194870915],[-30.15158715022423,37.119999999999976],[-30.16000000000004,37.12399149517519],[-30.20000000000004,37.142973066758074],[-30.23587860567697,37.159999999999975],[-30.240000000000038,37.16195690793922],[-30.280000000000037,37.18095339187366],[-30.320000000000036,37.199950759046736],[-30.320103657069996,37.199999999999974],[-30.360000000000035,37.21896205165976],[-30.400000000000038,37.237974223401466],[-30.404261221121885,37.239999999999974],[-30.440000000000033,37.25699892655703],[-30.480000000000032,37.27602583251308],[-30.488353347332314,37.27999999999997],[-30.52000000000003,37.29506389600256],[-30.56000000000003,37.31410546535792],[-30.572380482342616,37.31999999999997],[-30.60000000000003,37.333156838427556],[-30.64000000000003,37.35221299990598],[-30.65634307252841,37.35999999999997],[-30.680000000000028,37.371277631255325],[-30.720000000000027,37.39034831311882],[-30.740241564007114,37.39999999999997],[-30.760000000000026,37.40942615089904],[-30.800000000000026,37.42851128094743],[-30.824076402645485,37.43999999999997],[-30.840000000000025,37.4476022727597],[-30.880000000000024,37.46670177833025],[-30.907848034066944,37.47999999999997],[-30.920000000000023,37.48580587122414],[-30.960000000000022,37.50491967919103],[-30.99155690365936,37.51999999999997],[-31.00000000000002,37.52403681966304],[-31.04000000000002,37.543164856437016],[-31.075203456582365,37.55999999999997],[-31.08000000000002,37.56229499042894],[-31.12000000000002,37.581437181956986],[-31.158788137775172,37.599999999999966],[-31.160000000000018,37.600580254854364],[-31.200000000000017,37.61973652661922],[-31.240000000000016,37.63889324221915],[-31.242310513806743,37.639999999999965],[-31.280000000000015,37.65806276026994],[-31.320000000000014,37.67723344124655],[-31.32577147433219,37.679999999999964],[-31.360000000000014,37.696415751731294],[-31.400000000000013,37.71560032247606],[-31.409171924692384,37.71999999999996],[-31.440000000000012,37.73479536879975],[-31.48000000000001,37.7539937532391],[-31.492512308736494,37.75999999999996],[-31.52000000000001,37.7732014782443],[-31.56000000000001,37.79241359983937],[-31.575793070132413,37.79999999999996],[-31.60000000000001,37.81163394580485],[-31.640000000000008,37.830859727551356],[-31.659014652373926,37.83999999999996],[-31.680000000000007,37.85009263619071],[-31.720000000000006,37.86933200061855],[-31.742177498789108,37.87999999999996],[-31.760000000000005,37.88857741307892],[-31.800000000000004,37.90783028225204],[-31.825282052547614,37.91999999999996],[-31.840000000000003,37.92708813911283],[-31.880000000000003,37.94635443462913],[-31.908328756668595,37.95999999999996],[-31.92,37.965624675900564],[-31.96,37.9849043188916],[-31.99131805402854,37.99999999999996],[-32.0,38.004186884013734]]}}]}