{"type":"FeatureCollection","features":[{"type":"Feature","properties":{"magnitude":0.4,"percentagem":40.0,"territorio":"continente"},"geometry":{"type":"LineString","coordinates":[[-10.5,39.962044898547695],[-10.496153778218435,39.959999999999916],[-10.46,39.940778848326616],[-10.420957916495677,39.919999999999916],[-10.420000000000002,39.91949019423175],[-10.380000000000003,39.89818574566973],[-10.345891530674315,39.87999999999992],[-10.340000000000003,39.87685886934667],[-10.300000000000004,39.85551517949121],[-10.27095255229778,39.83999999999992],[-10.260000000000005,39.83415003180747],[-10.220000000000006,39.81276702441141],[-10.19614049792059,39.79999999999992],[-10.180000000000007,39.791363556175185],[-10.140000000000008,39.76994115496244],[-10.121454886193685,39.75999999999992],[-10.100000000000009,39.74849931692519],[-10.060000000000008,39.727037445593204],[-10.046895237857356,39.71999999999992],[-10.02000000000001,39.705557188452545],[-9.980000000000011,39.6840557706748],[-9.972461075734211,39.67999999999992],[-9.940000000000012,39.66253704507716],[-9.900000000000013,39.640996004505595],[-9.898151924722773,39.63999999999992],[-9.860000000000014,39.61943876104904],[-9.823968908811505,39.59999999999992],[-9.820000000000014,39.597858816932586],[-9.780000000000015,39.57626221055368],[-9.749910743099335,39.559999999999924],[-9.740000000000016,39.55464368369111],[-9.700000000000017,39.53300726771763],[-9.675976212088928,39.519999999999925],[-9.660000000000018,39.511350108561786],[-9.620000000000019,39.489673806613865],[-9.602164848272675,39.47999999999992],[-9.58000000000002,39.46797796557948],[-9.540000000000019,39.44626170126759],[-9.528476186186285,39.43999999999993],[-9.500000000000021,39.42452712873433],[-9.460000000000022,39.402770825661776],[-9.45490976240294,39.39999999999993],[-9.420000000000023,39.380997471977224],[-9.381465696672539,39.35999999999993],[-9.380000000000024,39.35920134857332],[-9.340000000000025,39.33738886922586],[-9.308145006672708,39.31999999999993],[-9.300000000000026,39.31555389921725],[-9.260000000000026,39.29370119437063],[-9.234945209729851,39.27999999999993],[-9.220000000000027,39.27182732800155],[-9.180000000000028,39.249934321280634],[-9.161865849862384,39.23999999999994],[-9.140000000000029,39.22802150877437],[-9.10000000000003,39.206088123809714],[-9.088906473095777,39.19999999999993],[-9.06000000000003,39.18413631537176],[-9.020000000000032,39.162162475802646],[-9.016066627456372,39.15999999999993],[-8.980000000000032,39.140171621624305],[-8.943347170107154,39.11999999999993],[-8.940000000000033,39.11815792672099],[-8.900000000000034,39.0961273013631],[-8.870747916878297,39.079999999999934],[-8.860000000000035,39.0740744948438],[-8.820000000000036,39.05200322842619],[-8.798266880056998,39.039999999999935],[-8.780000000000037,39.02991126042416],[-8.740000000000038,39.0077992766654],[-8.725903614974756,38.99999999999994],[-8.700000000000038,38.98566809731157],[-8.66000000000004,38.96351531995264],[-8.653657678935804,38.95999999999994],[-8.62000000000004,38.94134487937906],[-8.581529220855499,38.91999999999994],[-8.580000000000041,38.91915154165978],[-8.540000000000042,38.896941480530245],[-8.50951969287556,38.87999999999994],[-8.500000000000043,38.87470881547252],[-8.460000000000043,38.85245777470598],[-8.437626203913776,38.83999999999994],[-8.420000000000044,38.830185732423956],[-8.380000000000045,38.807893635891475],[-8.365848318469421,38.79999999999994],[-8.340000000000046,38.78558216651327],[-8.300000000000047,38.76324893812322],[-8.29418560298711,38.75999999999994],[-8.260000000000048,38.74089799179484],[-8.222638630066829,38.71999999999994],[-8.220000000000049,38.7185240908751],[-8.18000000000005,38.69613308238525],[-8.151208210138117,38.67999999999994],[-8.14000000000005,38.67371963826516],[-8.100000000000051,38.65128731247066],[-8.079891694442136,38.639999999999944],[-8.060000000000052,38.62883427532092],[-8.020000000000053,38.60636055631436],[-8.008688656513732,38.599999999999945],[-7.980000000000054,38.583867876337095],[-7.940000000000055,38.56135268826414],[-7.937598671807641,38.559999999999945],[-7.900000000000055,38.53882031569701],[-7.866623805005759,38.519999999999946],[-7.860000000000056,38.51626493024146],[-7.820000000000057,38.49369146788007],[-7.795762073922571,38.47999999999995],[-7.780000000000058,38.47109632357225],[-7.740000000000059,38.448481207469776],[-7.725012154247464,38.43999999999995],[-7.70000000000006,38.42584625461757],[-7.6600000000000605,38.40318940916142],[-7.6543736284261445,38.39999999999995],[-7.620000000000061,38.3805145981228],[-7.583847510331199,38.35999999999994],[-7.580000000000062,38.3578167318459],[-7.540000000000063,38.335101228957576],[-7.513434073178941,38.31999999999995],[-7.500000000000064,38.31236343829335],[-7.460000000000064,38.28960602212376],[-7.443130806599649,38.27999999999995],[-7.420000000000066,38.26682825753787],[-7.380000000000067,38.24402885276388],[-7.372937299953685,38.23999999999995],[-7.340000000000067,38.22121106478723],[-7.302854193507419,38.19999999999995],[-7.300000000000068,38.19837017884406],[-7.260000000000069,38.175511735402836],[-7.232882652844163,38.159999999999954],[-7.22000000000007,38.15263076001043],[-7.180000000000071,38.12973014490805],[-7.163019667144094,38.11999999999995],[-7.140000000000072,38.106809030744294],[-7.1000000000000725,38.083866168996956],[-7.093264832609341,38.079999999999956],[-7.060000000000073,38.06090486682123],[-7.0236190627841975,38.03999999999996],[-7.020000000000074,38.03792042366943],[-6.980000000000075,38.014918144200934],[-6.954083113237018,37.99999999999996],[-6.940000000000076,37.99189344720577],[-6.900000000000077,37.96884873903634],[-6.884654127980827,37.95999999999996],[-6.860000000000078,37.9457837391454],[-6.820000000000078,37.922696527682575],[-6.815331709990435,37.91999999999996],[-6.780000000000079,37.899591175941765],[-6.74611766270122,37.87999999999996],[-6.74000000000008,37.87646264003569],[-6.700000000000081,37.85331563426478],[-6.677011089836466,37.83999999999996],[-6.660000000000082,37.830146680993565],[-6.620000000000083,37.80695699101018],[-6.608009915252538,37.79999999999996],[-6.580000000000084,37.783747571651105],[-6.540000000000084,37.760515123308984],[-6.5391137486301725,37.75999999999996],[-6.500000000000085,37.7372651892555],[-6.470325869672053,37.71999999999996],[-6.460000000000086,37.713992027775],[-6.420000000000087,37.69069941130388],[-6.40164254890784,37.679999999999964],[-6.380000000000088,37.66738567002313],[-6.340000000000089,37.644050115553554],[-6.333063084811272,37.639999999999965],[-6.3000000000000895,37.62069574614269],[-6.264588710254044,37.599999999999966],[-6.26000000000009,37.59731812266216],[-6.220000000000091,37.57392213429534],[-6.196219887717995,37.55999999999997],[-6.180000000000092,37.55050381791017],[-6.140000000000093,37.52706471292841],[-6.1279537832768645,37.51999999999997],[-6.100000000000094,37.503605655619246],[-6.060000000000095,37.480123360784944],[-6.0597900180338735,37.47999999999997],[-6.0200000000000955,37.456623514680764],[-5.991732298435715,37.43999999999997],[-5.980000000000096,37.433100371340835],[-5.940000000000097,37.40955727429788],[-5.923776244349893,37.39999999999997],[-5.900000000000098,37.38599327796854],[-5.860000000000099,37.36240681399632],[-5.855921408251972,37.35999999999997],[-5.8200000000001,37.338801917166236],[-5.788170236873025,37.31999999999997],[-5.780000000000101,37.31517369657276],[-5.740000000000101,37.29152616896113],[-5.720520957103794,37.27999999999997],[-5.700000000000102,37.267856984130766],[-5.660000000000103,37.244165913730626],[-5.652971786594156,37.239999999999974],[-5.620000000000104,37.22045571754822],[-5.585524246990823,37.199999999999974],[-5.580000000000105,37.19672217118016],[-5.540000000000106,37.172969777746786]]}},{"type":"Feature","properties":{"magnitude":0.2,"percentagem":20.0,"territorio":"acores"},"geometry":{"type":"LineString","coordinates":[[-28.08107937017351,40.479999999999905],[-28.080866597120043,40.439999999999905],[-28.120000000000083,40.40057112302959],[-28.120571123029766,40.399999999999906],[-28.120352577496188,40.35999999999991],[-28.160000000000082,40.32004906065895],[-28.160049060659126,40.31999999999991],[-28.160000000000082,40.31122247066214],[-28.120000000000086,40.29641334717047],[-28.080000000000084,40.281588353234476],[-28.0757182139327,40.27999999999991],[-28.040000000000084,40.26675104228203],[-28.000000000000085,40.2518982623083],[-27.967989823465377,40.23999999999991],[-27.960000000000086,40.237030366570615],[-27.920000000000087,40.222149746924906],[-27.880000000000084,40.20725318576735],[-27.86054269975758,40.19999999999992],[-27.84000000000009,40.1923427240272],[-27.80000000000009,40.17741824290124],[-27.76000000000009,40.16247777534406],[-27.75337225421455,40.15999999999991],[-27.72000000000009,40.14752465513901],[-27.680000000000092,40.13255618699104],[-27.646481101289183,40.11999999999991],[-27.640000000000093,40.117572338605896],[-27.600000000000094,40.10257581566857],[-27.560000000000095,40.0875632344409],[-27.53986780708997,40.07999999999991],[-27.520000000000095,40.072536577021964],[-27.480000000000096,40.057495859842945],[-27.440000000000097,40.04243903896065],[-27.433526268365362,40.039999999999914],[-27.400000000000098,40.027369478674245],[-27.3600000000001,40.01228444035083],[-27.32745975903187,39.999999999999915],[-27.3200000000001,39.99718400575925],[-27.2800000000001,39.98207069522911],[-27.2400000000001,39.96694120833952],[-27.22166612308959,39.95999999999992],[-27.200000000000102,39.95179771793828],[-27.160000000000103,39.93663987680986],[-27.120000000000104,39.92146581341204],[-27.11613941926948,39.919999999999916],[-27.080000000000105,39.90627917199198],[-27.040000000000102,39.891076671993794],[-27.010885183929364,39.87999999999992],[-27.000000000000107,39.87585900740476],[-26.960000000000107,39.86062801547102],[-26.92000000000011,39.84538072780944],[-26.90589731211262,39.83999999999992],[-26.88000000000011,39.83011975687921],[-26.84000000000011,39.81484389437564],[-26.801172415585288,39.79999999999992],[-26.80000000000011,39.79955180891164],[-26.76000000000011,39.78424731587433],[-26.720000000000113,39.7689264531531],[-26.696717535082847,39.75999999999992],[-26.680000000000113,39.75359090451441],[-26.640000000000114,39.738241327806634],[-26.600000000000115,39.722875334694976],[-26.592521804636696,39.71999999999992],[-26.560000000000116,39.707496225418424],[-26.520000000000117,39.69210143453553],[-26.48858925315881,39.67999999999992],[-26.480000000000118,39.676691057369275],[-26.44000000000012,39.66126741245017],[-26.40000000000012,39.645827276360905],[-26.3849177275145,39.63999999999993],[-26.36000000000012,39.630373179333944],[-26.32000000000012,39.614904104875166],[-26.281501757831165,39.59999999999992],[-26.280000000000122,39.59941864573804],[-26.240000000000123,39.583920576286175],[-26.200000000000124,39.56840594039558],[-26.178348776137128,39.559999999999924],[-26.160000000000124,39.552876600658635],[-26.120000000000125,39.53733288489181],[-26.080000000000126,39.52177255514827],[-26.075447416715832,39.519999999999925],[-26.040000000000127,39.506199235087095],[-26.000000000000128,39.49060974025004],[-25.972804435620468,39.479999999999926],[-25.96000000000013,39.47500490021444],[-25.92000000000013,39.459386183084234],[-25.88000000000013,39.44375077589119],[-25.87041310846715,39.43999999999993],[-25.84000000000013,39.42810179239627],[-25.80000000000013,39.41243707714109],[-25.768274313422648,39.39999999999993],[-25.760000000000133,39.3967564765866],[-25.720000000000134,39.38106239570937],[-25.680000000000135,39.365351548176704],[-25.666387531602936,39.35999999999993],[-25.640000000000136,39.34962663950827],[-25.600000000000136,39.33388634003187],[-25.56474813776792,39.31999999999992],[-25.560000000000137,39.3181297161047],[-25.520000000000138,39.30235990676397],[-25.48000000000014,39.28657325366729],[-25.463360480878883,39.27999999999993],[-25.44000000000014,39.27077215545116],[-25.40000000000014,39.25495590561482],[-25.36221575610053,39.23999999999993],[-25.36000000000014,39.23912299282602],[-25.320000000000142,39.22327708796833],[-25.280000000000143,39.207414261744844],[-25.261321869425444,39.19999999999993],[-25.240000000000144,39.19153670697116],[-25.200000000000145,39.17564413829663],[-25.160667133568577,39.15999999999993],[-25.160000000000146,39.159734668521025],[-25.120000000000147,39.14381229875219],[-25.080000000000148,39.12787292949715],[-25.06026172724787,39.11999999999993],[-25.04000000000015,39.11191864851972],[-25.00000000000015,39.09594939018556],[-24.960092351536787,39.079999999999934],[-24.96000000000015,39.07996309266137],[-24.92000000000015,39.06396388624322],[-24.88000000000015,39.04794760170658],[-24.860170199756098,39.039999999999935],[-24.840000000000153,39.03191632224262],[-24.800000000000153,39.01587000108141],[-24.76048160612803,38.999999999999936],[-24.760000000000154,38.999806602410246],[-24.720000000000155,38.98373018525768],[-24.680000000000156,38.967636610841424],[-24.661037546322156,38.95999999999994],[-24.640000000000157,38.95152805797205],[-24.600000000000158,38.935404298467745],[-24.561825206793678,38.91999999999994],[-24.56000000000016,38.9192635226151],[-24.52000000000016,38.903109518293945],[-24.48000000000016,38.88693827704988],[-24.4628541388659,38.87999999999994],[-24.44000000000016,38.870752173220936],[-24.400000000000162,38.854550597506844],[-24.364113574910466,38.83999999999994],[-24.360000000000163,38.83833216580351],[-24.320000000000164,38.82210019552858],[-24.280000000000165,38.80585090815653],[-24.265610460468277,38.79999999999994],[-24.240000000000165,38.78958697318032],[-24.200000000000166,38.773307201037575],[-24.167337242405985,38.75999999999994],[-24.160000000000167,38.757010832181344],[-24.120000000000168,38.74070051481515],[-24.08000000000017,38.72437279966179],[-24.06929710401186,38.71999999999994],[-24.04000000000017,38.708030750719246]]}}]}