{"type":"FeatureCollection","features":[{"type":"Feature","properties":{"t_inicio":0.727777777777761,"t_fim":1.0777777777777597},"geometry":{"type":"LineString","coordinates":[[-4.207036790402498,25.002649615266865],[-4.074496604959734,25.02188712062202],[-3.9416097351647466,25.040829236061587],[-3.808373330101375,25.059474665022375],[-3.674784510145173,25.07782209381468],[-3.5408403663525405,25.095870191365613],[-3.4065379598354184,25.113617608956037],[-3.2718743211226524,25.131062979951295],[-3.1368464495062085,25.148204919525405],[-3.0014513123727795,25.165042024378472],[-2.8656858445199305,25.18157287244736],[-2.729546947456356,25.19779602260914],[-2.593031488685938,25.21371001437739],[-2.456136300974947,25.22931336759094],[-2.3188581816019678,25.244604582094894],[-2.1811938915900555,25.259582137413915],[-2.0431401549206214,25.2742444924171],[-1.9046936577282736,25.288590084974732],[-1.7658510474763887,25.30261733160625],[-1.6266089321124468,25.31632462711939],[-1.486963879202989,25.32971034424023],[-1.3469124150469156,25.342772833233784],[-1.206451023767272,25.355510421514904],[-1.0655761463798967,25.367921413249213],[-0.9242841798393613,25.380004088943817],[-0.7825714760601556,25.391756705027294],[-0.6404343409136288,25.403177493418923],[-0.4978690331990663,25.414264661086516],[-0.3548717635882781,25.425016389592745],[-0.21143869354318667,25.43543083462945],[-0.06756593420499257,25.44550612553968],[0.07675045474553599,25.45524036482692],[0.22151446625778703,25.46463162765126],[0.3667301471120652,25.473677961311967],[0.5124015991522697,25.482377384716056],[0.6585329805517119,25.49072788783256],[0.8051285071128405,25.4987274311317],[0.9521924536027484,25.506373945008757],[1.099729155124379,25.513665329192122],[1.247743008526328,25.520599452134753],[1.3962384738507865,25.52717415038879],[1.5452200758225274,25.533387227962532],[1.6946924053789871,25.539236455659406],[1.844660121243919,25.544719570397955],[1.9951279515454985,25.549834274512737],[2.146100695480669,25.554578235034867],[2.297583225027296,25.55894908295198],[2.449580486706026,25.562944412446658],[2.602097503393111,25.56656178011262],[2.7551393761868326,25.56979870414788],[2.9087112863284688,25.572652663524053],[3.0628184971807855,25.57512109713101],[3.2174663562654757,25.577201402895916],[3.3726602973618753,25.578890936875716],[3.528405842669372,25.580187012322185],[3.684708605035837,25.58108689871848],[3.8415742902543855,25.581587820786094],[3.9990086994313288,25.58168695746118],[4.157017731427715,25.581381440839092],[4.31560738537766,25.580668355085827],[4.474783763285956,25.579544735315316],[4.634553072708599,25.578007566431012],[4.794921629518797,25.57605378193059],[4.955895860762723,25.573680262672234]]}}]}