{"type":"FeatureCollection","properties":{"largura_maxima_km":null,"largura_sobre_pt_km":null,"linha_central_sobre_pt":false,"desenhavel_como_area":true,"perfil_largura":[{"t":-1.2,"lat":32.8279,"lon":3.5265,"largura_km":null,"eixo_na_terra":false},{"t":-1.19444,"lat":33.5861,"lon":4.9067,"largura_km":null,"eixo_na_terra":false},{"t":-1.18889,"lat":33.9408,"lon":5.3762,"largura_km":null,"eixo_na_terra":false},{"t":-1.18333,"lat":34.1454,"lon":5.4893,"largura_km":null,"eixo_na_terra":false},{"t":-1.17778,"lat":34.4624,"lon":5.8741,"largura_km":null,"eixo_na_terra":false},{"t":-1.17222,"lat":34.7692,"lon":6.364,"largura_km":null,"eixo_na_terra":false},{"t":-1.16667,"lat":35.0925,"lon":6.6685,"largura_km":null,"eixo_na_terra":false},{"t":-1.16111,"lat":35.2622,"lon":6.823,"largura_km":null,"eixo_na_terra":false},{"t":-1.15556,"lat":35.635,"lon":7.3584,"largura_km":null,"eixo_na_terra":false},{"t":-1.15,"lat":35.7723,"lon":7.2245,"largura_km":null,"eixo_na_terra":false},{"t":-1.14444,"lat":35.9657,"lon":7.4399,"largura_km":null,"eixo_na_terra":false},{"t":-1.13889,"lat":36.335,"lon":7.9976,"largura_km":null,"eixo_na_terra":false},{"t":-1.13333,"lat":36.5138,"lon":8.14,"largura_km":null,"eixo_na_terra":false},{"t":-1.12778,"lat":36.8378,"lon":8.5455,"largura_km":null,"eixo_na_terra":false},{"t":-1.12222,"lat":37.0679,"lon":8.7744,"largura_km":null,"eixo_na_terra":false},{"t":-1.11667,"lat":37.3016,"lon":9.0437,"largura_km":null,"eixo_na_terra":false},{"t":-1.11111,"lat":37.5655,"lon":9.3574,"largura_km":null,"eixo_na_terra":false},{"t":-1.10556,"lat":37.882,"lon":9.8541,"largura_km":null,"eixo_na_terra":false}]},"features":[{"type":"Feature","properties":{},"geometry":{"type":"Polygon","coordinates":[[[2.1550328778488392,33.84991390119132],[2.1987293877819485,33.868247005214286],[2.1901647538716507,33.88581197986034],[1.1276685885990612,34.27244245257971],[1.103065722799613,34.26283290446744],[1.1015162623915145,34.28195899162693],[0.9847055645620344,34.32446509828088],[1.0942023194254107,34.37224016946026],[1.0535021716922301,34.87463091715562],[1.2209160890138957,34.95846572467002],[1.107474076387632,35.02193511366855],[2.0280579074863,35.45385305167142],[4.063082451185516,36.42265037958703],[4.394194897372927,36.59068719498821],[4.974179530050719,36.88030278867041],[5.539808842192031,37.15636273021951],[6.094054163984254,37.42010593161439],[6.6385383512537715,37.6722008659754],[7.174105469910899,37.91300323087013],[7.701118258912402,38.142690440241516],[8.219625861057636,38.361337276925276],[8.47564542626975,38.46652734220607],[8.981039554013762,38.668635955570444],[9.230320802395454,38.76554937030907],[9.721774506395946,38.951079007788486],[9.96382200301963,39.03968944562699],[10.4402184265482,39.20859105230602],[10.905863720989089,39.36639584140875],[11.360144710781299,39.51311325237835],[11.582825107253939,39.58232242139023],[12.018859476842863,39.71246973580306],[12.232048953515061,39.77342327803482],[12.648358783358276,39.88713936162232],[12.851313465711655,39.939925937035696],[13.246409782141313,40.037427101321335],[13.626543964255177,40.12427692446868],[13.991072324914228,40.200628570376004],[14.339366261659677,40.2666568444167],[14.670815934371717,40.3225571476988],[14.984833556765636,40.368544240688905],[15.280856330700601,40.40485085085566],[15.558349044017518,40.431726154074084],[15.816806347675936,40.4494341558609],[15.938747455809334,40.454936559353605],[16.05575472529057,40.458251995669364],[16.167774215017346,40.45941687197414],[16.274754167058177,40.458468195181254],[16.37664504363778,40.45544351546655],[16.47339955998433,40.45038086960675],[16.56497271314447,40.443318724261374],[16.651321806876865,40.43429591931274],[16.73240647273957,40.42335161137376],[16.808188687490144,40.410525217567425],[16.878632786921855,40.39585635967677],[16.94370547626329,40.379384808759475],[17.00337583727088,40.36115043031549],[17.057615332148657,40.34119313009206],[17.106397804429548,40.319552800604754],[17.149699476957267,40.29626926844927],[17.187498947106747,40.27138224247339],[17.219777179383527,40.24493126287436],[17.246517495541866,40.21695565128208],[17.267705562361698,40.18749446188477],[17.28332937722348,40.15658643364843],[17.29337925161809,40.12426994367823],[17.29784779272802,40.09058296176528],[17.296729883211412,40.05556300615829],[17.290022659321778,40.01924710059582],[17.277725487485725,39.98167173263095],[17.259839939465166,39.94287281327645],[17.23636976621816,39.9028856379948],[17.207320870572744,39.86174484905391],[17.172701278821535,39.81948439926616],[17.132521111335052,39.77613751712424],[17.086792552291797,39.73173667334462],[17.035529818610485,39.686313548825844],[16.97874912816502,39.63989900402519],[16.916468667355446,39.59252304975451],[16.8487085580976,39.54421481939229],[16.775490824288,39.495002542505524],[16.69683935778869,39.44491351987193],[16.61277988396904,39.39397409988892],[16.52333992682901,39.342209656352246],[16.39014043018674,39.26917943126276],[16.255970274496462,39.1825703450245],[16.169018320590737,39.13020719040986],[16.076494938085546,39.0769286933726],[15.936887025941253,39.00068620239111],[15.79854341820436,38.91216056434854],[15.708369197211653,38.85821943803433],[15.612406408284869,38.80326055005813],[15.465577739484957,38.72341546244922],[15.322609183018812,38.63277903128341],[15.228817545970458,38.57707535377313],[15.128987758752714,38.520236511808136],[14.973956196712287,38.43631834488262],[14.825818000532479,38.34333570044101],[14.727928754867776,38.28564544998977],[14.623710853311877,38.22668373703324],[14.459270686946454,38.138116696606765],[14.305295213404008,38.04249794148658],[14.20271510967001,37.982544710728654],[14.093463098333132,37.92115937274126],[13.91810727158704,37.827226025060675],[13.75746066710849,37.7286074057564],[13.649442295617916,37.666043422822796],[13.534339003670539,37.601854498185155],[13.346142850986482,37.50164154327537],[13.177759885316618,37.39955620825547],[13.0633391394623,37.33393348067993],[12.94132525047661,37.266449060990524],[12.737765598038434,37.158763088658354],[12.56024731148699,37.052595063614504],[12.438143962535833,36.98331953174676],[12.307804131301566,36.91188326052457],[12.085463688033851,36.79511329585176],[11.896908033081388,36.684021175478314],[11.765358792360189,36.61027578680037],[11.62472818867866,36.53397773237446],[11.378781752712644,36.40585669176162],[11.176484262009694,36.28863849763574],[11.032942280148745,36.209244829061525],[10.879153028242229,36.12675870292412],[10.602399916116163,35.983914853123785],[10.38227680295904,35.85874705159383],[10.222818502351686,35.771892349701055],[10.05138721858998,35.68114770225315],[9.732219292556257,35.518164116227354],[9.48755465238986,35.382033727798905],[9.305548035371714,35.284658529168674],[9.108727638155017,35.18208293004333],[8.726130048192903,34.98918694287163],[8.444328253309322,34.83641644609603],[8.226800242437491,34.722545299601045],[7.988860923223115,34.6008960978816],[7.72812769032015,34.470385663629926],[7.496512340054536,34.35662156072902],[7.1477519286020765,34.17370492757522],[6.86144983461287,34.028046284509905],[6.538727901708228,33.86725061863853],[6.170516201047519,33.6871646194274],[5.7790164222876985,33.49880648615769],[5.2375524242014535,33.22851515961613],[4.697822666269474,32.96631388143472],[3.916413310389487,32.59483350598741],[3.901011787150266,32.619161140611546],[3.461349725361913,32.41554774237191],[3.36027567376355,32.530738655047074],[3.0395668286487876,32.38558510563062],[3.047819129037516,32.63522478415064],[2.840756556873714,32.54304273828059],[2.786463987479774,33.009400221748685],[2.6469987891836695,32.94890348712687],[2.4846693069494337,33.28182060531489],[2.242844897362829,33.17825628222019],[2.3020705689020837,33.65630738873095],[2.2499598285053626,33.76317988829629],[2.1550328778488392,33.84991390119132]]]}}]}