{"type":"FeatureCollection","properties":{"largura_maxima_km":301.233,"largura_sobre_pt_km":284.718,"linha_central_sobre_pt":true,"desenhavel_como_area":true,"perfil_largura":[{"t":1.63889,"lat":42.2495,"lon":-39.8521,"largura_km":261.589,"eixo_na_terra":true},{"t":1.64444,"lat":42.1976,"lon":-39.5826,"largura_km":261.955,"eixo_na_terra":true},{"t":1.65,"lat":42.1448,"lon":-39.3112,"largura_km":262.325,"eixo_na_terra":true},{"t":1.65556,"lat":42.0912,"lon":-39.0378,"largura_km":262.699,"eixo_na_terra":true},{"t":1.66111,"lat":42.0365,"lon":-38.7623,"largura_km":263.077,"eixo_na_terra":true},{"t":1.66667,"lat":41.981,"lon":-38.4847,"largura_km":263.458,"eixo_na_terra":true},{"t":1.67222,"lat":41.9245,"lon":-38.205,"largura_km":263.844,"eixo_na_terra":true},{"t":1.67778,"lat":41.867,"lon":-37.923,"largura_km":264.233,"eixo_na_terra":true},{"t":1.68333,"lat":41.8084,"lon":-37.6387,"largura_km":264.627,"eixo_na_terra":true},{"t":1.68889,"lat":41.7489,"lon":-37.3521,"largura_km":265.025,"eixo_na_terra":true},{"t":1.69444,"lat":41.6883,"lon":-37.0631,"largura_km":265.428,"eixo_na_terra":true},{"t":1.7,"lat":41.6266,"lon":-36.7717,"largura_km":265.837,"eixo_na_terra":true},{"t":1.70556,"lat":41.5638,"lon":-36.4777,"largura_km":266.252,"eixo_na_terra":true},{"t":1.71111,"lat":41.4999,"lon":-36.1811,"largura_km":266.671,"eixo_na_terra":true},{"t":1.71667,"lat":41.4349,"lon":-35.8818,"largura_km":267.096,"eixo_na_terra":true},{"t":1.72222,"lat":41.3687,"lon":-35.5797,"largura_km":267.525,"eixo_na_terra":true},{"t":1.72778,"lat":41.3012,"lon":-35.2748,"largura_km":267.959,"eixo_na_terra":true},{"t":1.73333,"lat":41.2325,"lon":-34.967,"largura_km":268.399,"eixo_na_terra":true},{"t":1.73889,"lat":41.1626,"lon":-34.6561,"largura_km":268.843,"eixo_na_terra":true},{"t":1.74444,"lat":41.0913,"lon":-34.3421,"largura_km":269.294,"eixo_na_terra":true},{"t":1.75,"lat":41.0187,"lon":-34.0249,"largura_km":269.749,"eixo_na_terra":true},{"t":1.75556,"lat":40.9447,"lon":-33.7043,"largura_km":270.211,"eixo_na_terra":true},{"t":1.76111,"lat":40.8692,"lon":-33.3803,"largura_km":270.678,"eixo_na_terra":true},{"t":1.76667,"lat":40.7924,"lon":-33.0527,"largura_km":271.152,"eixo_na_terra":true},{"t":1.77222,"lat":40.7139,"lon":-32.7214,"largura_km":271.632,"eixo_na_terra":true},{"t":1.77778,"lat":40.634,"lon":-32.3863,"largura_km":272.122,"eixo_na_terra":true},{"t":1.78333,"lat":40.5524,"lon":-32.0472,"largura_km":272.618,"eixo_na_terra":true},{"t":1.78889,"lat":40.4692,"lon":-31.7039,"largura_km":273.122,"eixo_na_terra":true},{"t":1.79444,"lat":40.3842,"lon":-31.3564,"largura_km":273.633,"eixo_na_terra":true},{"t":1.8,"lat":40.2975,"lon":-31.0044,"largura_km":274.152,"eixo_na_terra":true},{"t":1.80556,"lat":40.2089,"lon":-30.6477,"largura_km":274.679,"eixo_na_terra":true},{"t":1.81111,"lat":40.1184,"lon":-30.2861,"largura_km":275.214,"eixo_na_terra":true},{"t":1.81667,"lat":40.0259,"lon":-29.9195,"largura_km":275.757,"eixo_na_terra":true},{"t":1.82222,"lat":39.9314,"lon":-29.5476,"largura_km":276.31,"eixo_na_terra":true},{"t":1.82778,"lat":39.8347,"lon":-29.1701,"largura_km":276.872,"eixo_na_terra":true},{"t":1.83333,"lat":39.7357,"lon":-28.7868,"largura_km":277.447,"eixo_na_terra":true},{"t":1.83889,"lat":39.6345,"lon":-28.3974,"largura_km":278.035,"eixo_na_terra":true},{"t":1.84444,"lat":39.5307,"lon":-28.0016,"largura_km":278.633,"eixo_na_terra":true},{"t":1.85,"lat":39.4244,"lon":-27.599,"largura_km":279.244,"eixo_na_terra":true},{"t":1.85556,"lat":39.3154,"lon":-27.1893,"largura_km":279.868,"eixo_na_terra":true},{"t":1.86111,"lat":39.2036,"lon":-26.7721,"largura_km":280.505,"eixo_na_terra":true},{"t":1.86667,"lat":39.0888,"lon":-26.3469,"largura_km":281.156,"eixo_na_terra":true},{"t":1.87222,"lat":38.9709,"lon":-25.9133,"largura_km":281.827,"eixo_na_terra":true},{"t":1.87778,"lat":38.8496,"lon":-25.4707,"largura_km":282.519,"eixo_na_terra":true},{"t":1.88333,"lat":38.7248,"lon":-25.0184,"largura_km":283.229,"eixo_na_terra":true},{"t":1.88889,"lat":38.5963,"lon":-24.556,"largura_km":283.962,"eixo_na_terra":true},{"t":1.89444,"lat":38.4637,"lon":-24.0825,"largura_km":284.718,"eixo_na_terra":true},{"t":1.9,"lat":38.3269,"lon":-23.5972,"largura_km":285.51,"eixo_na_terra":true},{"t":1.90556,"lat":38.1855,"lon":-23.0991,"largura_km":286.334,"eixo_na_terra":true},{"t":1.91111,"lat":38.0391,"lon":-22.5872,"largura_km":287.192,"eixo_na_terra":true},{"t":1.91667,"lat":37.8873,"lon":-22.0602,"largura_km":288.101,"eixo_na_terra":true},{"t":1.92222,"lat":37.7296,"lon":-21.5167,"largura_km":289.063,"eixo_na_terra":true},{"t":1.92778,"lat":37.5656,"lon":-20.9551,"largura_km":290.096,"eixo_na_terra":true},{"t":1.93333,"lat":37.3945,"lon":-20.3734,"largura_km":291.214,"eixo_na_terra":true},{"t":1.93889,"lat":37.2156,"lon":-19.7692,"largura_km":292.465,"eixo_na_terra":true},{"t":1.94444,"lat":37.0279,"lon":-19.1398,"largura_km":293.893,"eixo_na_terra":true},{"t":1.95,"lat":36.8302,"lon":-18.4818,"largura_km":295.605,"eixo_na_terra":true},{"t":1.95556,"lat":36.6213,"lon":-17.7908,"largura_km":297.811,"eixo_na_terra":true},{"t":1.96111,"lat":36.3992,"lon":-17.0616,"largura_km":301.233,"eixo_na_terra":true},{"t":1.96667,"lat":35.5551,"lon":-13.8494,"largura_km":null,"eixo_na_terra":false},{"t":1.97222,"lat":35.3428,"lon":-13.2631,"largura_km":null,"eixo_na_terra":false},{"t":1.97778,"lat":35.0725,"lon":-12.4764,"largura_km":null,"eixo_na_terra":false},{"t":1.98333,"lat":34.9919,"lon":-12.4586,"largura_km":null,"eixo_na_terra":false},{"t":1.98889,"lat":34.8013,"lon":-12.0178,"largura_km":null,"eixo_na_terra":false},{"t":1.99444,"lat":34.6647,"lon":-11.7962,"largura_km":null,"eixo_na_terra":false},{"t":2.0,"lat":34.3985,"lon":-11.2289,"largura_km":null,"eixo_na_terra":false},{"t":2.00556,"lat":34.2581,"lon":-10.8779,"largura_km":null,"eixo_na_terra":false},{"t":2.01111,"lat":34.1804,"lon":-10.8949,"largura_km":null,"eixo_na_terra":false},{"t":2.01667,"lat":33.8379,"lon":-9.9644,"largura_km":null,"eixo_na_terra":false},{"t":2.02222,"lat":33.74,"lon":-9.9125,"largura_km":null,"eixo_na_terra":false},{"t":2.02778,"lat":33.5678,"lon":-9.6035,"largura_km":null,"eixo_na_terra":false},{"t":2.03333,"lat":33.312,"lon":-9.0166,"largura_km":null,"eixo_na_terra":false},{"t":2.03889,"lat":33.0547,"lon":-8.2601,"largura_km":null,"eixo_na_terra":false},{"t":2.04444,"lat":32.7455,"lon":-7.6964,"largura_km":null,"eixo_na_terra":false},{"t":2.05,"lat":32.3629,"lon":-6.7263,"largura_km":null,"eixo_na_terra":false}]},"features":[{"type":"Feature","properties":{},"geometry":{"type":"Polygon","coordinates":[[[-14.87226699618563,34.30482802165442],[-15.345406263246105,34.45223954724041],[-15.749962676805449,34.58399960290923],[-16.221275726251747,34.72930494684512],[-16.589765004624763,34.84882233211625],[-17.03175835858599,34.9839727904111],[-17.371115521023132,35.093578530501006],[-17.789448237969225,35.22047020663667],[-18.104600891997215,35.3218237124914],[-18.503367355107372,35.4418296185287],[-18.79796628783361,35.53616271088054],[-19.18024022759397,35.650314395092344],[-19.457079991546223,35.7385718785324],[-19.82523740572489,35.847667293960605],[-19.981375521079514,35.8965309333524],[-20.1672739346443,35.957174602582036],[-21.236305555714637,36.27860333486079],[-22.343434482711245,36.608612337216684],[-23.449682108546853,36.93227605302503],[-24.427853952931002,37.21584560834067],[-25.806841547270608,37.60883492965011],[-26.67632768188028,37.85233591951639],[-27.566845013342174,38.09718242285845],[-28.36983200390145,38.315602237356146],[-29.145702806444888,38.52362207987943],[-29.897088950562903,38.72215461550606],[-30.626228294668408,38.911978301666686],[-31.335042427179104,39.09376360460182],[-32.36373534896279,39.3526234956973],[-33.02856388555017,39.51670568217453],[-33.67804101641025,39.67449638227798],[-34.31322990977196,39.826371821895],[-35.24126851997886,40.04382043248115],[-35.84467075851606,40.18230651317188],[-36.72865524921994,40.380966395700526],[-37.304834566730506,40.50769653695134],[-38.111646189723274,40.68180148099018],[-38.66472652286177,40.7982970625467],[-39.47826073937449,40.965792022295716],[-40.273718993515786,41.12503840778078],[-41.05233875369669,41.2764917312401],[-38.46164909271505,43.20617889893566],[-37.89310073417818,43.095764744233485],[-37.31556921664628,42.98139483021753],[-36.4313639369318,42.80204460243159],[-35.52403633702224,42.6127626609088],[-34.86322583764084,42.47123547770583],[-33.911443230352006,42.263268496949046],[-33.26067250942057,42.11791543155236],[-32.257858793771845,41.889031250133634],[-31.570009919586198,41.72867566690644],[-30.45888394714933,41.46343575816374],[-29.725082673406604,41.2849867695274],[-28.58476712813581,41.00202054952592],[-27.79515012954778,40.802164090227514],[-26.97915009033366,40.59237156377883],[-26.079024045252197,40.356390645737186],[-25.198769919747548,40.12280921106041],[-24.281065997082038,39.8755768206779],[-23.80654156649564,39.74629768949256],[-22.24618913287466,39.31342450040427],[-21.174103892493292,39.01118788217557],[-19.959705593410774,38.662118561631075],[-19.354396443305177,38.48692295560896],[-17.987034171768528,38.08471549666875],[-16.47520221045997,37.63294464190157],[-15.60221346562139,37.367633099077096],[-14.661780262818354,37.079284861130574],[-13.52962017109266,36.72534587017724],[-13.050602613467682,36.57231868277579],[-12.548013214952476,36.43099603879212],[-12.253670303736385,36.3453791556386],[-11.654288861946753,36.16504951645119],[-11.349104168626184,36.070265752533935],[-10.794164371907323,35.89287869117723],[-10.326046258359753,35.74954188534919],[-9.959410379528578,35.63470172714427],[-9.256486855355336,35.40910329513488],[-8.662614279614587,35.22472230443584],[-8.169643034528406,35.06882602846998],[-7.104070773662446,34.72555156455905],[-6.092958940133599,34.4058989377405],[-4.917522991722791,34.02927419520549],[-4.926289023467089,34.01832908785118],[-4.849722701332382,33.994210264001744],[-4.853382188602419,33.98939029205648],[-3.6941392632399754,33.610908154252],[-4.728660895367236,32.89561011105656],[-4.728469975874617,32.7249891955873],[-4.907000477531627,32.77230098905766],[-5.3903354342836085,32.43810928340746],[-5.421848875861402,32.36665812468523],[-5.240342127108335,31.535266861021583],[-5.7224669377976936,31.68505980400818],[-5.830223494676176,31.44074085744442],[-6.306801899994298,31.593042976534708],[-6.325899459155266,31.519660112354643],[-6.596712114875845,31.61033672358468],[-8.43787275121349,32.21388537572936],[-9.585450662981053,32.59481033347922],[-10.56318900576781,32.91095120094962],[-11.329144868100787,33.1643161981215],[-12.074804238616366,33.402730351208646],[-12.681692582368823,33.60274483731891],[-13.312631100817896,33.80248196309978],[-13.826549985062746,33.97120784235104],[-14.38562466323765,34.14656741914518],[-14.87226699618563,34.30482802165442]]]}}]}