{"type":"FeatureCollection","features":[{"type":"Feature","properties":{"t_inicio":-1.605555555555564,"t_fim":-0.06666666666668064},"geometry":{"type":"LineString","coordinates":[[-39.93460474373356,41.27141300859592],[-39.698198128257076,41.30626914652748],[-39.46285348730163,41.34039576912978],[-39.228555495371126,41.373801063985304],[-38.99528924876671,41.40649302408588],[-38.76304025032792,41.438479454601186],[-38.53179439485288,41.469767979347274],[-38.30153795516043,41.500366046970825],[-38.07225756876025,41.53028093686462],[-37.84394022509895,41.559519764827904],[-37.61657325335142,41.58808948848525],[-37.39014431073008,41.61599691247604],[-37.164641371284574,41.64324869342662],[-36.94005271516761,41.66985134471569],[-36.71636691834294,41.69581124104368],[-36.49357284271403,41.72113462281543],[-36.27165962665191,41.74582760034579],[-36.05061667590317,41.76989615789641],[-35.830433654859405,41.79334615755191],[-35.61110047817067,41.81618334294343],[-35.39260730268677,41.83841334282638],[-35.17494451971049,41.860041674519486],[-34.95810274754851,41.881073747211616],[-34.742072824345996,41.901514865142275],[-34.52684580119171,41.921370230661985],[-34.31241293548146,41.94064494717745],[-34.09876568452813,41.959344021987135],[-33.88589569940683,41.977472369012105],[-33.67379481902569,41.99503481142645],[-33.46245506441096,42.012036084192225],[-33.251868633198,42.02848083650252],[-33.04202789431926,42.044373634137145],[-32.83292538287981,42.05971896173434],[-32.62455379521333,42.074521224982156],[-32.41690598411077,42.08878475273304],[-32.20997495421372,42.10251379904477],[-32.003753857566664,42.115712545150686],[-31.798235989320403,42.12838510136242],[-31.593414783581494,42.14053550890744],[-31.38928380940098,42.15216774170473],[-31.185836766896955,42.163285708080444],[-30.98306748350612,42.173893252426225],[-30.78096991035801,42.18399415680276],[-30.579538118768482,42.193592142490004],[-30.378766296846464,42.202690871487064],[-30.178648746210627,42.21129394796289],[-29.97917987881081,42.21940491966036],[-29.78035421385087,42.227027279254905],[-29.582166374808537,42.234164465670126],[-29.384611086549285,42.24081986535126],[-29.187683172529802,42.24699681349875],[-28.991377552088352,42.252698595263055],[-28.795689237818806,42.25792844690218],[-28.600613333024825,42.26268955690334],[-28.40614502925169,42.266985067070195],[-28.21227960389257,42.2708180735767],[-28.01901241786709,42.27419162798878],[-27.82633891336897,42.27710873825529],[-27.634254611680888,42.27957236966912],[-27.442755111053515,42.281585445799145],[-27.25183608464721,42.28315084939515],[-27.061493278533646,42.28427142326525],[-26.871722509755443,42.28494997112799],[-26.682519664442026,42.285189258439196],[-26.493880695979357,42.284992013194795],[-26.305801623232043,42.28436092671061],[-26.11827852881615,42.28329865437926],[-25.931307557420496,42.28180781640573],[-25.74488491417543,42.2798909985218],[-25.55900686306711,42.277550752680085],[-25.3736697253959,42.2747895977287],[-25.1888698782775,42.27161002006681],[-25.00460375318545,42.26801447428189],[-24.820867834533345,42.2640053837692],[-24.63765865829606,42.2595851413342],[-24.45497281066818,42.254756109778256],[-24.272806926758733,42.249520622468275],[-24.091157689321136,42.24388098389091],[-23.910021827517028,42.237839470191496],[-23.729396115713115,42.23139832969855],[-23.549277372309973,42.22455978343412],[-23.36966245860168,42.217326025610284],[-23.19054827766547,42.209699224112654],[-23.011931773280764,42.20168152097075],[-22.833809928875723,42.19327503281612],[-22.65617976650188,42.18448185132827],[-22.47903834583485,42.175304043668845],[-22.30238276320094,42.16574365290461],[-22.12621015062851,42.155802698419265],[-21.950517674924015,42.14548317631457],[-21.775302536770994,42.13478705980125],[-21.600561969852237,42.1237162995797],[-21.42629323999421,42.11227282421087],[-21.25249364433256,42.10045854047796],[-21.07916051049898,42.08827533373853],[-20.90629119582809,42.07572506826794],[-20.73388308658417,42.062809587594074],[-20.561933597206888,42.04953071482349],[-20.39044016957598,42.03589025295962],[-20.21940027229354,42.02188998521274],[-20.048811399984288,42.007531675302474],[-19.878671072612804,41.99281706775263],[-19.708976834817236,41.97774788817875],[-19.53972625525941,41.9623258435686],[-19.3709169259904,41.946552622555814],[-19.20254646183156,41.93042989568663],[-19.034612499770333,41.91395931568036],[-18.86711269837045,41.89714251768333],[-18.70004473719635,41.879981119516664],[-18.533406316251074,41.862476721918256],[-18.367195155427538,41.84463090877854],[-18.20140899397296,41.826445247370906],[-18.036045589965454,41.80792128857644],[-17.871102719803304,41.78906056710325],[-17.70657817770592,41.76986460170064],[-17.542469775226436,41.75033489536799],[-17.378775340775917,41.73047293555894],[-17.21549271915788,41.71028019438052],[-17.052619771114422,41.68975812878759],[-16.89015437288208,41.6689081807727],[-16.728094415758108,41.64773177755157],[-16.56643780567677,41.62623033174402],[-16.40518246279504,41.60440524155078],[-16.24432632108784,41.58225789092612],[-16.083867327952277,41.55978964974639],[-15.923803443821043,41.5370018739747],[-15.764132641784101,41.513895905821705],[-15.60485290721914,41.4904730739026],[-15.445962237430138,41.46673469339062],[-15.287458641293853,41.44268206616668],[-15.12934013891433,41.418316480965906],[-14.97160476128471,41.39363921352046],[-14.814250549956796,41.36865152669916],[-14.657275556717565,41.34335467064398],[-14.500677843272769,41.31774988290315],[-14.344455480937455,41.29183838856142],[-14.188606550333105,41.26562140036712],[-14.033129141091337,41.239100118856385],[-13.878021351563746,41.21227573247448],[-13.723281288538203,41.185149417694376],[-13.568907066960946,41.15772233913239],[-13.414896809664498,41.12999564966142],[-13.261248647101553,41.10197049052139],[-13.107960717084069,41.07364799142707],[-12.955031164528066,41.0450292706737],[-12.802458141203402,41.016115435239726],[-12.650239805489036,40.986907580887525],[-12.498374322132946,40.95740679226161],[-12.346859862017084,40.927614142984574],[-12.195694601927102,40.89753069575076],[-12.04487672432657,40.86715750241783],[-11.894404417135718,40.83649560409608],[-11.744275873514681,40.80554603123578],[-11.59448929165086,40.77430980371225],[-11.445042874550353,40.74278793090919],[-11.295934829833755,40.71098141179981],[-11.147163369535377,40.678891235026185],[-10.998726709906748,40.646518378976566],[-10.850623071223652,40.61386381186098],[-10.702850677596615,40.58092849178491],[-10.555407756785144,40.54771336682128],[-10.40829254001531,40.5142193750805],[-10.261503261800556,40.480447444779124],[-10.115038159765874,40.44639849430647],[-9.968895474474976,40.4120734322898],[-9.823073449260676,40.37747315765788],[-9.677570330058018,40.34259855970283],[-9.532384365240432,40.30745051814046],[-9.387513805458752,40.272029903169155],[-9.24295690348265,40.23633757552717],[-9.09871191404494,40.20037438654839],[-8.954777093688506,40.16414117821675],[-8.811150700615258,40.12763878321918],[-8.667830994538065,40.09086802499714],[-8.524816236534576,40.0538297177967],[-8.38210468890341,40.01652466671742],[-8.239694615022643,39.97895366775971],[-8.097584279210224,39.94111750787097],[-7.955771946586452,39.90301696499046],[-7.814255882938539,39.864652808092764],[-7.67303435458706,39.82602579723016],[-7.532105628253902,39.78713668357355],[-7.391467970932609,39.747986209452336],[-7.251119649759744,39.70857510839307],[-7.111058931888408,39.66890410515673],[-6.971284084363191,39.62897391577509],[-6.831793373996419,39.58878524758574],[-6.692585067246199,39.54833879926597],[-6.5536574300956545,39.50763526086564],[-6.415008727933667,39.466675313838834],[-6.276637225436616,39.4254596310744],[-6.138541186451789,39.3839888769255],[-6.000718873881453,39.3422637072379],[-5.863168549568542,39.30028476937739],[-5.725888474183108,39.25805270225605],[-5.588876907109864,39.215568136357454],[-5.452132106336677,39.17283169376086],[-5.3156523283440436,39.129843988164296],[-5.179435827995377,39.08660562490683],[-5.043480858428012,39.04311720098966],[-4.9077856709452305,38.999379305096156],[-4.772348514908714,38.95539251761108],[-4.637167637631762,38.9111574106387],[-4.5022412842732535,38.866674548019986],[-4.367567697731971,38.82194448534876],[-4.233145118541614,38.77696776998693],[-4.098971784766121,38.73174494107875],[-3.9650459318956734,38.6862765295642],[-3.83136579274273,38.6405630581912],[-3.6979295973387423,38.59460504152713],[-3.564735572830898,38.54840298596924],[-3.431781943379292,38.50195738975421],[-3.299066930054238,38.45526874296669],[-3.1665887507336947,38.408337527546976],[-3.0343456200008347,38.36116421729773],[-2.9023357490417254,38.31374927788977],[-2.770557345542983,38.26609316686694],[-2.6390086135894535,38.21819633365003],[-2.5076877535617257,38.170059219539766],[-2.376592962033783,38.12168225771898],[-2.245722431670174,38.073065873253654],[-2.1150743511233827,38.02421048309323],[-1.9846469049305142,37.975116496069894],[-1.8544382734101816,37.925784312897015],[-1.7244466325587666,37.87621432616644],[-1.594670153946339,37.826406920345214],[-1.4651070046124062,37.77636247177104],[-1.3357553469608945,37.72608134864696],[-1.206613338654904,37.67556391103511],[-1.0776791325108661,37.624810510849464],[-0.9489508763920753,37.57382149184765],[-0.8204267131016252,37.52259718962189],[-0.6921047802748035,37.471137931588856],[-0.5639832102705498,37.41944403697874],[-0.43606013006248645,37.36751581682315],[-0.3083336611289269,37.31535357394223],[-0.18080191934208756,37.26295760293074],[-0.053463014856617974,37.210328190143],[0.07368494800311964,37.157465613677246],[0.20064387085631097,37.10437014335845],[0.32741566138037115,37.05104204072061],[0.4540022334263085,36.997481558987786],[0.5804055071355094,36.94368894305414],[0.7066274090573188,36.88966442946304],[0.8326698722680987,36.835408246385015],[0.9585348364913955,36.78092061359475],[1.0842242482193,36.72620174244698],[1.209740060835287,36.67125183585129],[1.3350842347382752,36.616071088245974],[1.4602587374683083,36.560659685570585],[1.5852655438334011,36.5050178052376],[1.7101066360382333,36.44914561610281],[1.8347840038140646,36.39304327843468],[1.959299644550697,36.33671094388256],[2.0836555634295735,36.28014875544363],[2.207853773559094,36.223356847428896],[2.3318962961113243,36.16633534542776],[2.455785160460806,36.10908436627155],[2.579522404325104,36.05160401799585],[2.703110073907169,35.99389439980139],[2.8265502240400338,35.93595560201405],[2.9498449183332127,35.87778770604313],[3.072996229321319,35.819390784338836],[3.1960062386149843,35.760764900348086],[3.31887703705371,35.70191010846916],[3.441610724861306,35.64282645400496],[3.564209411803432,35.583513973115004],[3.6866752173476414,35.523972692765895],[3.809010270825979,35.464202630680404],[3.9312167115998875,35.4042037952853],[4.053296689227949,35.343976185657496],[4.175252363636105,35.28351979146886],[4.2970859052908,35.222834592929516],[4.4187994953747705,35.161920560729534],[4.540395325965676,35.10077765597923],[4.66187560021794,35.03940583014766],[4.783242532547405,34.97780502499976],[4.904498348819004,34.91597517253164]]}}]}