{"type":"FeatureCollection","features":[{"type":"Feature","properties":{"magnitude":0.9,"percentagem":90.0,"territorio":"continente"},"geometry":{"type":"LineString","coordinates":[[-10.5,36.84382493867006],[-10.48475382980361,36.83999999999998],[-10.46,36.833788649634585],[-10.420000000000002,36.82372351439369],[-10.380000000000003,36.81362914581621],[-10.340000000000005,36.8035055218448],[-10.326186529436495,36.79999999999998],[-10.300000000000004,36.793353245455734],[-10.260000000000005,36.783171999300265],[-10.220000000000006,36.7729614312185],[-10.180000000000007,36.762721519235456],[-10.169397149324176,36.75999999999999],[-10.140000000000008,36.75245294157879],[-10.100000000000009,36.74215522849059],[-10.06000000000001,36.73182810515978],[-10.02000000000001,36.721471549700354],[-10.014331164974184,36.719999999999985],[-9.980000000000011,36.711086356006035],[-9.940000000000012,36.70067182076636],[-9.900000000000013,36.69022778726924],[-9.860938349853622,36.679999999999986],[-9.860000000000014,36.679754255944495],[-9.820000000000014,36.66925210847552],[-9.780000000000015,36.65872039678081],[-9.740000000000016,36.64815909914395],[-9.709182426209649,36.639999999999986],[-9.700000000000017,36.637568410684096],[-9.660000000000018,36.62694882092335],[-9.620000000000019,36.61629957950344],[-9.58000000000002,36.605620664815895],[-9.559002097614052,36.59999999999999],[-9.54000000000002,36.59491250250768],[-9.500000000000021,36.584175117957244],[-9.460000000000022,36.57340799469599],[-9.420000000000023,36.56261111123032],[-9.410350838035168,36.55999999999999],[-9.380000000000024,36.55178515793264],[-9.340000000000025,36.540929627341626],[-9.300000000000026,36.530044271399824],[-9.26319073812943,36.51999999999999],[-9.260000000000026,36.519129143243845],[-9.220000000000027,36.5081850070045],[-9.180000000000028,36.49721098049385],[-9.140000000000029,36.48620704243452],[-9.117495215811072,36.47999999999999],[-9.10000000000003,36.475173578481375],[-9.06000000000003,36.46411068380205],[-9.020000000000032,36.453017812991725],[-8.980000000000032,36.441894944907716],[-8.973202009996236,36.43999999999999],[-8.940000000000033,36.43074282732159],[-8.900000000000034,36.41956082695371],[-8.860000000000035,36.40834876509197],[-8.830292383425183,36.39999999999999],[-8.820000000000036,36.39710685788046],[-8.780000000000037,36.385835531741336],[-8.740000000000038,36.374534080164686],[-8.700000000000038,36.36320248225977],[-8.68872286536282,36.35999999999999],[-8.66000000000004,36.351841375776424],[-8.62000000000004,36.34045033919909],[-8.580000000000041,36.32902909275515],[-8.548459278472983,36.31999999999999],[-8.540000000000042,36.31757780861114],[-8.500000000000043,36.30609699244379],[-8.460000000000043,36.29458590318157],[-8.420000000000044,36.28304452020901],[-8.409473503727448,36.279999999999994],[-8.380000000000045,36.271473491455524],[-8.340000000000046,36.25987236585275],[-8.300000000000047,36.24824088376097],[-8.271731231088436,36.239999999999995],[-8.260000000000048,36.23657928923441],[-8.220000000000049,36.224887934572564],[-8.18000000000005,36.213166160987456],[-8.14000000000005,36.201413948162795],[-8.135198538062536,36.199999999999996],[-8.100000000000051,36.189632064773505],[-8.060000000000052,36.17781980818721],[-8.020000000000053,36.16597705042201],[-7.999860598112074,36.16],[-7.980000000000054,36.154104213657945],[-7.940000000000055,36.14220128347705],[-7.900000000000055,36.13026779055753],[-7.86566966394423,36.12],[-7.860000000000056,36.11830384034195],[-7.820000000000057,36.10631004693635],[-7.780000000000058,36.094285629627635],[-7.740000000000059,36.08223056856875],[-7.7326155163566215,36.08],[-7.70000000000006,36.070145560754085],[-7.6600000000000605,36.05803003084984],[-7.620000000000062,36.04588379659257],[-7.600669031478338,36.04],[-7.580000000000062,36.03370728937834],[-7.540000000000063,36.02150045975117],[-7.500000000000064,36.00926286559965],[-7.469796736286489,36.0]]}},{"type":"Feature","properties":{"magnitude":0.95,"percentagem":95.0,"territorio":"continente"},"geometry":{"type":"LineString","coordinates":[[-10.5,38.48900652569559],[-10.462574146624696,38.47999999999995],[-10.46,38.47938043782196],[-10.420000000000002,38.46972758426493],[-10.380000000000003,38.46004685344032],[-10.340000000000003,38.45033822330754],[-10.300000000000004,38.44060167183659],[-10.297534626739282,38.43999999999995],[-10.260000000000005,38.43083827125663],[-10.220000000000006,38.42104697758633],[-10.180000000000007,38.411227696871485],[-10.140000000000008,38.40138040711557],[-10.134407312880217,38.39999999999995],[-10.100000000000009,38.39150609025201],[-10.06000000000001,38.38160388400296],[-10.02000000000001,38.37167360305018],[-9.980000000000011,38.36171522543614],[-9.973128210581502,38.35999999999995],[-9.940000000000012,38.351729696403225],[-9.900000000000013,38.3417162278669],[-9.860000000000014,38.33167459706806],[-9.820000000000014,38.32160478209387],[-9.813641652206707,38.31999999999994],[-9.780000000000015,38.311507743599776],[-9.740000000000016,38.30138266318668],[-9.700000000000017,38.29122933307646],[-9.66000000000002,38.28104773140671],[-9.655894166271546,38.27999999999995],[-9.620000000000019,38.270838884839776],[-9.58000000000002,38.26060184317626],[-9.54000000000002,38.25033646452938],[-9.500000000000021,38.24004272709297],[-9.499834376906941,38.23999999999995],[-9.460000000000022,38.22972177261151],[-9.420000000000023,38.219372420638905],[-9.380000000000024,38.20899464456973],[-9.345424516407306,38.19999999999995],[-9.340000000000025,38.19858858089405],[-9.300000000000026,38.18815505928587],[-9.260000000000026,38.177693048361775],[-9.220000000000027,38.167202526426045],[-9.192608937441166,38.159999999999954],[-9.180000000000028,38.15668383943687],[-9.140000000000029,38.14613739751888],[-9.10000000000003,38.135562379520756],[-9.06000000000003,38.1249587638197],[-9.041341423980985,38.119999999999955],[-9.020000000000032,38.11432715063334],[-8.980000000000032,38.103667440665085],[-8.940000000000033,38.0929790680961],[-8.900000000000034,38.08226201138264],[-8.891577876155267,38.079999999999956],[-8.860000000000035,38.07151716825284],[-8.820000000000036,38.06074384320115],[-8.780000000000037,38.04994176929812],[-8.743282570932303,38.03999999999996],[-8.740000000000038,38.03911102044934],[-8.700000000000038,38.0282525475112],[-8.66000000000004,38.01736526115997],[-8.62000000000004,38.00644914000357],[-8.596427697134484,37.99999999999996],[-8.580000000000041,37.99550463931152],[-8.540000000000042,37.98453194551306],[-8.500000000000043,37.97353035257514],[-8.460000000000043,37.96249983920217],[-8.450956363076092,37.95999999999996],[-8.420000000000044,37.951441280952636],[-8.380000000000045,37.94035402170441],[-8.340000000000046,37.92923777793552],[-8.30684408257928,37.91999999999996],[-8.300000000000047,37.91809272623152],[-8.260000000000048,37.90691960649167],[-8.220000000000049,37.895717438335396],[-8.18000000000005,37.88448620065043],[-8.16406065684699,37.87999999999996],[-8.14000000000005,37.87322656634324],[-8.100000000000051,37.86193828020706],[-8.060000000000052,37.850620860933326],[-8.022557585334201,37.83999999999996],[-8.020000000000053,37.83927436108438],[-7.980000000000054,37.8278997638144],[-7.940000000000055,37.81649597001762],[-7.900000000000056,37.805062958785754],[-7.882328533748156,37.79999999999996],[-7.860000000000056,37.79360134999568],[-7.820000000000057,37.782110989233686],[-7.780000000000058,37.7705913479735],[-7.743315662642706,37.75999999999996],[-7.740000000000059,37.7590425002819],[-7.70000000000006,37.74746538064575],[-7.6600000000000605,37.73585891769849],[-7.620000000000061,37.724223090757064],[-7.605516004523157,37.71999999999996],[-7.580000000000062,37.712558607173314],[-7.540000000000063,37.700865131468845],[-7.500000000000064,37.689142229323735],[-7.468881463709847,37.679999999999964],[-7.460000000000065,37.67739013271488],[-7.420000000000066,37.66560945381433],[-7.3800000000000665,37.65379928630816],[-7.340000000000067,37.64195960976013],[-7.333394156560115,37.639999999999965],[-7.300000000000068,37.63009135041319],[-7.260000000000069,37.61819372807701],[-7.22000000000007,37.606266534941724],[-7.199032719499481,37.599999999999966],[-7.180000000000071,37.59431028822142],[-7.140000000000072,37.582325022318756],[-7.100000000000073,37.57031012417339],[-7.065758379507554,37.55999999999997],[-7.060000000000073,37.55826573560429],[-7.020000000000074,37.54619263817588],[-6.980000000000075,37.53408984738905],[-6.940000000000076,37.521957343198345],[-6.9335607247580775,37.51999999999997],[-6.900000000000077,37.509796046379556],[-6.860000000000078,37.49760517615677],[-6.820000000000078,37.485384531882936],[-6.80241512379252,37.47999999999997],[-6.780000000000079,37.47313471938654],[-6.74000000000008,37.46085558381627],[-6.700000000000081,37.44854661390883],[-6.672290665675794,37.43999999999997],[-6.660000000000082,37.43620813151849],[-6.620000000000083,37.4238405456189],[-6.580000000000083,37.411443065471786],[-6.543167247387765,37.39999999999997],[-6.540000000000084,37.39901575910363],[-6.500000000000085,37.38655953886986],[-6.460000000000086,37.374073364868764],[-6.420000000000087,37.36155721763268],[-6.415033716981052,37.35999999999997],[-6.380000000000088,37.3490120430727],[-6.340000000000089,37.33643699264308],[-6.3000000000000895,37.32383191000923],[-6.287866075959259,37.31999999999997],[-6.26000000000009,37.31119754007611],[-6.220000000000091,37.29853343173184],[-6.180000000000092,37.2858392326391],[-6.161640357264865,37.27999999999997],[-6.140000000000093,37.27311551422301],[-6.100000000000094,37.260362167615455],[-6.060000000000094,37.247578672155434],[-6.036338483918567,37.239999999999974],[-6.0200000000000955,37.234765452501804],[-5.980000000000096,37.221922688469576],[-5.940000000000097,37.20904971793646],[-5.911942828949493,37.199999999999974],[-5.900000000000098,37.19614684469994],[-5.860000000000099,37.1832144853191],[-5.8200000000001,37.17025186225999],[-5.788436202679783,37.159999999999975],[-5.780000000000101,37.15725918355955],[-5.7400000000001015,37.14423705219438],[-5.700000000000103,37.13118460046017],[-5.6658018404317065,37.119999999999976],[-5.660000000000103,37.11810196493529],[-5.620000000000104,37.10498988628958],[-5.580000000000105,37.09184743108641],[-5.544023390640667,37.07999999999998],[-5.540000000000106,37.07867468795437]]}},{"type":"Feature","properties":{"magnitude":0.95,"percentagem":95.0,"territorio":"continente"},"geometry":{"type":"LineString","coordinates":[[-5.540000000000106,41.32848120121822],[-5.580000000000105,41.340278002530546],[-5.620000000000104,41.35204716947701],[-5.64708990447232,41.359999999999886],[-5.660000000000103,41.363789259572464],[-5.700000000000102,41.37550488177229],[-5.7400000000001015,41.387192934825016],[-5.780000000000101,41.39885344066249],[-5.7839412202820055,41.399999999999885],[-5.8200000000001,41.41048791673614],[-5.860000000000099,41.42209505232651],[-5.900000000000097,41.43367470605923],[-5.921898228193424,41.439999999999884],[-5.940000000000097,41.44522765107437],[-5.980000000000096,41.45675406573783],[-6.0200000000000955,41.46825306398517],[-6.060000000000095,41.47972466784001],[-6.06096202512971,41.47999999999988],[-6.100000000000094,41.491170518313325],[-6.140000000000093,41.50258905775544],[-6.180000000000092,41.51398026835393],[-6.201185595247049,41.51999999999988],[-6.220000000000091,41.52534495271109],[-6.26000000000009,41.536683230056816],[-6.3000000000000895,41.54799424416789],[-6.34000000000009,41.55927801714339],[-6.342564752464718,41.55999999999988],[-6.380000000000088,41.570536122856105],[-6.420000000000087,41.581767137235644],[-6.460000000000086,41.59297097616536],[-6.485152919496343,41.59999999999988],[-6.500000000000085,41.60414827731066],[-6.540000000000084,41.6152994886706],[-6.580000000000084,41.626423590303546],[-6.620000000000083,41.63752060436795],[-6.628956723249246,41.63999999999988],[-6.660000000000082,41.64859183865891],[-6.700000000000081,41.65963639966006],[-6.740000000000079,41.67065393886264],[-6.774013264746303,41.67999999999988],[-6.780000000000079,41.68164472637443],[-6.820000000000078,41.69260994329524],[-6.860000000000078,41.70354820420213],[-6.900000000000077,41.714459531297365],[-6.920357863256028,41.71999999999988],[-6.940000000000076,41.725344759145266],[-6.980000000000075,41.73620393817058],[-7.020000000000075,41.747036249187374],[-7.060000000000073,41.75784171441694],[-7.068007430241153,41.75999999999988],[-7.1000000000000725,41.76862167731933],[-7.140000000000072,41.77937516848464],[-7.180000000000071,41.79010187966851],[-7.217001594284354,41.799999999999876],[-7.22000000000007,41.800801956889146],[-7.260000000000069,41.81147682421282],[-7.300000000000068,41.82212497734206],[-7.340000000000067,41.8327464385184],[-7.367382653163972,41.839999999999876],[-7.3800000000000665,41.84334174998218],[-7.420000000000066,41.853911540794854],[-7.460000000000065,41.864454705417074],[-7.500000000000064,41.87497126609642],[-7.519172252055698,41.879999999999875],[-7.540000000000063,41.88546210187119],[-7.580000000000062,41.89592716535894],[-7.620000000000061,41.906365690626714],[-7.6600000000000605,41.916777699923585],[-7.672408088002015,41.919999999999874],[-7.70000000000006,41.92716434829103],[-7.740000000000059,41.937525033202974],[-7.780000000000058,41.947859267812674],[-7.820000000000057,41.958167074366216],[-7.8271292320684305,41.95999999999987],[-7.860000000000056,41.9684498217478],[-7.900000000000055,41.9787064763178],[-7.940000000000055,41.988936768431714],[-7.980000000000055,41.99914072032818],[-7.983376187419097,41.99999999999987],[-8.020000000000053,42.00931985121406],[-8.060000000000052,42.01947282308436],[-8.100000000000051,42.02959952025457],[-8.14000000000005,42.039699964951666],[-8.141190950352334,42.03999999999987],[-8.18000000000005,42.049775761832834],[-8.220000000000049,42.05982539797937],[-8.260000000000048,42.069848847073644],[-8.300000000000047,42.0798461313266],[-8.300617074474443,42.07999999999986],[-8.340000000000046,42.08981887462982],[-8.380000000000045,42.0997655212895],[-8.420000000000044,42.109686068418796],[-8.460000000000043,42.119580538208474],[-8.461699738204086,42.11999999999987],[-8.500000000000043,42.1294505062342],[-8.540000000000042,42.139294508833984],[-8.580000000000041,42.149112499281976],[-8.62000000000004,42.15890449974468],[-8.624485815811159,42.15999999999987],[-8.66000000000004,42.16867196860798],[-8.700000000000038,42.17841367169583],[-8.740000000000038,42.18812944985024],[-8.780000000000037,42.19781932520942],[-8.789023952209192,42.199999999999875],[-8.820000000000036,42.20748456878366],[-8.860000000000035,42.21712431596122],[-8.900000000000034,42.226738225246926],[-8.940000000000033,42.236326318746734],[-8.955364641738306,42.23999999999987],[-8.980000000000032,42.24588960861017],[-9.020000000000032,42.25542774246746],[-9.06000000000003,42.2649401252815],[-9.10000000000003,42.27442677912215],[-9.123560311187763,42.279999999999866],[-9.140000000000029,42.283888384507314],[-9.180000000000028,42.29332524655911],[-9.220000000000027,42.30273644420751],[-9.260000000000026,42.312121999482486],[-9.293665407331034,42.319999999999865],[-9.300000000000026,42.32148218722827],[-9.340000000000025,42.330818117852374],[-9.380000000000024,42.34012847048881],[-9.420000000000023,42.34941326712392],[-9.460000000000022,42.35867252973542],[-9.465749151278654,42.359999999999864],[-9.500000000000021,42.36790764000773],[-9.54000000000002,42.37711748657395],[-9.58000000000002,42.38630186326822],[-9.62000000000002,42.39546079202013],[-9.639876637516196,42.399999999999864],[-9.660000000000018,42.40459509051057],[-9.700000000000017,42.413704768678755],[-9.740000000000016,42.42278906284703],[-9.780000000000015,42.431847994893374],[-9.816095453470039,42.43999999999986],[-9.820000000000014,42.44088174046002],[-9.860000000000014,42.44989158657679],[-9.900000000000013,42.45887613429424],[-9.940000000000012,42.46783540543535],[-9.980000000000011,42.476769421811696],[-9.994502671154102,42.47999999999986],[-10.02000000000001,42.4856792033979],[-10.06000000000001,42.49456433934636],[-10.100000000000009,42.50342428397545],[-10.140000000000008,42.51225905903759],[-10.17514651929453,42.51999999999986],[-10.180000000000007,42.521068875434594],[-10.220000000000006,42.52985493285049],[-10.260000000000005,42.53861588390221],[-10.300000000000004,42.547351750279645],[-10.340000000000003,42.55606255365962],[-10.358130301365266,42.55999999999986],[-10.380000000000003,42.56474916258037],[-10.420000000000002,42.57341145148091],[-10.46,42.582048740281955],[-10.5,42.59066105059391]]}},{"type":"Feature","properties":{"magnitude":0.99,"percentagem":99.0,"territorio":"continente"},"geometry":{"type":"LineString","coordinates":[[-10.5,39.81099595320357],[-10.46,39.80168627045207],[-10.452773972499266,39.79999999999992],[-10.420000000000002,39.792350871791534],[-10.380000000000003,39.78298889297008],[-10.340000000000003,39.773600073327614],[-10.300000000000004,39.76418439099949],[-10.282271666940403,39.75999999999992],[-10.260000000000005,39.754742561511506],[-10.220000000000006,39.74527441400776],[-10.180000000000007,39.735779339195304],[-10.140000000000008,39.72625731520939],[-10.113786108111908,39.71999999999992],[-10.100000000000009,39.716708777757],[-10.06000000000001,39.70713411906165],[-10.02000000000001,39.69753244651339],[-9.980000000000011,39.687903738252125],[-9.947256302661403,39.67999999999992],[-9.940000000000012,39.67824821380968],[-9.900000000000013,39.66856670091536],[-9.860000000000014,39.658858087587134],[-9.820000000000014,39.64912235197429],[-9.782623650407972,39.63999999999992],[-9.780000000000015,39.639359559691094],[-9.740000000000016,39.629570849171316],[-9.700000000000017,39.61975495161985],[-9.660000000000018,39.60991184520042],[-9.620000000000019,39.60004150808381],[-9.619832202140925,39.59999999999992],[-9.58000000000002,39.59014525055768],[-9.54000000000002,39.580221725022255],[-9.500000000000021,39.570270904044364],[-9.460000000000022,39.56029276581538],[-9.458829250684119,39.559999999999924],[-9.420000000000023,39.5502885892453],[-9.380000000000024,39.540257091731306],[-9.340000000000025,39.5301982122303],[-9.300000000000026,39.520111928959345],[-9.299557190472303,39.519999999999925],[-9.260000000000026,39.509999547173976],[-9.220000000000027,39.4998597335387],[-9.180000000000028,39.48969245142333],[-9.141970346728927,39.479999999999926],[-9.140000000000029,39.4794977451763],[-9.10000000000003,39.469276804388755],[-9.06000000000003,39.45902833042918],[-9.020000000000032,39.448752301569925],[-8.986020857811825,39.43999999999993],[-8.980000000000032,39.43844889830671],[-8.940000000000033,39.42811903938565],[-8.900000000000034,39.4177615609285],[-8.860000000000035,39.40737644124795],[-8.831661427565539,39.39999999999993],[-8.820000000000036,39.396964050686684],[-8.780000000000037,39.38652492946733],[-8.740000000000038,39.37605810246108],[-8.700000000000038,39.36556354802646],[-8.678847443882312,39.35999999999993],[-8.66000000000004,39.35504187859811],[-8.62000000000004,39.34449315110842],[-8.580000000000041,39.3339166317175],[-8.540000000000042,39.32331229883518],[-8.527535957635997,39.31999999999993],[-8.500000000000043,39.31268105777412],[-8.460000000000043,39.3020223803306],[-8.420000000000044,39.291335825031545],[-8.380000000000045,39.28062137034372],[-8.377685611542788,39.27999999999993],[-8.340000000000046,39.269880263781815],[-8.300000000000047,39.259111293087344],[-8.260000000000048,39.24831435876713],[-8.229274756271451,39.23999999999993],[-8.220000000000049,39.23748975140494],[-8.18000000000005,39.22663817241467],[-8.14000000000005,39.21575856565845],[-8.100000000000051,39.20485090971473],[-8.082253560219135,39.19999999999993],[-8.060000000000052,39.19391593196792],[-8.020000000000053,39.18295346009465],[-7.980000000000054,39.1719628750541],[-7.940000000000055,39.160944155497624],[-7.936580287153884,39.15999999999993],[-7.900000000000055,39.14989851082332],[-7.860000000000056,39.13882480428398],[-7.820000000000058,39.12772289942867],[-7.792242351333641,39.11999999999993],[-7.780000000000058,39.11659318635984],[-7.740000000000059,39.105436166122324],[-7.70000000000006,39.09425088390642],[-7.6600000000000605,39.08303731850403],[-7.6491903011297895,39.079999999999934],[-7.620000000000061,39.07179642918988],[-7.580000000000062,39.06052757780117],[-7.540000000000063,39.04923037977823],[-7.507397895393841,39.039999999999935],[-7.500000000000064,39.03790506211248],[-7.460000000000065,39.02655245002457],[-7.420000000000066,39.0151714280194],[-7.3800000000000665,39.0037619750484],[-7.36684095099411,38.999999999999936],[-7.340000000000067,38.9923249696348],[-7.300000000000068,38.980859932620376],[-7.260000000000069,38.96936640160769],[-7.227481549438861,38.95999999999994],[-7.22000000000007,38.95784460594423],[-7.180000000000071,38.946295363265705],[-7.140000000000072,38.9347175637492],[-7.1000000000000725,38.923111186525055],[-7.089301425038512,38.91999999999994],[-7.060000000000073,38.91147719004217],[-7.020000000000074,38.89981493198251],[-6.980000000000075,38.888124033662955],[-6.952269044578855,38.87999999999994],[-6.940000000000076,38.8764048835514],[-6.900000000000077,38.864657977371046],[-6.860000000000078,38.85288236859998],[-6.820000000000078,38.84107803656717],[-6.8163547400749955,38.83999999999994],[-6.780000000000079,38.82924617164767],[-6.74000000000008,38.817385663583096],[-6.700000000000081,38.80549637025129],[-6.681549501128008,38.79999999999994],[-6.660000000000082,38.793578987332495],[-6.620000000000083,38.781633391686945],[-6.580000000000084,38.76965894901954],[-6.547810243064207,38.75999999999994],[-6.540000000000084,38.757655897852985],[-6.500000000000085,38.74562502693441],[-6.460000000000086,38.733565247503314],[-6.420000000000087,38.72147653920757],[-6.415124523018808,38.71999999999994],[-6.380000000000088,38.709360044419626],[-6.340000000000089,38.697214741446956],[-6.3000000000000895,38.68504044850019],[-6.283475066308677,38.67999999999994],[-6.26000000000009,38.67283792043299],[-6.220000000000091,38.66060690783338],[-6.180000000000092,38.648346844444674],[-6.152828765396061,38.639999999999944],[-6.140000000000093,38.63605813258866],[-6.100000000000094,38.623741225012076],[-6.060000000000095,38.6113952061394],[-6.023166439286298,38.599999999999945],[-6.0200000000000955,38.599020159953994],[-5.980000000000096,38.58661717282925],[-5.940000000000097,38.574185014223005],[-5.900000000000098,38.56172366426188],[-5.894478432329157,38.559999999999945],[-5.860000000000099,38.549234232760156],[-5.8200000000001,38.536715751007364],[-5.780000000000101,38.52416801817102],[-5.766740867191579,38.519999999999946],[-5.7400000000001015,38.511591888043554],[-5.700000000000102,38.49898690061252],[-5.660000000000103,38.48635260272266],[-5.639930778275182,38.47999999999995],[-5.620000000000104,38.473689623818444],[-5.580000000000105,38.460997949104055],[-5.540000000000106,38.448276904923]]}},{"type":"Feature","properties":{"magnitude":0.99,"percentagem":99.0,"territorio":"continente"},"geometry":{"type":"LineString","coordinates":[[-5.540000000000107,39.95184092561279],[-5.566692129365537,39.959999999999916],[-5.580000000000105,39.96406690576181],[-5.620000000000104,39.976265167336194],[-5.660000000000103,39.988434767524865],[-5.698102553822216,39.999999999999915],[-5.700000000000102,40.00057579644656],[-5.7400000000001015,40.01268958605593],[-5.780000000000101,40.024774778614336],[-5.820000000000101,40.036831395576925],[-5.830534666208689,40.03999999999992],[-5.860000000000099,40.048860527125626],[-5.900000000000098,40.06086150791386],[-5.940000000000097,40.07283397771153],[-5.963995446951042,40.07999999999991],[-5.980000000000096,40.0847785396264],[-6.0200000000000955,40.09669550490454],[-6.060000000000095,40.10858402397909],[-6.09850164511761,40.11999999999991],[-6.100000000000094,40.12044417301101],[-6.140000000000093,40.1322773194006],[-6.180000000000092,40.14408208454317],[-6.220000000000091,40.15585849012358],[-6.234097956124669,40.15999999999991],[-6.26000000000009,40.16760750143649],[-6.3000000000000895,40.17932870974986],[-6.34000000000009,40.19102162367651],[-6.370785941426219,40.19999999999991],[-6.380000000000088,40.202686601155946],[-6.420000000000087,40.21432445001723],[-6.460000000000086,40.22593406980971],[-6.500000000000085,40.23751548235638],[-6.508599712849028,40.23999999999991],[-6.540000000000084,40.24906985572748],[-6.580000000000084,40.26059637913153],[-6.620000000000083,40.272094760791674],[-6.64756490514832,40.27999999999991],[-6.660000000000082,40.283565477120916],[-6.700000000000081,40.2950091020726],[-6.74000000000008,40.30642465089829],[-6.780000000000079,40.317812145541005],[-6.787702013847603,40.31999999999991],[-6.820000000000078,40.32917278878283],[-6.860000000000078,40.340505702969935],[-6.900000000000077,40.351810628742044],[-6.929045532162233,40.35999999999991],[-6.940000000000076,40.3630879890304],[-6.980000000000075,40.37433846688415],[-7.020000000000074,40.38556102218114],[-7.060000000000074,40.39675567696672],[-7.0716186477563845,40.399999999999906],[-7.1000000000000725,40.4079234920041],[-7.140000000000072,40.41906387528606],[-7.180000000000071,40.43017642403197],[-7.215447710900049,40.439999999999905],[-7.22000000000007,40.44126132708281],[-7.260000000000069,40.45231973684121],[-7.300000000000068,40.46335037810432],[-7.340000000000067,40.47435327300238],[-7.3605767925167935,40.479999999999905],[-7.3800000000000665,40.485329154894515],[-7.420000000000066,40.49627808722013],[-7.460000000000065,40.50719933930659],[-7.500000000000064,40.5180929333259],[-7.507018490487325,40.51999999999991],[-7.540000000000063,40.52896009855641],[-7.580000000000062,40.53979990637448],[-7.620000000000061,40.550612122318825],[-7.654817990699283,40.5599999999999],[-7.6600000000000605,40.56139695834285],[-7.70000000000006,40.572155520351075],[-7.740000000000059,40.582886556707],[-7.780000000000059,40.59359008964121],[-7.804013024354203,40.5999999999999],[-7.820000000000057,40.60426672631751],[-7.860000000000056,40.61491678144662],[-7.900000000000055,40.62553939941251],[-7.940000000000055,40.63613460247308],[-7.9546279542987985,40.6399999999999],[-7.980000000000054,40.64670334031715],[-8.020000000000053,40.65724524152695],[-8.060000000000052,40.667759794110204],[-8.100000000000051,40.678247020346994],[-8.10670188875452,40.67999999999991],[-8.14000000000005,40.6887081583136],[-8.18000000000005,40.69914225843133],[-8.220000000000049,40.7095490984852],[-8.260000000000048,40.71992870077249],[-8.260275405717252,40.7199999999999],[-8.300000000000047,40.730282536170876],[-8.340000000000046,40.740609187803244],[-8.380000000000045,40.75090866793933],[-8.415400012313796,40.7599999999999],[-8.420000000000044,40.76118116659628],[-8.460000000000043,40.77142782730125],[-8.500000000000043,40.781647382748524],[-8.540000000000042,40.79183985525119],[-8.572107554706376,40.7999999999999],[-8.580000000000041,40.8020055544126],[-8.62000000000004,40.81214538233056],[-8.66000000000004,40.822258193502606],[-8.700000000000038,40.8323440102455],[-8.730442652947035,40.8399999999999],[-8.740000000000038,40.842403202152944],[-8.780000000000037,40.85243654877286],[-8.820000000000036,40.8624429671072],[-8.860000000000035,40.87242247947171],[-8.890452217164782,40.879999999999896],[-8.900000000000034,40.882375454436136],[-8.940000000000033,40.89230267071424],[-8.980000000000032,40.902203047096094],[-9.020000000000032,40.912076605891805],[-9.052184971180123,40.919999999999895],[-9.06000000000003,40.921923652224464],[-9.10000000000003,40.9317450885059],[-9.140000000000029,40.94153977319023],[-9.180000000000028,40.95130772857734],[-9.215691534910519,40.959999999999894],[-9.220000000000027,40.96104913252387],[-9.260000000000026,40.97076513846631],[-9.300000000000026,40.98045448100184],[-9.340000000000025,40.990117182415666],[-9.380000000000024,40.99975326499156],[-9.381026764254507,40.9999999999999],[-9.420000000000023,41.009364152592624],[-9.460000000000022,41.01894850174788],[-9.500000000000021,41.02850629782533],[-9.54000000000002,41.03803756308864],[-9.548256921020728,41.03999999999989],[-9.58000000000002,41.047543458281076],[-9.620000000000019,41.05702316197248],[-9.660000000000018,41.066476400480454],[-9.700000000000019,41.07590319604437],[-9.717429788107923,41.07999999999989],[-9.740000000000016,41.08530437805652],[-9.780000000000015,41.094679783278345],[-9.820000000000014,41.1040288110443],[-9.860000000000014,41.1133514835652],[-9.888604797106034,41.11999999999989],[-9.900000000000013,41.12264822931086],[-9.940000000000012,41.13191968206736],[-9.980000000000011,41.141164844911685],[-10.02000000000001,41.150383740022036],[-10.06000000000001,41.15957638957095],[-10.061848054235115,41.15999999999989],[-10.100000000000009,41.16874416928992],[-10.140000000000008,41.17788581196041],[-10.180000000000007,41.187001274203645],[-10.220000000000006,41.19609057815457],[-10.237251488615232,41.19999999999989],[-10.260000000000005,41.20515455020319],[-10.300000000000004,41.21419301631154],[-10.340000000000003,41.22320538907891],[-10.380000000000003,41.23219169059879],[-10.41485636002315,41.23999999999989],[-10.420000000000002,41.24115212413827],[-10.46,41.25008775609837],[-10.5,41.25899738156775]]}},{"type":"Feature","properties":{"magnitude":0.9,"percentagem":90.0,"territorio":"acores"},"geometry":{"type":"LineString","coordinates":[[-32.0,38.5704092481581],[-31.96,38.573150806415036],[-31.920000000000005,38.5758727956467],[-31.880000000000003,38.578575203825594],[-31.840000000000003,38.5812580189097],[-31.800000000000004,38.58392122884236],[-31.760000000000005,38.58656482155224],[-31.720000000000006,38.58918878495326],[-31.680000000000007,38.59179310694451],[-31.640000000000008,38.59437777541017],[-31.60000000000001,38.59694277821944],[-31.56000000000001,38.599488103226534],[-31.551893460007292,38.599999999999945],[-31.52000000000001,38.60201405505454],[-31.48000000000001,38.60452038216577],[-31.440000000000012,38.60700699183946],[-31.400000000000013,38.6094738718674],[-31.360000000000014,38.61192101002591],[-31.320000000000014,38.614348394075805],[-31.280000000000012,38.616756011762284],[-31.240000000000016,38.61914385081492],[-31.200000000000017,38.62151189894752],[-31.160000000000018,38.62386014385808],[-31.12000000000002,38.62618857322872],[-31.08000000000002,38.62849717472558],[-31.04000000000002,38.630785935998794],[-31.00000000000002,38.63305484468236],[-30.960000000000022,38.63530388839409],[-30.920000000000023,38.63753305473557],[-30.880000000000024,38.63974233129198],[-30.87529277655797,38.639999999999944],[-30.840000000000025,38.64193201044415],[-30.800000000000022,38.644101812447545],[-30.760000000000026,38.646251684177365],[-30.720000000000027,38.6483816131509],[-30.680000000000028,38.65049158686874],[-30.64000000000003,38.652581592814606],[-30.60000000000003,38.65465161845534],[-30.56000000000003,38.65670165124085],[-30.52000000000003,38.658731678604],[-30.480000000000032,38.66074168796055],[-30.440000000000033,38.662731666709064],[-30.400000000000034,38.66470160223083],[-30.360000000000035,38.66665148188983],[-30.320000000000036,38.6685812930326],[-30.280000000000037,38.67049102298821],[-30.240000000000038,38.67238065906815],[-30.20000000000004,38.67425018856628],[-30.16000000000004,38.67609959875874],[-30.12000000000004,38.67792887690385],[-30.08000000000004,38.67973801024208],[-30.07414255627422,38.67999999999994],[-30.040000000000042,38.68152722770649],[-30.000000000000043,38.68329631306922],[-29.960000000000043,38.68504521204353],[-29.920000000000048,38.686773911795484],[-29.880000000000045,38.68848239947285],[-29.840000000000046,38.69017066220512],[-29.800000000000047,38.691838687103306],[-29.760000000000048,38.693486461259965],[-29.72000000000005,38.69511397174905],[-29.68000000000005,38.69672120562589],[-29.64000000000005,38.6983081499271],[-29.60000000000005,38.69987479167045],[-29.560000000000052,38.70142111785489],[-29.520000000000053,38.70294711546036],[-29.480000000000054,38.704452771447805],[-29.440000000000055,38.705938072759054],[-29.400000000000055,38.707403006316774],[-29.360000000000056,38.70884755902437],[-29.320000000000057,38.71027171776588],[-29.280000000000058,38.71167546940594],[-29.24000000000006,38.713058800789746],[-29.20000000000006,38.71442169874289],[-29.16000000000006,38.71576415007132],[-29.12000000000006,38.71708614156128],[-29.080000000000062,38.71838765997926],[-29.040000000000063,38.71966869207179],[-29.029487282637493,38.71999999999994],[-29.000000000000064,38.72092937211615],[-28.960000000000065,38.722169588617],[-28.920000000000066,38.72338927565014],[-28.880000000000067,38.724588419879616],[-28.840000000000067,38.72576700794917],[-28.800000000000068,38.72692502648227],[-28.76000000000007,38.728062462081915],[-28.72000000000007,38.72917930133069],[-28.680000000000067,38.73027553079058],[-28.64000000000007,38.731351137002974],[-28.600000000000072,38.73240610648853],[-28.560000000000073,38.733440425747176],[-28.520000000000074,38.73445408125792],[-28.480000000000075,38.735447059478915],[-28.440000000000076,38.73641934684725],[-28.40000000000008,38.73737092977898],[-28.360000000000078,38.73830179466897],[-28.32000000000008,38.73921192789091],[-28.28000000000008,38.74010131579715],[-28.24000000000008,38.74096994471866],[-28.20000000000008,38.74181780096499],[-28.160000000000082,38.74264487082417],[-28.120000000000083,38.7434511405626],[-28.080000000000084,38.74423659642504],[-28.040000000000084,38.74500122463448],[-28.000000000000085,38.745745011392124],[-27.960000000000086,38.74646794287726],[-27.920000000000087,38.747170005247234],[-27.880000000000088,38.74785118463733],[-27.84000000000009,38.748511467160725],[-27.80000000000009,38.749150838908434],[-27.76000000000009,38.74976928594921],[-27.72000000000009,38.75036679432946],[-27.680000000000092,38.7509433500732],[-27.640000000000093,38.751498939182],[-27.600000000000094,38.75203354763484],[-27.560000000000095,38.752547161388115],[-27.520000000000095,38.753039766375515],[-27.480000000000096,38.753511348508],[-27.440000000000097,38.75396189367366],[-27.400000000000098,38.75439138773771],[-27.3600000000001,38.75479981654239],[-27.3200000000001,38.755187165906875],[-27.2800000000001,38.75555342162726],[-27.2400000000001,38.755898569476436],[-27.200000000000102,38.75622259520406],[-27.160000000000103,38.75652548453642],[-27.120000000000104,38.75680722317647],[-27.080000000000105,38.757067796803675],[-27.040000000000106,38.75730719107395],[-27.000000000000107,38.75752539161965],[-26.960000000000107,38.757722384049416],[-26.92000000000011,38.75789815394819],[-26.88000000000011,38.758052686877114],[-26.84000000000011,38.75818596837342],[-26.80000000000011,38.7582979839504],[-26.76000000000011,38.758388719097425],[-26.720000000000113,38.75845815927966],[-26.680000000000113,38.75850628993819],[-26.640000000000114,38.758533096489955],[-26.600000000000115,38.758538564327516],[-26.560000000000116,38.75852267881917],[-26.520000000000117,38.75848542530874],[-26.480000000000118,38.75842678911568],[-26.44000000000012,38.75834675553479],[-26.40000000000012,38.758245309836354],[-26.36000000000012,38.75812243726597],[-26.32000000000012,38.75797812304449],[-26.280000000000122,38.757812352368006],[-26.240000000000123,38.75762511040773],[-26.200000000000124,38.75741638230996],[-26.160000000000124,38.75718615319602],[-26.120000000000125,38.7569344081622],[-26.080000000000126,38.75666113227966],[-26.040000000000127,38.75636631059441],[-26.000000000000128,38.756049928127226],[-25.96000000000013,38.7557119698736],[-25.92000000000013,38.75535242080369],[-25.88000000000013,38.75497126586221],[-25.84000000000013,38.754568489968435],[-25.800000000000132,38.7541440780161],[-25.760000000000133,38.75369801487335],[-25.720000000000134,38.753230285382706],[-25.680000000000135,38.752740874360946],[-25.640000000000136,38.75222976659912],[-25.600000000000136,38.75169694686245],[-25.560000000000137,38.751142399890284],[-25.520000000000138,38.750566110396036],[-25.48000000000014,38.74996806306713],[-25.44000000000014,38.749348242564935],[-25.40000000000014,38.748706633524755],[-25.36000000000014,38.74804322055571],[-25.320000000000142,38.74735798824072],[-25.280000000000143,38.74665092113645],[-25.240000000000144,38.745922003773245],[-25.200000000000145,38.745171220655095],[-25.160000000000146,38.74439855625955],[-25.120000000000147,38.74360399503769],[-25.080000000000148,38.74278752141408],[-25.04000000000015,38.74194911978671],[-25.00000000000015,38.74108877452695],[-24.96000000000015,38.74020646997949],[-24.92000000000015,38.73930219046228],[-24.88000000000015,38.738375920266535],[-24.840000000000153,38.7374276436566],[-24.800000000000153,38.73645734487],[-24.760000000000154,38.7354650081173],[-24.720000000000155,38.73445061758211],[-24.680000000000156,38.73341415742108],[-24.640000000000157,38.73235561176373],[-24.600000000000158,38.73127496471251],[-24.56000000000016,38.73017220034275],[-24.52000000000016,38.72904730270255],[-24.48000000000016,38.7279002558128],[-24.44000000000016,38.72673104366708],[-24.400000000000162,38.725539650231724],[-24.360000000000163,38.72432605944562],[-24.320000000000164,38.723090255220306],[-24.280000000000165,38.72183222143986],[-24.240000000000165,38.72055194196088],[-24.223050253863384,38.71999999999994],[-24.200000000000166,38.719249518817605],[-24.160000000000167,38.7179249079819],[-24.120000000000168,38.71657800629288],[-24.08000000000017,38.715208797496324],[-24.04000000000017,38.71381726531024]]}},{"type":"Feature","properties":{"magnitude":0.95,"percentagem":95.0,"territorio":"acores"},"geometry":{"type":"LineString","coordinates":[[-32.0,40.166355335847406],[-31.96,40.1689390163926],[-31.92,40.17150379204371],[-31.880000000000003,40.174049652275755],[-31.840000000000003,40.1765765865491],[-31.800000000000004,40.17908458430934],[-31.760000000000005,40.18157363498723],[-31.720000000000006,40.18404372799864],[-31.680000000000007,40.18649485274446],[-31.640000000000008,40.18892699861054],[-31.60000000000001,40.191340154967584],[-31.56000000000001,40.19373431117115],[-31.52000000000001,40.196109456561466],[-31.48000000000001,40.198465580463484],[-31.453738900434807,40.19999999999991],[-31.44000000000001,40.20080281443959],[-31.400000000000013,40.20312127412149],[-31.360000000000014,40.20542067686369],[-31.320000000000014,40.20770101192678],[-31.280000000000012,40.20996226855573],[-31.240000000000016,40.21220443597961],[-31.200000000000017,40.21442750341166],[-31.160000000000018,40.21663146004916],[-31.12000000000002,40.21881629507334],[-31.08000000000002,40.220981997649375],[-31.04000000000002,40.22312855692623],[-31.00000000000002,40.2252559620366],[-30.960000000000022,40.2273642020969],[-30.920000000000023,40.229453266207145],[-30.880000000000024,40.23152314345083],[-30.840000000000025,40.23357382289496],[-30.800000000000026,40.23560529358986],[-30.760000000000026,40.23761754456925],[-30.720000000000027,40.23961056484994],[-30.71210841958704,40.23999999999991],[-30.680000000000028,40.24158462531083],[-30.640000000000025,40.243539498952785],[-30.60000000000003,40.2454751054569],[-30.56000000000003,40.24739143376965],[-30.52000000000003,40.24928847282037],[-30.480000000000032,40.25116621152114],[-30.440000000000033,40.25302463876673],[-30.400000000000038,40.25486374343454],[-30.360000000000035,40.25668351438444],[-30.320000000000036,40.258483940458845],[-30.280000000000037,40.26026501048249],[-30.240000000000038,40.26202671326243],[-30.20000000000004,40.26376903758795],[-30.16000000000004,40.26549197223052],[-30.12000000000004,40.267195505943654],[-30.08000000000004,40.26887962746288],[-30.040000000000042,40.27054432550568],[-30.000000000000043,40.27218958877136],[-29.960000000000043,40.273815405941],[-29.920000000000044,40.27542176567743],[-29.880000000000045,40.277008656625036],[-29.840000000000046,40.27857606740982],[-29.80320419839535,40.27999999999991],[-29.800000000000047,40.280124008789095],[-29.760000000000048,40.28165269811536],[-29.720000000000045,40.28316186958865],[-29.68000000000005,40.28465151175761],[-29.64000000000005,40.286121613151956],[-29.60000000000005,40.287572162282544],[-29.560000000000052,40.28900314764122],[-29.520000000000053,40.290414557700785],[-29.480000000000054,40.29180638091488],[-29.440000000000055,40.29317860571793],[-29.400000000000055,40.29453122052508],[-29.360000000000053,40.29586421373209],[-29.320000000000057,40.29717757371529],[-29.280000000000058,40.29847128883148],[-29.24000000000006,40.29974534741788],[-29.20000000000006,40.300999737792054],[-29.16000000000006,40.30223444825175],[-29.12000000000006,40.303449467074984],[-29.080000000000062,40.30464478251981],[-29.040000000000063,40.30582038282434],[-29.000000000000064,40.30697625620666],[-28.960000000000065,40.30811239086467],[-28.920000000000066,40.30922877497615],[-28.880000000000067,40.310325396698516],[-28.840000000000067,40.31140224416894],[-28.800000000000068,40.31245930550409],[-28.76000000000007,40.31349656880015],[-28.72000000000007,40.31451402213277],[-28.68000000000007,40.315511653556925],[-28.64000000000007,40.31648945110685],[-28.600000000000072,40.317447402795985],[-28.560000000000073,40.31838549661694],[-28.520000000000074,40.31930372054133],[-28.488997574619944,40.31999999999991],[-28.480000000000075,40.320202098781984],[-28.440000000000076,40.321080704398746],[-28.400000000000077,40.321939400347866],[-28.36000000000008,40.322778174513516],[-28.32000000000008,40.32359701475857],[-28.28000000000008,40.32439590892449],[-28.240000000000084,40.32517484483129],[-28.20000000000008,40.32593381027741],[-28.160000000000082,40.32667279303974],[-28.120000000000083,40.32739178087341],[-28.080000000000084,40.32809076151185],[-28.040000000000084,40.328769722666614],[-28.000000000000085,40.32942865202737],[-27.960000000000086,40.3300675372618],[-27.920000000000087,40.33068636601555],[-27.880000000000084,40.33128512591212],[-27.84000000000009,40.331863804552825],[-27.80000000000009,40.33242238951669],[-27.76000000000009,40.332960868360416],[-27.720000000000088,40.3334792286183],[-27.680000000000092,40.333977457802135],[-27.640000000000093,40.334455543401134],[-27.600000000000094,40.33491347288192],[-27.56000000000009,40.335351233688385],[-27.520000000000095,40.33576881324167],[-27.480000000000096,40.33616619894004],[-27.440000000000097,40.33654337815888],[-27.400000000000098,40.33690033825056],[-27.3600000000001,40.3372370665444],[-27.3200000000001,40.33755355034658],[-27.2800000000001,40.337849776940104],[-27.2400000000001,40.33812573358469],[-27.200000000000102,40.33838140751672],[-27.160000000000103,40.33861678594916],[-27.120000000000104,40.3388318560715],[-27.080000000000105,40.33902660504968],[-27.040000000000106,40.33920102002605],[-27.000000000000107,40.33935508811922],[-26.960000000000107,40.33948879642405],[-26.92000000000011,40.33960213201163],[-26.88000000000011,40.339695081929094],[-26.84000000000011,40.339767633199656],[-26.80000000000011,40.339819772822466],[-26.76000000000011,40.33985148777259],[-26.720000000000113,40.33986276500095],[-26.680000000000113,40.3398535914342],[-26.640000000000114,40.33982395397471],[-26.600000000000115,40.339773839500474],[-26.560000000000116,40.33970323486507],[-26.520000000000117,40.339612126897556],[-26.480000000000118,40.33950050240244],[-26.44000000000012,40.33936834815958],[-26.40000000000012,40.33921565092416],[-26.36000000000012,40.33904239742657],[-26.32000000000012,40.338848574372406],[-26.280000000000122,40.338634168442326],[-26.240000000000123,40.33839916629209],[-26.200000000000124,40.338143554552374],[-26.160000000000124,40.33786731982881],[-26.120000000000125,40.337570448701875],[-26.080000000000126,40.33725292772681],[-26.040000000000127,40.3369147434336],[-26.000000000000128,40.33655588232689],[-25.96000000000013,40.336176330885934],[-25.92000000000013,40.3357760755645],[-25.88000000000013,40.33535510279082],[-25.84000000000013,40.33491339896759],[-25.800000000000136,40.33445095047181],[-25.760000000000133,40.333967743654796],[-25.720000000000134,40.33346376484207],[-25.680000000000135,40.332939000333376],[-25.640000000000136,40.33239343640252],[-25.600000000000136,40.33182705929735],[-25.560000000000134,40.33123985523977],[-25.520000000000138,40.33063181042556],[-25.48000000000014,40.33000291102438],[-25.44000000000014,40.32935314317975],[-25.40000000000014,40.3286824930089],[-25.36000000000014,40.32799094660277],[-25.320000000000142,40.327278490025975],[-25.280000000000143,40.3265451093167],[-25.240000000000144,40.32579079048665],[-25.200000000000145,40.32501551952103],[-25.160000000000146,40.324219282378436],[-25.120000000000147,40.323402064990866],[-25.080000000000148,40.3225638532636],[-25.04000000000015,40.32170463307519],[-25.00000000000015,40.320824390277394],[-24.96341247714948,40.31999999999991],[-24.96000000000015,40.31992312449246],[-24.92000000000015,40.319000959420634],[-24.88000000000015,40.31805773289394],[-24.840000000000153,40.317093430657444],[-24.800000000000153,40.31610803842922],[-24.760000000000154,40.315101541900106],[-24.720000000000155,40.31407392673379],[-24.680000000000156,40.313025178566676],[-24.640000000000157,40.31195528300788],[-24.600000000000158,40.31086422563919],[-24.56000000000016,40.30975199201495],[-24.52000000000016,40.30861856766207],[-24.48000000000016,40.30746393807996],[-24.44000000000016,40.30628808874049],[-24.400000000000162,40.30509100508792],[-24.360000000000163,40.303872672538894],[-24.320000000000164,40.302633076482344],[-24.280000000000165,40.30137220227947],[-24.240000000000165,40.30009003526371],[-24.200000000000166,40.29878656074066],[-24.160000000000167,40.29746176398805],[-24.120000000000168,40.29611563025571],[-24.08000000000017,40.294748144765485],[-24.04000000000017,40.29335929271125]]}}]}