{"type":"FeatureCollection","properties":{"largura_maxima_km":651.988,"largura_sobre_pt_km":579.748,"linha_central_sobre_pt":false,"desenhavel_como_area":true,"perfil_largura":[{"t":-0.37778,"lat":34.5399,"lon":-39.9714,"largura_km":651.988,"eixo_na_terra":true},{"t":-0.37222,"lat":34.6156,"lon":-39.8527,"largura_km":651.158,"eixo_na_terra":true},{"t":-0.36667,"lat":34.6916,"lon":-39.7347,"largura_km":650.319,"eixo_na_terra":true},{"t":-0.36111,"lat":34.7679,"lon":-39.6175,"largura_km":649.471,"eixo_na_terra":true},{"t":-0.35556,"lat":34.8445,"lon":-39.5011,"largura_km":648.618,"eixo_na_terra":true},{"t":-0.35,"lat":34.9213,"lon":-39.3854,"largura_km":647.756,"eixo_na_terra":true},{"t":-0.34444,"lat":34.9985,"lon":-39.2704,"largura_km":646.884,"eixo_na_terra":true},{"t":-0.33889,"lat":35.0759,"lon":-39.1562,"largura_km":646.003,"eixo_na_terra":true},{"t":-0.33333,"lat":35.1535,"lon":-39.0426,"largura_km":645.114,"eixo_na_terra":true},{"t":-0.32778,"lat":35.2315,"lon":-38.9297,"largura_km":644.215,"eixo_na_terra":true},{"t":-0.32222,"lat":35.3097,"lon":-38.8175,"largura_km":643.309,"eixo_na_terra":true},{"t":-0.31667,"lat":35.3882,"lon":-38.706,"largura_km":642.395,"eixo_na_terra":true},{"t":-0.31111,"lat":35.467,"lon":-38.5951,"largura_km":641.473,"eixo_na_terra":true},{"t":-0.30556,"lat":35.5461,"lon":-38.4848,"largura_km":640.544,"eixo_na_terra":true},{"t":-0.3,"lat":35.6254,"lon":-38.3751,"largura_km":639.608,"eixo_na_terra":true},{"t":-0.29444,"lat":35.705,"lon":-38.2661,"largura_km":638.665,"eixo_na_terra":true},{"t":-0.28889,"lat":35.7849,"lon":-38.1577,"largura_km":637.715,"eixo_na_terra":true},{"t":-0.28333,"lat":35.865,"lon":-38.0498,"largura_km":636.759,"eixo_na_terra":true},{"t":-0.27778,"lat":35.9455,"lon":-37.9426,"largura_km":635.799,"eixo_na_terra":true},{"t":-0.27222,"lat":36.0262,"lon":-37.8359,"largura_km":634.837,"eixo_na_terra":true},{"t":-0.26667,"lat":36.1071,"lon":-37.7297,"largura_km":633.869,"eixo_na_terra":true},{"t":-0.26111,"lat":36.1883,"lon":-37.6241,"largura_km":632.896,"eixo_na_terra":true},{"t":-0.25556,"lat":36.2698,"lon":-37.5191,"largura_km":631.917,"eixo_na_terra":true},{"t":-0.25,"lat":36.3516,"lon":-37.4145,"largura_km":630.934,"eixo_na_terra":true},{"t":-0.24444,"lat":36.4337,"lon":-37.3105,"largura_km":629.947,"eixo_na_terra":true},{"t":-0.23889,"lat":36.516,"lon":-37.207,"largura_km":628.955,"eixo_na_terra":true},{"t":-0.23333,"lat":36.5985,"lon":-37.104,"largura_km":627.96,"eixo_na_terra":true},{"t":-0.22778,"lat":36.6814,"lon":-37.0015,"largura_km":626.963,"eixo_na_terra":true},{"t":-0.22222,"lat":36.7645,"lon":-36.8995,"largura_km":625.962,"eixo_na_terra":true},{"t":-0.21667,"lat":36.8479,"lon":-36.7979,"largura_km":624.957,"eixo_na_terra":true},{"t":-0.21111,"lat":36.9315,"lon":-36.6969,"largura_km":623.95,"eixo_na_terra":true},{"t":-0.20556,"lat":37.0154,"lon":-36.5962,"largura_km":622.939,"eixo_na_terra":true},{"t":-0.2,"lat":37.0996,"lon":-36.496,"largura_km":621.926,"eixo_na_terra":true},{"t":-0.19444,"lat":37.1841,"lon":-36.3963,"largura_km":620.911,"eixo_na_terra":true},{"t":-0.18889,"lat":37.2688,"lon":-36.297,"largura_km":619.893,"eixo_na_terra":true},{"t":-0.18333,"lat":37.3538,"lon":-36.1981,"largura_km":618.873,"eixo_na_terra":true},{"t":-0.17778,"lat":37.4391,"lon":-36.0996,"largura_km":617.855,"eixo_na_terra":true},{"t":-0.17222,"lat":37.5246,"lon":-36.0015,"largura_km":616.837,"eixo_na_terra":true},{"t":-0.16667,"lat":37.6104,"lon":-35.9039,"largura_km":615.817,"eixo_na_terra":true},{"t":-0.16111,"lat":37.6965,"lon":-35.8066,"largura_km":614.796,"eixo_na_terra":true},{"t":-0.15556,"lat":37.7828,"lon":-35.7097,"largura_km":613.774,"eixo_na_terra":true},{"t":-0.15,"lat":37.8694,"lon":-35.6132,"largura_km":612.751,"eixo_na_terra":true},{"t":-0.14444,"lat":37.9563,"lon":-35.517,"largura_km":611.728,"eixo_na_terra":true},{"t":-0.13889,"lat":38.0435,"lon":-35.4212,"largura_km":610.704,"eixo_na_terra":true},{"t":-0.13333,"lat":38.1309,"lon":-35.3258,"largura_km":609.68,"eixo_na_terra":true},{"t":-0.12778,"lat":38.2186,"lon":-35.2307,"largura_km":608.656,"eixo_na_terra":true},{"t":-0.12222,"lat":38.3066,"lon":-35.136,"largura_km":607.633,"eixo_na_terra":true},{"t":-0.11667,"lat":38.3948,"lon":-35.0416,"largura_km":606.609,"eixo_na_terra":true},{"t":-0.11111,"lat":38.4833,"lon":-34.9475,"largura_km":605.586,"eixo_na_terra":true},{"t":-0.10556,"lat":38.5721,"lon":-34.8538,"largura_km":604.564,"eixo_na_terra":true},{"t":-0.1,"lat":38.6612,"lon":-34.7603,"largura_km":603.543,"eixo_na_terra":true},{"t":-0.09444,"lat":38.7505,"lon":-34.6672,"largura_km":602.523,"eixo_na_terra":true},{"t":-0.08889,"lat":38.8402,"lon":-34.5744,"largura_km":601.504,"eixo_na_terra":true},{"t":-0.08333,"lat":38.9301,"lon":-34.4818,"largura_km":600.486,"eixo_na_terra":true},{"t":-0.07778,"lat":39.0202,"lon":-34.3896,"largura_km":599.47,"eixo_na_terra":true},{"t":-0.07222,"lat":39.1107,"lon":-34.2976,"largura_km":598.456,"eixo_na_terra":true},{"t":-0.06667,"lat":39.2014,"lon":-34.2059,"largura_km":597.444,"eixo_na_terra":true},{"t":-0.06111,"lat":39.2924,"lon":-34.1145,"largura_km":596.434,"eixo_na_terra":true},{"t":-0.05556,"lat":39.3837,"lon":-34.0234,"largura_km":595.429,"eixo_na_terra":true},{"t":-0.05,"lat":39.4753,"lon":-33.9325,"largura_km":594.426,"eixo_na_terra":true},{"t":-0.04444,"lat":39.5671,"lon":-33.8418,"largura_km":593.426,"eixo_na_terra":true},{"t":-0.03889,"lat":39.6593,"lon":-33.7514,"largura_km":592.429,"eixo_na_terra":true},{"t":-0.03333,"lat":39.7517,"lon":-33.6613,"largura_km":591.434,"eixo_na_terra":true},{"t":-0.02778,"lat":39.8444,"lon":-33.5713,"largura_km":590.442,"eixo_na_terra":true},{"t":-0.02222,"lat":39.9374,"lon":-33.4816,"largura_km":589.452,"eixo_na_terra":true},{"t":-0.01667,"lat":40.0307,"lon":-33.3922,"largura_km":588.466,"eixo_na_terra":true},{"t":-0.01111,"lat":40.1242,"lon":-33.3029,"largura_km":587.483,"eixo_na_terra":true},{"t":-0.00556,"lat":40.2181,"lon":-33.2138,"largura_km":586.503,"eixo_na_terra":true},{"t":-0.0,"lat":40.3122,"lon":-33.125,"largura_km":585.527,"eixo_na_terra":true},{"t":0.00556,"lat":40.4067,"lon":-33.0364,"largura_km":584.554,"eixo_na_terra":true},{"t":0.01111,"lat":40.5014,"lon":-32.9479,"largura_km":583.585,"eixo_na_terra":true},{"t":0.01667,"lat":40.5964,"lon":-32.8596,"largura_km":582.62,"eixo_na_terra":true},{"t":0.02222,"lat":40.6918,"lon":-32.7716,"largura_km":581.658,"eixo_na_terra":true},{"t":0.02778,"lat":40.7874,"lon":-32.6837,"largura_km":580.701,"eixo_na_terra":true},{"t":0.03333,"lat":40.8833,"lon":-32.5959,"largura_km":579.748,"eixo_na_terra":true},{"t":0.03889,"lat":40.9795,"lon":-32.5084,"largura_km":578.798,"eixo_na_terra":true},{"t":0.04444,"lat":41.076,"lon":-32.421,"largura_km":577.853,"eixo_na_terra":true},{"t":0.05,"lat":41.1728,"lon":-32.3337,"largura_km":576.913,"eixo_na_terra":true},{"t":0.05556,"lat":41.2699,"lon":-32.2466,"largura_km":575.977,"eixo_na_terra":true},{"t":0.06111,"lat":41.3674,"lon":-32.1597,"largura_km":575.045,"eixo_na_terra":true},{"t":0.06667,"lat":41.4651,"lon":-32.0729,"largura_km":574.118,"eixo_na_terra":true},{"t":0.07222,"lat":41.5631,"lon":-31.9862,"largura_km":573.196,"eixo_na_terra":true},{"t":0.07778,"lat":41.6615,"lon":-31.8996,"largura_km":572.279,"eixo_na_terra":true},{"t":0.08333,"lat":41.7601,"lon":-31.8132,"largura_km":571.367,"eixo_na_terra":true},{"t":0.08889,"lat":41.8591,"lon":-31.7269,"largura_km":570.459,"eixo_na_terra":true},{"t":0.09444,"lat":41.9584,"lon":-31.6407,"largura_km":569.557,"eixo_na_terra":true},{"t":0.1,"lat":42.058,"lon":-31.5546,"largura_km":568.66,"eixo_na_terra":true},{"t":0.10556,"lat":42.1579,"lon":-31.4686,"largura_km":567.771,"eixo_na_terra":true},{"t":0.11111,"lat":42.2581,"lon":-31.3827,"largura_km":566.886,"eixo_na_terra":true},{"t":0.11667,"lat":42.3587,"lon":-31.2969,"largura_km":566.007,"eixo_na_terra":true},{"t":0.12222,"lat":42.4595,"lon":-31.2112,"largura_km":565.134,"eixo_na_terra":true},{"t":0.12778,"lat":42.5607,"lon":-31.1256,"largura_km":564.266,"eixo_na_terra":true},{"t":0.13333,"lat":42.6623,"lon":-31.04,"largura_km":563.403,"eixo_na_terra":true},{"t":0.13889,"lat":42.7641,"lon":-30.9545,"largura_km":562.546,"eixo_na_terra":true},{"t":0.14444,"lat":42.8663,"lon":-30.8691,"largura_km":561.695,"eixo_na_terra":true},{"t":0.15,"lat":42.9688,"lon":-30.7837,"largura_km":560.849,"eixo_na_terra":true},{"t":0.15556,"lat":43.0717,"lon":-30.6984,"largura_km":560.01,"eixo_na_terra":true},{"t":0.16111,"lat":43.1749,"lon":-30.6132,"largura_km":559.176,"eixo_na_terra":true},{"t":0.16667,"lat":43.2784,"lon":-30.528,"largura_km":558.348,"eixo_na_terra":true},{"t":0.17222,"lat":43.3823,"lon":-30.4428,"largura_km":557.526,"eixo_na_terra":true},{"t":0.17778,"lat":43.4865,"lon":-30.3576,"largura_km":556.71,"eixo_na_terra":true},{"t":0.18333,"lat":43.591,"lon":-30.2725,"largura_km":555.9,"eixo_na_terra":true},{"t":0.18889,"lat":43.6959,"lon":-30.1874,"largura_km":555.097,"eixo_na_terra":true},{"t":0.19444,"lat":43.8012,"lon":-30.1024,"largura_km":554.299,"eixo_na_terra":true},{"t":0.2,"lat":43.9068,"lon":-30.0173,"largura_km":553.508,"eixo_na_terra":true},{"t":0.20556,"lat":44.0128,"lon":-29.9323,"largura_km":552.723,"eixo_na_terra":true},{"t":0.21111,"lat":44.1191,"lon":-29.8472,"largura_km":551.944,"eixo_na_terra":true},{"t":0.21667,"lat":44.2258,"lon":-29.7621,"largura_km":551.172,"eixo_na_terra":true},{"t":0.22222,"lat":44.3328,"lon":-29.6771,"largura_km":550.407,"eixo_na_terra":true},{"t":0.22778,"lat":44.4402,"lon":-29.592,"largura_km":549.647,"eixo_na_terra":true},{"t":0.23333,"lat":44.548,"lon":-29.5069,"largura_km":548.895,"eixo_na_terra":true},{"t":0.23889,"lat":44.6561,"lon":-29.4218,"largura_km":548.149,"eixo_na_terra":true},{"t":0.24444,"lat":44.7646,"lon":-29.3366,"largura_km":547.409,"eixo_na_terra":true},{"t":0.25,"lat":44.8735,"lon":-29.2514,"largura_km":546.677,"eixo_na_terra":true},{"t":0.25556,"lat":44.9828,"lon":-29.1662,"largura_km":545.95,"eixo_na_terra":true},{"t":0.26111,"lat":45.0924,"lon":-29.0809,"largura_km":545.231,"eixo_na_terra":true},{"t":0.26667,"lat":45.2025,"lon":-28.9955,"largura_km":544.519,"eixo_na_terra":true},{"t":0.27222,"lat":45.3129,"lon":-28.9101,"largura_km":543.813,"eixo_na_terra":true},{"t":0.27778,"lat":45.4237,"lon":-28.8247,"largura_km":543.114,"eixo_na_terra":true},{"t":0.28333,"lat":45.5349,"lon":-28.7391,"largura_km":542.422,"eixo_na_terra":true},{"t":0.28889,"lat":45.6465,"lon":-28.6535,"largura_km":541.737,"eixo_na_terra":true},{"t":0.29444,"lat":45.7585,"lon":-28.5678,"largura_km":541.06,"eixo_na_terra":true},{"t":0.3,"lat":45.8709,"lon":-28.482,"largura_km":540.389,"eixo_na_terra":true},{"t":0.30556,"lat":45.9837,"lon":-28.3961,"largura_km":539.725,"eixo_na_terra":true},{"t":0.31111,"lat":46.0969,"lon":-28.3101,"largura_km":539.068,"eixo_na_terra":true},{"t":0.31667,"lat":46.2106,"lon":-28.2241,"largura_km":538.418,"eixo_na_terra":true},{"t":0.32222,"lat":46.3246,"lon":-28.1378,"largura_km":537.776,"eixo_na_terra":true},{"t":0.32778,"lat":46.4391,"lon":-28.0515,"largura_km":537.141,"eixo_na_terra":true},{"t":0.33333,"lat":46.554,"lon":-27.9651,"largura_km":536.513,"eixo_na_terra":true},{"t":0.33889,"lat":46.6693,"lon":-27.8785,"largura_km":535.892,"eixo_na_terra":true},{"t":0.34444,"lat":46.7851,"lon":-27.7918,"largura_km":535.279,"eixo_na_terra":true},{"t":0.35,"lat":46.9013,"lon":-27.7049,"largura_km":534.673,"eixo_na_terra":true},{"t":0.35556,"lat":47.0179,"lon":-27.6179,"largura_km":534.074,"eixo_na_terra":true},{"t":0.36111,"lat":47.135,"lon":-27.5307,"largura_km":533.483,"eixo_na_terra":true},{"t":0.36667,"lat":47.2525,"lon":-27.4433,"largura_km":532.899,"eixo_na_terra":true},{"t":0.37222,"lat":47.3705,"lon":-27.3558,"largura_km":532.323,"eixo_na_terra":true},{"t":0.37778,"lat":47.4889,"lon":-27.2681,"largura_km":531.754,"eixo_na_terra":true},{"t":0.38333,"lat":47.6078,"lon":-27.1802,"largura_km":531.193,"eixo_na_terra":true},{"t":0.38889,"lat":47.7272,"lon":-27.0922,"largura_km":530.64,"eixo_na_terra":true},{"t":0.39444,"lat":47.847,"lon":-27.0039,"largura_km":530.094,"eixo_na_terra":true},{"t":0.4,"lat":47.9673,"lon":-26.9154,"largura_km":529.555,"eixo_na_terra":true},{"t":0.40556,"lat":48.0881,"lon":-26.8267,"largura_km":529.025,"eixo_na_terra":true},{"t":0.41111,"lat":48.2094,"lon":-26.7378,"largura_km":528.502,"eixo_na_terra":true},{"t":0.41667,"lat":48.3311,"lon":-26.6486,"largura_km":527.987,"eixo_na_terra":true},{"t":0.42222,"lat":48.4534,"lon":-26.5592,"largura_km":527.48,"eixo_na_terra":true},{"t":0.42778,"lat":48.5762,"lon":-26.4696,"largura_km":526.98,"eixo_na_terra":true},{"t":0.43333,"lat":48.6994,"lon":-26.3797,"largura_km":526.489,"eixo_na_terra":true},{"t":0.43889,"lat":48.8232,"lon":-26.2896,"largura_km":526.006,"eixo_na_terra":true},{"t":0.44444,"lat":48.9475,"lon":-26.1992,"largura_km":525.531,"eixo_na_terra":true},{"t":0.45,"lat":49.0723,"lon":-26.1085,"largura_km":525.064,"eixo_na_terra":true},{"t":0.45556,"lat":49.1976,"lon":-26.0175,"largura_km":524.605,"eixo_na_terra":true},{"t":0.46111,"lat":49.3235,"lon":-25.9262,"largura_km":524.154,"eixo_na_terra":true},{"t":0.46667,"lat":49.4499,"lon":-25.8347,"largura_km":523.711,"eixo_na_terra":true},{"t":0.47222,"lat":49.5769,"lon":-25.7428,"largura_km":523.276,"eixo_na_terra":true},{"t":0.47778,"lat":49.7044,"lon":-25.6506,"largura_km":522.849,"eixo_na_terra":true},{"t":0.48333,"lat":49.8325,"lon":-25.5581,"largura_km":522.431,"eixo_na_terra":true},{"t":0.48889,"lat":49.9611,"lon":-25.4652,"largura_km":522.02,"eixo_na_terra":true}]},"features":[{"type":"Feature","properties":{},"geometry":{"type":"Polygon","coordinates":[[[-42.92067283882318,36.57229636737009],[-42.530667952825524,36.7995633728584],[-42.275684279168104,36.952773919736714],[-42.02452561606066,37.10732551706862],[-41.77703838049945,37.26320415834848],[-41.533076972186564,37.420397235004906],[-41.29250315414936,37.578893449217965],[-41.05518549191004,37.73868273565187],[-40.8209988445015,37.89975619111717],[-40.58982390150965,38.06210601130889],[-40.36154676107617,38.22572543387828],[-40.04571625109912,38.45567423891247],[-39.824060311608264,38.62235272961224],[-39.60494662454619,38.79028421171405],[-39.38828107459062,38.95946599214761],[-39.17397320849216,39.1298961960276],[-38.96193599137706,39.30157373809678],[-38.752085581403605,39.474498297236586],[-38.544341121018135,39.648670293799924],[-38.33862454324486,39.824090869550325],[-38.13486039161023,40.00076187001659],[-37.932975652447624,40.17868582909601],[-37.732899598456584,40.35786595575767],[-37.436027319150185,40.62900011065804],[-37.240177256259244,40.81133902848339],[-37.04590430930091,40.994950514455205],[-36.85314635781043,41.179840701170086],[-36.56671803696236,41.45958852097846],[-36.37748595339855,41.6477064483116],[-36.09607547598432,41.93233327814078],[-35.91001269244498,42.12373111828992],[-35.63309965783253,42.4133226490148],[-35.26767789008005,42.80415883617469],[-35.08647828684087,43.00162383425513],[-34.816427134111734,43.300415969015724],[-34.63748693373924,43.50136052036999],[-34.37059669297349,43.805438571578186],[-34.19361377891198,44.009954037492584],[-33.92943767723722,44.31946345754306],[-33.75411792120218,44.52765256154197],[-33.49221943354917,44.842756352802475],[-33.318274409991545,45.05473389188416],[-33.05822390858526,45.375613791423056],[-32.626740208248805,45.91836542689018],[-32.368760765648176,46.24891610313218],[-32.11127677598415,46.58324514178232],[-31.68281760974827,47.149106215333816],[-31.42589572938482,47.49397125574646],[-31.16889510329014,47.84297703961312],[-30.73994537078886,48.434167074390636],[-30.481935958037354,48.79479054729869],[-30.223238598900878,49.160008372409386],[-29.703072058638497,49.904807915032066],[-29.177972945699764,50.66982634228418],[-28.646360308623173,51.45650202769773],[-28.10651673397598,52.26648403499234],[-23.17440952931986,47.923694347722034],[-24.64736022229971,45.9929224934488],[-25.174584587963352,45.306701694412894],[-25.694422655196377,44.63457836190699],[-26.20824081753011,43.9758598693911],[-26.632750425107986,43.43671584249452],[-27.13880827975487,42.80099786378843],[-27.558518339900672,42.28026164437878],[-27.97709878018469,41.76744230141955],[-28.395180601283926,41.262290458651314],[-28.81338142350114,40.764577400174375],[-29.23230943077914,40.27409363103881],[-29.67069330059155,39.77052170317057],[-30.092912583730197,39.29417426298206],[-30.51768056829593,38.824523508340484],[-30.859737926577225,38.453528099620776],[-31.290630200050316,37.995581523539435],[-31.725797303800448,37.54396852621213],[-32.185110672356245,37.08024734733716],[-32.54126992236195,36.72852325096497],[-32.81095104757355,36.46728343230082],[-32.99204261901468,36.29433117368887],[-33.357564021424025,35.95130777380357],[-33.634813666400646,35.69654824867911],[-34.12395139758388,35.25966758849838],[-34.505169086041576,34.928187521676165],[-34.89241801913005,34.60048018467007],[-35.286158048430025,34.27654290718937],[-35.38566366686098,34.19614796431896],[-35.70906779941373,33.94042323659605],[-36.1175330213365,33.624178990048414],[-36.324753701006046,33.4674811815448],[-36.534062268001264,33.31173677684652],[-36.74553377512967,33.1569493041262],[-36.95924601150409,33.00312282200702],[-37.30820956062115,32.7592664101259],[-43.18594974428822,36.422509807597784],[-42.92067283882318,36.57229636737009]]]}}]}