{"type":"FeatureCollection","features":[{"type":"Feature","properties":{"magnitude":0.6,"percentagem":60.0,"territorio":"continente"},"geometry":{"type":"LineString","coordinates":[[-9.70913674751885,36.0],[-9.700000000000017,36.01091395928989],[-9.675643463119068,36.04],[-9.660000000000018,36.05867279442696],[-9.642127681330365,36.08],[-9.620000000000019,36.10639339642739],[-9.608589217285479,36.12],[-9.58000000000002,36.15407547041155],[-9.57502788608319,36.16],[-9.5414439949222,36.199999999999996],[-9.54000000000002,36.20171925207999],[-9.507838536948494,36.239999999999995],[-9.500000000000021,36.24932572463105],[-9.474209621349939,36.279999999999994],[-9.460000000000022,36.29689277785456],[-9.440557063211141,36.31999999999999],[-9.420000000000023,36.34442012818968],[-9.406880677563592,36.35999999999999],[-9.380000000000024,36.39190749484274],[-9.373180279381405,36.39999999999999],[-9.340000000000025,36.43935459978394],[-9.339455683577528,36.43999999999999],[-9.305708573829804,36.47999999999999],[-9.300000000000026,36.48676321786514],[-9.271937040741985,36.519999999999996],[-9.260000000000026,36.53413120001721],[-9.238140719767792,36.55999999999999],[-9.220000000000027,36.5814580805431],[-9.204319425705222,36.59999999999999],[-9.180000000000028,36.62874359264281],[-9.170472973272094,36.639999999999986],[-9.140000000000029,36.67598747225827],[-9.136601177102678,36.679999999999986],[-9.10270470698676,36.719999999999985],[-9.10000000000003,36.7231904161775],[-9.068783570448518,36.759999999999984],[-9.06000000000003,36.7703523937972],[-9.034836499735018,36.79999999999998],[-9.020000000000032,36.81747194150822],[-9.000863309281684,36.83999999999998],[-8.980000000000032,36.864548806376426],[-8.966863813422083,36.87999999999998],[-8.940000000000033,36.91158273818134],[-8.932837826383873,36.91999999999998],[-8.900000000000034,36.95857348940982],[-8.898785162285053,36.95999999999998],[-8.864707061618692,36.999999999999986],[-8.860000000000035,37.00552245651048],[-8.830602249638172,37.03999999999998],[-8.820000000000036,37.052428160054845],[-8.796470169468398,37.07999999999998],[-8.780000000000037,37.09928993589823],[-8.762310634933277,37.119999999999976],[-8.740000000000038,37.14610754749121],[-8.728123459729558,37.159999999999975],[-8.700000000000038,37.19288076095602],[-8.693908457422925,37.199999999999974],[-8.66000000000004,37.239609345079266],[-8.659665441444508,37.239999999999974],[-8.625395790174972,37.27999999999997],[-8.62000000000004,37.2862949251166],[-8.591097817523046,37.319999999999965],[-8.580000000000041,37.33293551650519],[-8.556771238917301,37.35999999999997],[-8.540000000000042,37.37953078088641],[-8.522415867401962,37.39999999999997],[-8.500000000000043,37.42608049781579],[-8.48803151586934,37.43999999999997],[-8.460000000000043,37.47258444947104],[-8.453617997056439,37.47999999999997],[-8.420000000000044,37.51904242064349],[-8.419175123541425,37.51999999999997],[-8.384704011777181,37.55999999999997],[-8.380000000000045,37.56545579287083],[-8.350203369577452,37.599999999999966],[-8.340000000000046,37.61182302297624],[-8.315672778788745,37.63999999999997],[-8.300000000000047,37.65814362339793],[-8.281112051511801,37.679999999999964],[-8.260000000000048,37.704417389470436],[-8.246520999671768,37.71999999999996],[-8.220000000000049,37.75064411909402],[-8.211899435014757,37.75999999999996],[-8.18000000000005,37.79682361272443],[-8.177247169104207,37.79999999999996],[-8.142564691768246,37.83999999999996],[-8.14000000000005,37.84295653162137],[-8.107851840047061,37.87999999999996],[-8.100000000000051,37.88904272804586],[-8.073107691140386,37.91999999999996],[-8.060000000000052,37.9350810866107],[-8.038332056046237,37.959999999999965],[-8.020000000000053,37.98107141806181],[-8.003524745563986,37.99999999999996],[-7.980000000000054,38.02701353564771],[-7.9686855702906705,38.03999999999996],[-7.940000000000055,38.07290725510886],[-7.933814340617919,38.079999999999956],[-7.900000000000055,38.11875239466658],[-7.8989108667283725,38.119999999999955],[-7.863975952612559,38.159999999999954],[-7.860000000000056,38.16455008751669],[-7.829008660228286,38.19999999999995],[-7.820000000000057,38.21029918685504],[-7.794008524777503,38.23999999999995],[-7.780000000000058,38.255999158037184],[-7.758975355779001,38.27999999999995],[-7.740000000000059,38.3016498292499],[-7.723908962526756,38.31999999999995],[-7.70000000000006,38.34725103110235],[-7.688809154086879,38.35999999999995],[-7.6600000000000605,38.392802596614885],[-7.653675739294318,38.39999999999995],[-7.620000000000061,38.43830436120674],[-7.618508526749489,38.43999999999995],[-7.583308104491615,38.47999999999995],[-7.580000000000062,38.483757241541774],[-7.548073828619438,38.519999999999946],[-7.540000000000063,38.529160469252055],[-7.512805152674788,38.559999999999945],[-7.500000000000064,38.574513399548536],[-7.477501884498261,38.59999999999995],[-7.460000000000065,38.61981587746324],[-7.44216383168051,38.639999999999944],[-7.420000000000066,38.66506775036413],[-7.406790801559158,38.67999999999994],[-7.3800000000000665,38.7102688679429],[-7.371382601215661,38.71999999999994],[-7.340000000000067,38.75541908220245],[-7.335939037472029,38.75999999999994],[-7.300460018814443,38.79999999999993],[-7.300000000000068,38.80051839587936],[-7.264946132074385,38.83999999999994],[-7.260000000000069,38.845567813479875],[-7.229396275604304,38.87999999999994],[-7.22000000000007,38.890565881035705],[-7.193810255372908,38.91999999999994],[-7.180000000000071,38.93551245978646],[-7.158187877074385,38.95999999999994],[-7.140000000000072,38.98040741321603],[-7.122528946125431,38.999999999999936],[-7.1000000000000725,39.02525060703985],[-7.0868332676622625,39.039999999999935],[-7.060000000000073,39.070041909191644],[-7.051100646537331,39.079999999999934],[-7.020000000000074,39.11478118980984],[-7.015330887316336,39.11999999999993],[-6.980000000000075,39.15946832122488],[-6.979523794275386,39.15999999999993],[-6.943679921490168,39.19999999999993],[-6.940000000000076,39.204104350964705],[-6.907798397080456,39.23999999999993],[-6.900000000000077,39.248688118801574],[-6.871878926658793,39.27999999999993],[-6.860000000000078,39.2932193516032],[-6.835921313533174,39.31999999999993],[-6.820000000000078,39.33769793042908],[-6.799925360707098,39.35999999999993],[-6.780000000000079,39.38212373845985],[-6.763890870876653,39.39999999999993],[-6.74000000000008,39.42649666098407],[-6.727817646427585,39.43999999999993],[-6.700000000000081,39.47081658538415],[-6.691705489432298,39.479999999999926],[-6.660000000000082,39.51508340112252],[-6.655554201646688,39.519999999999925],[-6.620000000000083,39.55929699972784],[-6.619363584507364,39.559999999999924],[-6.583134023379562,39.59999999999992],[-6.580000000000084,39.60345826399997],[-6.546864833201533,39.63999999999992],[-6.540000000000084,39.647566286027775],[-6.510555694802493,39.67999999999992],[-6.500000000000086,39.69162076236289],[-6.474206408539331,39.71999999999992],[-6.460000000000086,39.73562159273368],[-6.437816774435387,39.75999999999992],[-6.420000000000087,39.779568678861864],[-6.401386592177331,39.79999999999992],[-6.380000000000088,39.823461924448715],[-6.364915661112636,39.83999999999992],[-6.340000000000089,39.867301235160596],[-6.32840378024623,39.87999999999992],[-6.3000000000000895,39.911086518615136],[-6.291850748237942,39.919999999999916],[-6.26000000000009,39.954817684366276],[-6.255256363399183,39.959999999999916],[-6.220000000000091,39.99849464389093],[-6.218620423690548,39.999999999999915],[-6.181943052167692,40.039999999999914],[-6.180000000000092,40.04211791864213],[-6.145223935122779,40.07999999999991],[-6.140000000000093,40.08568723289815],[-6.108462636031938,40.11999999999991],[-6.100000000000094,40.129202071631845],[-6.071658951655662,40.15999999999991],[-6.060000000000095,40.172662353916344],[-6.034812678389649,40.1999999999999],[-6.0200000000000955,40.21606800067331],[-5.997923612261587,40.23999999999991],[-5.980000000000096,40.259418934658065],[-5.960991548928547,40.27999999999991],[-5.940000000000097,40.302715080445736],[-5.924016283674195,40.31999999999991],[-5.900000000000098,40.3459563644166],[-5.886997611405746,40.35999999999991],[-5.860000000000099,40.38914271474161],[-5.849935326651135,40.399999999999906],[-5.8200000000001,40.43227406136819],[-5.812829223556456,40.439999999999905],[-5.780000000000101,40.47535033600546],[-5.775679095882652,40.479999999999905],[-5.7400000000001015,40.51837147211043],[-5.738484737003383,40.519999999999904],[-5.701246121041576,40.5599999999999],[-5.700000000000102,40.561337791982965],[-5.663963066151973,40.5999999999999],[-5.660000000000103,40.60424930149042],[-5.626635141751382,40.639999999999894],[-5.620000000000104,40.64710546814471],[-5.589262139873926,40.6799999999999],[-5.580000000000105,40.68990623226841],[-5.551843852152404,40.7199999999999],[-5.540000000000106,40.73265153585705]]}},{"type":"Feature","properties":{"magnitude":0.9,"percentagem":90.0,"territorio":"acores"},"geometry":{"type":"LineString","coordinates":[[-31.3306433660484,36.0],[-31.320000000000014,36.0105071307299],[-31.2901639051058,36.04],[-31.280000000000015,36.050058290326206],[-31.249783360536238,36.08],[-31.240000000000016,36.08970521655412],[-31.209500912177912,36.12],[-31.200000000000017,36.12944781231525],[-31.169315746568866,36.16],[-31.160000000000018,36.169285976342934],[-31.129227056882023,36.199999999999996],[-31.12000000000002,36.20921960318977],[-31.089234042861445,36.239999999999995],[-31.08000000000002,36.24924858321612],[-31.049335910758565,36.279999999999994],[-31.04000000000002,36.289372802578235],[-31.0095318732698,36.31999999999999],[-31.000000000000025,36.32959214321766],[-30.96982114947408,36.35999999999999],[-30.960000000000022,36.369906482850446],[-30.930202964772135,36.39999999999999],[-30.920000000000023,36.41031569495773],[-30.8906765508251,36.43999999999999],[-30.880000000000024,36.45081964877555],[-30.85124114549469,36.47999999999999],[-30.84000000000002,36.491418209286465],[-30.811895992783725,36.51999999999999],[-30.800000000000026,36.53211123721035],[-30.77264034277738,36.55999999999999],[-30.760000000000026,36.57289858899719],[-30.73347345158453,36.59999999999999],[-30.720000000000027,36.61378011681854],[-30.694394581280783,36.639999999999986],[-30.680000000000028,36.65475566856154],[-30.65540299985097,36.679999999999986],[-30.640000000000025,36.695825087821675],[-30.616497981132685,36.719999999999985],[-30.60000000000003,36.736988213896836],[-30.57767880476098,36.759999999999984],[-30.56000000000003,36.77824488178217],[-30.538944756112485,36.79999999999998],[-30.52000000000003,36.81959492216478],[-30.500295126251117,36.83999999999998],[-30.480000000000032,36.861038161419316],[-30.46172921187382,36.87999999999998],[-30.440000000000033,36.90257442160397],[-30.423246315257032,36.91999999999998],[-30.400000000000034,36.94420352045737],[-30.384845744203663,36.95999999999998],[-30.360000000000035,36.98592527139506],[-30.346526811990593,36.99999999999998],[-30.320000000000036,37.02773948350786],[-30.30828883731689,37.03999999999998],[-30.280000000000037,37.06964596155951],[-30.270131144252318,37.07999999999998],[-30.240000000000038,37.111644505985566],[-30.23205306218643,37.119999999999976],[-30.20000000000004,37.15373491289266],[-30.194053925778316,37.159999999999975],[-30.16000000000004,37.19591697405826],[-30.156133074906762,37.199999999999974],[-30.12000000000004,37.23819047693083],[-30.11828985462077,37.239999999999974],[-30.080524322966166,37.27999999999997],[-30.08000000000004,37.28055590367136],[-30.042837531775234,37.31999999999997],[-30.040000000000045,37.32301472387962],[-30.00522652124693,37.35999999999997],[-30.000000000000043,37.365564431283985],[-29.967690654982754,37.39999999999997],[-29.960000000000043,37.408204795413134],[-29.930229301535057,37.43999999999997],[-29.920000000000044,37.450935581469324],[-29.892841834360183,37.47999999999997],[-29.880000000000045,37.49375655033189],[-29.85552763177256,37.51999999999997],[-29.840000000000042,37.53666745856188],[-29.818286076898787,37.55999999999997],[-29.800000000000047,37.579668058406625],[-29.781116557632433,37.599999999999966],[-29.760000000000048,37.62275809780519],[-29.74401846658936,37.639999999999965],[-29.72000000000005,37.66593732039451],[-29.706991201063403,37.679999999999964],[-29.68000000000005,37.709205465515815],[-29.670034162982347,37.71999999999996],[-29.64000000000005,37.752562268221695],[-29.633146758864463,37.75999999999996],[-29.60000000000005,37.79600745928397],[-29.596328399775764,37.79999999999996],[-29.560000000000052,37.83954076520163],[-29.559578501287067,37.83999999999996],[-29.52290024507463,37.87999999999996],[-29.520000000000053,37.88316584571195],[-29.486289905814346,37.91999999999996],[-29.480000000000054,37.92687915462491],[-29.44974636200632,37.95999999999996],[-29.44000000000005,37.970679832578696],[-29.413269045445766,37.99999999999996],[-29.400000000000052,38.01456758835682],[-29.376857392243316,38.03999999999996],[-29.360000000000056,38.05854212651418],[-29.340510842783587,38.079999999999956],[-29.320000000000057,38.10260314738804],[-29.30422884168596,38.119999999999955],[-29.280000000000058,38.14675034711105],[-29.26801083776496,38.159999999999954],[-29.24000000000006,38.19098341762364],[-29.231856283990894,38.19999999999995],[-29.20000000000006,38.2353020466878],[-29.19576463745138,38.23999999999995],[-29.16000000000006,38.27970591790066],[-29.159735359312645,38.27999999999995],[-29.1237726675021,38.31999999999994],[-29.120000000000058,38.32419989115241],[-29.08787166156853,38.35999999999995],[-29.080000000000062,38.36877891880558],[-29.052031478709182,38.39999999999995],[-29.040000000000063,38.41344230775268],[-29.016251594820964,38.43999999999995],[-29.000000000000064,38.45818972430776],[-28.980531489707992,38.47999999999995],[-28.960000000000065,38.50302083069383],[-28.944870647045065,38.519999999999946],[-28.920000000000066,38.547935285060774],[-28.909268554341885,38.559999999999945],[-28.880000000000067,38.59293274150298],[-28.873724702907246,38.599999999999945],[-28.840000000000067,38.63801285007797],[-28.838238587813667,38.639999999999944],[-28.80281316907199,38.67999999999994],[-28.800000000000068,38.683179151501065],[-28.767446701615057,38.71999999999994],[-28.76000000000007,38.72842992092216],[-28.7321365144696,38.75999999999994],[-28.72000000000007,38.77376235584234],[-28.696882116332905,38.79999999999994],[-28.68000000000007,38.819176089555384],[-28.661683019507983,38.83999999999994],[-28.64000000000007,38.864670751416],[-28.626538739869986,38.87999999999994],[-28.600000000000072,38.91024596686164],[-28.5914487968331,38.91999999999994],[-28.560000000000073,38.95590135743493],[-28.556412713317563,38.95999999999994],[-28.521431740836476,38.99999999999994],[-28.520000000000074,39.001638535886926],[-28.48650805307137,39.039999999999935],[-28.480000000000075,39.04746020518946],[-28.451636842286746,39.079999999999934],[-28.440000000000076,39.09336097289343],[-28.41681764412177,39.11999999999993],[-28.400000000000077,39.13934044435864],[-28.382049997574647,39.15999999999993],[-28.360000000000078,39.18539822116798],[-28.34733344497105,39.19999999999993],[-28.32000000000008,39.23153390115341],[-28.312667531933933,39.23999999999993],[-28.28000000000008,39.277747078422],[-28.278051807352206,39.27999999999993],[-28.243489940990102,39.31999999999993],[-28.24000000000008,39.32404223424776],[-28.208979699594096,39.35999999999993],[-28.200000000000077,39.37041687353356],[-28.17451833282547,39.39999999999993],[-28.160000000000082,39.41686784649346],[-28.140105401447347,39.43999999999993],[-28.120000000000083,39.463394731749226],[-28.105740469352277,39.479999999999926],[-28.080000000000084,39.50999710433548],[-28.071423103532826,39.519999999999925],[-28.040000000000084,39.55667453572836],[-28.037152874052694,39.559999999999924],[-28.00293275174291,39.59999999999992],[-28.000000000000085,39.60343072239443],[-27.968762241687976,39.63999999999992],[-27.960000000000086,39.650265183272296],[-27.934637610253205,39.67999999999992],[-27.920000000000087,39.69717346757844],[-27.900558438689366,39.71999999999992],[-27.880000000000088,39.74415513198972],[-27.86652431118948,39.75999999999992],[-27.84000000000009,39.79120972977814],[-27.832534814861305,39.79999999999992],[-27.80000000000009,39.83833681084322],[-27.798589539700636,39.83999999999992],[-27.764693417410705,39.87999999999991],[-27.76000000000009,39.88554255485226],[-27.73084232469477,39.919999999999916],[-27.72000000000009,39.93282193403704],[-27.697034248368702,39.959999999999916],[-27.680000000000092,39.980172492539495],[-27.663268788967464,39.999999999999915],[-27.640000000000093,40.02759376622373],[-27.629545549792205,40.039999999999914],[-27.600000000000094,40.075085287749545],[-27.595864136884664,40.07999999999991],[-27.562226652937703,40.11999999999991],[-27.56000000000009,40.1226497433758],[-27.52863487079388,40.15999999999991],[-27.520000000000095,40.17028943414027],[-27.495083752789462,40.19999999999992],[-27.480000000000096,40.21799801393395],[-27.461572914985215,40.23999999999991],[-27.440000000000097,40.265775002074335],[-27.428101976066543,40.27999999999991],[-27.400000000000098,40.31361991485385],[-27.394670557319323,40.31999999999991],[-27.36127969379765,40.35999999999991],[-27.360000000000095,40.36153408485809],[-27.327933501468152,40.399999999999906],[-27.3200000000001,40.40952284540839],[-27.294625707785123,40.439999999999905],[-27.2800000000001,40.457578119592114],[-27.261355943558012,40.479999999999905]]}}]}