{"type":"FeatureCollection","features":[{"type":"Feature","properties":{"t_inicio":-0.3388888888889019,"t_fim":1.2333333333333147},"geometry":{"type":"LineString","coordinates":[[-39.91297186662172,33.63531131050863],[-39.76942597923647,33.569022077641584],[-39.62648038306406,33.503223217962024],[-39.48412362038465,33.43791030093782],[-39.34234445018029,33.373078996055156],[-39.20113184155338,33.30872507013975],[-39.060474967380856,33.24484438477591],[-38.920363198194195,33.18143289381893],[-38.78078609627477,33.11848664099721],[-38.64173340995529,33.05600175760009],[-38.503195068118345,32.9939744602477],[-38.365161174883696,32.93240104873965],[-38.22762200447562,32.871277903979085],[-38.0905679962635,32.810601485969045],[-37.95398974996746,32.75036833187847],[-37.81787802102258,32.690575054174325],[-37.68222371609505,32.6312183388183],[-37.54701788874365,32.57229494352432],[-37.41225173522082,32.5138016960754],[-37.27791659040756,32.4557354926971],[-37.14400392387637,32.39809329648533],[-37.0105053360775,32.34087213588673],[-36.87741255464334,32.28406910322929],[-36.74471743080596,32.22768135330167],[-36.61241193592355,32.17170610197892],[-36.48048815811168,32.116140624893454],[-36.34893829897439,32.06098225614906],[-36.217754670432214,32.006228387076696],[-36.08692969164258,31.95187646503071],[-35.95645588600922,31.897923992223408],[-35.82632587827749,31.84436852459733],[-35.69653239171157,31.791207670733534],[-35.56706824535101,31.738439090794596],[-35.437926351343265,31.68606049550122],[-35.309099712349536,31.63406964514144],[-35.180581419020825,31.582464348611055],[-35.05236464754179,31.531242462484194],[-34.92444265723981,31.480401890113598],[-34.796808788256556,31.429940580758785],[-34.669456459280184,31.37985652874175],[-34.54237916533543,31.33014777262928],[-34.41557047562952,31.28081239444072],[-34.28902403145207,31.231848518880764],[-34.16273354412658,31.18325431259607],[-34.03669279301215,31.135027983455497],[-33.91089562355259,31.087167779852525],[-33.78533594537237,31.03967199003],[-33.66000773041668,30.992538941425785],[-33.53490501113433,30.94576700003921],[-33.41002187870208,30.899354569817458],[-33.28535248128841,30.853300092061414],[-33.160891022355685,30.807602044850263],[-33.03663175899885,30.762258942484664],[-32.91256900031976,30.717269334947407],[-32.788697105835325,30.67263180738171],[-32.665010483918564,30.628344979586256],[-32.541503590270935,30.584407505526517],[-32.41817092642523,30.540818072862283],[-32.295007038277305,30.497575402490526],[-32.17200651464606,30.45467824810361],[-32.04916398585999,30.412125395762146],[-31.92647412236994,30.369915663482328],[-31.8039316333863,30.328047900837245],[-31.681531265540258,30.286520988572146],[-31.55926780156767,30.24533383823282],[-31.437136059015103,30.204485391807204],[-31.31513088896645,30.163974621379893],[-31.193247174790088,30.12380052879903],[-31.071479830904764,30.08396214535545],[-30.949823801564378,30.044458531473996],[-30.82827405965989,30.005288776416293],[-30.7068256055382,29.966451997995396],[-30.585473465837026,29.927947342301383],[-30.464212692334797,29.889773983438282],[-30.343038360815285,29.851931123271655],[-30.221945569945746,29.81441799118722],[-30.100929440168244,29.77723384385945],[-29.979985112603288,29.740377965031094],[-29.859107747965,29.70384966530232],[-29.73829252548751,29.667648281930187],[-29.617534641861283,29.63177317863795],[-29.496829310179663,29.59622374543393],[-29.37617175889386,29.56099939844013],[-29.255557230776816,29.526099579730282],[-29.134980981894728,29.491523757177124],[-29.014438280585523,29.45727142430911],[-28.8939244064444,29.42334210017618],[-28.773434649314936,29.389735329224507],[-28.652964308285704,29.356450681180394],[-28.53250869069197,29.323487750942864],[-28.412063111121256,29.290846158485266],[-28.291622890422843,29.25852554876552],[-28.17118335472034,29.226525591645057],[-28.05073983442668,29.194845981816506],[-27.930287663261225,29.163486438739948],[-27.809822177268273,29.132446706587814],[-27.689338713836293,29.10172655419813],[-27.568832610717692,29.071325775036613],[-27.448299205048045,29.041244187166956],[-27.3277338323648,29.011481633229923],[-27.207131825624373,28.98203798043073],[-27.086488514217365,28.952913120535047],[-26.965799222981417,28.9241069698735],[-26.84505927121063,28.895619469354703],[-26.7242639716618,28.867450584486974],[-26.60340862955607,28.839600305408414],[-26.482488541575947,28.81206864692594],[-26.36149899485676,28.784855648562733],[-26.240435265972394,28.75796137461463],[-26.119292619914205,28.731385914215245],[-25.998066309062807,28.70512938140995],[-25.87675157215199,28.67919191523886],[-25.755343633224328,28.653573679828803],[-25.633837700577658,28.628274864494504],[-25.512228965701638,28.603295683848838],[-25.390512602204183,28.578636377922646],[-25.268683764726717,28.5542972122938],[-25.146737587847696,28.530278478225934],[-25.02466918497359,28.506580492816905],[-24.902473647216965,28.483203599156948],[-24.7801460422603,28.460148166497188],[-24.65768141320561,28.437414590427764],[-24.535074777408198,28.415003293066828],[-24.412321125294625,28.392914723259683],[-24.289415419163475,28.37114935678878],[-24.16635259196832,28.34970769659453],[-24.043127546082076,28.328590273007258],[-23.91973515204188,28.30779764399049],[-23.796170247273352,28.28733039539579],[-23.672427634793706,28.26718914122928],[-23.54850208189248,28.247374523930436],[-23.424388318789056,28.227887214663042],[-23.300081037265613,28.208727913618738],[-23.175574889275367,28.18989735033352],[-23.05086448552362,28.1713962840176],[-22.925944394022054,28.15322550389843],[-22.800809138613886,28.1353858295779],[-22.67545319746938,28.117878111403773],[-22.549871001550343,28.10070323085545],[-22.424056933042124,28.08386210094504],[-22.298005323752164,28.06735566663363],[-22.17171045347348,28.051184905263366],[-22.045166548311784,28.035350827005942],[-21.918367778974556,28.01985447532767],[-21.791308259021122,28.004696927471894],[-21.663982043071314,27.98987929495898],[-21.536383124972076,27.975402724104654],[-21.408505435919153,27.961268396557223],[-21.280342842533457,27.94747752985392],[-21.151889144888997,27.93403137799762],[-21.02313807449127,27.920931232053796],[-20.89408329220396,27.908178420769143],[-20.76471838612167,27.89577431121181],[-20.635036869386823,27.883720309434633],[-20.505032177948237,27.872017861161716],[-20.374697668259216,27.860668452499375],[-20.244026614912798,27.849673610671886],[-20.11301220821133,27.839034904783627],[-19.98164755166792,27.828753946607684],[-19.849925659437076,27.818832391402545],[-19.717839453671616,27.809271938757462],[-19.58538176180255,27.800074333467713],[-19.45254531373925,27.79124136644084],[-19.319322738986244,27.782774875634928],[-19.185706563673477,27.77467674703012],[-19.051689207496196,27.766948915634856],[-18.91726298056082,27.75959336652778],[-18.782420080132994,27.752612135936932],[-18.64715258728333,27.746007312357683],[-18.51145246342682,27.739781037710806],[-18.375311546751448,27.733935508542366],[-18.238721548530805,27.728472977267067],[-18.1016740493163,27.72339575345687],[-17.964160495003313,27.718706205176474],[-17.82617219276588,27.714406760368092],[-17.687700306854452,27.710499908287066],[-17.548735854250083,27.706988200990732],[-17.409269700169318,27.70387425488265],[-17.269292553412555,27.701160752314692],[-17.128794961549232,27.69885044324943],[-16.987767305932152,27.696946146985397],[-16.8461997965332,27.6954507539481],[-16.704082466592496,27.69436722754948],[-16.561405167071854,27.693698606119238],[-16.418157560903666,27.693448004910913],[-16.274329117025758,27.69361861818639],[-16.129909104191682,27.69421372138239],[-15.984886584545904,27.695236673362377],[-15.839250406952658,27.696690918758687],[-15.692989200066108,27.69857999040843],[-15.54609136512974,27.700907511887806],[-15.398545068490819,27.703677200149997],[-15.250338233816677,27.706892868271094],[-15.10145853399689,27.710558428309724],[-14.951893382715951,27.714677894286154],[-14.801629925679663,27.719255385286303],[-14.650655031477072,27.724295128697687],[-14.498955282059,27.729801463583563],[-14.346516962813382,27.735778844202542],[-14.19332605221561,27.742231843681395],[-14.03936821103136,27.749165157848893],[-13.884628771047716,27.75658360923944],[-13.729092723306877,27.76449215127557],[-13.572744705814813,27.772895872639015],[-13.41556899069613,27.78180000184073],[-13.257549470763763,27.79120991200069],[-13.098669645470096,27.801131125849704],[-12.938912606204639,27.811569320965386],[-12.778261020899947,27.822530335255728],[-12.616697117905488,27.834020172704836],[-12.4542026690863,27.84604500939595],[-12.290758972099951,27.858611199828353],[-12.126346831802408,27.871725283545306],[-11.96094654072948,27.885393992092574],[-11.794537858596811,27.899624256326863],[-11.627099990757472,27.914423214096463],[-11.458611565550825,27.929798218317256],[-11.289050610472742,27.945756845468726],[-11.118394527090004,27.96230690453758],[-10.946620064618116,27.979456446437137],[-10.77370329207315,27.99721377393441],[-10.599619568902938,28.01558745211829],[-10.424343513994216,28.034586319445054],[-10.247848972944979,28.054219499400794],[-10.070108983481163,28.07449641282303],[-9.891095738887572,28.09542679092769],[-9.710780549311778,28.117020689091213],[-9.529133800787605,28.139288501441722],[-9.346124911811643,28.162240976318532],[-9.16172228729181,28.185889232663136],[-8.975893269670763,28.21024477741165],[-8.78860408700973,28.235319523964208],[-8.599819797797693,28.261125811813965],[-8.409504232230887,28.287676427425602],[-8.21761992968203,28.31498462646231],[-8.024128072053003,28.343064157468763],[-7.828988412675329,28.371929287128538],[-7.632159200388628,28.401594827225576],[-7.433597098392795,28.432076163452624],[-7.233257097426332,28.46338928622321],[-7.031092422779324,28.49555082366052],[-6.827054434597699,28.528578076953824],[-6.621092520877596,28.562489058293572],[-6.413153982484886,28.597302531619032],[-6.203183909461302,28.633038056437385],[-5.9911250477975955,28.66971603500206],[-5.776917655760116,28.707357763171032],[-5.560499348753439,28.745985485301627],[-5.3418049315815495,28.78562245358092],[-5.120766216834653,28.82629299223809],[-4.89731182797459,28.8680225671384],[-4.6713669855136,28.910837861321635],[-4.442853274480598,28.954766857117157],[-4.211688391135198,28.999838925550062],[-3.977785866621957,29.046084923845825],[-3.741054764949382,29.09353730194874],[-3.5013993523187423,29.142230219095087],[-3.258718734412753,29.192199671625986],[-3.0129064577704696,29.243483633394693],[-2.7638500708081324,29.296122210319755],[-2.5114306393831214,29.350157810867262],[-2.2555222110180466,29.40563533451643],[-1.9959912209806134,29.462602380585132],[-1.732695832324083,29.5211094801706],[-1.4654852006942178,29.581210354413855],[-1.1941986531574003,29.642962202836536],[-0.9186647684447564,29.706426026145596],[-0.6387003437611725,29.77166698868377],[-0.35410923059583865,29.83875482664668],[-0.06468101866053644,29.90776430933949],[0.22981045696110414,29.9787757621515],[0.5296088153486664,30.051875661658197],[0.8349770720219851,30.12715731540167],[1.1461998676912515,30.204721641566856],[1.4635860368348972,30.28467806711399],[1.7874715816109017,30.367145567147016],[2.1182231320665608,30.4522538736654],[2.456241993440443,30.54014488872873],[2.801968906997871,30.630974345963402],[3.155889684329992,30.72491377595739],[3.518541919196963,30.822152846401785],[3.890523039841156,30.92290216823875],[4.272500044019381,31.027396686571777],[4.665221367293384,31.135899812618543]]}}]}