{"type":"FeatureCollection","features":[{"type":"Feature","properties":{"magnitude":0.5,"de":0.5,"ate":0.8,"percentagem":50.0},"geometry":{"type":"Polygon","coordinates":[[[-14.929322914207761,38.579999999999814],[-12.239999999999156,38.630365326072436],[-9.47999999999905,38.82561458287353],[-6.599999999998943,39.168876256047184],[-3.5399999999988268,39.6710402340962],[-3.5399999999988268,44.939999999999685],[-34.5,44.939999999999685],[-34.5,42.916190366156336],[-31.8599999999999,41.87901739472885],[-29.339999999999804,41.00055666999838],[-27.479999999999734,40.43096270345367],[-25.679999999999666,39.94864351466996],[-23.879999999999598,39.5373943464123],[-22.07999999999953,39.199329763831905],[-20.317092687102207,38.93999999999981],[-18.539999999999395,38.75021976701345],[-16.739999999999327,38.630019660033206],[-14.929322914207761,38.579999999999814]]]}},{"type":"Feature","properties":{"magnitude":0.8,"de":0.8,"ate":0.95,"percentagem":80.0},"geometry":{"type":"Polygon","coordinates":[[[-16.7990069016979,30.53999999999999],[-15.23999999999927,30.53263983141401],[-13.679999999999211,30.573489349319384],[-12.119999999999152,30.66003019031464],[-10.49999999999909,30.795432587206886],[-8.819999999999027,30.981579146745293],[-7.139999999998963,31.210886588075294],[-5.343600046054847,31.499999999999968],[-3.5399999999988268,31.831994403885282],[-3.5399999999988268,39.6710402340962],[-5.699999999998909,39.30272525667315],[-7.799999999998988,39.00959454588289],[-9.839999999999065,38.792404554054144],[-11.81999999999914,38.651036238076],[-13.739999999999213,38.58441615301697],[-15.599999999999284,38.59041344973404],[-17.459999999999354,38.66953020243962],[-19.319999999999425,38.82471644394074],[-21.179999999999495,39.058043924606984],[-22.979999999999567,39.359126325278204],[-24.77999999999963,39.733979553871265],[-26.639999999999702,40.197211446843845],[-28.499999999999773,40.734630631160975],[-30.419999999999845,41.36266119155079],[-32.39999999999992,42.082034371476155],[-34.5,42.916190366156336],[-34.5,34.32920017140286],[-32.15999999999991,33.456013398852235],[-29.879999999999825,32.700806813460616],[-27.65999999999974,32.06621120851152],[-25.49999999999966,31.55103311048426],[-23.339999999999577,31.14079381348156],[-21.179999999999495,30.836866054000602],[-19.019999999999413,30.638130328735492],[-16.7990069016979,30.53999999999999]]]}},{"type":"Feature","properties":{"magnitude":0.95,"de":0.95,"ate":0.99,"percentagem":95.0},"geometry":{"type":"MultiPolygon","coordinates":[[[[-34.5,30.0],[-34.5,30.33061732109276],[-33.63593272096826,30.0],[-34.5,30.0]]],[[[-27.352402940426,30.0],[-29.279999999999802,30.520661984549776],[-30.959999999999866,31.03796021057981],[-32.69999999999993,31.63207410235259],[-34.5,32.3039970196985],[-34.5,34.32920017140286],[-32.519999999999925,33.58418855586291],[-30.59999999999985,32.92840906960743],[-28.73999999999978,32.36200025847289],[-26.87999999999971,31.868261841845587],[-25.079999999999643,31.462971512654157],[-23.279999999999575,31.130920205341425],[-21.479999999999507,30.872746323481344],[-19.619999999999436,30.682938631860377],[-17.759999999999366,30.569550623943666],[-15.899999999999295,30.52974062573271],[-13.979999999999222,30.562004091510794],[-11.999999999999147,30.668510057813116],[-10.019999999999072,30.84400671673874],[-7.919999999998993,31.099273242135343],[-5.759999999998911,31.429151980329856],[-3.5399999999988268,31.831994403885282],[-3.5399999999988268,30.0],[-27.352402940426,30.0]]]]}},{"type":"Feature","properties":{"magnitude":0.99,"de":0.99,"ate":2.0,"percentagem":99.0},"geometry":{"type":"Polygon","coordinates":[[[-34.5,30.33061732109276],[-33.63593272096826,30.0],[-27.352402940426,30.0],[-29.099999999999795,30.46867895274959],[-30.83999999999986,30.99912633056349],[-32.63999999999993,31.610648335291476],[-34.5,32.3039970196985],[-34.5,30.33061732109276]]]}}]}