{"type":"FeatureCollection","features":[{"type":"Feature","properties":{"magnitude":0.6,"percentagem":60.0,"territorio":"continente"},"geometry":{"type":"LineString","coordinates":[[-7.86036758744683,42.95999999999985],[-7.900000000000055,42.93956945408411],[-7.937940545328552,42.91999999999985],[-7.940000000000054,42.918937848761225],[-7.980000000000054,42.89830396866335],[-8.015464182020306,42.87999999999985],[-8.020000000000053,42.877659173354076],[-8.060000000000052,42.85701156110096],[-8.092939196107592,42.839999999999854],[-8.100000000000051,42.83635377911522],[-8.14000000000005,42.815692623435496],[-8.170366367389576,42.799999999999855],[-8.18000000000005,42.795022058691885],[-8.220000000000049,42.774347549053374],[-8.247746473319074,42.759999999999856],[-8.260000000000048,42.75366440606894],[-8.300000000000047,42.73297673266929],[-8.325080289040308,42.71999999999986],[-8.340000000000046,42.712281216549],[-8.380000000000045,42.69158057030618],[-8.402368587426537,42.679999999999865],[-8.420000000000044,42.67087288673232],[-8.460000000000043,42.65015945927529],[-8.479612139117867,42.63999999999986],[-8.500000000000043,42.629439814496706],[-8.540000000000042,42.608713798155776],[-8.556811712558693,42.59999999999986],[-8.580000000000041,42.58798239897715],[-8.62000000000004,42.567243986774216],[-8.633968074034616,42.55999999999986],[-8.66000000000004,42.54650104054505],[-8.700000000000038,42.52575042618383],[-8.711081987709651,42.51999999999986],[-8.740000000000038,42.504996140787426],[-8.780000000000037,42.484233518643755],[-8.78815421566318,42.47999999999986],[-8.820000000000036,42.46346810248596],[-8.860000000000035,42.44269366759773],[-8.865185517926424,42.43999999999986],[-8.900000000000034,42.42191732959577],[-8.940000000000033,42.40113127765283],[-8.942176652518949,42.399999999999864],[-8.980000000000032,42.3803442272239],[-9.01912860577579,42.359999999999864],[-9.020000000000032,42.3595469864552],[-9.06000000000003,42.33874920160788],[-9.096042496643875,42.319999999999865],[-9.10000000000003,42.3179415601813],[-9.140000000000029,42.29713266009381],[-9.172918507693124,42.27999999999986],[-9.180000000000028,42.27631482854669],[-9.220000000000027,42.25549501111438],[-9.249757389293654,42.23999999999987],[-9.260000000000026,42.23466720044361],[-9.300000000000026,42.21383666416688],[-9.326559889975869,42.19999999999986],[-9.340000000000025,42.19299908581696],[-9.380000000000024,42.17215802979067],[-9.403326756465805,42.15999999999987],[-9.420000000000023,42.15131089564182],[-9.460000000000022,42.13045951954487],[-9.480058733720824,42.11999999999987],[-9.500000000000021,42.10960304190101],[-9.54000000000002,42.08874154598556],[-9.556756564964385,42.07999999999987],[-9.58000000000002,42.06787593756215],[-9.620000000000019,42.047004522642965],[-9.633420991721149,42.03999999999987],[-9.660000000000018,42.026129996554815],[-9.700000000000017,42.00524886399858],[-9.710052753852258,41.99999999999987],[-9.740000000000016,41.98436563374764],[-9.780000000000015,41.963474985461886],[-9.786652589589286,41.95999999999987],[-9.820000000000014,41.94258326492464],[-9.860000000000014,41.92168330334704],[-9.863221235569227,41.919999999999874],[-9.900000000000013,41.90078330676228],[-9.939759497298823,41.879999999999875],[-9.940000000000012,41.879874300095736],[-9.980000000000011,41.858966176805644],[-10.016268998717754,41.839999999999876],[-10.020000000000008,41.83804921190486],[-10.06000000000001,41.81713229344483],[-10.092749536631011,41.79999999999987],[-10.100000000000009,41.79620758532204],[-10.140000000000008,41.775282075891134],[-10.169201841581907,41.75999999999988],[-10.180000000000005,41.754349839876525],[-10.220000000000006,41.73341594415311],[-10.245626642682002,41.71999999999987],[-10.260000000000005,41.71247639588212],[-10.300000000000004,41.69153431901236],[-10.322024667644456,41.67999999999988],[-10.340000000000003,41.670587674412815],[-10.380000000000003,41.649637621999474],[-10.398396642817742,41.63999999999988],[-10.420000000000002,41.62868409727853],[-10.46,41.60772627536945],[-10.474743293218506,41.59999999999988],[-10.5,41.5867660870006]]}},{"type":"Feature","properties":{"magnitude":0.8,"percentagem":80.0,"territorio":"madeira"},"geometry":{"type":"LineString","coordinates":[[-15.040000000000063,29.780722535779386],[-15.041395625547661,29.779999999999994],[-15.080000000000062,29.760019993621142],[-15.118689925189486,29.739999999999995],[-15.12000000000006,29.73932231108671],[-15.16000000000006,29.718638445597485],[-15.196052478254103,29.699999999999996],[-15.20000000000006,29.697959828941748],[-15.240000000000059,29.677294461109803],[-15.273483248948128,29.659999999999997],[-15.280000000000056,29.656635060155423],[-15.320000000000057,29.635988355517085],[-15.350982974935823,29.619999999999997],[-15.360000000000058,29.615348318838116],[-15.400000000000055,29.594720441918383],[-15.428552395779231,29.58],[-15.440000000000055,29.574099916837312],[-15.480000000000054,29.553491031146088],[-15.506192252959611,29.54],[-15.520000000000053,29.53289016373099],[-15.560000000000052,29.51230043175935],[-15.583903289899144,29.5]]}}]}