{"type":"FeatureCollection","properties":{"largura_maxima_km":170.391,"largura_sobre_pt_km":168.282,"linha_central_sobre_pt":false,"desenhavel_como_area":true,"perfil_largura":[{"t":-1.75,"lat":27.4566,"lon":-39.8331,"largura_km":170.391,"eixo_na_terra":true},{"t":-1.74444,"lat":27.2966,"lon":-39.507,"largura_km":170.013,"eixo_na_terra":true},{"t":-1.73889,"lat":27.1401,"lon":-39.1885,"largura_km":169.647,"eixo_na_terra":true},{"t":-1.73333,"lat":26.9869,"lon":-38.8771,"largura_km":169.291,"eixo_na_terra":true},{"t":-1.72778,"lat":26.8369,"lon":-38.5723,"largura_km":168.945,"eixo_na_terra":true},{"t":-1.72222,"lat":26.69,"lon":-38.274,"largura_km":168.609,"eixo_na_terra":true},{"t":-1.71667,"lat":26.5459,"lon":-37.9817,"largura_km":168.282,"eixo_na_terra":true},{"t":-1.71111,"lat":26.4046,"lon":-37.6951,"largura_km":167.963,"eixo_na_terra":true},{"t":-1.70556,"lat":26.2659,"lon":-37.414,"largura_km":167.652,"eixo_na_terra":true},{"t":-1.7,"lat":26.1297,"lon":-37.1381,"largura_km":167.35,"eixo_na_terra":true},{"t":-1.69444,"lat":25.9959,"lon":-36.8672,"largura_km":167.054,"eixo_na_terra":true},{"t":-1.68889,"lat":25.8644,"lon":-36.601,"largura_km":166.766,"eixo_na_terra":true},{"t":-1.68333,"lat":25.7351,"lon":-36.3394,"largura_km":166.486,"eixo_na_terra":true},{"t":-1.67778,"lat":25.608,"lon":-36.0822,"largura_km":166.211,"eixo_na_terra":true},{"t":-1.67222,"lat":25.4829,"lon":-35.8291,"largura_km":165.943,"eixo_na_terra":true},{"t":-1.66667,"lat":25.3598,"lon":-35.58,"largura_km":165.682,"eixo_na_terra":true},{"t":-1.66111,"lat":25.2386,"lon":-35.3348,"largura_km":165.426,"eixo_na_terra":true},{"t":-1.65556,"lat":25.1193,"lon":-35.0933,"largura_km":165.176,"eixo_na_terra":true},{"t":-1.65,"lat":25.0018,"lon":-34.8554,"largura_km":164.932,"eixo_na_terra":true}]},"features":[{"type":"Feature","properties":{},"geometry":{"type":"Polygon","coordinates":[[[-40.334755510679486,28.586075087773033],[-38.07172740470031,27.460115241731632],[-35.107872746071536,25.97805387575489],[-34.70259010453145,24.090817481517544],[-37.722864302082684,25.56443230987441],[-39.492653990910014,26.42501970435418],[-40.334755510679486,28.586075087773033]]]}}]}