{"type":"FeatureCollection","features":[{"type":"Feature","properties":{"t_inicio":-1.750000000000008,"t_fim":-1.6500000000000083},"geometry":{"type":"LineString","coordinates":[[-39.83307060753691,27.456569886849664],[-39.507014515425,27.296552035461165],[-39.18848518257269,27.140062797839892],[-38.877058909197615,26.98691659556748],[-38.57234927022981,26.836943987175697],[-38.27400269573468,26.689989766640814],[-37.98169470208683,26.545911340873495],[-37.69512666056028,26.404577337725286],[-37.41402301260416,26.265866405687063],[-37.13812885863314,26.129666173955382],[-36.86720786091152,25.99587234741998],[-36.60104041196621,25.86438791576479],[-36.33942202859021,25.735122459566092],[-36.082161938407666,25.607991539225146],[-35.829081831535916,25.48291615495519],[-35.58001475438948,25.35982226797221],[-35.334804126350264,25.238640374615134],[-35.09330286303967,25.119305126410726],[-34.855372592413346,25.001754990163217]]}}]}