{"type":"FeatureCollection","features":[{"type":"Feature","properties":{"magnitude":0.2,"de":0.2,"ate":0.5,"percentagem":20.0},"geometry":{"type":"Polygon","coordinates":[[[-4.979691077544839,38.81999999999981],[-3.5399999999988268,38.768703350808636],[-3.5399999999988268,44.939999999999685],[-25.28926808236853,44.939999999999685],[-22.109159774354843,43.499999999999716],[-19.259999999999422,42.31122719822177],[-16.619999999999322,41.32073848024164],[-14.15999999999923,40.51564174482426],[-11.759999999999138,39.85882260882726],[-9.479999999999052,39.36770898230149],[-7.1999999999989654,39.017787253543325],[-4.979691077544839,38.81999999999981]]]}},{"type":"Feature","properties":{"magnitude":0.5,"de":0.5,"ate":0.8,"percentagem":50.0},"geometry":{"type":"Polygon","coordinates":[[[-34.5,32.75598722872067],[-28.789558458620743,30.0],[-3.5399999999988268,30.0],[-3.5399999999988268,38.768703350808636],[-4.739999999998872,38.8072590974431],[-5.939999999998918,38.88794309144442],[-7.139999999998963,39.01056109977261],[-8.375530995235794,39.17999999999981],[-9.599999999999056,39.390130855613286],[-10.859999999999104,39.64875632481115],[-13.3799999999992,40.28738011402181],[-16.0199999999993,41.11308624045317],[-18.839999999999407,42.14585873089024],[-21.899999999999523,43.40911918602413],[-25.28926808236853,44.939999999999685],[-34.5,44.939999999999685],[-34.5,32.75598722872067]]]}},{"type":"Feature","properties":{"magnitude":0.8,"de":0.8,"ate":0.95,"percentagem":80.0},"geometry":{"type":"Polygon","coordinates":[[[-34.5,30.0],[-34.44,30.0],[-28.789558458620743,30.0],[-34.5,32.75598722872067],[-34.5,30.0]]]}}]}