{"type":"FeatureCollection","properties":{"largura_maxima_km":14.309,"largura_sobre_pt_km":9.339,"linha_central_sobre_pt":false,"desenhavel_como_area":true,"perfil_largura":[{"t":1.06667,"lat":49.9114,"lon":-5.4292,"largura_km":14.309,"eixo_na_terra":true},{"t":1.07222,"lat":49.5228,"lon":-4.5534,"largura_km":13.271,"eixo_na_terra":true},{"t":1.07778,"lat":49.1033,"lon":-3.6156,"largura_km":12.131,"eixo_na_terra":true},{"t":1.08333,"lat":48.6449,"lon":-2.5987,"largura_km":10.85,"eixo_na_terra":true},{"t":1.08889,"lat":48.1347,"lon":-1.4758,"largura_km":9.339,"eixo_na_terra":true},{"t":1.09444,"lat":47.5538,"lon":-0.2089,"largura_km":null,"eixo_na_terra":false},{"t":1.1,"lat":46.8536,"lon":1.3092,"largura_km":null,"eixo_na_terra":false},{"t":1.10556,"lat":45.9162,"lon":3.3269,"largura_km":null,"eixo_na_terra":false}]},"features":[{"type":"Feature","properties":{},"geometry":{"type":"Polygon","coordinates":[[[3.471624221890522,45.84731366085177],[3.343132643364129,45.89590499595702],[3.2137235453901383,45.94908018731068],[3.122705107525036,45.9904509281488],[3.096973184317278,46.00448531341115],[3.0904331886758882,46.01070160617404],[3.095253497656074,46.01138601140532],[3.1078114790433347,46.00889922206709],[3.1599295411841695,45.99290296839556],[3.237555579680361,45.96503330305683],[3.3276702903218904,45.930021640440934],[3.4163370857934012,45.893411648179146],[3.496945079984698,45.85784386525508],[3.5492052428350007,45.83216247956426],[3.562319410562907,45.82424186560315],[3.5661021324792728,45.819999517656505],[3.558586607577581,45.81988229817394],[3.5385609610666506,45.824972231855995],[3.471624221890522,45.84731366085177]]]}},{"type":"Feature","properties":{},"geometry":{"type":"Polygon","coordinates":[[[1.4693573857464912,46.77649789255833],[1.3281343041314813,46.82420064379581],[1.179311449616307,46.88118540216418],[1.116856106573124,46.907746024632445],[1.069718798515396,46.93006943776997],[1.042071969620764,46.94625488890869],[1.0364145864595855,46.95158112078897],[1.0358841377989734,46.95425766156314],[1.04437314009067,46.95608589500388],[1.0608859765767988,46.95397619799001],[1.116978344207439,46.940251317942106],[1.205906134681186,46.91265139904467],[1.309484285239165,46.876320630191216],[1.4120311967660086,46.836890152051616],[1.505728999471387,46.79712128063468],[1.562755842480783,46.769052241000445],[1.5793811541426521,46.75855465997578],[1.584920630840827,46.75199865882849],[1.5823437149788333,46.74994477361564],[1.5771391806667623,46.74964901920916],[1.554413394174162,46.753110732935134],[1.4693573857464912,46.77649789255833]]]}},{"type":"Feature","properties":{},"geometry":{"type":"Polygon","coordinates":[[[-0.04194042953616872,47.47284141139255],[-0.1141540990280987,47.49407228467476],[-0.19401092536915598,47.51988681116314],[-0.2754942253434933,47.548389464913654],[-0.35221005318507537,47.577416751583904],[-0.4179049282050755,47.60469126623191],[-0.4670449954396645,47.6280066720807],[-0.49538182459841096,47.64542645200529],[-0.5008907551709285,47.65144119347814],[-0.5010985483525019,47.65465633399737],[-0.49793519133902464,47.65671562465384],[-0.4914394183774391,47.65759364913731],[-0.47344436036701154,47.65640876346788],[-0.41315444032153437,47.644389559125],[-0.31810111515204653,47.6181638301796],[-0.20750149960250042,47.58238989280466],[-0.09796269219091869,47.54256906043989],[0.0020722810513404966,47.50140567605061],[0.06263661199659509,47.47147346027051],[0.07999745687021687,47.45985945591588],[0.08535088999315121,47.45219233768572],[0.08213528457267216,47.4494267702267],[0.07618914772785956,47.448622149625756],[0.05091732798055659,47.45100747806522],[0.010840810524541666,47.45922434422179],[-0.04194042953616872,47.47284141139255]]]}},{"type":"Feature","properties":{},"geometry":{"type":"Polygon","coordinates":[[[-3.373277349904299,49.060391325163486],[-2.364309360084718,48.5981696947791],[-1.2578469058616975,48.087337302591266],[-1.7075103298433874,48.18576146121375],[-2.843053732220824,48.693423297486056],[-3.871334915211378,49.14950527814992],[-4.815865564498949,49.56509307300752],[-5.697793710501628,49.94999273078582],[-5.169913382420248,49.874087857844124],[-4.300394739843199,49.48189024129787],[-3.373277349904299,49.060391325163486]]]}}]}