{"type":"FeatureCollection","features":[{"type":"Feature","properties":{"magnitude":0.8,"percentagem":80.0,"territorio":"continente"},"geometry":{"type":"LineString","coordinates":[[-10.5,42.04646830009423],[-10.485112304038623,42.03999999999987],[-10.46,42.02909174964662],[-10.420000000000002,42.011710093294795],[-10.393062228642876,41.99999999999987],[-10.380000000000003,41.99432296706389],[-10.340000000000003,41.976933272865566],[-10.301067846137943,41.95999999999987],[-10.300000000000004,41.95953564922957],[-10.260000000000005,41.94213799147715],[-10.220000000000006,41.92473221437277],[-10.209127971661147,41.919999999999874],[-10.180000000000007,41.90732440174725],[-10.140000000000008,41.88991076767539],[-10.11724248556939,41.879999999999875],[-10.100000000000009,41.87249265623763],[-10.06000000000001,41.85507123947832],[-10.025410834074547,41.839999999999876],[-10.02000000000001,41.83764290745079],[-9.980000000000011,41.82021378226875],[-9.940000000000012,41.80277664205695],[-9.933632055701768,41.799999999999876],[-9.900000000000013,41.785338548469916],[-9.860000000000014,41.767893806436064],[-9.841905585842515,41.75999999999988],[-9.820000000000014,41.750445690437836],[-9.780000000000015,41.73299342082176],[-9.750231122592265,41.71999999999988],[-9.740000000000016,41.715535360458006],[-9.700000000000017,41.69807563747911],[-9.660000000000018,41.68060800396223],[-9.658607987534825,41.67999999999988],[-9.620000000000019,41.66314060859797],[-9.58000000000002,41.64566562830866],[-9.567035052563178,41.63999999999988],[-9.54000000000002,41.628188486289886],[-9.500000000000021,41.61070623341017],[-9.47551232565484,41.59999999999988],[-9.460000000000022,41.5932194225849],[-9.420000000000023,41.575729971271144],[-9.384039220506278,41.55999999999988],[-9.380000000000024,41.558233569428396],[-9.340000000000025,41.54073699380969],[-9.300000000000026,41.52323264472],[-9.292614682057021,41.51999999999988],[-9.260000000000026,41.50572745285466],[-9.220000000000027,41.488216085993756],[-9.201238327801407,41.479999999999876],[-9.180000000000028,41.470701500142404],[-9.140000000000029,41.453183189586184],[-9.109909834516461,41.439999999999884],[-9.10000000000003,41.43565928731369],[-9.06000000000003,41.41813410710577],[-9.02000000000003,41.40060125822135],[-9.01862853570027,41.39999999999989],[-8.980000000000032,41.38306899006074],[-8.940000000000033,41.365529377993155],[-8.927393276052278,41.359999999999886],[-8.900000000000034,41.34798798985604],[-8.860000000000035,41.33044168858361],[-8.836204144123355,41.31999999999989],[-8.820000000000036,41.312891257790305],[-8.780000000000037,41.295338341253874],[-8.745060574499686,41.27999999999989],[-8.740000000000038,41.277778945052646],[-8.700000000000038,41.26021948715426],[-8.660000000000041,41.24265249795143],[-8.653961572063295,41.23999999999989],[-8.62000000000004,41.22508527732103],[-8.580000000000041,41.20751185309783],[-8.562906633353785,41.19999999999989],[-8.540000000000042,41.189935862673494],[-8.500000000000043,41.17235607725119],[-8.471895559028788,41.15999999999989],[-8.460000000000043,41.15477139401093],[-8.420000000000044,41.13718532116688],[-8.380927794987675,41.11999999999989],[-8.380000000000045,41.119592022009414],[-8.340000000000046,41.1019997354758],[-8.300000000000047,41.08440005511444],[-8.290002030869992,41.07999999999989],[-8.260000000000048,41.066799470681296],[-8.220000000000049,41.04919368280612],[-8.199118389444385,41.03999999999989],[-8.18000000000005,41.0315846771562],[-8.14000000000005,41.01397285540337],[-8.108276394405856,40.9999999999999],[-8.100000000000051,40.99635550513986],[-8.060000000000052,40.97873772309539],[-8.020000000000053,40.9611126522659],[-8.017475302666426,40.959999999999894],[-7.980000000000054,40.94348843593349],[-7.940000000000055,40.92585751084001],[-7.926714108665191,40.91999999999989],[-7.900000000000055,40.90822514382815],[-7.860000000000056,40.890588437949184],[-7.835992921957589,40.879999999999896],[-7.820000000000057,40.87294799654613],[-7.780000000000058,40.8553055833052],[-7.7453112073109995,40.8399999999999],[-7.740000000000059,40.83765714370748],[-7.70000000000006,40.82000909647178],[-7.6600000000000605,40.802353898009564],[-7.654667987626374,40.7999999999999],[-7.620000000000061,40.784699126861625],[-7.580000000000062,40.76703840019929],[-7.564062722568157,40.7599999999999],[-7.540000000000063,40.749375823733665],[-7.500000000000064,40.73170964211616],[-7.473495322322903,40.7199999999999],[-7.460000000000065,40.71403933619007],[-7.420000000000066,40.696367772801224],[-7.382965261880969,40.6799999999999],[-7.3800000000000665,40.678689813173435],[-7.340000000000067,40.6610129411347],[-7.300000000000069,40.64332905540878],[-7.292471360228031,40.6399999999999],[-7.260000000000069,40.625645295832925],[-7.22000000000007,40.60795620698182],[-7.202013482753132,40.5999999999999],[-7.180000000000071,40.59026498544571],[-7.140000000000072,40.57257076645421],[-7.11159136850393,40.5599999999999],[-7.1000000000000725,40.5548721583534],[-7.060000000000073,40.53717288213926],[-7.021204502325763,40.519999999999904],[-7.020000000000074,40.51946696276418],[-6.980000000000075,40.50176270217674],[-6.940000000000076,40.48405156537876],[-6.930851534222732,40.479999999999905],[-6.900000000000077,40.46634037453019],[-6.860000000000078,40.44862435857743],[-6.840532665985014,40.43999999999991],[-6.820000000000078,40.43090604698401],[-6.780000000000079,40.413185224575074],[-6.750247498779933,40.399999999999906],[-6.74000000000008,40.39545986714086],[-6.700000000000081,40.37773431090145],[-6.660000000000083,40.3600019834102],[-6.659995526530208,40.35999999999991],[-6.620000000000083,40.342271764900474],[-6.580000000000084,40.324534808542815],[-6.569775270591155,40.31999999999991],[-6.540000000000084,40.30679773372754],[-6.500000000000085,40.28905622096778],[-6.479587190162985,40.27999999999991],[-6.460000000000086,40.271312364346855],[-6.420000000000087,40.25356636757193],[-6.389430786525004,40.23999999999991],[-6.380000000000088,40.23581580352867],[-6.340000000000089,40.21806539504701],[-6.3000000000000895,40.20030835258294],[-6.299305494738276,40.19999999999991],[-6.26000000000009,40.182553449886896],[-6.220000000000091,40.16479210031161],[-6.209209952823043,40.15999999999991],[-6.180000000000092,40.14703067838508],[-6.140000000000092,40.129265093831975],[-6.119144589827644,40.11999999999991],[-6.100000000000094,40.11149722663194],[-6.060000000000095,40.09372747915151],[-6.029108915939729,40.07999999999991],[-6.0200000000000955,40.07595324051228],[-5.980000000000096,40.058179402070834],[-5.940000000000097,40.04039906673749],[-5.9391023515351655,40.039999999999914],[-5.900000000000098,40.02262100818109],[-5.860000000000099,40.00483668607969],[-5.8491235631272716,39.999999999999915],[-5.8200000000001,39.98705244286141],[-5.780000000000101,39.969264205770095],[-5.759172992588239,39.959999999999916],[-5.7400000000001015,39.95147385127632],[-5.700000000000102,39.933681770884846],[-5.669250158693913,39.919999999999916],[-5.660000000000103,39.91588537837334],[-5.620000000000104,39.89808952628184],[-5.580000000000105,39.880287314169465],[-5.579354513687456,39.87999999999992],[-5.540000000000106,39.86248761659816]]}},{"type":"Feature","properties":{"magnitude":0.6,"percentagem":60.0,"territorio":"acores"},"geometry":{"type":"LineString","coordinates":[[-27.98818651469422,40.479999999999905],[-27.960000000000086,40.469245594366306],[-27.920000000000087,40.45397394502727],[-27.883424703716962,40.439999999999905],[-27.880000000000088,40.43869160913357],[-27.84000000000009,40.42340253372748],[-27.80000000000009,40.40810239552074],[-27.778830045811375,40.399999999999906],[-27.76000000000009,40.39279344487007],[-27.72000000000009,40.37747597865234],[-27.68000000000009,40.36214748798815],[-27.67439880666158,40.35999999999991],[-27.640000000000093,40.34681209336106],[-27.600000000000094,40.33146637300429],[-27.57013120200548,40.31999999999991],[-27.560000000000095,40.31611088082058],[-27.520000000000095,40.3007479992645],[-27.480000000000093,40.28537416179777],[-27.46602487717835,40.27999999999991],[-27.440000000000097,40.26999250828705],[-27.400000000000098,40.25460160837782],[-27.36207768788902,40.23999999999991],[-27.3600000000001,40.23920004180775],[-27.3200000000001,40.22379214825072],[-27.2800000000001,40.20837336762125],[-27.258290126751902,40.19999999999991],[-27.2400000000001,40.19294592348827],[-27.200000000000102,40.177510248395166],[-27.160000000000107,40.16206372502108],[-27.154658323881623,40.15999999999991],[-27.120000000000104,40.14661057590582],[-27.080000000000105,40.131147257498185],[-27.051182624226556,40.11999999999991],[-27.040000000000106,40.115674492764136],[-27.000000000000107,40.10019444858155],[-26.960000000000107,40.08470362541496],[-26.947860594858454,40.07999999999991],[-26.92000000000011,40.06920544120375],[-26.88000000000011,40.053697992102045],[-26.84469066917983,40.03999999999992],[-26.84000000000011,40.038180378500385],[-26.80000000000011,40.02265637300293],[-26.76000000000011,40.00712165810232],[-26.741672568956623,39.999999999999915],[-26.720000000000113,39.99157891156578],[-26.680000000000113,39.976027740507774],[-26.640000000000114,39.960465899248526],[-26.638802967748024,39.959999999999916],[-26.600000000000115,39.94489819403262],[-26.560000000000116,39.929319997083425],[-26.536082886326113,39.919999999999916],[-26.520000000000117,39.91373316262562],[-26.480000000000118,39.89813867995661],[-26.44000000000012,39.88253359709687],[-26.433508674024715,39.87999999999992],[-26.40000000000012,39.86692209211452],[-26.36000000000012,39.85130082438301],[-26.331080403057584,39.83999999999992],[-26.32000000000012,39.83567037799139],[-26.280000000000122,39.82003299561784],[-26.240000000000123,39.8043850833292],[-26.2287960213364,39.79999999999992],[-26.200000000000124,39.788730255523824],[-26.160000000000124,39.773066329810376],[-26.12665418565631,39.75999999999992],[-26.120000000000125,39.75739274900516],[-26.080000000000126,39.74171288034795],[-26.040000000000127,39.72602255230911],[-26.024654184421223,39.719999999999914],[-26.000000000000128,39.71032488012485],[-25.96000000000013,39.694618710717165],[-25.922793505675646,39.67999999999992],[-25.92000000000013,39.67890247449954],[-25.88000000000013,39.66318053444709],[-25.84000000000013,39.64744820579688],[-25.821072540237417,39.63999999999993],[-25.800000000000132,39.63170816912646],[-25.760000000000133,39.61596017175247],[-25.720000000000134,39.6002018256467],[-25.71948790175498,39.599999999999916],[-25.680000000000135,39.584438165413076],[-25.640000000000136,39.568664252703186],[-25.618040662834012,39.559999999999924],[-25.600000000000136,39.552882332834926],[-25.560000000000137,39.53709292461549],[-25.52000000000014,39.52129323882528],[-25.516727253870116,39.519999999999925],[-25.48000000000014,39.50548798769313],[-25.44000000000014,39.48967290884076],[-25.41554831836745,39.479999999999926],[-25.40000000000014,39.473849588404775],[-25.36000000000014,39.4580191878061],[-25.320000000000142,39.44217858102912],[-25.314501047702123,39.43999999999993],[-25.280000000000143,39.42633222243337],[-25.240000000000144,39.410476396673516],[-25.213585460260624,39.39999999999993],[-25.200000000000145,39.39461215958732],[-25.160000000000146,39.37874118637325],[-25.120000000000147,39.362860078597365],[-25.112799332726876,39.35999999999993],[-25.080000000000148,39.346973097226424],[-25.04000000000015,39.3310769450641],[-25.012142224499073,39.31999999999993],[-25.00000000000015,39.31517227647729],[-24.96000000000015,39.29926115166145],[-24.92000000000015,39.28333996411691],[-24.911612338509237,39.27999999999993],[-24.88000000000015,39.26741284585696],[-24.840000000000153,39.25147678901921],[-24.81120892506015,39.23999999999993],[-24.800000000000153,39.23553217525769],[-24.760000000000154,39.21958132105541],[-24.720000000000155,39.20362047616672],[-24.71093047020346,39.19999999999993],[-24.680000000000156,39.187653708045644],[-24.640000000000157,39.1716781694335],[-24.610776049470626,39.15999999999993],[-24.600000000000158,39.155694097942956],[-24.56000000000016,39.13970393772314],[-24.520000000000156,39.123703859060946],[-24.51074430417948,39.11999999999993],[-24.48000000000016,39.107697929191474],[-24.44000000000016,39.09168333283166],[-24.410834254489686,39.079999999999934],[-24.400000000000162,39.07566029212047],[-24.360000000000163,39.059631250357384],[-24.320000000000164,39.04359236259026],[-24.311044583772066,39.039999999999935],[-24.280000000000165,39.027547760112526],[-24.240000000000165,39.011494531109236],[-24.21137436191149,38.999999999999936],[-24.200000000000166,38.9954330106909],[-24.160000000000167,38.979365512915734],[-24.120000000000168,38.963288241761745],[-24.1118222151487,38.95999999999994],[-24.08000000000017,38.94720545678553],[-24.04000000000017,38.93111402127201]]}}]}