{"type":"FeatureCollection","properties":{"largura_maxima_km":132.003,"largura_sobre_pt_km":122.902,"linha_central_sobre_pt":false,"desenhavel_como_area":true,"perfil_largura":[{"t":-1.67222,"lat":25.081,"lon":-21.6571,"largura_km":132.003,"eixo_na_terra":true},{"t":-1.66667,"lat":25.1624,"lon":-21.5001,"largura_km":131.786,"eixo_na_terra":true},{"t":-1.66111,"lat":25.2433,"lon":-21.344,"largura_km":131.571,"eixo_na_terra":true},{"t":-1.65556,"lat":25.3238,"lon":-21.1886,"largura_km":131.358,"eixo_na_terra":true},{"t":-1.65,"lat":25.4038,"lon":-21.0339,"largura_km":131.146,"eixo_na_terra":true},{"t":-1.64444,"lat":25.4834,"lon":-20.8799,"largura_km":130.936,"eixo_na_terra":true},{"t":-1.63889,"lat":25.5625,"lon":-20.7267,"largura_km":130.727,"eixo_na_terra":true},{"t":-1.63333,"lat":25.6412,"lon":-20.5742,"largura_km":130.52,"eixo_na_terra":true},{"t":-1.62778,"lat":25.7195,"lon":-20.4223,"largura_km":130.314,"eixo_na_terra":true},{"t":-1.62222,"lat":25.7973,"lon":-20.2711,"largura_km":130.11,"eixo_na_terra":true},{"t":-1.61667,"lat":25.8747,"lon":-20.1206,"largura_km":129.907,"eixo_na_terra":true},{"t":-1.61111,"lat":25.9517,"lon":-19.9707,"largura_km":129.706,"eixo_na_terra":true},{"t":-1.60556,"lat":26.0283,"lon":-19.8214,"largura_km":129.506,"eixo_na_terra":true},{"t":-1.6,"lat":26.1044,"lon":-19.6728,"largura_km":129.308,"eixo_na_terra":true},{"t":-1.59444,"lat":26.1801,"lon":-19.5248,"largura_km":129.111,"eixo_na_terra":true},{"t":-1.58889,"lat":26.2555,"lon":-19.3774,"largura_km":128.916,"eixo_na_terra":true},{"t":-1.58333,"lat":26.3304,"lon":-19.2306,"largura_km":128.722,"eixo_na_terra":true},{"t":-1.57778,"lat":26.4049,"lon":-19.0843,"largura_km":128.53,"eixo_na_terra":true},{"t":-1.57222,"lat":26.4791,"lon":-18.9386,"largura_km":128.339,"eixo_na_terra":true},{"t":-1.56667,"lat":26.5528,"lon":-18.7935,"largura_km":128.149,"eixo_na_terra":true},{"t":-1.56111,"lat":26.6262,"lon":-18.649,"largura_km":127.961,"eixo_na_terra":true},{"t":-1.55556,"lat":26.6992,"lon":-18.505,"largura_km":127.774,"eixo_na_terra":true},{"t":-1.55,"lat":26.7718,"lon":-18.3615,"largura_km":127.588,"eixo_na_terra":true},{"t":-1.54444,"lat":26.844,"lon":-18.2185,"largura_km":127.404,"eixo_na_terra":true},{"t":-1.53889,"lat":26.9159,"lon":-18.076,"largura_km":127.221,"eixo_na_terra":true},{"t":-1.53333,"lat":26.9874,"lon":-17.9341,"largura_km":127.039,"eixo_na_terra":true},{"t":-1.52778,"lat":27.0585,"lon":-17.7926,"largura_km":126.859,"eixo_na_terra":true},{"t":-1.52222,"lat":27.1293,"lon":-17.6517,"largura_km":126.68,"eixo_na_terra":true},{"t":-1.51667,"lat":27.1997,"lon":-17.5112,"largura_km":126.502,"eixo_na_terra":true},{"t":-1.51111,"lat":27.2698,"lon":-17.3712,"largura_km":126.326,"eixo_na_terra":true},{"t":-1.50556,"lat":27.3395,"lon":-17.2316,"largura_km":126.151,"eixo_na_terra":true},{"t":-1.5,"lat":27.4088,"lon":-17.0925,"largura_km":125.977,"eixo_na_terra":true},{"t":-1.49444,"lat":27.4778,"lon":-16.9538,"largura_km":125.804,"eixo_na_terra":true},{"t":-1.48889,"lat":27.5465,"lon":-16.8156,"largura_km":125.633,"eixo_na_terra":true},{"t":-1.48333,"lat":27.6148,"lon":-16.6778,"largura_km":125.463,"eixo_na_terra":true},{"t":-1.47778,"lat":27.6828,"lon":-16.5405,"largura_km":125.294,"eixo_na_terra":true},{"t":-1.47222,"lat":27.7504,"lon":-16.4035,"largura_km":125.126,"eixo_na_terra":true},{"t":-1.46667,"lat":27.8178,"lon":-16.267,"largura_km":124.959,"eixo_na_terra":true},{"t":-1.46111,"lat":27.8847,"lon":-16.1309,"largura_km":124.794,"eixo_na_terra":true},{"t":-1.45556,"lat":27.9514,"lon":-15.9951,"largura_km":124.63,"eixo_na_terra":true},{"t":-1.45,"lat":28.0177,"lon":-15.8598,"largura_km":124.467,"eixo_na_terra":true},{"t":-1.44444,"lat":28.0837,"lon":-15.7248,"largura_km":124.305,"eixo_na_terra":true},{"t":-1.43889,"lat":28.1494,"lon":-15.5902,"largura_km":124.145,"eixo_na_terra":true},{"t":-1.43333,"lat":28.2148,"lon":-15.456,"largura_km":123.985,"eixo_na_terra":true},{"t":-1.42778,"lat":28.2798,"lon":-15.3221,"largura_km":123.827,"eixo_na_terra":true},{"t":-1.42222,"lat":28.3446,"lon":-15.1886,"largura_km":123.67,"eixo_na_terra":true},{"t":-1.41667,"lat":28.409,"lon":-15.0555,"largura_km":123.514,"eixo_na_terra":true},{"t":-1.41111,"lat":28.4731,"lon":-14.9227,"largura_km":123.359,"eixo_na_terra":true},{"t":-1.40556,"lat":28.5369,"lon":-14.7902,"largura_km":123.206,"eixo_na_terra":true},{"t":-1.4,"lat":28.6004,"lon":-14.6581,"largura_km":123.054,"eixo_na_terra":true},{"t":-1.39444,"lat":28.6636,"lon":-14.5263,"largura_km":122.902,"eixo_na_terra":true},{"t":-1.38889,"lat":28.7265,"lon":-14.3948,"largura_km":122.752,"eixo_na_terra":true},{"t":-1.38333,"lat":28.7891,"lon":-14.2637,"largura_km":122.603,"eixo_na_terra":true},{"t":-1.37778,"lat":28.8514,"lon":-14.1328,"largura_km":122.456,"eixo_na_terra":true},{"t":-1.37222,"lat":28.9134,"lon":-14.0023,"largura_km":122.309,"eixo_na_terra":true},{"t":-1.36667,"lat":28.9751,"lon":-13.8721,"largura_km":122.163,"eixo_na_terra":true},{"t":-1.36111,"lat":29.0365,"lon":-13.7421,"largura_km":122.019,"eixo_na_terra":true},{"t":-1.35556,"lat":29.0977,"lon":-13.6125,"largura_km":121.875,"eixo_na_terra":true},{"t":-1.35,"lat":29.1585,"lon":-13.4831,"largura_km":121.733,"eixo_na_terra":true},{"t":-1.34444,"lat":29.219,"lon":-13.354,"largura_km":121.592,"eixo_na_terra":true},{"t":-1.33889,"lat":29.2793,"lon":-13.2252,"largura_km":121.451,"eixo_na_terra":true},{"t":-1.33333,"lat":29.3393,"lon":-13.0967,"largura_km":121.312,"eixo_na_terra":true},{"t":-1.32778,"lat":29.399,"lon":-12.9684,"largura_km":121.174,"eixo_na_terra":true},{"t":-1.32222,"lat":29.4584,"lon":-12.8404,"largura_km":121.037,"eixo_na_terra":true},{"t":-1.31667,"lat":29.5175,"lon":-12.7127,"largura_km":120.901,"eixo_na_terra":true},{"t":-1.31111,"lat":29.5764,"lon":-12.5852,"largura_km":120.766,"eixo_na_terra":true},{"t":-1.30556,"lat":29.635,"lon":-12.458,"largura_km":120.632,"eixo_na_terra":true},{"t":-1.3,"lat":29.6933,"lon":-12.331,"largura_km":120.499,"eixo_na_terra":true},{"t":-1.29444,"lat":29.7513,"lon":-12.2042,"largura_km":120.368,"eixo_na_terra":true},{"t":-1.28889,"lat":29.8091,"lon":-12.0777,"largura_km":120.237,"eixo_na_terra":true},{"t":-1.28333,"lat":29.8665,"lon":-11.9514,"largura_km":120.107,"eixo_na_terra":true},{"t":-1.27778,"lat":29.9238,"lon":-11.8253,"largura_km":119.979,"eixo_na_terra":true},{"t":-1.27222,"lat":29.9807,"lon":-11.6995,"largura_km":119.851,"eixo_na_terra":true},{"t":-1.26667,"lat":30.0374,"lon":-11.5739,"largura_km":119.725,"eixo_na_terra":true},{"t":-1.26111,"lat":30.0938,"lon":-11.4485,"largura_km":119.599,"eixo_na_terra":true},{"t":-1.25556,"lat":30.15,"lon":-11.3233,"largura_km":119.475,"eixo_na_terra":true},{"t":-1.25,"lat":30.2059,"lon":-11.1983,"largura_km":119.351,"eixo_na_terra":true},{"t":-1.24444,"lat":30.2615,"lon":-11.0736,"largura_km":119.229,"eixo_na_terra":true},{"t":-1.23889,"lat":30.3169,"lon":-10.949,"largura_km":119.107,"eixo_na_terra":true},{"t":-1.23333,"lat":30.372,"lon":-10.8246,"largura_km":118.986,"eixo_na_terra":true},{"t":-1.22778,"lat":30.4268,"lon":-10.7004,"largura_km":118.866,"eixo_na_terra":true},{"t":-1.22222,"lat":30.4814,"lon":-10.5765,"largura_km":118.748,"eixo_na_terra":true},{"t":-1.21667,"lat":30.5358,"lon":-10.4527,"largura_km":118.63,"eixo_na_terra":true},{"t":-1.21111,"lat":30.5898,"lon":-10.329,"largura_km":118.513,"eixo_na_terra":true},{"t":-1.20556,"lat":30.6437,"lon":-10.2056,"largura_km":118.397,"eixo_na_terra":true},{"t":-1.2,"lat":30.6973,"lon":-10.0823,"largura_km":118.282,"eixo_na_terra":true},{"t":-1.19444,"lat":30.7506,"lon":-9.9592,"largura_km":118.168,"eixo_na_terra":true},{"t":-1.18889,"lat":30.8037,"lon":-9.8363,"largura_km":118.055,"eixo_na_terra":true},{"t":-1.18333,"lat":30.8565,"lon":-9.7136,"largura_km":117.942,"eixo_na_terra":true},{"t":-1.17778,"lat":30.9091,"lon":-9.591,"largura_km":117.831,"eixo_na_terra":true},{"t":-1.17222,"lat":30.9614,"lon":-9.4685,"largura_km":117.721,"eixo_na_terra":true},{"t":-1.16667,"lat":31.0135,"lon":-9.3463,"largura_km":117.611,"eixo_na_terra":true},{"t":-1.16111,"lat":31.0653,"lon":-9.2242,"largura_km":117.503,"eixo_na_terra":true},{"t":-1.15556,"lat":31.1169,"lon":-9.1022,"largura_km":117.395,"eixo_na_terra":true},{"t":-1.15,"lat":31.1683,"lon":-8.9804,"largura_km":117.288,"eixo_na_terra":true},{"t":-1.14444,"lat":31.2194,"lon":-8.8587,"largura_km":117.183,"eixo_na_terra":true},{"t":-1.13889,"lat":31.2702,"lon":-8.7372,"largura_km":117.078,"eixo_na_terra":true},{"t":-1.13333,"lat":31.3209,"lon":-8.6158,"largura_km":116.975,"eixo_na_terra":true},{"t":-1.12778,"lat":31.3712,"lon":-8.4945,"largura_km":116.872,"eixo_na_terra":true},{"t":-1.12222,"lat":31.4214,"lon":-8.3734,"largura_km":116.77,"eixo_na_terra":true},{"t":-1.11667,"lat":31.4713,"lon":-8.2524,"largura_km":116.669,"eixo_na_terra":true},{"t":-1.11111,"lat":31.5209,"lon":-8.1315,"largura_km":116.569,"eixo_na_terra":true},{"t":-1.10556,"lat":31.5704,"lon":-8.0108,"largura_km":116.469,"eixo_na_terra":true},{"t":-1.1,"lat":31.6196,"lon":-7.8901,"largura_km":116.371,"eixo_na_terra":true},{"t":-1.09444,"lat":31.6685,"lon":-7.7696,"largura_km":116.274,"eixo_na_terra":true},{"t":-1.08889,"lat":31.7172,"lon":-7.6493,"largura_km":116.178,"eixo_na_terra":true},{"t":-1.08333,"lat":31.7657,"lon":-7.529,"largura_km":116.083,"eixo_na_terra":true},{"t":-1.07778,"lat":31.814,"lon":-7.4088,"largura_km":115.988,"eixo_na_terra":true},{"t":-1.07222,"lat":31.862,"lon":-7.2888,"largura_km":115.895,"eixo_na_terra":true},{"t":-1.06667,"lat":31.9098,"lon":-7.1688,"largura_km":115.802,"eixo_na_terra":true},{"t":-1.06111,"lat":31.9574,"lon":-7.049,"largura_km":115.71,"eixo_na_terra":true},{"t":-1.05556,"lat":32.0047,"lon":-6.9292,"largura_km":115.619,"eixo_na_terra":true},{"t":-1.05,"lat":32.0518,"lon":-6.8096,"largura_km":115.529,"eixo_na_terra":true},{"t":-1.04444,"lat":32.0986,"lon":-6.69,"largura_km":115.439,"eixo_na_terra":true},{"t":-1.03889,"lat":32.1453,"lon":-6.5706,"largura_km":115.351,"eixo_na_terra":true},{"t":-1.03333,"lat":32.1917,"lon":-6.4512,"largura_km":115.263,"eixo_na_terra":true},{"t":-1.02778,"lat":32.2379,"lon":-6.332,"largura_km":115.176,"eixo_na_terra":true},{"t":-1.02222,"lat":32.2838,"lon":-6.2128,"largura_km":115.09,"eixo_na_terra":true},{"t":-1.01667,"lat":32.3296,"lon":-6.0937,"largura_km":115.005,"eixo_na_terra":true},{"t":-1.01111,"lat":32.3751,"lon":-5.9747,"largura_km":114.92,"eixo_na_terra":true},{"t":-1.00556,"lat":32.4203,"lon":-5.8557,"largura_km":114.836,"eixo_na_terra":true},{"t":-1.0,"lat":32.4654,"lon":-5.7369,"largura_km":114.753,"eixo_na_terra":true},{"t":-0.99444,"lat":32.5102,"lon":-5.6181,"largura_km":114.671,"eixo_na_terra":true},{"t":-0.98889,"lat":32.5548,"lon":-5.4994,"largura_km":114.59,"eixo_na_terra":true},{"t":-0.98333,"lat":32.5992,"lon":-5.3807,"largura_km":114.51,"eixo_na_terra":true},{"t":-0.97778,"lat":32.6434,"lon":-5.2621,"largura_km":114.43,"eixo_na_terra":true},{"t":-0.97222,"lat":32.6873,"lon":-5.1436,"largura_km":114.351,"eixo_na_terra":true},{"t":-0.96667,"lat":32.731,"lon":-5.0252,"largura_km":114.273,"eixo_na_terra":true},{"t":-0.96111,"lat":32.7745,"lon":-4.9068,"largura_km":114.196,"eixo_na_terra":true},{"t":-0.95556,"lat":32.8178,"lon":-4.7885,"largura_km":114.12,"eixo_na_terra":true},{"t":-0.95,"lat":32.8608,"lon":-4.6702,"largura_km":114.045,"eixo_na_terra":true},{"t":-0.94444,"lat":32.9037,"lon":-4.552,"largura_km":113.97,"eixo_na_terra":true},{"t":-0.93889,"lat":32.9463,"lon":-4.4339,"largura_km":113.896,"eixo_na_terra":true},{"t":-0.93333,"lat":32.9887,"lon":-4.3158,"largura_km":113.824,"eixo_na_terra":true},{"t":-0.92778,"lat":33.0308,"lon":-4.1977,"largura_km":113.752,"eixo_na_terra":true},{"t":-0.92222,"lat":33.0728,"lon":-4.0797,"largura_km":113.682,"eixo_na_terra":true},{"t":-0.91667,"lat":33.1145,"lon":-3.9618,"largura_km":113.612,"eixo_na_terra":true},{"t":-0.91111,"lat":33.1561,"lon":-3.8439,"largura_km":113.543,"eixo_na_terra":true},{"t":-0.90556,"lat":33.1974,"lon":-3.726,"largura_km":113.474,"eixo_na_terra":true},{"t":-0.9,"lat":33.2385,"lon":-3.6082,"largura_km":113.406,"eixo_na_terra":true},{"t":-0.89444,"lat":33.2793,"lon":-3.4904,"largura_km":113.339,"eixo_na_terra":true},{"t":-0.88889,"lat":33.32,"lon":-3.3726,"largura_km":113.273,"eixo_na_terra":true},{"t":-0.88333,"lat":33.3604,"lon":-3.2549,"largura_km":113.208,"eixo_na_terra":true},{"t":-0.87778,"lat":33.4007,"lon":-3.1373,"largura_km":113.143,"eixo_na_terra":true},{"t":-0.87222,"lat":33.4407,"lon":-3.0196,"largura_km":113.079,"eixo_na_terra":true},{"t":-0.86667,"lat":33.4805,"lon":-2.902,"largura_km":113.016,"eixo_na_terra":true},{"t":-0.86111,"lat":33.52,"lon":-2.7844,"largura_km":112.953,"eixo_na_terra":true},{"t":-0.85556,"lat":33.5594,"lon":-2.6668,"largura_km":112.891,"eixo_na_terra":true},{"t":-0.85,"lat":33.5986,"lon":-2.5493,"largura_km":112.83,"eixo_na_terra":true},{"t":-0.84444,"lat":33.6375,"lon":-2.4318,"largura_km":112.77,"eixo_na_terra":true},{"t":-0.83889,"lat":33.6762,"lon":-2.3143,"largura_km":112.71,"eixo_na_terra":true},{"t":-0.83333,"lat":33.7147,"lon":-2.1968,"largura_km":112.652,"eixo_na_terra":true},{"t":-0.82778,"lat":33.7531,"lon":-2.0793,"largura_km":112.593,"eixo_na_terra":true},{"t":-0.82222,"lat":33.7911,"lon":-1.9619,"largura_km":112.536,"eixo_na_terra":true},{"t":-0.81667,"lat":33.829,"lon":-1.8444,"largura_km":112.479,"eixo_na_terra":true},{"t":-0.81111,"lat":33.8667,"lon":-1.727,"largura_km":112.423,"eixo_na_terra":true},{"t":-0.80556,"lat":33.9041,"lon":-1.6096,"largura_km":112.368,"eixo_na_terra":true},{"t":-0.8,"lat":33.9414,"lon":-1.4922,"largura_km":112.314,"eixo_na_terra":true},{"t":-0.79444,"lat":33.9784,"lon":-1.3748,"largura_km":112.261,"eixo_na_terra":true},{"t":-0.78889,"lat":34.0152,"lon":-1.2574,"largura_km":112.209,"eixo_na_terra":true},{"t":-0.78333,"lat":34.0519,"lon":-1.1401,"largura_km":112.158,"eixo_na_terra":true},{"t":-0.77778,"lat":34.0883,"lon":-1.0227,"largura_km":112.108,"eixo_na_terra":true},{"t":-0.77222,"lat":34.1245,"lon":-0.9053,"largura_km":112.058,"eixo_na_terra":true},{"t":-0.76667,"lat":34.1604,"lon":-0.7879,"largura_km":112.009,"eixo_na_terra":true},{"t":-0.76111,"lat":34.1962,"lon":-0.6705,"largura_km":111.961,"eixo_na_terra":true},{"t":-0.75556,"lat":34.2318,"lon":-0.5531,"largura_km":111.913,"eixo_na_terra":true},{"t":-0.75,"lat":34.2671,"lon":-0.4358,"largura_km":111.866,"eixo_na_terra":true},{"t":-0.74444,"lat":34.3023,"lon":-0.3184,"largura_km":111.82,"eixo_na_terra":true},{"t":-0.73889,"lat":34.3372,"lon":-0.201,"largura_km":111.774,"eixo_na_terra":true},{"t":-0.73333,"lat":34.3719,"lon":-0.0835,"largura_km":111.729,"eixo_na_terra":true},{"t":-0.72778,"lat":34.4065,"lon":0.0339,"largura_km":111.685,"eixo_na_terra":true},{"t":-0.72222,"lat":34.4408,"lon":0.1513,"largura_km":111.642,"eixo_na_terra":true},{"t":-0.71667,"lat":34.4749,"lon":0.2688,"largura_km":111.599,"eixo_na_terra":true},{"t":-0.71111,"lat":34.5088,"lon":0.3862,"largura_km":111.557,"eixo_na_terra":true},{"t":-0.70556,"lat":34.5424,"lon":0.5037,"largura_km":111.515,"eixo_na_terra":true},{"t":-0.7,"lat":34.5759,"lon":0.6212,"largura_km":111.474,"eixo_na_terra":true},{"t":-0.69444,"lat":34.6092,"lon":0.7387,"largura_km":111.434,"eixo_na_terra":true},{"t":-0.68889,"lat":34.6423,"lon":0.8563,"largura_km":111.395,"eixo_na_terra":true},{"t":-0.68333,"lat":34.6751,"lon":0.9738,"largura_km":111.356,"eixo_na_terra":true},{"t":-0.67778,"lat":34.7078,"lon":1.0914,"largura_km":111.318,"eixo_na_terra":true},{"t":-0.67222,"lat":34.7402,"lon":1.2091,"largura_km":111.281,"eixo_na_terra":true},{"t":-0.66667,"lat":34.7724,"lon":1.3267,"largura_km":111.244,"eixo_na_terra":true},{"t":-0.66111,"lat":34.8044,"lon":1.4444,"largura_km":111.209,"eixo_na_terra":true},{"t":-0.65556,"lat":34.8363,"lon":1.5621,"largura_km":111.175,"eixo_na_terra":true},{"t":-0.65,"lat":34.8679,"lon":1.6798,"largura_km":111.141,"eixo_na_terra":true},{"t":-0.64444,"lat":34.8993,"lon":1.7976,"largura_km":111.108,"eixo_na_terra":true},{"t":-0.63889,"lat":34.9305,"lon":1.9154,"largura_km":111.076,"eixo_na_terra":true},{"t":-0.63333,"lat":34.9615,"lon":2.0332,"largura_km":111.045,"eixo_na_terra":true},{"t":-0.62778,"lat":34.9922,"lon":2.151,"largura_km":111.014,"eixo_na_terra":true},{"t":-0.62222,"lat":35.0228,"lon":2.269,"largura_km":110.984,"eixo_na_terra":true},{"t":-0.61667,"lat":35.0532,"lon":2.3869,"largura_km":110.955,"eixo_na_terra":true},{"t":-0.61111,"lat":35.0833,"lon":2.5049,"largura_km":110.926,"eixo_na_terra":true},{"t":-0.60556,"lat":35.1133,"lon":2.6229,"largura_km":110.898,"eixo_na_terra":true},{"t":-0.6,"lat":35.1431,"lon":2.741,"largura_km":110.871,"eixo_na_terra":true},{"t":-0.59444,"lat":35.1726,"lon":2.8591,"largura_km":110.844,"eixo_na_terra":true},{"t":-0.58889,"lat":35.2019,"lon":2.9772,"largura_km":110.818,"eixo_na_terra":true},{"t":-0.58333,"lat":35.2311,"lon":3.0954,"largura_km":110.792,"eixo_na_terra":true},{"t":-0.57778,"lat":35.26,"lon":3.2137,"largura_km":110.767,"eixo_na_terra":true},{"t":-0.57222,"lat":35.2887,"lon":3.332,"largura_km":110.743,"eixo_na_terra":true},{"t":-0.56667,"lat":35.3172,"lon":3.4503,"largura_km":110.719,"eixo_na_terra":true},{"t":-0.56111,"lat":35.3455,"lon":3.5687,"largura_km":110.696,"eixo_na_terra":true},{"t":-0.55556,"lat":35.3736,"lon":3.6872,"largura_km":110.674,"eixo_na_terra":true},{"t":-0.55,"lat":35.4015,"lon":3.8057,"largura_km":110.652,"eixo_na_terra":true},{"t":-0.54444,"lat":35.4292,"lon":3.9243,"largura_km":110.631,"eixo_na_terra":true},{"t":-0.53889,"lat":35.4566,"lon":4.0429,"largura_km":110.611,"eixo_na_terra":true},{"t":-0.53333,"lat":35.4839,"lon":4.1616,"largura_km":110.592,"eixo_na_terra":true},{"t":-0.52778,"lat":35.511,"lon":4.2803,"largura_km":110.575,"eixo_na_terra":true},{"t":-0.52222,"lat":35.5378,"lon":4.3991,"largura_km":110.558,"eixo_na_terra":true},{"t":-0.51667,"lat":35.5645,"lon":4.518,"largura_km":110.541,"eixo_na_terra":true},{"t":-0.51111,"lat":35.5909,"lon":4.6369,"largura_km":110.526,"eixo_na_terra":true},{"t":-0.50556,"lat":35.6171,"lon":4.7559,"largura_km":110.511,"eixo_na_terra":true},{"t":-0.5,"lat":35.6432,"lon":4.8749,"largura_km":110.496,"eixo_na_terra":true},{"t":-0.49444,"lat":35.669,"lon":4.994,"largura_km":110.482,"eixo_na_terra":true}]},"features":[{"type":"Feature","properties":{},"geometry":{"type":"Polygon","coordinates":[[[-22.19822764762813,25.487023365570355],[-20.636452493402743,26.284941188611803],[-19.572841349347073,26.823517388894587],[-18.549849083169676,27.33664473800382],[-17.55249071851867,27.831564436780265],[-16.57781656674615,28.309357928231453],[-15.623248105624498,28.770958965433532],[-14.686514207578625,29.21717817196106],[-13.896261464427738,29.587947441490783],[-12.987470464609345,30.007408825061617],[-12.208639913673267,30.36067576056468],[-11.322229903863104,30.755185956834033],[-10.570445150450666,31.08319597049587],[-9.701592926547931,31.454385840233357],[-8.96309491163288,31.76295023234365],[-8.219952103599411,32.066821273343486],[-7.7335202301023,32.26198731918725],[-7.3698826310113645,32.40591764328327],[-6.886481113685051,32.59460107207049],[-6.524929054577797,32.73371841979387],[-5.804113957801434,33.00586378749969],[-5.325067564260593,33.182831054998026],[-4.966468543297708,33.313236542370376],[-4.241191291071374,33.57155448839275],[-3.765031815968399,33.737099336756714],[-3.4083202821528573,33.8589961040009],[-2.695728237834146,34.09701377968713],[-2.221126502878178,34.25144078990189],[-1.8653373044141972,34.36504181563659],[-1.1443419483784112,34.589558214451145],[-0.670125098175788,34.733011861942785],[-0.314401515531614,34.83841283788715],[0.3973803662679245,35.043603874652476],[1.1098737072826452,35.24133707717814],[1.833130439929647,35.434224002466216],[2.3095308393905043,35.556923913829465],[2.667267719435216,35.646785721481834],[3.384016951542833,35.82094890637635],[4.112570998435615,35.98995030253649],[4.833480088851843,36.14921530249455],[5.151690387433234,35.1909860081631],[4.44494940548563,35.03418694487029],[3.750050049871504,34.87219582486113],[3.04728209232357,34.700511306535084],[2.696516928939957,34.61186857587537],[2.2293954820896715,34.49077306084053],[1.5297573433301181,34.302898944645506],[1.073498210383093,34.17615203855304],[0.724343655669486,34.07693831480397],[0.026489530025486374,33.87287184701134],[-0.322287298327808,33.76801164834356],[-0.7872564551835239,33.625256528897005],[-1.1359862829861527,33.51597748163391],[-1.5915265174626825,33.37035784226215],[-2.2894906776650714,33.141047732883365],[-2.988234037810429,32.90403489408111],[-3.338014559153976,32.78261917673801],[-3.8049216893654147,32.61769358163787],[-4.506668521756296,32.36374531010297],[-4.966088511734995,32.19354902018962],[-5.318449064590283,32.060964086527754],[-6.025144350164965,31.78972556952335],[-6.3795982714842125,31.651042454752766],[-6.853490226589656,31.462918485773763],[-7.567399587860507,31.173763314178316],[-7.925884029251279,31.026008938551318],[-8.405610171790073,30.825663130158567],[-9.240733176046092,30.4698447465659],[-9.970832451071118,30.151762021949384],[-10.707219362311832,29.824546396148136],[-11.575282234745742,29.430931001264085],[-12.454211796717914,29.02413101925726],[-13.345431587965408,28.603662981041982],[-14.120306994211347,28.231969228413348],[-15.028280008863675,27.789625857985133],[-15.96375261322737,27.326960294798663],[-16.918674636618164,26.848059727446262],[-17.895511083087342,26.352006329604478],[-18.89707582792147,25.837739487020222],[-19.926607032215003,25.30402600423943],[-21.142310771416476,24.66839133399448],[-22.19822764762813,25.487023365570355]]]}}]}