{"type":"FeatureCollection","features":[{"type":"Feature","properties":{"t_inicio":-1.6722222222222305,"t_fim":-0.4944444444444569},"geometry":{"type":"LineString","coordinates":[[-21.65707191527082,25.08095642845639],[-21.500143735900707,25.16237022997414],[-21.343981041066144,25.243316982054157],[-21.188569349919305,25.323802226801252],[-21.033894532882357,25.40383136770339],[-20.87994279970573,25.483409674245685],[-20.726700688041603,25.56254228632686],[-20.57415505250566,25.6412342184887],[-20.422293054202015,25.719490363967918],[-20.27110215068754,25.797315498579493],[-20.120570086353325,25.87471428444013],[-19.970684883202352,25.951691273539527],[-19.821434832003405,26.02825091116734],[-19.672808483803095,26.10439753920263],[-19.524794641777817,26.180135399272615],[-19.37738235341004,26.25546863578705],[-19.23056090297257,26.330401298854028],[-19.084319804306205,26.404937347083052],[-18.938648793877462,26.479080650280395],[-18.79353782410257,26.552834992041983],[-18.648977056925958,26.62620407224843],[-18.50495685764082,26.699191509466733],[-18.36146778894158,26.771800843262756],[-18.218500605196766,26.844035536428752],[-18.07604624693323,26.915898977129512],[-17.934095835521845,26.98739448097074],[-17.79264066805564,27.058525292993206],[-17.651672212412535,27.12929458959588],[-17.511182102493876,27.199705480390968],[-17.37116213363177,27.26976100999397],[-17.231604258157546,27.339464159751362],[-17.092500581124995,27.408817849408667],[-16.953843356181153,27.47782493872137],[-16.815624981579276,27.546488229010862],[-16.67783799632724,27.614810464668146],[-16.54047507646652,27.68279433460688],[-16.403529031476012,27.75044247366824],[-16.26699280079532,27.817757463979323],[-16.130859450463703,27.88474183626712],[-15.99512216986875,27.95139807112959],[-15.859774268601427,28.01772860026572],[-15.724809173412751,28.08373580766626],[-15.590220425268399,28.149422030766274],[-15.456001676497124,28.21478956156138],[-15.322146688029648,28.279840647688985],[-15.188649326724516,28.344577493475622],[-15.055503562777119,28.409002260952004],[-14.922703467209715,28.473117070836675],[-14.790243209438273,28.536924003489734],[-14.6581170549141,28.600425099837558],[-14.526319362837114,28.66362236226955],[-14.394844583937981,28.72651775550816],[-14.26368725832711,28.78911320745289],[-14.132842013407497,28.851410609999423],[-14.002303561849459,28.913411819834575],[-13.872066699624838,28.975118659208167],[-13.742126304098832,29.036532916682404],[-13.612477332176894,29.097656347859665],[-13.483114818505442,29.158490676089524],[-13.354033873723864,29.21903759315547],[-13.225229682766297,29.279298759942385],[-13.096697503211686,29.3392758070851],[-12.968432663679863,29.398970335598957],[-12.8404305622729,29.458383917492675],[-12.712686665059152,29.51751809636443],[-12.58519650459968,29.576374387981538],[-12.457955678514708,29.63495428084428],[-12.330959848089265,29.69325923673443],[-12.204204736916637,29.751290691249],[-12.077686129578183,29.809050054319677],[-11.951399870358728,29.866538710718352],[-11.825341861995696,29.92375802054931],[-11.699508064461725,29.98070931972839],[-11.57389449377905,30.037393920449585],[-11.448497220864908,30.09381311163946],[-11.32331237040674,30.149968159399833],[-11.198336119766708,30.205860307439007],[-11.073564697914094,30.261490777491815],[-10.948994384385003,30.316860769729228],[-10.824621508268365,30.37197146315721],[-10.70044244721754,30.42682401600585],[-10.576453626486824,30.48141956610837],[-10.45265151799154,30.535759231270948],[-10.329032639391869,30.589844109633216],[-10.20559355319898,30.6436752800198],[-10.082330865902975,30.69725380228327],[-9.959241227122277,30.750580717638698],[-9.836321328773437,30.80365704899001],[-9.713567904260856,30.85648380124844],[-9.590977727686123,30.909061961643353],[-9.468547613075856,30.96139250002546],[-9.346274413627953,31.013476369162927],[-9.224155020975587,31.0653145050304],[-9.102186364468253,31.11690782709114],[-8.980365410469744,31.168257238572494],[-8.858689161672032,31.21936362673499],[-8.737154656425275,31.270227863135077],[-8.61575896808273,31.32085080388173],[-8.49449920436092,31.3712332898872],[-8.37337250671385,31.42137614711186],[-8.252376049721732,31.471280186803593],[-8.131507040492892,31.520946205731505],[-8.010762718079235,31.570374986414492],[-7.890140352904524,31.619567297344513],[-7.76963724620515,31.668523893204885],[-7.649250729483185,31.717245515083658],[-7.528978163971175,31.76573289068216],[-7.408816940108636,31.81398673451893],[-7.288764477029588,31.862007748129173],[-7.168818222061049,31.909796620259623],[-7.0489756502323075,31.957354027059342],[-6.929234263794257,32.004680632266144],[-6.809591591749069,32.05177708738898],[-6.690045189389338,32.098644031886415],[-6.570592637847142,32.14528209334113],[-6.4512315436519145,32.191691887630675],[-6.331959538297866,32.23787401909458],[-6.212774277819619,32.2838290806978],[-6.093673442376996,32.32955765419066],[-5.974654735847594,32.37506031026543],[-5.855715885427884,32.420337608709545],[-5.736854641242019,32.465390098555524],[-5.618068775958392,32.510218318227665],[-5.499356084413677,32.55482279568592],[-5.380714383244197,32.5992040485663],[-5.262141510524401,32.6433625843187],[-5.143635325412333,32.68729890034163],[-5.025193707801719,32.7310134841142],[-4.906814557980766,32.77450681332538],[-4.7884957962974966,32.817779356000486],[-4.670235362830994,32.86083157062508],[-4.552031217069015,32.90366390626633],[-4.433881337591544,32.94627680269184],[-4.315783721760084,32.98867069048601],[-4.1977363854124405,33.03084599116401],[-4.079737362563407,33.072803117283385],[-3.9617847051104036,33.11454247255345],[-3.843876482544573,33.15606445194244],[-3.726010781666986,33.19736944178222],[-3.608185706309712,33.23845781987128],[-3.4903993770619195,33.27932995557524],[-3.3726499310004385,33.319986209925524],[-3.2549355214252955,33.36042693571598],[-3.1372543175993712,33.40065247759751],[-3.019604504492719,33.44066317217075],[-2.9019842825311173,33.48045934807695],[-2.7843918673486883,33.52004132608692],[-2.666825489544692,33.55940941918821],[-2.5492833944442737,33.598563932670594],[-2.431763841863045,33.637505164209585],[-2.314265105875421,33.67623340394861],[-2.1967854745867896,33.714748934579106],[-2.079323249909123,33.75305203141942],[-1.961876747340085,33.79114296249172],[-1.8444442957457454,33.82902198859757],[-1.7270242371463382,33.866689363391885],[-1.609614926505543,33.90414533345546],[-1.492214731522779,33.941390138365804],[-1.3748220324285683,33.97842401076693],[-1.257435221783112,34.015247176437164],[-1.1400527042774797,34.05185985435609],[-1.0226728965380403,34.08826225676981],[-0.9052942269333073,34.1244545892549],[-0.7879151353838836,34.160437050781155],[-0.6705340731747071,34.19620983377292],[-0.5531495027700828,34.231773124169266],[-0.43575989763127154,34.267127101482686],[-0.31836374203643913,34.302271938856855],[-0.2009595309028498,34.33720780312301],[-0.08354576961190219,34.37193485485513],[0.03387902616427141,34.406453248423986],[0.1513163306333638,34.440763132050115],[0.26876760805160416,34.47486464785549],[0.3862343128904797,34.50875793191426],[0.5037178900009849,34.54244311430227],[0.6212197747763923,34.57592031914561],[0.7387413933127789,34.60918966466793],[0.8562841625675901,34.64225126323696],[0.9738494905167272,34.67510522140977],[1.091438776309559,34.70775163997722],[1.2090534104222286,34.740190614007176],[1.3266947748093685,34.77242223288704],[1.444364243054224,34.804446580364996],[1.5620631805169012,34.83626373459061],[1.6797929444814486,34.867873768154205],[1.7975548843012064,34.89927674812555],[1.915350341542677,34.930472736091495],[2.033180650128145,34.9614617881927],[2.151047136476791,34.992243955159545],[2.2689511196444982,35.02281928234715],[2.386893911462437,35.053187809769476],[2.5048768166743116,35.08334957213256],[2.622901133072446,35.113304598867074],[2.7409681516327566,35.14305291415975],[2.8590791566484484,35.172594536984235],[2.9772354258627445,35.201929481131046],[3.095438230600564,35.231057755236684],[3.2136888358990348,35.259979362811954],[3.331988500637209,35.28869430226957],[3.4503384776647295,35.31720256695086],[3.5687400139295846,35.34550414515183],[3.6871943506050684,35.373599020148305],[3.805702723215745,35.401487170220456],[3.9242663617627898,35.42916856867652],[4.042886490848446,35.45664318387573],[4.16156432979966,35.48391097925053],[4.280301092791319,35.51097191332817],[4.399097988968379,35.537825939751336],[4.517956222567761,35.564473007298325],[4.636876993039266,35.5909130599023],[4.7558614951662435,35.61714603666995],[4.874910919185481,35.64317187189938],[4.994026450906716,35.66899049509735]]}}]}