{"type":"FeatureCollection","features":[{"type":"Feature","properties":{"magnitude":0.2,"de":0.2,"ate":0.5,"percentagem":20.0},"geometry":{"type":"Polygon","coordinates":[[[-34.5,40.25999999999978],[-28.91999999999979,42.97844875558915],[-24.644930313413667,44.939999999999685],[-34.5,44.939999999999685],[-34.5,40.25999999999978]]]}},{"type":"Feature","properties":{"magnitude":0.5,"de":0.5,"ate":0.8,"percentagem":50.0},"geometry":{"type":"Polygon","coordinates":[[[-34.5,30.0],[-27.104248993419397,30.0],[-23.219999999999573,31.99158621799089],[-19.973208908052115,33.59999999999992],[-16.979999999999336,35.014764051865804],[-14.15999999999923,36.27194925728642],[-11.399999999999125,37.41935365401879],[-8.759999999999025,38.43178267731086],[-6.1199999999989245,39.35538223043173],[-3.5399999999988268,40.168785630417574],[-3.5399999999988268,44.939999999999685],[-24.644930313413667,44.939999999999685],[-27.35999999999973,43.71050976745218],[-30.179999999999836,42.37520033985099],[-34.5,40.24245798717597],[-34.5,30.0]]]}},{"type":"Feature","properties":{"magnitude":0.8,"de":0.8,"ate":0.95,"percentagem":80.0},"geometry":{"type":"MultiPolygon","coordinates":[[[[-8.579999999999018,30.007466510736496],[-5.99999999999892,31.055035622905525],[-3.5399999999988268,31.970379341306437],[-3.5399999999988268,30.0],[-8.579999999999018,30.007466510736496]]],[[[-27.104248993419397,30.0],[-23.15999999999957,32.02186768189247],[-19.919999999999447,33.62578120764549],[-16.979999999999336,35.014764051865804],[-14.15999999999923,36.27194925728642],[-11.399999999999125,37.41935365401879],[-8.759999999999025,38.43178267731086],[-6.1199999999989245,39.35538223043173],[-3.5399999999988268,40.168785630417574],[-3.5399999999988263,34.55713281992026],[-6.179999999998927,33.61211323212931],[-8.87999999999903,32.54583385717926],[-11.639999999999134,31.36033762964675],[-14.589622845756084,30.0],[-27.104248993419397,30.0]]]]}},{"type":"Feature","properties":{"magnitude":0.95,"de":0.95,"ate":0.99,"percentagem":95.0},"geometry":{"type":"Polygon","coordinates":[[[-14.589622845756084,30.0],[-8.597670223892793,30.0],[-5.99999999999892,31.05503562290552],[-3.5399999999988268,31.970379341306437],[-3.5399999999988263,34.55713281992026],[-6.179999999998927,33.61211323212931],[-8.87999999999903,32.54583385717926],[-11.639999999999134,31.36033762964675],[-14.589622845756084,30.0]]]}}]}