{"type":"FeatureCollection","features":[{"type":"Feature","properties":{"t_inicio":1.7499999999999796,"t_fim":1.8333333333333126},"geometry":{"type":"LineString","coordinates":[[-39.624646305876524,45.74528719408252],[-39.026528705678146,45.9261305768803],[-38.40185275387307,46.11219334140156],[-37.74751230898036,46.30405188774567],[-37.05975337241057,46.502401247693825],[-36.333967787599136,46.70809264761961],[-35.564393945333165,46.92218795094789],[-34.74366748044889,47.146041308629634],[-33.862118364799244,47.38142677270674],[-32.906613874763764,47.63074815326002],[-31.85852733807468,47.89740707867062],[-30.689857728497202,48.186505430333106],[-29.354901013261923,48.506351506186085],[-27.768993619343263,48.872300166274606],[-25.735642947038315,49.31990308433471],[-22.426707916718215,49.99859464763983]]}}]}