{"type":"FeatureCollection","properties":{"largura_maxima_km":54.003,"largura_sobre_pt_km":23.833,"linha_central_sobre_pt":false,"desenhavel_como_area":true,"perfil_largura":[{"t":-0.94444,"lat":25.3289,"lon":-13.3998,"largura_km":22.42,"eixo_na_terra":true},{"t":-0.93889,"lat":25.67,"lon":-12.6923,"largura_km":23.833,"eixo_na_terra":true},{"t":-0.93333,"lat":25.9904,"lon":-12.0433,"largura_km":25.091,"eixo_na_terra":true},{"t":-0.92778,"lat":26.294,"lon":-11.4414,"largura_km":26.24,"eixo_na_terra":true},{"t":-0.92222,"lat":26.5837,"lon":-10.8783,"largura_km":27.303,"eixo_na_terra":true},{"t":-0.91667,"lat":26.8618,"lon":-10.3479,"largura_km":28.298,"eixo_na_terra":true},{"t":-0.91111,"lat":27.1297,"lon":-9.8457,"largura_km":29.237,"eixo_na_terra":true},{"t":-0.90556,"lat":27.3888,"lon":-9.3679,"largura_km":30.126,"eixo_na_terra":true},{"t":-0.9,"lat":27.6402,"lon":-8.9116,"largura_km":30.974,"eixo_na_terra":true},{"t":-0.89444,"lat":27.8847,"lon":-8.4745,"largura_km":31.784,"eixo_na_terra":true},{"t":-0.88889,"lat":28.1229,"lon":-8.0544,"largura_km":32.561,"eixo_na_terra":true},{"t":-0.88333,"lat":28.3555,"lon":-7.6499,"largura_km":33.307,"eixo_na_terra":true},{"t":-0.87778,"lat":28.583,"lon":-7.2594,"largura_km":34.026,"eixo_na_terra":true},{"t":-0.87222,"lat":28.8058,"lon":-6.8817,"largura_km":34.719,"eixo_na_terra":true},{"t":-0.86667,"lat":29.0243,"lon":-6.5157,"largura_km":35.389,"eixo_na_terra":true},{"t":-0.86111,"lat":29.2388,"lon":-6.1606,"largura_km":36.037,"eixo_na_terra":true},{"t":-0.85556,"lat":29.4496,"lon":-5.8155,"largura_km":36.665,"eixo_na_terra":true},{"t":-0.85,"lat":29.6569,"lon":-5.4798,"largura_km":37.274,"eixo_na_terra":true},{"t":-0.84444,"lat":29.861,"lon":-5.1527,"largura_km":37.865,"eixo_na_terra":true},{"t":-0.83889,"lat":30.0621,"lon":-4.8337,"largura_km":38.44,"eixo_na_terra":true},{"t":-0.83333,"lat":30.2603,"lon":-4.5223,"largura_km":38.999,"eixo_na_terra":true},{"t":-0.82778,"lat":30.4559,"lon":-4.218,"largura_km":39.543,"eixo_na_terra":true},{"t":-0.82222,"lat":30.649,"lon":-3.9204,"largura_km":40.073,"eixo_na_terra":true},{"t":-0.81667,"lat":30.8397,"lon":-3.6292,"largura_km":40.59,"eixo_na_terra":true},{"t":-0.81111,"lat":31.0281,"lon":-3.3439,"largura_km":41.093,"eixo_na_terra":true},{"t":-0.80556,"lat":31.2143,"lon":-3.0643,"largura_km":41.585,"eixo_na_terra":true},{"t":-0.8,"lat":31.3985,"lon":-2.79,"largura_km":42.064,"eixo_na_terra":true},{"t":-0.79444,"lat":31.5808,"lon":-2.5208,"largura_km":42.532,"eixo_na_terra":true},{"t":-0.78889,"lat":31.7612,"lon":-2.2565,"largura_km":42.989,"eixo_na_terra":true},{"t":-0.78333,"lat":31.9398,"lon":-1.9967,"largura_km":43.436,"eixo_na_terra":true},{"t":-0.77778,"lat":32.1168,"lon":-1.7414,"largura_km":43.873,"eixo_na_terra":true},{"t":-0.77222,"lat":32.2921,"lon":-1.4903,"largura_km":44.3,"eixo_na_terra":true},{"t":-0.76667,"lat":32.4658,"lon":-1.2432,"largura_km":44.717,"eixo_na_terra":true},{"t":-0.76111,"lat":32.638,"lon":-0.9999,"largura_km":45.126,"eixo_na_terra":true},{"t":-0.75556,"lat":32.8088,"lon":-0.7602,"largura_km":45.526,"eixo_na_terra":true},{"t":-0.75,"lat":32.9782,"lon":-0.5241,"largura_km":45.917,"eixo_na_terra":true},{"t":-0.74444,"lat":33.1463,"lon":-0.2914,"largura_km":46.3,"eixo_na_terra":true},{"t":-0.73889,"lat":33.3131,"lon":-0.0619,"largura_km":46.675,"eixo_na_terra":true},{"t":-0.73333,"lat":33.4786,"lon":0.1644,"largura_km":47.042,"eixo_na_terra":true},{"t":-0.72778,"lat":33.643,"lon":0.3878,"largura_km":47.402,"eixo_na_terra":true},{"t":-0.72222,"lat":33.8061,"lon":0.6083,"largura_km":47.755,"eixo_na_terra":true},{"t":-0.71667,"lat":33.9682,"lon":0.826,"largura_km":48.1,"eixo_na_terra":true},{"t":-0.71111,"lat":34.1292,"lon":1.041,"largura_km":48.439,"eixo_na_terra":true},{"t":-0.70556,"lat":34.2891,"lon":1.2534,"largura_km":48.77,"eixo_na_terra":true},{"t":-0.7,"lat":34.448,"lon":1.4634,"largura_km":49.096,"eixo_na_terra":true},{"t":-0.69444,"lat":34.6059,"lon":1.671,"largura_km":49.415,"eixo_na_terra":true},{"t":-0.68889,"lat":34.7628,"lon":1.8762,"largura_km":49.728,"eixo_na_terra":true},{"t":-0.68333,"lat":34.9189,"lon":2.0792,"largura_km":50.035,"eixo_na_terra":true},{"t":-0.67778,"lat":35.074,"lon":2.28,"largura_km":50.336,"eixo_na_terra":true},{"t":-0.67222,"lat":35.2282,"lon":2.4788,"largura_km":50.631,"eixo_na_terra":true},{"t":-0.66667,"lat":35.3816,"lon":2.6755,"largura_km":50.921,"eixo_na_terra":true},{"t":-0.66111,"lat":35.5342,"lon":2.8702,"largura_km":51.205,"eixo_na_terra":true},{"t":-0.65556,"lat":35.6859,"lon":3.0631,"largura_km":51.484,"eixo_na_terra":true},{"t":-0.65,"lat":35.8368,"lon":3.2541,"largura_km":51.758,"eixo_na_terra":true},{"t":-0.64444,"lat":35.987,"lon":3.4433,"largura_km":52.026,"eixo_na_terra":true},{"t":-0.63889,"lat":36.1365,"lon":3.6308,"largura_km":52.29,"eixo_na_terra":true},{"t":-0.63333,"lat":36.2852,"lon":3.8167,"largura_km":52.548,"eixo_na_terra":true},{"t":-0.62778,"lat":36.4332,"lon":4.0009,"largura_km":52.802,"eixo_na_terra":true},{"t":-0.62222,"lat":36.5805,"lon":4.1835,"largura_km":53.051,"eixo_na_terra":true},{"t":-0.61667,"lat":36.7271,"lon":4.3646,"largura_km":53.296,"eixo_na_terra":true},{"t":-0.61111,"lat":36.8731,"lon":4.5442,"largura_km":53.536,"eixo_na_terra":true},{"t":-0.60556,"lat":37.0184,"lon":4.7224,"largura_km":53.771,"eixo_na_terra":true},{"t":-0.6,"lat":37.1631,"lon":4.8992,"largura_km":54.003,"eixo_na_terra":true}]},"features":[{"type":"Feature","properties":{},"geometry":{"type":"Polygon","coordinates":[[[-13.038918900827639,25.622862847569014],[-12.38842119427352,25.946855996658094],[-11.781790150923996,26.255599764032844],[-11.21496048408875,26.549952293035197],[-10.681610726182157,26.83216588400411],[-10.176921446469066,27.103959114790666],[-9.69711873342112,27.36667884988659],[-9.243052238842608,27.619252852768458],[-8.804476305559888,27.86686039468299],[-8.383269358436735,28.10808219964316],[-7.977720354778569,28.343530768702646],[-7.586377093920817,28.573726333537046],[-7.207994521853095,28.799115243427334],[-6.841495592907847,29.02008389139855],[-6.4859411509025335,29.236969435250504],[-6.140506412789932,29.450068171633916],[-5.804462367859401,29.65964216228956],[-5.158022711150068,30.069123794278234],[-4.846527567653823,30.26942728941921],[-4.248040823478277,30.659777761837052],[-3.671599325164493,31.04259664411382],[-3.117932697475851,31.416645921132318],[-2.58475685916477,31.78275064603516],[-2.070125500432198,32.141614383892815],[-1.5723637886437132,32.493842935842146],[-1.0900178987835716,32.83996241356907],[-0.621815984150544,33.18043322697725],[0.05638266707688899,33.68142285748047],[0.4938542045729264,34.009448207896575],[1.1301688295407644,34.493294249091164],[1.744789467565056,34.96809744993385],[2.3398529618408475,35.4346299350431],[2.914151437252599,35.89112511261528],[3.4754474692574036,36.34302363608109],[4.022100536650555,36.78842150656875],[4.555385230149852,37.22777470337586],[5.244149586398805,37.09639681170758],[4.526847083938151,36.51835584534989],[3.9729878647827945,36.077861662998735],[3.595469804795016,35.780633359727474],[3.2108331451511845,35.48037922453344],[2.6194998079241714,35.023963119469364],[2.009335026761107,34.55975105599053],[1.3751402541391258,34.084654582925566],[0.7209326433988394,33.60263076396662],[0.04082018603480719,33.11032104083846],[-0.6684178339990012,32.60658977550333],[-1.1592962204177297,32.263763502327365],[-1.666151921113567,31.914791830017688],[-1.9260411035484708,31.737835909621868],[-2.459806476178926,31.378609022147707],[-3.0138405032205924,31.01172537943844],[-3.590378966152514,30.636398469962597],[-4.192070249970698,30.25169743492442],[-4.8220909163255214,29.85650685362867],[-5.48791055821988,29.44726817906085],[-5.832566555090807,29.238805886777406],[-6.187155449931481,29.02672276903562],[-6.552474322607111,28.810740027127334],[-6.9294289450886595,28.59054105628583],[-7.319055736753796,28.365763834307444],[-7.722549768748138,28.13599121687838],[-8.141300987643831,27.90073838946276],[-8.576941813426231,27.659436385485947],[-9.031410806285578,27.41141004898279],[-9.507039573823192,27.155847964717722],[-10.010808882817344,26.889596076133117],[-10.538056368244327,26.61575212729673],[-11.097338942263434,26.33059571250986],[-11.694488773421313,26.032104056763544],[-12.341948579444136,25.71535589027737],[-13.041555919652012,25.380965181831627],[-13.754285069153866,25.274939911186678],[-13.038918900827639,25.622862847569014]]]}}]}