{"type":"FeatureCollection","features":[{"type":"Feature","properties":{"t_inicio":-0.9444444444444553,"t_fim":-0.6000000000000121},"geometry":{"type":"LineString","coordinates":[[-13.39977666900893,25.328914319524884],[-12.692266827602623,25.670033506695194],[-12.043301716965402,25.99037440374821],[-11.441362724187059,26.2939794842395],[-10.878256205615742,26.58372681434293],[-10.347907720728756,26.861751897986252],[-9.845666147603481,27.129691234969656],[-9.36787658842377,27.3888318631012],[-8.91160512225315,27.64020777123055],[-8.474454217783887,27.884664581763424],[-8.054434782290684,28.122904404618364],[-7.649874955763039,28.355517822557356],[-7.259353522608933,28.583007252462934],[-6.881650277406209,28.805804365423253],[-6.515708350317084,29.02428331451241],[-6.160605148539219,29.238770941403345],[-5.815529621693372,29.449554764846727],[-5.47976424653541,29.656889313329852],[-5.152670586401825,29.861001203123536],[-4.833677595045572,30.06209325284569],[-4.522272053243512,30.260347849036812],[-4.217990681380343,30.45592972298608],[-3.920413582510321,30.64898826003509],[-3.6291587515302695,30.839659434142913],[-3.3438774460140053,31.028067439484282],[-3.0642502590338268,31.21432607514928],[-2.7899837681208055,31.39853992714571],[-2.5208076603377663,31.58080538284456],[-2.2564722533323334,31.761211506027504],[-1.996746347701162,31.939840795266353],[-1.7414153581192409,32.11676984410909],[-1.4902796802563785,32.29206991818527],[-1.243153258123641,32.46580746166859],[-0.9998623225881715,32.638044543391345],[-0.7602442767130242,32.80883925117783],[-0.5241467075676383,32.97824604156189],[-0.2914265074051059,33.146316050910386],[-0.06194908977158775,33.31309737303683],[0.16441231169011417,33.478635307615676],[0.38777727215796176,33.642972583067255],[0.6082587411696068,33.806149557050674],[0.8259635524169653,33.9682043972553],[1.0409928843670286,34.12917324480832],[1.2534426773830205,34.28909036229919],[1.4634040122649026,34.44798826815644],[1.670963454479704,34.60589785888418],[1.876203367810433,34.76284852047357],[2.07920220067723,34.91886823013888],[2.280034747987372,35.073983649386285],[2.478772391023199,35.22822020930156],[2.6754833175763792,35.381602188837725],[2.8702327242849037,35.534152786792816],[3.063083002897031,35.685894188088255],[3.2540939119995755,35.83684762489082],[3.4433227355716554,35.987033433059764],[3.6308244295805707,36.13647110434943],[3.8166517577042782,36.28517933475094],[4.000855417150888,36.43317606931656],[4.183484155445171,36.580478543774575],[4.364584878963512,36.72710332321137],[4.544202753918739,36.873066338069236],[4.722381300429674,37.018382917684484],[4.899162480244115,37.1630678215678]]}}]}