{"type":"FeatureCollection","properties":{"largura_maxima_km":null,"largura_sobre_pt_km":null,"linha_central_sobre_pt":false,"desenhavel_como_area":true,"perfil_largura":[{"t":-1.43333,"lat":25.9187,"lon":-20.2263,"largura_km":null,"eixo_na_terra":false},{"t":-1.42778,"lat":25.7171,"lon":-18.9003,"largura_km":null,"eixo_na_terra":false},{"t":-1.42222,"lat":25.5512,"lon":-17.9473,"largura_km":null,"eixo_na_terra":false},{"t":-1.41667,"lat":25.1518,"lon":-15.7466,"largura_km":null,"eixo_na_terra":false},{"t":-1.41111,"lat":24.8126,"lon":-14.0177,"largura_km":null,"eixo_na_terra":false}]},"features":[{"type":"Feature","properties":{},"geometry":{"type":"Polygon","coordinates":[[[-14.72044218044564,25.235317254130898],[-14.291220721302182,25.162933428874965],[-14.041414799430186,25.116036884019938],[-13.795207515147979,25.06625812223396],[-13.554986945355836,25.014063517453796],[-13.322946082496571,24.959930934404397],[-13.101089005967651,24.904349917422106],[-12.891237388549541,24.84782124275883],[-12.63292985017938,24.771859721943446],[-12.45719635854482,24.715120293561963],[-12.349323311809485,24.677696173005522],[-12.249268786049981,24.640776048196873],[-12.114497643279776,24.586681839620898],[-12.035241201347048,24.551702118808567],[-11.964725197871473,24.51776736019112],[-11.875760364349901,24.469152695392946],[-11.827889244419566,24.438481466509316],[-11.789317408973488,24.40936677040025],[-11.760139890838104,24.3819453523289],[-11.740423567190362,24.356348499950883],[-11.730207459068879,24.332701351628227],[-11.728666635278387,24.321646172705133],[-11.729503024564622,24.31112221464997],[-11.732713799477096,24.30114308916631],[-11.738294445257623,24.291721898793284],[-11.746238768316516,24.282871217277396],[-11.76918532729212,24.266928917130425],[-11.801470660648135,24.253405485318513],[-11.842985597392783,24.242380580521655],[-11.89359483735575,24.233923684792902],[-11.953137152058787,24.228093603934482],[-12.021425554429186,24.224938009873135],[-12.098247430697654,24.224493027442204],[-12.228952573517176,24.228957574466566],[-12.32601041227332,24.23536820776315],[-12.430656519869956,24.244520090973303],[-12.542563197433537,24.256393540502007],[-12.786717530889064,24.288161462153205],[-13.055327054305735,24.330253632618188],[-13.270695226146927,24.368228017853454],[-13.573208845578563,24.426750696389092],[-13.969755362837986,24.51115711641142],[-14.21379076437131,24.566901670109207],[-14.40454588369999,24.612379880164745],[-14.650847408383015,24.655202792610506],[-14.827038053579656,24.68761418482177],[-15.196741053332062,24.759629890533077],[-15.586144922897802,24.840376933956748],[-16.047505179747766,24.94139645450011],[-16.52848006214367,25.023751601138834],[-17.01583884623227,25.112770357415894],[-17.699340687502172,25.243480522359203],[-18.467592112019407,25.394564920341935],[-19.06650266525702,25.49237931107648],[-21.019346664492332,25.817235153860747],[-21.071032502153276,25.891977766787946],[-21.668033724281372,25.994228861470948],[-21.346009355827125,26.289620321657743],[-21.421069977985837,26.3981650852134],[-20.652534724006557,26.277311044787098],[-20.21089796886349,26.205129047060737],[-19.569708829340698,26.096013667107353],[-19.022734742515695,26.012883167574444],[-18.469138257687746,25.92539749613694],[-17.81571081428325,25.816218982235497],[-17.517010034468512,25.763614656544572],[-17.09853075718729,25.686441806617974],[-16.837616864458596,25.63595541614462],[-16.527300266751066,25.57308598716121],[-16.24146397132853,25.527959752758356],[-16.029843526068248,25.49271735763811],[-15.614736042069808,25.418886687929334],[-15.412720619147194,25.380549856586907],[-15.118478794514886,25.321621528835216],[-14.929040237852973,25.281572968832627],[-14.72044218044564,25.235317254130898]]]}}]}