{"type":"FeatureCollection","features":[{"type":"Feature","properties":{"magnitude":0.2,"de":0.2,"ate":0.5,"percentagem":20.0},"geometry":{"type":"Polygon","coordinates":[[[-32.91237779748706,30.0],[-28.56846432543034,30.0],[-28.053256212523294,32.219999999999956],[-27.444866638708348,34.259999999999906],[-26.725503588766856,36.179999999999865],[-26.33999999999969,37.05074916024617],[-25.919999999999675,37.89815177554431],[-25.49999999999966,38.65343284011512],[-25.057848667313074,39.3599999999998],[-24.599999999999625,40.005350066582935],[-24.119999999999607,40.59504579203953],[-23.63999999999959,41.10188654835837],[-23.159999999999567,41.530242969947544],[-22.679999999999552,41.88311721232454],[-22.199999999999534,42.1623852795848],[-21.53999999999951,42.42765061447619],[-20.879999999999484,42.554807050948384],[-20.339999999999463,42.55366027679964],[-19.319999999999425,42.39965606919874],[-15.23999999999927,41.706484588830925],[-11.27999999999912,40.94683443035236],[-7.379999999998972,40.109322096955964],[-3.5399999999988268,39.191973891877666],[-3.5399999999988268,44.939999999999685],[-28.475249790526334,44.939999999999685],[-29.201902483991425,43.37999999999971],[-29.879999999999825,41.72680283438407],[-30.517681582473475,39.95999999999979],[-31.08879950485099,38.159999999999826],[-31.62230724599134,36.23999999999987],[-32.11372022357289,34.19999999999991],[-32.546815269180286,32.09999999999995],[-32.91237779748706,30.0]]]}},{"type":"Feature","properties":{"magnitude":0.5,"de":0.5,"ate":0.8,"percentagem":50.0},"geometry":{"type":"Polygon","coordinates":[[[-28.56846432543034,30.0],[-23.95957558888734,30.0],[-23.69999999999959,30.573591120371436],[-23.39999999999958,31.123755331657115],[-23.099999999999568,31.576027585520556],[-22.739999999999554,32.00952387419021],[-22.37999999999954,32.33758196156206],[-22.019999999999527,32.56835863559527],[-21.659999999999513,32.705337221337956],[-21.2999999999995,32.74808328881631],[-17.939999999999372,32.22209325375994],[-14.099999999999227,31.527789856822494],[-10.49999999999909,30.794812450930962],[-6.9971779680788515,30.0],[-3.5399999999988268,30.0],[-3.5399999999988268,39.191973891877666],[-6.719999999998947,39.958373841348994],[-9.95999999999907,40.67359553557961],[-13.319999999999197,41.349208357715874],[-16.679999999999325,41.96120635862573],[-20.399999999999466,42.55857266203747],[-21.05999999999949,42.53397433578796],[-21.779999999999518,42.34707720914267],[-22.31999999999954,42.09940554465839],[-22.799999999999557,41.80185633820418],[-23.339999999999577,41.37859020448251],[-23.819999999999595,40.92122057367375],[-24.299999999999613,40.3839044879888],[-24.809796293223144,39.71999999999979],[-25.289813682584633,38.99999999999981],[-25.74685389016084,38.21999999999983],[-26.182515211774216,37.37999999999984],[-26.597426874684498,36.47999999999986],[-26.991348597558105,35.51999999999988],[-27.363511803416408,34.4999999999999],[-28.02129578538965,32.33999999999995],[-28.56846432543034,30.0]]]}},{"type":"Feature","properties":{"magnitude":0.8,"de":0.8,"ate":0.95,"percentagem":80.0},"geometry":{"type":"Polygon","coordinates":[[[-23.69999999999959,30.573591120371436],[-23.9399999999996,30.0],[-6.9971779680788515,30.0],[-10.49999999999909,30.79481245093096],[-14.099999999999227,31.527789856822494],[-17.939999999999372,32.22209325375994],[-21.2999999999995,32.74808328881631],[-21.659999999999513,32.70533722133796],[-22.019999999999527,32.56835863559527],[-22.37999999999954,32.33758196156206],[-22.739999999999554,32.00952387419021],[-23.099999999999568,31.57602758552056],[-23.39999999999958,31.12375533165711],[-23.69999999999959,30.573591120371436]]]}}]}