{"type":"FeatureCollection","features":[{"type":"Feature","properties":{"magnitude":0.4,"percentagem":40.0,"territorio":"acores"},"geometry":{"type":"LineString","coordinates":[[-32.0,36.707333665144645],[-31.960000000000004,36.684380942278935],[-31.95234891740826,36.679999999999986],[-31.92,36.66150631257017],[-31.88229982857355,36.639999999999986],[-31.880000000000003,36.63869010320122],[-31.840000000000003,36.61595653622715],[-31.811863004693162,36.59999999999999],[-31.800000000000004,36.593283025125224],[-31.760000000000005,36.57068370175675],[-31.741048857580623,36.55999999999999],[-31.720000000000006,36.54815235168579],[-31.680000000000007,36.525687161736094],[-31.669851622086547,36.51999999999999],[-31.640000000000008,36.503297429637556],[-31.60000000000001,36.48096625590429],[-31.598265423156196,36.47999999999999],[-31.56000000000001,36.45871759303473],[-31.52627072303395,36.43999999999999],[-31.52000000000001,36.43652562966791],[-31.48000000000001,36.414412163456284],[-31.45387195164276,36.39999999999999],[-31.440000000000012,36.39236033174559],[-31.400000000000013,36.37038045023092],[-31.38106663559102,36.35999999999999],[-31.360000000000014,36.34846818867046],[-31.320000000000014,36.32662175066163],[-31.307848459405427,36.31999999999999],[-31.280000000000015,36.304848492547805],[-31.240000000000013,36.28313535024947],[-31.234210985254634,36.279999999999994],[-31.200000000000017,36.26150052381592],[-31.160147324710195,36.239999999999995],[-31.160000000000018,36.239920644038634],[-31.12000000000002,36.218423551468916],[-31.08563924684114,36.199999999999996],[-31.08000000000002,36.19698113657736],[-31.040000000000017,36.175616833279136],[-31.010692654533493,36.16],[-31.00000000000002,36.15431130032748],[-30.960000000000022,36.133079616018584],[-30.93530061980674,36.12],[-30.920000000000023,36.11191037747374],[-30.880000000000024,36.090811135679864],[-30.859456078163046,36.08],[-30.840000000000025,36.06977759955285],[-30.800000000000026,36.048810617696304],[-30.78315182536081,36.03999999999999],[-30.760000000000026,36.02791218767288],[-30.720000000000027,36.00707727716118],[-30.706380514096324,36.0]]}},{"type":"Feature","properties":{"magnitude":0.4,"percentagem":40.0,"territorio":"madeira"},"geometry":{"type":"LineString","coordinates":[[-18.0,32.21091164128982],[-17.96,32.206295169184756],[-17.92,32.201715322176796],[-17.880000000000003,32.19717205117601],[-17.840000000000003,32.19266530705782],[-17.800000000000004,32.18819504066353],[-17.760000000000005,32.18376120280103],[-17.725788707898705,32.17999999999994],[-17.720000000000006,32.17936461339419],[-17.680000000000007,32.17500944161585],[-17.640000000000008,32.170690499754095],[-17.60000000000001,32.166407738556174],[-17.56000000000001,32.1621611087392],[-17.52000000000001,32.157950560990855],[-17.48000000000001,32.153776045969835],[-17.440000000000012,32.149637514306605],[-17.400000000000013,32.14553491660381],[-17.360000000000014,32.14146820343703],[-17.345432737157985,32.139999999999944],[-17.320000000000014,32.13744081637543],[-17.280000000000015,32.13345116519273],[-17.240000000000016,32.12949720015348],[-17.200000000000017,32.12557887180064],[-17.160000000000018,32.121696130653156],[-17.12000000000002,32.11784892720661],[-17.08000000000002,32.11403721193376],[-17.04000000000002,32.1102609352851],[-17.00000000000002,32.10652004768942],[-16.960000000000022,32.10281449955432],[-16.929328202554,32.099999999999945],[-16.920000000000023,32.09914540368457],[-16.880000000000024,32.09551532245379],[-16.840000000000025,32.0919203827312],[-16.800000000000026,32.08836053491833],[-16.760000000000026,32.08483572939852],[-16.720000000000027,32.08134591653756],[-16.680000000000028,32.07789104668417],[-16.64000000000003,32.07447107017055],[-16.60000000000003,32.071085937312915],[-16.56000000000003,32.06773559841201],[-16.52000000000003,32.06442000375365],[-16.480000000000032,32.06113910360927],[-16.465966384948896,32.059999999999945],[-16.440000000000033,32.05789570120055],[-16.400000000000034,32.054688388253815],[-16.360000000000035,32.05151557258228],[-16.320000000000036,32.0483772044809],[-16.280000000000037,32.045273234232916],[-16.240000000000038,32.04220361211061],[-16.20000000000004,32.03916828837559],[-16.16000000000004,32.036167213279455],[-16.12000000000004,32.0332003370642],[-16.08000000000004,32.030267609962735],[-16.040000000000042,32.02736898219938],[-16.000000000000043,32.02450440399038],[-15.960000000000043,32.02167382554434],[-15.936061816016162,32.019999999999946],[-15.920000000000044,32.01887871191152],[-15.880000000000045,32.016119710185436],[-15.840000000000046,32.013394512026395],[-15.800000000000047,32.01070306769617],[-15.760000000000048,32.00804532745163],[-15.720000000000049,32.005421241545136],[-15.68000000000005,32.00283076022499],[-15.64000000000005,32.00027383373593],[-15.600000000000051,31.99775041231955],[-15.560000000000052,31.99526044621482],[-15.520000000000053,31.992803885658525],[-15.480000000000054,31.9903806808857],[-15.440000000000055,31.98799078213015],[-15.400000000000057,31.985634139624757],[-15.360000000000056,31.983310703602136],[-15.320000000000057,31.9810204242949],[-15.301919298946084,31.979999999999947],[-15.280000000000058,31.97876491356411],[-15.240000000000059,31.976543785828206],[-15.20000000000006,31.974355620194146],[-15.16000000000006,31.972200366981085],[-15.120000000000061,31.970077976510666],[-15.080000000000062,31.967988399107455],[-15.040000000000063,31.965931585099277]]}}]}