{"type":"FeatureCollection","properties":{"largura_maxima_km":168.421,"largura_sobre_pt_km":156.599,"linha_central_sobre_pt":true,"desenhavel_como_area":true,"perfil_largura":[{"t":-0.64444,"lat":33.8881,"lon":-41.2652,"largura_km":null,"eixo_na_terra":false},{"t":-0.63889,"lat":33.9479,"lon":-40.5322,"largura_km":null,"eixo_na_terra":false},{"t":-0.63333,"lat":34.0654,"lon":-40.2101,"largura_km":null,"eixo_na_terra":false},{"t":-0.62778,"lat":34.134,"lon":-39.5954,"largura_km":null,"eixo_na_terra":false},{"t":-0.62222,"lat":34.205,"lon":-38.989,"largura_km":null,"eixo_na_terra":false},{"t":-0.61667,"lat":34.0955,"lon":-36.9984,"largura_km":109.705,"eixo_na_terra":true},{"t":-0.61111,"lat":34.1133,"lon":-36.1266,"largura_km":116.913,"eixo_na_terra":true},{"t":-0.60556,"lat":34.1411,"lon":-35.3595,"largura_km":120.49,"eixo_na_terra":true},{"t":-0.6,"lat":34.1762,"lon":-34.6683,"largura_km":123.188,"eixo_na_terra":true},{"t":-0.59444,"lat":34.217,"lon":-34.0354,"largura_km":125.471,"eixo_na_terra":true},{"t":-0.58889,"lat":34.2623,"lon":-33.4493,"largura_km":127.496,"eixo_na_terra":true},{"t":-0.58333,"lat":34.3114,"lon":-32.9016,"largura_km":129.353,"eixo_na_terra":true},{"t":-0.57778,"lat":34.3638,"lon":-32.3862,"largura_km":131.07,"eixo_na_terra":true},{"t":-0.57222,"lat":34.4189,"lon":-31.8986,"largura_km":132.682,"eixo_na_terra":true},{"t":-0.56667,"lat":34.4765,"lon":-31.435,"largura_km":134.203,"eixo_na_terra":true},{"t":-0.56111,"lat":34.5363,"lon":-30.9927,"largura_km":135.645,"eixo_na_terra":true},{"t":-0.55556,"lat":34.5981,"lon":-30.5691,"largura_km":137.02,"eixo_na_terra":true},{"t":-0.55,"lat":34.6616,"lon":-30.1624,"largura_km":138.336,"eixo_na_terra":true},{"t":-0.54444,"lat":34.7267,"lon":-29.771,"largura_km":139.596,"eixo_na_terra":true},{"t":-0.53889,"lat":34.7933,"lon":-29.3934,"largura_km":140.805,"eixo_na_terra":true},{"t":-0.53333,"lat":34.8613,"lon":-29.0284,"largura_km":141.968,"eixo_na_terra":true},{"t":-0.52778,"lat":34.9305,"lon":-28.675,"largura_km":143.088,"eixo_na_terra":true},{"t":-0.52222,"lat":35.001,"lon":-28.3323,"largura_km":144.169,"eixo_na_terra":true},{"t":-0.51667,"lat":35.0726,"lon":-27.9995,"largura_km":145.211,"eixo_na_terra":true},{"t":-0.51111,"lat":35.1452,"lon":-27.6759,"largura_km":146.217,"eixo_na_terra":true},{"t":-0.50556,"lat":35.2188,"lon":-27.3609,"largura_km":147.188,"eixo_na_terra":true},{"t":-0.5,"lat":35.2934,"lon":-27.0539,"largura_km":148.125,"eixo_na_terra":true},{"t":-0.49444,"lat":35.3689,"lon":-26.7545,"largura_km":149.031,"eixo_na_terra":true},{"t":-0.48889,"lat":35.4452,"lon":-26.4621,"largura_km":149.908,"eixo_na_terra":true},{"t":-0.48333,"lat":35.5224,"lon":-26.1764,"largura_km":150.757,"eixo_na_terra":true},{"t":-0.47778,"lat":35.6003,"lon":-25.897,"largura_km":151.577,"eixo_na_terra":true},{"t":-0.47222,"lat":35.679,"lon":-25.6236,"largura_km":152.37,"eixo_na_terra":true},{"t":-0.46667,"lat":35.7584,"lon":-25.3558,"largura_km":153.137,"eixo_na_terra":true},{"t":-0.46111,"lat":35.8385,"lon":-25.0934,"largura_km":153.878,"eixo_na_terra":true},{"t":-0.45556,"lat":35.9193,"lon":-24.8361,"largura_km":154.594,"eixo_na_terra":true},{"t":-0.45,"lat":36.0007,"lon":-24.5837,"largura_km":155.285,"eixo_na_terra":true},{"t":-0.44444,"lat":36.0828,"lon":-24.3359,"largura_km":155.954,"eixo_na_terra":true},{"t":-0.43889,"lat":36.1655,"lon":-24.0925,"largura_km":156.599,"eixo_na_terra":true},{"t":-0.43333,"lat":36.2488,"lon":-23.8534,"largura_km":157.224,"eixo_na_terra":true},{"t":-0.42778,"lat":36.3327,"lon":-23.6184,"largura_km":157.828,"eixo_na_terra":true},{"t":-0.42222,"lat":36.4171,"lon":-23.3872,"largura_km":158.411,"eixo_na_terra":true},{"t":-0.41667,"lat":36.5021,"lon":-23.1598,"largura_km":158.972,"eixo_na_terra":true},{"t":-0.41111,"lat":36.5876,"lon":-22.9359,"largura_km":159.514,"eixo_na_terra":true},{"t":-0.40556,"lat":36.6737,"lon":-22.7155,"largura_km":160.035,"eixo_na_terra":true},{"t":-0.4,"lat":36.7603,"lon":-22.4984,"largura_km":160.536,"eixo_na_terra":true},{"t":-0.39444,"lat":36.8473,"lon":-22.2845,"largura_km":161.019,"eixo_na_terra":true},{"t":-0.38889,"lat":36.9349,"lon":-22.0737,"largura_km":161.482,"eixo_na_terra":true},{"t":-0.38333,"lat":37.023,"lon":-21.8659,"largura_km":161.928,"eixo_na_terra":true},{"t":-0.37778,"lat":37.1115,"lon":-21.6609,"largura_km":162.355,"eixo_na_terra":true},{"t":-0.37222,"lat":37.2005,"lon":-21.4588,"largura_km":162.764,"eixo_na_terra":true},{"t":-0.36667,"lat":37.29,"lon":-21.2592,"largura_km":163.157,"eixo_na_terra":true},{"t":-0.36111,"lat":37.38,"lon":-21.0623,"largura_km":163.533,"eixo_na_terra":true},{"t":-0.35556,"lat":37.4703,"lon":-20.8679,"largura_km":163.894,"eixo_na_terra":true},{"t":-0.35,"lat":37.5612,"lon":-20.6759,"largura_km":164.238,"eixo_na_terra":true},{"t":-0.34444,"lat":37.6524,"lon":-20.4863,"largura_km":164.565,"eixo_na_terra":true},{"t":-0.33889,"lat":37.7441,"lon":-20.2989,"largura_km":164.878,"eixo_na_terra":true},{"t":-0.33333,"lat":37.8363,"lon":-20.1138,"largura_km":165.174,"eixo_na_terra":true},{"t":-0.32778,"lat":37.9288,"lon":-19.9308,"largura_km":165.456,"eixo_na_terra":true},{"t":-0.32222,"lat":38.0218,"lon":-19.7499,"largura_km":165.723,"eixo_na_terra":true},{"t":-0.31667,"lat":38.1151,"lon":-19.571,"largura_km":165.977,"eixo_na_terra":true},{"t":-0.31111,"lat":38.2089,"lon":-19.3941,"largura_km":166.216,"eixo_na_terra":true},{"t":-0.30556,"lat":38.3031,"lon":-19.2191,"largura_km":166.441,"eixo_na_terra":true},{"t":-0.3,"lat":38.3977,"lon":-19.0459,"largura_km":166.652,"eixo_na_terra":true},{"t":-0.29444,"lat":38.4927,"lon":-18.8746,"largura_km":166.85,"eixo_na_terra":true},{"t":-0.28889,"lat":38.5881,"lon":-18.705,"largura_km":167.035,"eixo_na_terra":true},{"t":-0.28333,"lat":38.6839,"lon":-18.5371,"largura_km":167.207,"eixo_na_terra":true},{"t":-0.27778,"lat":38.78,"lon":-18.3709,"largura_km":167.367,"eixo_na_terra":true},{"t":-0.27222,"lat":38.8766,"lon":-18.2064,"largura_km":167.514,"eixo_na_terra":true},{"t":-0.26667,"lat":38.9735,"lon":-18.0434,"largura_km":167.65,"eixo_na_terra":true},{"t":-0.26111,"lat":39.0708,"lon":-17.8819,"largura_km":167.775,"eixo_na_terra":true},{"t":-0.25556,"lat":39.1686,"lon":-17.722,"largura_km":167.887,"eixo_na_terra":true},{"t":-0.25,"lat":39.2666,"lon":-17.5635,"largura_km":167.988,"eixo_na_terra":true},{"t":-0.24444,"lat":39.3651,"lon":-17.4065,"largura_km":168.078,"eixo_na_terra":true},{"t":-0.23889,"lat":39.4639,"lon":-17.2509,"largura_km":168.157,"eixo_na_terra":true},{"t":-0.23333,"lat":39.5631,"lon":-17.0966,"largura_km":168.225,"eixo_na_terra":true},{"t":-0.22778,"lat":39.6627,"lon":-16.9436,"largura_km":168.283,"eixo_na_terra":true},{"t":-0.22222,"lat":39.7627,"lon":-16.792,"largura_km":168.33,"eixo_na_terra":true},{"t":-0.21667,"lat":39.863,"lon":-16.6416,"largura_km":168.368,"eixo_na_terra":true},{"t":-0.21111,"lat":39.9637,"lon":-16.4925,"largura_km":168.395,"eixo_na_terra":true},{"t":-0.20556,"lat":40.0647,"lon":-16.3445,"largura_km":168.413,"eixo_na_terra":true},{"t":-0.2,"lat":40.1661,"lon":-16.1978,"largura_km":168.421,"eixo_na_terra":true},{"t":-0.19444,"lat":40.2679,"lon":-16.0522,"largura_km":168.421,"eixo_na_terra":true},{"t":-0.18889,"lat":40.3701,"lon":-15.9078,"largura_km":168.411,"eixo_na_terra":true},{"t":-0.18333,"lat":40.4726,"lon":-15.7644,"largura_km":168.392,"eixo_na_terra":true},{"t":-0.17778,"lat":40.5755,"lon":-15.6221,"largura_km":168.365,"eixo_na_terra":true},{"t":-0.17222,"lat":40.6787,"lon":-15.4809,"largura_km":168.33,"eixo_na_terra":true},{"t":-0.16667,"lat":40.7824,"lon":-15.3408,"largura_km":168.287,"eixo_na_terra":true},{"t":-0.16111,"lat":40.8863,"lon":-15.2016,"largura_km":168.236,"eixo_na_terra":true},{"t":-0.15556,"lat":40.9907,"lon":-15.0634,"largura_km":168.177,"eixo_na_terra":true},{"t":-0.15,"lat":41.0954,"lon":-14.9262,"largura_km":168.111,"eixo_na_terra":true},{"t":-0.14444,"lat":41.2005,"lon":-14.7899,"largura_km":168.038,"eixo_na_terra":true},{"t":-0.13889,"lat":41.3059,"lon":-14.6546,"largura_km":167.958,"eixo_na_terra":true},{"t":-0.13333,"lat":41.4117,"lon":-14.5202,"largura_km":167.871,"eixo_na_terra":true},{"t":-0.12778,"lat":41.5179,"lon":-14.3866,"largura_km":167.776,"eixo_na_terra":true},{"t":-0.12222,"lat":41.6244,"lon":-14.254,"largura_km":167.675,"eixo_na_terra":true},{"t":-0.11667,"lat":41.7313,"lon":-14.1222,"largura_km":167.567,"eixo_na_terra":true},{"t":-0.11111,"lat":41.8386,"lon":-13.9912,"largura_km":167.453,"eixo_na_terra":true},{"t":-0.10556,"lat":41.9462,"lon":-13.861,"largura_km":167.332,"eixo_na_terra":true},{"t":-0.1,"lat":42.0542,"lon":-13.7316,"largura_km":167.206,"eixo_na_terra":true},{"t":-0.09444,"lat":42.1626,"lon":-13.603,"largura_km":167.073,"eixo_na_terra":true},{"t":-0.08889,"lat":42.2713,"lon":-13.4752,"largura_km":166.934,"eixo_na_terra":true},{"t":-0.08333,"lat":42.3804,"lon":-13.3481,"largura_km":166.79,"eixo_na_terra":true},{"t":-0.07778,"lat":42.4899,"lon":-13.2218,"largura_km":166.64,"eixo_na_terra":true},{"t":-0.07222,"lat":42.5997,"lon":-13.0962,"largura_km":166.485,"eixo_na_terra":true},{"t":-0.06667,"lat":42.71,"lon":-12.9713,"largura_km":166.325,"eixo_na_terra":true},{"t":-0.06111,"lat":42.8206,"lon":-12.847,"largura_km":166.159,"eixo_na_terra":true},{"t":-0.05556,"lat":42.9315,"lon":-12.7235,"largura_km":165.989,"eixo_na_terra":true},{"t":-0.05,"lat":43.0429,"lon":-12.6006,"largura_km":165.814,"eixo_na_terra":true},{"t":-0.04444,"lat":43.1546,"lon":-12.4783,"largura_km":165.634,"eixo_na_terra":true},{"t":-0.03889,"lat":43.2667,"lon":-12.3567,"largura_km":165.449,"eixo_na_terra":true},{"t":-0.03333,"lat":43.3792,"lon":-12.2357,"largura_km":165.26,"eixo_na_terra":true},{"t":-0.02778,"lat":43.4921,"lon":-12.1153,"largura_km":165.067,"eixo_na_terra":true},{"t":-0.02222,"lat":43.6054,"lon":-11.9956,"largura_km":164.869,"eixo_na_terra":true},{"t":-0.01667,"lat":43.719,"lon":-11.8763,"largura_km":164.668,"eixo_na_terra":true},{"t":-0.01111,"lat":43.833,"lon":-11.7577,"largura_km":164.462,"eixo_na_terra":true},{"t":-0.00556,"lat":43.9475,"lon":-11.6396,"largura_km":164.253,"eixo_na_terra":true},{"t":-0.0,"lat":44.0623,"lon":-11.5221,"largura_km":164.04,"eixo_na_terra":true},{"t":0.00556,"lat":44.1775,"lon":-11.4051,"largura_km":163.823,"eixo_na_terra":true},{"t":0.01111,"lat":44.2931,"lon":-11.2886,"largura_km":163.603,"eixo_na_terra":true},{"t":0.01667,"lat":44.4091,"lon":-11.1726,"largura_km":163.379,"eixo_na_terra":true},{"t":0.02222,"lat":44.5255,"lon":-11.0571,"largura_km":163.152,"eixo_na_terra":true},{"t":0.02778,"lat":44.6423,"lon":-10.9422,"largura_km":162.922,"eixo_na_terra":true},{"t":0.03333,"lat":44.7595,"lon":-10.8277,"largura_km":162.689,"eixo_na_terra":true},{"t":0.03889,"lat":44.8772,"lon":-10.7136,"largura_km":162.453,"eixo_na_terra":true},{"t":0.04444,"lat":44.9952,"lon":-10.6,"largura_km":162.215,"eixo_na_terra":true},{"t":0.05,"lat":45.1136,"lon":-10.4869,"largura_km":161.973,"eixo_na_terra":true},{"t":0.05556,"lat":45.2325,"lon":-10.3742,"largura_km":161.729,"eixo_na_terra":true},{"t":0.06111,"lat":45.3517,"lon":-10.2619,"largura_km":161.483,"eixo_na_terra":true},{"t":0.06667,"lat":45.4714,"lon":-10.1501,"largura_km":161.234,"eixo_na_terra":true},{"t":0.07222,"lat":45.5915,"lon":-10.0386,"largura_km":160.982,"eixo_na_terra":true},{"t":0.07778,"lat":45.7121,"lon":-9.9276,"largura_km":160.728,"eixo_na_terra":true},{"t":0.08333,"lat":45.833,"lon":-9.8169,"largura_km":160.471,"eixo_na_terra":true},{"t":0.08889,"lat":45.9544,"lon":-9.7066,"largura_km":160.212,"eixo_na_terra":true},{"t":0.09444,"lat":46.0763,"lon":-9.5967,"largura_km":159.952,"eixo_na_terra":true},{"t":0.1,"lat":46.1985,"lon":-9.4871,"largura_km":159.688,"eixo_na_terra":true},{"t":0.10556,"lat":46.3212,"lon":-9.3779,"largura_km":159.423,"eixo_na_terra":true},{"t":0.11111,"lat":46.4444,"lon":-9.2691,"largura_km":159.156,"eixo_na_terra":true},{"t":0.11667,"lat":46.568,"lon":-9.1605,"largura_km":158.887,"eixo_na_terra":true},{"t":0.12222,"lat":46.692,"lon":-9.0523,"largura_km":158.616,"eixo_na_terra":true},{"t":0.12778,"lat":46.8165,"lon":-8.9444,"largura_km":158.343,"eixo_na_terra":true},{"t":0.13333,"lat":46.9415,"lon":-8.8368,"largura_km":158.069,"eixo_na_terra":true},{"t":0.13889,"lat":47.0669,"lon":-8.7295,"largura_km":157.793,"eixo_na_terra":true},{"t":0.14444,"lat":47.1928,"lon":-8.6225,"largura_km":157.515,"eixo_na_terra":true},{"t":0.15,"lat":47.3191,"lon":-8.5158,"largura_km":157.236,"eixo_na_terra":true},{"t":0.15556,"lat":47.446,"lon":-8.4093,"largura_km":156.955,"eixo_na_terra":true},{"t":0.16111,"lat":47.5733,"lon":-8.3031,"largura_km":156.673,"eixo_na_terra":true},{"t":0.16667,"lat":47.701,"lon":-8.1971,"largura_km":156.389,"eixo_na_terra":true},{"t":0.17222,"lat":47.8293,"lon":-8.0914,"largura_km":156.104,"eixo_na_terra":true},{"t":0.17778,"lat":47.958,"lon":-7.986,"largura_km":155.818,"eixo_na_terra":true},{"t":0.18333,"lat":48.0873,"lon":-7.8808,"largura_km":155.53,"eixo_na_terra":true},{"t":0.18889,"lat":48.217,"lon":-7.7757,"largura_km":155.241,"eixo_na_terra":true},{"t":0.19444,"lat":48.3473,"lon":-7.6709,"largura_km":154.951,"eixo_na_terra":true},{"t":0.2,"lat":48.478,"lon":-7.5664,"largura_km":154.66,"eixo_na_terra":true},{"t":0.20556,"lat":48.6093,"lon":-7.462,"largura_km":154.368,"eixo_na_terra":true},{"t":0.21111,"lat":48.741,"lon":-7.3578,"largura_km":154.075,"eixo_na_terra":true},{"t":0.21667,"lat":48.8733,"lon":-7.2537,"largura_km":153.781,"eixo_na_terra":true},{"t":0.22222,"lat":49.0062,"lon":-7.1499,"largura_km":153.486,"eixo_na_terra":true},{"t":0.22778,"lat":49.1395,"lon":-7.0462,"largura_km":153.19,"eixo_na_terra":true},{"t":0.23333,"lat":49.2734,"lon":-6.9427,"largura_km":152.893,"eixo_na_terra":true},{"t":0.23889,"lat":49.4078,"lon":-6.8393,"largura_km":152.595,"eixo_na_terra":true},{"t":0.24444,"lat":49.5428,"lon":-6.7361,"largura_km":152.297,"eixo_na_terra":true},{"t":0.25,"lat":49.6783,"lon":-6.633,"largura_km":151.997,"eixo_na_terra":true},{"t":0.25556,"lat":49.8144,"lon":-6.53,"largura_km":151.697,"eixo_na_terra":true},{"t":0.26111,"lat":49.9511,"lon":-6.4272,"largura_km":151.396,"eixo_na_terra":true}]},"features":[{"type":"Feature","properties":{},"geometry":{"type":"Polygon","coordinates":[[[-38.109906511556005,33.60862092622454],[-38.16631544714909,33.60030790765204],[-38.20152141904589,33.59721961713239],[-38.28612855170604,33.59324321015114],[-38.39001272116178,33.59228925122165],[-38.513732232017105,33.59447126945813],[-38.738230182925065,33.60390255538851],[-39.01290462560871,33.62118232662258],[-39.343802643493916,33.64699548540359],[-39.60201608617177,33.669585099958496],[-39.625881226219576,33.664458273845575],[-39.693145447098914,33.65710556844532],[-39.788339620605655,33.65345864905407],[-39.846917635785076,33.653098461900065],[-40.07032108641431,33.65834164596287],[-40.263766507074536,33.667652599173586],[-40.6370024951288,33.69207167313284],[-41.15243656077479,33.73332831476308],[-41.63684565919152,33.776304319642826],[-42.45137404815932,33.85306299073467],[-42.50538880201922,33.9650146336164],[-42.70340248891722,33.985272447485116],[-42.56719262262385,34.09310999198834],[-42.579352576746444,34.11831286239153],[-42.66042500409918,34.12704927498748],[-42.930322467318476,34.335311697724215],[-43.02996952442561,34.34626309914079],[-43.00138723228178,34.3901477823096],[-43.2847129850892,34.608771947944824],[-43.38415502517188,34.619825199710924],[-43.25820524352304,34.81672403584541],[-42.81313853131138,34.780181139608956],[-41.64428385100257,34.69120444186967],[-41.093295668627604,34.647733238900216],[-40.5860190711561,34.605284531976714],[-40.18417991185079,34.5694482089201],[-40.62601925800959,34.64972611719698],[-39.029845801914064,34.61190766026071],[-37.86061563226855,34.61264551727092],[-36.91493801179928,34.63080034423856],[-36.11128135283087,34.65909094122269],[-35.3777026114949,34.696730747751836],[-34.72518565534614,34.73901404968606],[-34.123309352960234,34.78603543909171],[-33.56269172280537,34.83695268635835],[-33.03652660890344,34.89115464042338],[-32.539690615880374,34.9481811793335],[-32.06821260125224,35.007675643960894],[-31.618940582204175,35.069354963167825],[-31.189323070497153,35.13299003596858],[-30.77726017213257,35.198392368684665],[-30.38099903569747,35.26540468927653],[-29.999058501005607,35.33389418097302],[-29.630173559433956,35.4037474934551],[-29.273253608991695,35.47486699203185],[-28.927350534420214,35.54716788876322],[-28.59163392589886,35.62057601453471],[-28.26537157710851,35.69502606526136],[-27.947913949927283,35.77046020441314],[-27.63868166217776,35.84682693716497],[-27.337155309155264,35.92408019429005],[-27.04286710803217,36.00217857991982],[-26.755393981370162,36.081084748702565],[-26.474351787945636,36.16076488614922],[-26.19939047653719,36.24118827200863],[-25.930189988392613,36.322326911010286],[-25.66645677170078,36.404155218690164],[-25.40792079993247,36.48664975257799],[-25.162278868021588,36.56699625216735],[-24.913324839695576,36.650734920073916],[-24.428742037946336,36.82001665782192],[-23.960669421658736,36.99159756839375],[-23.507769932252586,37.165365339299306],[-23.068871537529617,37.34122286950511],[-22.854344769250133,37.42990849158388],[-22.434545590472226,37.60874592521008],[-22.22905661029779,37.698880557936995],[-21.826401617490262,37.88054275304366],[-21.629051799722845,37.972056212523555],[-21.241882366680386,38.15641584829383],[-21.05190510350036,38.2492504021606],[-20.685214555195785,38.43282918619262],[-20.501909751224787,38.52691815416127],[-20.14156020562831,38.71633871084876],[-19.964396225826533,38.811662381707855],[-19.61581047582979,39.003518560624826],[-19.27453491384091,39.19696522336524],[-18.940182705180803,39.391979682620125],[-18.775490082540443,39.49006857372322],[-18.45086089788333,39.68739867107064],[-18.290844572173853,39.78663595690007],[-17.975219591604855,39.98624632608606],[-17.819539311186418,40.086616362500045],[-17.51227312979637,40.28847951439411],[-17.210252354573242,40.491832724311514],[-16.913234693597474,40.69666876673256],[-16.48197034639901,41.00273369920385],[-16.196452117690967,41.211223431728314],[-15.91519950564242,41.42118402923625],[-15.638027620337368,41.63261535374404],[-15.364761504520686,41.84551862605925],[-15.095235321305381,42.05989636687729],[-14.829291621929713,42.27575234592348],[-14.566780683974741,42.493091538310004],[-14.307559911772842,42.71192008739864],[-14.051493291852012,42.932245273566],[-13.79845089720402,43.154075488355915],[-13.548308434967907,43.37742021358132],[-13.3009468328043,43.60229000500299],[-13.05625185982234,43.828696480271404],[-12.814113778423575,44.05665231086719],[-12.574427023861915,44.28617121782107],[-12.33708990869036,44.51726797103326],[-12.102004349591596,44.74995839204744],[-11.869075614368626,44.98425936016751],[-11.638212087118461,45.22018882183358],[-11.409325049822485,45.457765803201355],[-11.186787187705988,45.69223775008314],[-10.96157500522304,45.93313827772023],[-10.738089129298487,46.175749904553825],[-10.516250506858228,46.420096148624765],[-10.295982088017183,46.66620171810801],[-10.07720867802658,46.914092543245225],[-9.859856797412874,47.16379581174976],[-9.643854549534637,47.41534000781291],[-9.429131494850992,47.66875495486392],[-9.109294576708464,48.052453695399336],[-8.897469829141357,48.31068521873531],[-8.686687531296627,48.57090313361762],[-8.476882393946653,48.833143929732884],[-8.163866134426996,49.23038192782442],[-7.749335981574177,49.76748332683613],[-7.543140936408804,50.03932468844698],[-7.235012171626693,50.451330315243716],[-5.63940217428177,49.4496970749964],[-6.05217702940223,48.91126375863066],[-6.466901673497432,48.38142821011592],[-6.884080974450342,47.859861201951354],[-7.3042239752704745,47.34626099994576],[-7.727846937142488,46.84035106839808],[-7.941127476647637,46.5901999355173],[-8.155476470276597,46.34187809774272],[-8.370961897971313,46.09535724336424],[-8.587652805860614,45.850610315053416],[-8.805619420333414,45.60761147037431],[-9.024933266735786,45.36633604564908],[-9.245667293273357,45.12676052303832],[-9.467896000747032,44.8888625007182],[-9.691695578799738,44.652620666053785],[-9.91714404941041,44.41801477168852],[-10.14899448369323,44.18031738932543],[-10.378005086738938,43.94895880667432],[-10.7251033828623,43.6048808208626],[-10.959018327450849,43.37744555780337],[-11.195052004471734,43.1515530786909],[-11.553281871068805,42.81557738455865],[-11.795031225357263,42.5934840753496],[-12.039243377876005,42.37288988089174],[-12.410413580813497,42.044787226020304],[-12.66125816507963,41.82789804090573],[-12.914957544897959,41.612476373668756],[-13.301129255365538,41.29208099828352],[-13.69443923415298,40.97495429273804],[-14.095356161805,40.66108347107048],[-14.37251740983828,40.44961021291072],[-14.64807002743379,40.24364371046528],[-15.068824946218513,39.93740230971808],[-15.49903182859498,39.63441859373471],[-15.939348139424453,39.33470786632928],[-16.390492028698247,39.03829334941186],[-16.697655803012026,38.84253028849707],[-16.85325129289572,38.7452069901122],[-17.168635482787863,38.551685196886865],[-17.328494057417515,38.45549044388317],[-17.658924321820223,38.26071211589498],[-17.82340834352169,38.1656824133056],[-18.15725627726198,37.97678822193826],[-18.326707112103406,37.88292940490622],[-18.67089284236789,37.69640393815565],[-18.845725505759845,37.60374414642884],[-19.20113031949387,37.419649259738726],[-19.381813152779387,37.32822240997646],[-19.749434924588,37.146632478720015],[-20.125823756716784,36.96676104140658],[-20.518610348597065,36.7855494113212],[-20.71519674368659,36.69719226230533],[-21.116150693422753,36.521866642629504],[-21.320695407062544,36.43491334193084],[-21.738399884744865,36.26246743222328],[-22.16829504294742,36.09203124162466],[-22.38810163222587,36.00759247459578],[-22.838070461484335,35.840331289730166],[-23.310953352352158,35.67262174447009],[-23.791867899445037,35.51001199008773],[-24.03878961855611,35.4296346148388],[-24.290286881909537,35.34990057601719],[-24.546578278717732,35.2708305344551],[-24.80789977250788,35.19244688052461],[-25.074506705856436,35.11477393147037],[-25.3466761124443,35.03783815894908],[-25.6340628710725,34.95934752052596],[-25.91841422115118,34.88400627182089],[-26.209325615577143,34.809498394594364],[-26.50719325985665,34.735862183447225],[-26.81245400424268,34.66313995304569],[-27.125591441797155,34.59137863766971],[-27.447143235117153,34.52063051136936],[-27.78849587112643,34.44899961137978],[-28.12895488249353,34.380500883757755],[-28.479880881056545,34.313215966619545],[-28.842141415566402,34.24722968956283],[-29.21672923368999,34.182639211849825],[-29.617189004739714,34.11795539624168],[-30.020375381561507,34.05656535848178],[-30.439964677987405,33.99697122627158],[-30.891748843908942,33.938061051184555],[-31.35058341398957,33.88271466821248],[-31.832735045198376,33.829843711523246],[-32.357663056183526,33.778857153228515],[-32.91568351064183,33.731444557592056],[-33.51297735772755,33.6882152269963],[-34.17901694990985,33.64998872576928],[-34.95925375223692,33.62012998581153],[-35.1829692861474,33.66077692064771],[-35.18495469171569,33.65293975607972],[-35.19005810366383,33.645073125018506],[-35.19814071034409,33.637717268846046],[-35.209196722037916,33.63088259156737],[-35.24020041498335,33.6188160834472],[-35.26013116832473,33.613602709628836],[-35.308800353962226,33.604858125929866],[-35.36913440975911,33.59840691332905],[-35.48126625057108,33.59314376126727],[-35.61896865759013,33.59329914984941],[-35.724732283465244,33.596461643296166],[-35.841475885042996,33.60209153535985],[-36.014598553622235,33.613544145015716],[-36.03554408552469,33.60451665737614],[-36.054283701184374,33.59903680049735],[-36.101584046598305,33.58982008095325],[-36.1301326285307,33.58610044213392],[-36.235294102357045,33.578590207316566],[-36.36958684794047,33.57669501165422],[-36.532831043302224,33.58056523997996],[-36.65766574921241,33.58640519491817],[-36.94708773236411,33.60613407014339],[-36.97268674928853,33.59676441488028],[-36.99404229079664,33.591665744688406],[-37.048063864880305,33.58334551106555],[-37.08073834234193,33.58014312724651],[-37.20150109203223,33.574476115516376],[-37.30106869274351,33.5740671975403],[-37.47934207806725,33.57866807325413],[-37.61776350746743,33.58529989234721],[-37.85548461030112,33.60074228510172],[-38.07594082150158,33.618306054304696],[-38.109906511556005,33.60862092622454]]]}}]}