{"type":"FeatureCollection","features":[{"type":"Feature","properties":{"t_inicio":-0.6277777777777898,"t_fim":0.261111111111096},"geometry":{"type":"LineString","coordinates":[[-39.33727032927982,34.116336336030905],[-38.02777873570267,34.092714143787916],[-36.99841183228858,34.09552851342119],[-36.12663379971241,34.11330819052572],[-35.359465768104485,34.14109025485657],[-34.66825681276788,34.17618920538769],[-34.03543334913138,34.216957004681774],[-33.44929534213941,34.262295960099486],[-32.90158820523908,34.311431359372],[-32.38623044068049,34.36379229040258],[-31.898588311727906,34.41894367937697],[-31.435034926895753,34.47654496483958],[-30.992668261943038,34.536323660394096],[-30.569123247365212,34.59805773122469],[-30.1624421963063,34.66156343837525],[-29.770982854317992,34.726686709864296],[-29.393351524072443,34.79329686300605],[-29.028353382344733,34.861281939189546],[-28.67495487773914,34.93054517198162],[-28.332254802062494,35.001002269121734],[-27.99946170873244,35.072579290234415],[-27.67587605502939,35.14521096801742],[-27.360875913882808,35.21883936461954],[-27.053905420110198,35.29341278485322],[-26.754465337523754,35.368884888659146],[-26.462105289680835,35.44521395990489],[-26.176417309163526,35.52236229911719],[-25.897030441815446,35.60029571539784],[-25.623606202452606,35.678983098411805],[-25.35583472338135,35.758396055542704],[-25.09343147085508,35.83850860248348],[-24.83613443035813,35.91929689794795],[-24.58370168141596,36.000739015049895],[-24.335909298012552,36.08281474334008],[-24.092549522731304,36.165505416622985],[-23.853429172232495,36.2487937625667],[-23.618368239224367,36.33266377082847],[-23.38719866212142,36.41710057698562],[-23.15976323844609,36.50209036001892],[-22.935914661966024,36.58762025146512],[-22.715514666770844,36.67367825465739],[-22.498433264121502,36.760253172720304],[-22.284548060069937,36.84733454418855],[-22.07374364364074,36.93491258528799],[-21.865911036856403,37.02297813805817],[-21.660947199133147,37.11152262361165],[-21.45875457961762,37.20053799992434],[-21.25924071191571,37.290016723634345],[-21.062317846406188,37.37995171539512],[-20.86790261596542,37.4703363283908],[-20.67591573146325,37.56116431966899],[-20.48628170385325,37.65242982399267],[-20.298928590069295,37.74412732994748],[-20.113787760283515,37.83625165807381],[-19.93079368436844,37.92879794082072],[-19.749883735661456,38.02176160414125],[-19.570998010346273,38.115138350571186],[-19.39407916095854,38.20892414364953],[-19.219072242686707,38.303115193555655],[-19.045924571286378,38.39770794385148],[-18.874585591550556,38.49269905922893],[-18.70500675539381,38.58808541417373],[-18.537141408701586,38.6838640824652],[-18.370944686187556,38.78003232744105],[-18.206373413574227,38.87658759296206],[-18.043386016482884,38.973527495019006],[-17.881942435476162,39.07084981392922],[-17.72200404675374,39.16855248707565],[-17.563533588044777,39.2666336021454],[-17.406495089286693,39.36509139082892],[-17.250853807717192,39.463924222944925],[-17.096576167037597,39.563130600958715],[-16.943629700340864,39.66270915486487],[-16.791982996520346,39.76265863740771],[-16.641605649902942,39.862977919615574],[-16.492468212870733,39.963665986626474],[-16.344542151256917,40.06472193378511],[-16.19779980231749,40.16614496299271],[-16.05221433509911,40.267934379292676],[-15.907759713036,40.37008958767666],[-15.764410658623774,40.4726100900966],[-15.622142620029479,40.575495482669595],[-15.480931739508605,40.678745453063904],[-15.3407548235092,40.78235977805455],[-15.201589314353157,40.88633832123846],[-15.063413263393272,40.99068103089986],[-14.926205305550582,41.09538793801707],[-14.789944635146583,41.20045915440267],[-14.654610982947247,41.30589487096985],[-14.520184594346745,41.411695356117754],[-14.386646208617776,41.517860954229896],[-14.253977039167353,41.62439208427943],[-14.122158754735494,41.731289238536306],[-13.991173461481367,41.838552981370654],[-13.861003685905928,41.94618394814869],[-13.731632358560603,42.05418284421591],[-13.60304279849862,42.16255044396431],[-13.475218698424897,42.27128758997977],[-13.34814411050587,42.380395192266015],[-13.221803432802858,42.4898742275424],[-13.09618139629282,42.599725738612236],[-12.971263052445408,42.709950833799475],[-12.847033761325463,42.820550686450865],[-12.723479180192498,42.93152653450136],[-12.600585252570454,43.04287968010125],[-12.47833819776298,43.15461148930232],[-12.356724500789994,43.266723391801904],[-12.235730902724015,43.37921688074292],[-12.115344391405017,43.49209351256869],[-11.995552192514538,43.60535490693091],[-11.876341760990215,43.71900274664999],[-11.757700772763258,43.8330387777264],[-11.639617116802867,43.947464809402135],[-11.522078887451471,44.06228271427162],[-11.405074377036954,44.17749442844128],[-11.28859206874688,44.29310195173692],[-11.1726206297526,44.409107347958816],[-11.05714890457051,44.52551274518369],[-10.942165908648178,44.642320336113414],[-10.827660822165399,44.75953237847039],[-10.713622984038068,44.87715119543897],[-10.600041886116628,44.99517917615325],[-10.486907167567608,45.1136187762312],[-10.37420860943132,45.23247251835494],[-10.261936129344974,45.351742992897684],[-10.150079776424832,45.47143285859731],[-10.03862972629878,45.59154484327717],[-9.927576276281627,45.712081744614295],[-9.816909840686776,45.83304643095549],[-9.706620946267094,45.95444184218221],[-9.596700227778285,46.076270990624415],[-9.487138423659474,46.19853696202439],[-9.377926371824003,46.321242916551284],[-9.269055005555686,46.444392089867236],[-9.160515349504294,46.56798779424601],[-9.052298515776329,46.69203341974544],[-8.944395700114342,46.8165324354342],[-8.836798178161644,46.941488390675026],[-8.729497301806873,47.06690491646492],[-8.62248449560434,47.19278572683412],[-8.515751253265421,47.31913462030525],[-8.409289134217829,47.44595548141442],[-8.303089760227635,47.57325228229564],[-8.197144812080808,47.70102908433054],[-8.091446026320625,47.82929003986572],[-7.985985192036935,47.958039393998824],[-7.880754147704238,48.08728148643647],[-7.775744778064336,48.21702075342577],[-7.670949011051505,48.34726172976214],[-7.566358814755631,48.47800905087544],[-7.461966194421052,48.60926745499793],[-7.357763189477453,48.74104178541627],[-7.253741870600265,48.87333699281066],[-7.149894336797274,49.006158137684515],[-7.046212712518411,49.139510392887956],[-6.942689144786186,49.27339904623823],[-6.8393158003437975,49.40782950324141],[-6.736084862818188,49.54280728991894],[-6.632988529894931,49.67833805574299],[-6.530019010502713,49.81442757668527],[-6.427168522004592,49.95108175838392]]}}]}