{"type":"FeatureCollection","features":[{"type":"Feature","properties":{"magnitude":0.4,"percentagem":40.0,"territorio":"continente"},"geometry":{"type":"LineString","coordinates":[[-10.5,38.63705137088382],[-10.46,38.625575544371486],[-10.420000000000002,38.614076623832595],[-10.380000000000003,38.602554581144794],[-10.37114741084989,38.599999999999945],[-10.340000000000003,38.591011604201235],[-10.300000000000004,38.57944608305591],[-10.260000000000003,38.56785735978562],[-10.232931153641672,38.559999999999945],[-10.220000000000006,38.55624632821168],[-10.180000000000007,38.5446139724649],[-10.140000000000008,38.5329583345964],[-10.100000000000009,38.521279386492736],[-10.095625807732793,38.519999999999946],[-10.06000000000001,38.5095796490307],[-10.02000000000001,38.497856862398336],[-9.980000000000011,38.48611068553367],[-9.959229521709705,38.47999999999995],[-9.940000000000012,38.47434246894819],[-9.900000000000013,38.46255229926791],[-9.860000000000014,38.45073865936327],[-9.823711030646908,38.43999999999995],[-9.820000000000014,38.43890178772396],[-9.780000000000015,38.427044000625784],[-9.740000000000016,38.41516266332775],[-9.700000000000017,38.403257747763824],[-9.689073523289244,38.39999999999995],[-9.660000000000018,38.39133132132826],[-9.620000000000019,38.37938205224259],[-9.58000000000002,38.36740912496617],[-9.555293252683473,38.35999999999995],[-9.54000000000002,38.355413615761385],[-9.500000000000021,38.34339618048742],[-9.460000000000022,38.33135500714225],[-9.42235306778698,38.31999999999995],[-9.420000000000023,38.31929023793772],[-9.380000000000024,38.30720440210382],[-9.340000000000025,38.295094748375064],[-9.300000000000026,38.28296124877693],[-9.290254810014543,38.27999999999995],[-9.260000000000026,38.2708060708958],[-9.220000000000027,38.25862770254656],[-9.180000000000028,38.24642540860991],[-9.158975403045869,38.23999999999995],[-9.140000000000029,38.234200540533],[-9.10000000000003,38.221953223441844],[-9.06000000000003,38.209681901132036],[-9.028500281898893,38.19999999999995],[-9.020000000000032,38.19738716465687],[-8.980000000000032,38.185070664856234],[-8.940000000000033,38.17273008030579],[-8.900000000000032,38.16036538316972],[-8.898819943116251,38.159999999999954],[-8.860000000000035,38.147979380705195],[-8.820000000000036,38.13556930025351],[-8.780000000000037,38.12313502784974],[-8.76993223814666,38.11999999999996],[-8.740000000000038,38.11067872513721],[-8.700000000000038,38.09819891537117],[-8.66000000000004,38.08569483441887],[-8.641814829695868,38.079999999999956],[-8.62000000000004,38.0731680526497],[-8.580000000000041,38.06061828044518],[-8.540000000000042,38.048044157966835],[-8.5144571573714,38.03999999999996],[-8.500000000000043,38.03544671820784],[-8.460000000000043,38.02282675077236],[-8.420000000000044,38.01018235413663],[-8.387848825798848,37.99999999999996],[-8.380000000000045,37.997514077366546],[-8.340000000000046,37.984823682282716],[-8.300000000000047,37.97210877924831],[-8.261979602059638,37.95999999999996],[-8.260000000000048,37.95936948639555],[-8.220000000000049,37.94660843166561],[-8.18000000000005,37.93382279042605],[-8.14000000000005,37.921012535245175],[-8.136843531247209,37.91999999999996],[-8.100000000000051,37.90818035649886],[-8.060000000000052,37.89532374572835],[-8.020000000000053,37.882442442746125],[-8.01242815746582,37.87999999999996],[-7.980000000000054,37.869538815381134],[-7.940000000000055,37.85661100428138],[-7.900000000000055,37.84365842292733],[-7.888721155076788,37.83999999999996],[-7.860000000000056,37.83068316806753],[-7.820000000000057,37.81768392641561],[-7.780000000000058,37.804659836710826],[-7.765712946819453,37.79999999999996],[-7.740000000000059,37.791612775608435],[-7.70000000000006,37.77854187380568],[-7.6600000000000605,37.76544604641202],[-7.643394105306381,37.75999999999996],[-7.620000000000061,37.75232700049159],[-7.580000000000062,37.73918420961344],[-7.540000000000064,37.726016415883805],[-7.521755350765593,37.71999999999996],[-7.500000000000064,37.71282520678758],[-7.460000000000065,37.69961029863464],[-7.420000000000066,37.68637031066411],[-7.400787548826684,37.679999999999964],[-7.3800000000000665,37.673106760298595],[-7.340000000000067,37.65981950744857],[-7.300000000000068,37.646507098126875],[-7.280481708350342,37.639999999999965],[-7.260000000000069,37.633171028710656],[-7.22000000000007,37.619811204571434],[-7.180000000000071,37.606426147636164],[-7.160828979300097,37.599999999999966],[-7.140000000000072,37.59301738174912],[-7.1000000000000725,37.57958476061282],[-7.060000000000073,37.56612683070397],[-7.0418206506545395,37.559999999999974],[-7.020000000000074,37.5526451913377],[-6.980000000000075,37.539139548435934],[-6.940000000000077,37.52560852115133],[-6.923448148359556,37.51999999999997],[-6.900000000000077,37.512053831761044],[-6.860000000000078,37.498474943321106],[-6.820000000000078,37.48487059527295],[-6.80570303331937,37.47999999999997],[-6.780000000000079,37.47124267983059],[-6.74000000000008,37.457590323132756],[-6.700000000000081,37.44391243200529],[-6.688576999425639,37.43999999999997],[-6.660000000000082,37.430211115054064],[-6.620000000000083,37.41648506848998],[-6.580000000000084,37.40273341309812],[-6.572061871623036,37.39999999999997],[-6.540000000000084,37.38895851980851],[-6.500000000000085,37.375158562940655],[-6.460000000000086,37.36133292328982],[-6.456149604010542,37.35999999999997],[-6.420000000000087,37.34748427951685],[-6.380000000000088,37.333610193139066],[-6.3408332570902965,37.31999999999997],[-6.340000000000089,37.319710412792986],[-6.3000000000000895,37.30578778282796],[-6.26000000000009,37.29183934902704],[-6.22610922687527,37.27999999999997],[-6.220000000000091,37.27786554306499],[-6.180000000000092,37.26386842180043],[-6.140000000000093,37.24984542401878],[-6.111965257313734,37.239999999999974],[-6.100000000000094,37.23579742031002],[-6.060000000000095,37.221725592089754],[-6.0200000000000955,37.20762781518923],[-5.998393777263218,37.199999999999974],[-5.980000000000096,37.19350544250832],[-5.940000000000097,37.17935869313936],[-5.900000000000098,37.165185923466055],[-5.885387336140508,37.15999999999997],[-5.860000000000099,37.15098901155696],[-5.8200000000001,37.1367671283751],[-5.7800000000001015,37.1225191538252],[-5.7729386022126805,37.119999999999976],[-5.7400000000001015,37.10824753346688],[-5.700000000000102,37.093950305403254],[-5.661041534506287,37.07999999999998],[-5.660000000000103,37.07962699355],[-5.620000000000104,37.06528041856351],[-5.580000000000105,37.050907636212536],[-5.549696356173905,37.03999999999998],[-5.540000000000106,37.03650934917362]]}},{"type":"Feature","properties":{"magnitude":0.2,"percentagem":20.0,"territorio":"madeira"},"geometry":{"type":"LineString","coordinates":[[-18.0,33.19116256355277],[-17.96,33.18267087545324],[-17.947450233978508,33.17999999999992],[-17.92,33.174158011642035],[-17.880000000000003,33.165623426994],[-17.840000000000003,33.15706665497316],[-17.800000000000004,33.14848766395716],[-17.760528110021774,33.13999999999992],[-17.760000000000005,33.139886440679504],[-17.720000000000006,33.13126431254459],[-17.680000000000007,33.12261987296126],[-17.640000000000008,33.113953090160294],[-17.60000000000001,33.105263932337905],[-17.575828602242943,33.09999999999992],[-17.56000000000001,33.09655292270071],[-17.52000000000001,33.087820324685595],[-17.48000000000001,33.07906525861582],[-17.440000000000012,33.07028769254481],[-17.400000000000013,33.06148759449248],[-17.39325465529037,33.059999999999924],[-17.360000000000014,33.05266610641371],[-17.320000000000014,33.043822263018015],[-17.280000000000015,33.034955794042105],[-17.240000000000016,33.02606666736741],[-17.21276878316793,33.019999999999925],[-17.200000000000017,33.0171553036645],[-17.160000000000018,33.00822218635732],[-17.12000000000002,32.999266317304674],[-17.08000000000002,32.99028766425315],[-17.04000000000002,32.9812861949181],[-17.034298151315046,32.979999999999926],[-17.00000000000002,32.97226310108642],[-16.960000000000022,32.96321733231812],[-16.920000000000023,32.954148652682036],[-16.880000000000024,32.94505702976351],[-16.857805195526485,32.93999999999993],[-16.840000000000025,32.93594306929764],[-16.800000000000026,32.92680689875911],[-16.760000000000026,32.917647689929716],[-16.720000000000027,32.90846541026886],[-16.68321487337069,32.89999999999993],[-16.680000000000028,32.89926014291207],[-16.64000000000003,32.89003306618773],[-16.60000000000003,32.88078282321065],[-16.56000000000003,32.87150938131853],[-16.52000000000003,32.862212707821435],[-16.510502042929282,32.85999999999993],[-16.480000000000032,32.85289387425185],[-16.440000000000033,32.843552089885684],[-16.400000000000034,32.834186978002855],[-16.360000000000035,32.82479850579743],[-16.339604756019803,32.81999999999993],[-16.320000000000036,32.815387352904416],[-16.280000000000037,32.805953517682696],[-16.240000000000038,32.796496225841864],[-16.20000000000004,32.78701544446479],[-16.17047323980128,32.77999999999993],[-16.16000000000004,32.77751152263365],[-16.12000000000004,32.767985124930135],[-16.08000000000004,32.758435141022495],[-16.040000000000042,32.748861537887265],[-16.00306583765023,32.73999999999993],[-16.000000000000043,32.73926439470686],[-15.960000000000043,32.729644920804475],[-15.920000000000044,32.72000173064936],[-15.880000000000045,32.71033479111698],[-15.840000000000044,32.700644069060594],[-15.837347548869904,32.69999999999993],[-15.800000000000047,32.690930905591415],[-15.760000000000048,32.68119399300987],[-15.720000000000049,32.67143320046319],[-15.68000000000005,32.66164849471042],[-15.673276306560158,32.65999999999993],[-15.64000000000005,32.65184107096191],[-15.600000000000051,32.64200991785373],[-15.560000000000052,32.632154753775595],[-15.520000000000053,32.622275545398],[-15.510807542789323,32.61999999999993],[-15.480000000000054,32.61237340026282],[-15.440000000000055,32.602447486687694],[-15.400000000000055,32.59249743074294],[-15.360000000000056,32.58252319901646],[-15.349904132625653,32.579999999999934],[-15.320000000000057,32.5725258688232],[-15.280000000000058,32.562504673085634],[-15.240000000000057,32.552459203207064],[-15.20000000000006,32.54238942569898],[-15.190529960055663,32.539999999999935],[-15.16000000000006,32.5322964442763],[-15.120000000000061,32.52217944301471],[-15.080000000000062,32.5120380354932],[-15.040000000000063,32.501872188153314]]}}]}