{"type":"FeatureCollection","properties":{"largura_maxima_km":201.893,"largura_sobre_pt_km":201.645,"linha_central_sobre_pt":false,"desenhavel_como_area":true,"perfil_largura":[{"t":0.22222,"lat":47.5596,"lon":-39.8724,"largura_km":201.688,"eixo_na_terra":true},{"t":0.22778,"lat":47.6278,"lon":-39.7354,"largura_km":201.672,"eixo_na_terra":true},{"t":0.23333,"lat":47.6959,"lon":-39.5979,"largura_km":201.658,"eixo_na_terra":true},{"t":0.23889,"lat":47.7638,"lon":-39.4599,"largura_km":201.645,"eixo_na_terra":true},{"t":0.24444,"lat":47.8315,"lon":-39.3214,"largura_km":201.633,"eixo_na_terra":true},{"t":0.25,"lat":47.8991,"lon":-39.1824,"largura_km":201.623,"eixo_na_terra":true},{"t":0.25556,"lat":47.9665,"lon":-39.0428,"largura_km":201.613,"eixo_na_terra":true},{"t":0.26111,"lat":48.0337,"lon":-38.9027,"largura_km":201.605,"eixo_na_terra":true},{"t":0.26667,"lat":48.1007,"lon":-38.7622,"largura_km":201.597,"eixo_na_terra":true},{"t":0.27222,"lat":48.1676,"lon":-38.621,"largura_km":201.591,"eixo_na_terra":true},{"t":0.27778,"lat":48.2343,"lon":-38.4794,"largura_km":201.585,"eixo_na_terra":true},{"t":0.28333,"lat":48.3008,"lon":-38.3372,"largura_km":201.581,"eixo_na_terra":true},{"t":0.28889,"lat":48.3671,"lon":-38.1944,"largura_km":201.578,"eixo_na_terra":true},{"t":0.29444,"lat":48.4333,"lon":-38.0511,"largura_km":201.575,"eixo_na_terra":true},{"t":0.3,"lat":48.4992,"lon":-37.9073,"largura_km":201.574,"eixo_na_terra":true},{"t":0.30556,"lat":48.565,"lon":-37.7629,"largura_km":201.574,"eixo_na_terra":true},{"t":0.31111,"lat":48.6306,"lon":-37.6179,"largura_km":201.575,"eixo_na_terra":true},{"t":0.31667,"lat":48.696,"lon":-37.4724,"largura_km":201.577,"eixo_na_terra":true},{"t":0.32222,"lat":48.7612,"lon":-37.3263,"largura_km":201.581,"eixo_na_terra":true},{"t":0.32778,"lat":48.8263,"lon":-37.1796,"largura_km":201.587,"eixo_na_terra":true},{"t":0.33333,"lat":48.8911,"lon":-37.0323,"largura_km":201.593,"eixo_na_terra":true},{"t":0.33889,"lat":48.9558,"lon":-36.8845,"largura_km":201.601,"eixo_na_terra":true},{"t":0.34444,"lat":49.0203,"lon":-36.7361,"largura_km":201.61,"eixo_na_terra":true},{"t":0.35,"lat":49.0845,"lon":-36.5871,"largura_km":201.621,"eixo_na_terra":true},{"t":0.35556,"lat":49.1486,"lon":-36.4375,"largura_km":201.634,"eixo_na_terra":true},{"t":0.36111,"lat":49.2125,"lon":-36.2873,"largura_km":201.647,"eixo_na_terra":true},{"t":0.36667,"lat":49.2762,"lon":-36.1365,"largura_km":201.662,"eixo_na_terra":true},{"t":0.37222,"lat":49.3397,"lon":-35.985,"largura_km":201.677,"eixo_na_terra":true},{"t":0.37778,"lat":49.403,"lon":-35.833,"largura_km":201.694,"eixo_na_terra":true},{"t":0.38333,"lat":49.4661,"lon":-35.6804,"largura_km":201.712,"eixo_na_terra":true},{"t":0.38889,"lat":49.529,"lon":-35.5271,"largura_km":201.731,"eixo_na_terra":true},{"t":0.39444,"lat":49.5917,"lon":-35.3732,"largura_km":201.75,"eixo_na_terra":true},{"t":0.4,"lat":49.6542,"lon":-35.2187,"largura_km":201.771,"eixo_na_terra":true},{"t":0.40556,"lat":49.7165,"lon":-35.0636,"largura_km":201.793,"eixo_na_terra":true},{"t":0.41111,"lat":49.7786,"lon":-34.9078,"largura_km":201.817,"eixo_na_terra":true},{"t":0.41667,"lat":49.8405,"lon":-34.7513,"largura_km":201.841,"eixo_na_terra":true},{"t":0.42222,"lat":49.9022,"lon":-34.5943,"largura_km":201.866,"eixo_na_terra":true},{"t":0.42778,"lat":49.9636,"lon":-34.4365,"largura_km":201.893,"eixo_na_terra":true}]},"features":[{"type":"Feature","properties":{},"geometry":{"type":"Polygon","coordinates":[[[-40.5713071863467,48.3477677264382],[-40.151568968877825,48.55588377879499],[-39.869084079634945,48.69377969461644],[-39.44128233238516,48.89933300799133],[-39.153314622420794,49.03549703912626],[-38.71712616573967,49.23841599876989],[-38.42345794023524,49.37279858515134],[-37.81032120717964,49.647695034143396],[-37.3579997335419,49.845639448619096],[-37.0533704741344,49.97665500739984],[-36.436549433372335,50.236368606032904],[-35.967168706759395,50.429086042649445],[-35.650955617079234,50.55655994637661],[-34.99024534042388,50.816890178314395],[-33.88355914172854,49.12806047302909],[-34.49778137057024,48.88606559816277],[-34.801215363728744,48.763824090194774],[-35.251863893285105,48.57893568870601],[-35.84449709583629,48.329620865082795],[-36.26453292903716,48.14857220093514],[-36.554139324535186,48.02160615757395],[-37.12674142192361,47.76540369899388],[-37.40980008205108,47.63618417091098],[-37.83042269678185,47.44097988179426],[-38.10823914713342,47.30993844459363],[-38.52114223694889,47.11203732732678],[-38.79390736930867,46.97922125176216],[-39.182348218831294,46.78716094636637],[-40.5713071863467,48.3477677264382]]]}}]}