{"type":"FeatureCollection","features":[{"type":"Feature","properties":{"t_inicio":0.22222222222220722,"t_fim":0.42777777777776205},"geometry":{"type":"LineString","coordinates":[[-39.87236221114699,47.55955439757757],[-39.73537742907635,47.627804672059355],[-39.597888709102506,47.69588448357497],[-39.459892096843646,47.76379296614006],[-39.32138362282265,47.83152924059035],[-39.182359302337744,47.89909241447376],[-39.04281513533411,47.96648158194112],[-38.902747106275825,48.03369582363469],[-38.76215118401865,48.10073420657543],[-38.6210233216832,48.167595784048004],[-38.47935945652887,48.234279595484324],[-38.337155509828136,48.3007846663451],[-38.194407386741545,48.36711000799957],[-38.051110976193115,48.433254617603424],[-37.90726215074645,48.49921747797478],[-37.76285676648109,48.56499755746831],[-37.61789066286951,48.63059380984731],[-37.47235966265458,48.69600517415398],[-37.32625957172732,48.761230574577674],[-37.17958617900533,48.82626892032098],[-37.032335256311285,48.891119105464035],[-36.88450255825211,48.95578000882658],[-36.73608382209838,49.02025049382803],[-36.58707476766398,49.08452940834544],[-36.437471097186176,49.14861558456922],[-36.287268495205865,49.21250783885683],[-36.1364626284481,49.27620497158419],[-35.9850491457029,49.339705766994825],[-35.833023677706024,49.40300899304689],[-35.68038183702015,49.46611340125772],[-35.527119217915896,49.52901772654628],[-35.37323139625303,49.591720687072964],[-35.21871392936177,49.6542209840773],[-35.063562355923835,49.71651730171299],[-34.90777219585365,49.77860830688061],[-34.7513389501793,49.84049264905782],[-34.59425810092333,49.90216896012684],[-34.43652511098327,49.96363585419968]]}}]}