{"type":"FeatureCollection","features":[{"type":"Feature","properties":{"magnitude":0.6,"percentagem":60.0,"territorio":"continente"},"geometry":{"type":"LineString","coordinates":[[-10.5,41.784654104870285],[-10.46,41.788395891861825],[-10.420000000000002,41.79211476521667],[-10.380000000000003,41.79581075088465],[-10.340000000000003,41.799483874753605],[-10.334344600446613,41.79999999999988],[-10.300000000000004,41.803134694661345],[-10.260000000000005,41.80676278854233],[-10.220000000000006,41.81036809451604],[-10.180000000000007,41.81395063821655],[-10.140000000000008,41.81751044521644],[-10.100000000000009,41.821047541027006],[-10.06000000000001,41.8245619510983],[-10.02000000000001,41.828053700819275],[-9.980000000000011,41.8315228155178],[-9.940000000000012,41.83496932046086],[-9.900000000000013,41.838393240854614],[-9.88110508776511,41.839999999999876],[-9.860000000000014,41.841794908741264],[-9.820000000000014,41.84517431353211],[-9.780000000000015,41.84853120556731],[-9.740000000000016,41.851865609805266],[-9.700000000000017,41.855177551144116],[-9.660000000000018,41.85846705442192],[-9.620000000000019,41.86173414441677],[-9.58000000000002,41.864978845846835],[-9.54000000000002,41.8682011833705],[-9.500000000000021,41.8714011815865],[-9.460000000000022,41.87457886503399],[-9.420000000000023,41.877734258192625],[-9.391074119708023,41.879999999999875],[-9.380000000000024,41.88086753488799],[-9.340000000000025,41.88397895671825],[-9.300000000000026,41.887068157829695],[-9.260000000000026,41.890135162461014],[-9.220000000000027,41.89317999479205],[-9.180000000000028,41.896202678943965],[-9.140000000000029,41.89920323897934],[-9.10000000000003,41.902181698902254],[-9.06000000000003,41.90513808265842],[-9.020000000000032,41.90807241413533],[-8.980000000000032,41.910984717162364],[-8.940000000000033,41.91387501551081],[-8.900000000000034,41.9167433328941],[-8.860000000000035,41.91958969296785],[-8.854189349108115,41.919999999999874],[-8.820000000000036,41.92241453813993],[-8.780000000000037,41.92521754074833],[-8.740000000000038,41.927998653109455],[-8.700000000000038,41.93075789864595],[-8.66000000000004,41.93349530072336],[-8.62000000000004,41.93621088265019],[-8.580000000000041,41.93890466767809],[-8.540000000000042,41.941576679001955],[-8.500000000000043,41.94422693976003],[-8.460000000000043,41.94685547303403],[-8.420000000000044,41.949462301849266],[-8.380000000000045,41.95204744917481],[-8.340000000000046,41.9546109379235],[-8.300000000000047,41.95715279095218],[-8.260000000000048,41.95967303106177],[-8.254765790282743,41.95999999999987],[-8.220000000000049,41.96217206026796],[-8.18000000000005,41.96464957549236],[-8.14000000000005,41.96710554227577],[-8.100000000000051,41.9695399831949],[-8.060000000000052,41.97195292077126],[-8.020000000000053,41.9743443774712],[-7.980000000000054,41.97671437570616],[-7.940000000000055,41.979062937832666],[-7.900000000000055,41.981390086152565],[-7.860000000000056,41.983695842913065],[-7.820000000000057,41.9859802303069],[-7.780000000000058,41.98824327047247],[-7.740000000000059,41.990484985493914],[-7.70000000000006,41.9927053974013],[-7.6600000000000605,41.9949045281707],[-7.620000000000061,41.997082399724356],[-7.580000000000062,41.999239033930756],[-7.565745949587242,41.99999999999987],[-7.540000000000064,42.00137469415614],[-7.500000000000064,42.00348929071801],[-7.460000000000065,42.00558271161042],[-7.420000000000066,42.0076549784877],[-7.3800000000000665,42.00970611295121],[-7.340000000000067,42.011736136549374],[-7.300000000000068,42.013745070777894],[-7.260000000000069,42.01573293707985],[-7.22000000000007,42.01769975684577],[-7.180000000000071,42.01964555141387],[-7.140000000000072,42.021570342070085],[-7.1000000000000725,42.02347415004825],[-7.060000000000073,42.025356996530206],[-7.020000000000074,42.027218902645934],[-6.980000000000075,42.02905988947374],[-6.940000000000076,42.03087997804025],[-6.900000000000077,42.03267918932069],[-6.860000000000078,42.03445754423896],[-6.820000000000078,42.036215063667704],[-6.780000000000079,42.037951768428556],[-6.74000000000008,42.03966767929215],[-6.732158257988562,42.039999999999864],[-6.700000000000081,42.04136305791095],[-6.660000000000082,42.04303773916237],[-6.620000000000083,42.04469168492113],[-6.580000000000084,42.04632491575625],[-6.540000000000084,42.04793745218635],[-6.500000000000085,42.04952931468009],[-6.460000000000086,42.05110052365609],[-6.420000000000087,42.05265109948316],[-6.380000000000088,42.05418106248044],[-6.340000000000089,42.05569043291744],[-6.3000000000000895,42.05717923101432],[-6.26000000000009,42.05864747694186],[-6.220000000000091,42.06009519082171],[-6.180000000000092,42.06152239272649],[-6.140000000000093,42.06292910267989],[-6.100000000000094,42.06431534065684],[-6.060000000000095,42.065681126583655],[-6.0200000000000955,42.06702648033809],[-5.980000000000096,42.06835142174959],[-5.940000000000097,42.06965597059929],[-5.900000000000098,42.0709401466203],[-5.860000000000099,42.07220396949769],[-5.8200000000001,42.07344745886873],[-5.780000000000101,42.074670634322956],[-5.7400000000001015,42.07587351540236],[-5.700000000000102,42.07705612160146],[-5.660000000000103,42.07821847236751],[-5.620000000000104,42.079360587100574],[-5.597202275156145,42.07999999999987],[-5.580000000000105,42.08048257091114],[-5.540000000000106,42.081584467423845]]}},{"type":"Feature","properties":{"magnitude":0.6,"percentagem":60.0,"territorio":"acores"},"geometry":{"type":"LineString","coordinates":[[-31.18333563958459,36.0],[-31.160000000000018,36.01198461061415],[-31.12000000000002,36.03248832330929],[-31.105319350308772,36.04],[-31.08000000000002,36.05294712592795],[-31.04000000000002,36.07336142406557],[-31.026969106398248,36.08],[-31.00000000000002,36.093730854331994],[-30.960000000000022,36.11405592489805],[-30.94828126167453,36.12],[-30.920000000000023,36.13433618410134],[-30.880000000000024,36.15457221564203],[-30.869252118700135,36.16],[-30.840000000000025,36.17476350596003],[-30.800000000000026,36.19491068854195],[-30.789877928045932,36.199999999999996],[-30.760000000000026,36.21501321299217],[-30.720000000000027,36.235071738162695],[-30.710154887547283,36.239999999999995],[-30.680000000000028,36.25508570055379],[-30.64000000000003,36.27505576130168],[-30.630079141548762,36.279999999999994],[-30.60000000000003,36.2949813661856],[-30.56000000000003,36.314863156901865],[-30.549646780137508,36.31999999999999],[-30.52000000000003,36.33470060952665],[-30.480000000000032,36.35449432596569],[-30.468853838364815,36.35999999999999],[-30.440000000000033,36.37424383222883],[-30.400000000000034,36.39394967146983],[-30.387696295455655,36.39999999999999],[-30.360000000000035,36.41361143787232],[-30.320000000000036,36.43322959828092],[-30.30617007400615,36.43999999999999],[-30.280000000000037,36.452803831881894],[-30.240000000000038,36.47233451307217],[-30.224271039168514,36.47999999999999],[-30.20000000000004,36.49182142144424],[-30.16000000000004,36.511264824240946],[-30.14199499782336,36.51999999999999],[-30.12000000000004,36.53066461542618],[-30.08000000000004,36.55002094182721],[-30.05933769773896,36.55999999999999],[-30.040000000000045,36.569333824293736],[-30.000000000000043,36.588603277433066],[-29.97629482671766,36.59999999999999],[-29.960000000000043,36.60782946003234],[-29.920000000000044,36.62701224414309],[-29.892862011728248,36.639999999999986],[-29.880000000000045,36.64615193606784],[-29.840000000000046,36.66524825644575],[-29.80903481802528,36.679999999999986],[-29.800000000000043,36.68430166718859],[-29.760000000000048,36.70331173015579],[-29.72480874825392,36.719999999999985],[-29.72000000000005,36.722279069468485],[-29.68000000000005,36.74120308233756],[-29.640179241540803,36.759999999999984],[-29.640000000000047,36.76008456019098],[-29.60000000000005,36.77892273122937],[-29.560000000000052,36.79771846115314],[-29.55513584304363,36.79999999999998],[-29.520000000000053,36.816471096168854],[-29.480000000000054,36.83518128418595],[-29.469678892110764,36.83999999999998],[-29.440000000000055,36.853848597519274],[-29.400000000000055,36.87247345421832],[-29.38380382829699,36.87999999999998],[-29.360000000000056,36.89105565659696],[-29.320000000000057,36.909595393401986],[-29.297505810008843,36.91999999999998],[-29.28000000000006,36.92809269559967],[-29.24000000000006,36.94654752473596],[-29.21077992704121,36.95999999999998],[-29.20000000000006,36.964960137536],[-29.16000000000006,36.98333027199632],[-29.123621199570174,36.99999999999998],[-29.120000000000058,37.00165840615585],[-29.080000000000062,37.019944059667],[-29.040000000000063,37.03818786464591],[-29.036019582676804,37.03999999999998],[-29.000000000000064,37.0563893128716],[-28.960000000000065,37.07454894517888],[-28.94796973658321,37.07999999999998],[-28.920000000000066,37.09266645730632],[-28.880000000000067,37.1107421324627],[-28.85947096494366,37.119999999999976],[-28.840000000000067,37.12877591917378],[-28.800000000000068,37.14676785332186],[-28.77051797968036,37.159999999999975],[-28.760000000000066,37.16471812511811],[-28.72000000000007,37.18262653499046],[-28.68110541744313,37.199999999999974],[-28.68000000000007,37.20049350216084],[-28.64000000000007,37.21831860504852],[-28.600000000000072,37.236102374648944],[-28.591216390948144,37.239999999999974],[-28.560000000000073,37.2538444913595],[-28.520000000000074,37.27154526782828],[-28.5008546020845,37.27999999999997],[-28.48000000000008,37.28920462200871],[-28.440000000000076,37.30682262401117],[-28.41001586659305,37.31999999999997],[-28.400000000000077,37.324399425242916],[-28.360000000000078,37.34193487189721],[-28.32000000000008,37.35942931696698],[-28.318692742719065,37.35999999999997],[-28.28000000000008,37.37688244025814],[-28.24000000000008,37.39429464674852],[-28.226867040110108,37.39999999999997],[-28.200000000000077,37.41166575787998],[-28.160000000000082,37.4289959460307],[-28.134546168902162,37.43999999999997],[-28.120000000000083,37.446285253506005],[-28.080000000000084,37.463533643908185],[-28.041724161173377,37.47999999999997],[-28.040000000000084,37.48074135578098],[-28.000000000000085,37.49790816934852],[-27.960000000000086,37.51503441535895],[-27.948378980592263,37.51999999999997],[-27.920000000000087,37.532119951137815],[-27.880000000000088,37.549164940052115],[-27.854517153303945,37.55999999999997],[-27.84000000000009,37.56616941782731],[-27.80000000000009,37.58313337136963],[-27.760134785208294,37.599999999999966],[-27.76000000000009,37.60005699768107],[-27.72000000000009,37.616940137802565],[-27.680000000000092,37.63378305056293],[-27.665204709903364,37.639999999999965],[-27.640000000000093,37.65058566747674],[-27.600000000000094,37.66734808834836],[-27.56974009318684,37.679999999999964],[-27.560000000000095,37.68407038810298],[-27.520000000000095,37.7007525396176],[-27.480000000000096,37.71739470695889],[-27.47372559512787,37.71999999999996],[-27.440000000000097,37.733996831753245],[-27.400000000000098,37.75055905231701],[-27.377148591393997,37.75999999999996],[-27.3600000000001,37.767081391600726],[-27.3200000000001,37.78356388834244],[-27.280016174051738,37.799999999999955],[-27.2800000000001,37.8000066454221],[-27.2400000000001,37.816409641370555],[-27.200000000000102,37.832772998060214],[-27.182295566888847,37.83999999999996],[-27.160000000000103,37.84909673708348],[-27.120000000000104,37.86538091658149],[-27.08400450931868,37.87999999999996],[-27.080000000000105,37.8816256004662],[-27.040000000000106,37.897830826013134],[-27.000000000000107,37.913996658423535],[-26.98511379178988,37.91999999999996],[-26.960000000000107,37.930123150589736],[-26.92000000000011,37.94621035317067],[-26.885631184541708,37.95999999999996],[-26.88000000000011,37.962258313740904],[-26.84000000000011,37.978267109800285],[-26.80000000000011,37.99423675980545],[-26.785533420762853,37.99999999999996],[-26.76000000000011,38.01016735082915],[-26.720000000000113,38.02605891874724],[-26.684825143654802,38.03999999999995],[-26.68000000000011,38.04191149786687],[-26.640000000000114,38.05772520693394],[-26.600000000000115,38.073500017833275],[-26.583481883643486,38.079999999999956],[-26.560000000000116,38.089236044907864],[-26.520000000000117,38.10493332150334],[-26.481512557276062,38.11999999999995],[-26.48000000000012,38.120591852207696],[-26.44000000000012,38.13621181752956],[-26.40000000000012,38.151793133222554],[-26.378883772904953,38.159999999999954],[-26.36000000000012,38.167335924236745],[-26.32000000000012,38.18284025312278],[-26.280000000000122,38.198306079715124],[-26.275609799051043,38.19999999999995],[-26.240000000000123,38.213733623630006],[-26.200000000000124,38.229122787819534],[-26.17166072566127,38.23999999999995],[-26.160000000000124,38.244473660621864],[-26.120000000000125,38.25978638490026],[-26.080000000000126,38.27506085620589],[-26.067037150588128,38.27999999999995],[-26.040000000000127,38.290297285401174],[-26.000000000000128,38.30549564082567],[-25.961731299875623,38.31999999999995],[-25.96000000000013,38.32065590253643],[-25.92000000000013,38.33577836404191],[-25.88000000000013,38.35086282217433],[-25.855713759774552,38.35999999999995],[-25.84000000000013,38.36590943750834],[-25.800000000000132,38.38091832520268],[-25.760000000000133,38.39588935743529],[-25.74899281295379,38.39999999999995],[-25.720000000000134,38.410822810145824],[-25.680000000000135,38.425718595087986],[-25.641553142157232,38.43999999999995],[-25.640000000000136,38.44057668567161],[-25.600000000000136,38.455397444256896],[-25.560000000000137,38.47018059719088],[-25.533367061669754,38.47999999999995],[-25.520000000000138,38.48492631186079],[-25.48000000000014,38.49963476077146],[-25.44000000000014,38.51430575204235],[-25.424439267072803,38.519999999999946],[-25.40000000000014,38.52893956840071],[-25.36000000000014,38.54353617749539],[-25.320000000000142,38.558095476967324],[-25.314756089992247,38.559999999999945],[-25.280000000000143,38.572617870269916],[-25.240000000000144,38.587103108871474],[-25.204296164523914,38.599999999999945],[-25.200000000000145,38.601551232088894],[-25.160000000000146,38.61596262893018],[-25.120000000000147,38.63033696574677],[-25.09304466022141,38.639999999999944],[-25.080000000000148,38.644674436886476],[-25.04000000000015,38.65897525209866],[-25.00000000000015,38.67323915514653],[-24.980995799874627,38.67999999999994],[-24.96000000000015,38.68746644260805],[-24.92000000000015,38.70165714352668],[-24.88000000000015,38.715811080054856],[-24.868134556105982,38.71999999999994],[-24.840000000000153,38.72992864964137],[-24.800000000000153,38.744009702784965],[-24.760000000000154,38.7580541392016],[-24.754445524375058,38.75999999999994],[-24.720000000000155,38.77206245405746],[-24.680000000000156,38.78603432505522],[-24.640000000000157,38.79996972685587],[-24.639912912795978,38.79999999999994],[-24.600000000000158,38.813869247406956],[-24.56000000000016,38.82773240092835],[-24.52451240099833,38.83999999999994],[-24.520000000000156,38.84155929584187],[-24.48000000000016,38.855350416522796],[-24.44000000000016,38.86910531620888],[-24.408236808052553,38.87999999999994],[-24.400000000000162,38.88282416095036],[-24.360000000000163,38.89650734332926],[-24.320000000000164,38.91015445172576],[-24.29106934309166,38.91999999999994],[-24.280000000000165,38.92376569897959],[-24.240000000000165,38.937341404657296],[-24.200000000000166,38.9508811831495],[-24.172992630956596,38.95999999999994],[-24.160000000000167,38.96438528269133],[-24.120000000000168,38.977853972066036],[-24.08000000000017,38.99128688081545],[-24.053988855570843,38.999999999999936],[-24.040000000000166,39.00468427946545]]}},{"type":"Feature","properties":{"magnitude":0.4,"percentagem":40.0,"territorio":"madeira"},"geometry":{"type":"LineString","coordinates":[[-18.0,33.68072864359523],[-17.96,33.691023801371294],[-17.92499897211341,33.69999999999991],[-17.92,33.701281641059424],[-17.880000000000003,33.71150224469031],[-17.840000000000003,33.72168564053991],[-17.800000000000004,33.73183188203878],[-17.767682057155415,33.73999999999991],[-17.760000000000005,33.741941032938115],[-17.720000000000006,33.75201318394856],[-17.680000000000007,33.76204834775701],[-17.640000000000008,33.772046577613025],[-17.608064696125123,33.77999999999991]]}}]}