{"type":"FeatureCollection","properties":{"largura_maxima_km":null,"largura_sobre_pt_km":null,"linha_central_sobre_pt":false,"desenhavel_como_area":true,"perfil_largura":[{"t":1.85556,"lat":26.366,"lon":-37.4493,"largura_km":null,"eixo_na_terra":false},{"t":1.86111,"lat":26.0975,"lon":-36.5658,"largura_km":null,"eixo_na_terra":false},{"t":1.86667,"lat":25.9033,"lon":-35.9371,"largura_km":null,"eixo_na_terra":false},{"t":1.87222,"lat":25.7348,"lon":-35.5545,"largura_km":null,"eixo_na_terra":false},{"t":1.87778,"lat":25.5689,"lon":-35.1219,"largura_km":null,"eixo_na_terra":false},{"t":1.88333,"lat":25.3877,"lon":-34.6386,"largura_km":null,"eixo_na_terra":false},{"t":1.88889,"lat":25.2127,"lon":-34.0965,"largura_km":null,"eixo_na_terra":false},{"t":1.89444,"lat":24.8802,"lon":-33.166,"largura_km":null,"eixo_na_terra":false}]},"features":[{"type":"Feature","properties":{},"geometry":{"type":"Polygon","coordinates":[[[-31.482680645387916,23.922334773601794],[-31.624904839732007,23.96248838261527],[-31.61553517121044,23.920071391190415],[-34.13430306728273,24.645344280508446],[-34.95340593219282,24.885191145465342],[-35.52381598002992,25.042958174182846],[-36.055224371700774,25.19226479359709],[-36.52440512862512,25.327048360996976],[-36.81621553951744,25.41295452836805],[-37.229603880825664,25.524418655178664],[-37.627915038893605,25.634590029048557],[-37.99342618312352,25.738828120749847],[-38.21887146332648,25.80511610524346],[-38.56195076523295,25.89571310253811],[-38.89343247771333,25.986182010259572],[-39.20252515296278,26.07374269963663],[-39.38940026853996,26.128586774406095],[-39.69057883392469,26.206661386538958],[-39.98011965786395,26.284733755950842],[-40.252469618836216,26.36139884144633],[-40.41327394194552,26.40848229459765],[-40.81777108960671,26.512717984544718],[-41.070848641246016,26.58181290139418],[-41.309718907467186,26.65035704418296],[-41.640936474347,26.75199038056681],[-41.93906830046302,26.851952187281956],[-42.11914214343619,26.91750030876988],[-42.284079135870286,26.982042605203464],[-42.360823845233995,27.013898074649134],[-42.50277820442787,27.076695159185526],[-42.629246180066104,27.138156785838195],[-42.74011306404856,27.198134628796286],[-42.78966438119892,27.227518425831093],[-42.87694782989189,27.284973953704817],[-42.91466096493991,27.313003542519205],[-42.9484107265327,27.340538848538277],[-42.978190159611586,27.36755772560403],[-43.003993346600964,27.39403763644526],[-43.02581541765804,27.419955675047177],[-43.04365256029715,27.445288589484488],[-43.05750202838482,27.47001280521052],[-43.06736215049753,27.494104448793475],[-43.07323233763026,27.51753937208927],[-43.07511309024116,27.540293176839363],[-43.07300600461372,27.562341239680435],[-43.06691377851527,27.583658737551307],[-43.05684021612802,27.60422067348158],[-43.042790232225485,27.62400190274457],[-43.02476985556456,27.64297715935598],[-43.00278623146244,27.6611210828986],[-42.976847623522815,27.67840824565132],[-42.946963414474965,27.694813179999677],[-42.913144106086776,27.71031040610365],[-42.87540131810914,27.724874459796393],[-42.83374778620856,27.738479920686594],[-42.7387649930117,27.762713771172848],[-42.62831978316811,27.782810547750802],[-42.56734234121038,27.791245257309217],[-42.43397439644622,27.80476454689916],[-42.36162573741029,27.809800765618743],[-42.20571149675692,27.816307657600674],[-42.12219396754074,27.817731855863332],[-41.94416568688257,27.81680840872912],[-41.751661120008976,27.8107096303448],[-41.65005169199145,27.805666406608257],[-41.43626914748836,27.791490542290077],[-41.20861203367559,27.77173286778313],[-41.08966223734211,27.759714579074522],[-40.841689642660526,27.731311978036157],[-40.58051933919708,27.69697948359413],[-40.44507430921391,27.67755138023293],[-40.16464652443727,27.63410131116416],[-39.871747528572484,27.58444095018522],[-39.72071391906681,27.557252709616716],[-39.40966317422621,27.498108064787587],[-39.086877320620204,27.432544798055137],[-38.92117282912233,27.397335858959057],[-38.407219721373565,27.28191755747586],[-37.86865137321104,27.151693350322088],[-37.306143380217236,27.00653432434614],[-36.918044867295464,26.901402915529047],[-36.46997400917069,26.775281666360055],[-35.99382906721627,26.65101331968752],[-35.49948355854258,26.517554383915673],[-34.97004654036863,26.370366516346518],[-34.603037301372275,26.26606756556067],[-33.899765526332004,26.077185609766975],[-33.50151726318575,25.968108261353873],[-32.52969922175697,25.697492229385922],[-30.56175341555317,25.141373352536803],[-30.929999823784144,24.842589261070916],[-30.727285441692118,24.446368336061795],[-31.032884373445327,24.5229444691948],[-30.902676514295024,24.1590457703264],[-31.362768394942144,24.281710074955004],[-31.27612714143146,23.945906938654506],[-31.399445862336258,23.980128754368874],[-31.37811177787316,23.92625188997035],[-31.491335660807827,23.96071890531472],[-31.482680645387916,23.922334773601794]]]}}]}