{"type":"FeatureCollection","features":[{"type":"Feature","properties":{"magnitude":0.2,"de":0.2,"ate":0.5,"percentagem":20.0},"geometry":{"type":"Polygon","coordinates":[[[-20.286551106639553,29.999999999999996],[-15.202075948075354,30.0],[-13.085854599583866,34.7999999999999],[-11.095342448608942,39.4199999999998],[-9.774192400408607,42.59999999999973],[-8.866403140429753,44.939999999999685],[-34.5,44.939999999999685],[-34.5,44.359703142813444],[-27.959999999999752,42.63370281246932],[-20.699999999999477,40.57419413707171],[-19.619999999999436,40.23881392730792],[-19.319999999999425,40.067409098693844],[-19.079999999999416,39.859880929346104],[-18.873673722323744,39.599999999999795],[-18.710103367902317,39.2999999999998],[-18.579715480199468,38.93999999999981],[-18.49741181945655,38.579999999999814],[-18.424768088362747,37.679999999999836],[-18.498223459772905,36.539999999999864],[-18.718778546675587,35.21999999999989],[-19.097115968645166,33.659999999999926],[-19.620093208069072,31.91999999999996],[-20.286551106639553,29.999999999999996]]]}},{"type":"Feature","properties":{"magnitude":0.5,"de":0.5,"ate":0.8,"percentagem":50.0},"geometry":{"type":"Polygon","coordinates":[[[-27.11999999999972,30.14123956155182],[-26.82380862892218,30.0],[-20.286551106639553,29.999999999999996],[-19.678978883287765,31.739999999999963],[-19.19775750157323,33.299999999999926],[-18.82394894424732,34.739999999999895],[-18.574563703629217,35.99999999999987],[-18.446179730345712,37.079999999999856],[-18.435735238733965,38.03999999999983],[-18.54772097620988,38.81999999999981],[-18.659984930388426,39.17999999999981],[-18.779999999999404,39.44238738647978],[-19.00800641208229,39.77999999999979],[-19.256569884973487,40.01999999999978],[-19.539121466730734,40.19999999999978],[-19.859999999999445,40.32828236859561],[-27.59999999999974,42.53474815916267],[-34.5,44.359703142813444],[-34.5,32.244749876435776],[-29.399999999999807,30.80274651935335],[-27.11999999999972,30.14123956155182]]]}},{"type":"Feature","properties":{"magnitude":0.8,"de":0.8,"ate":0.95,"percentagem":80.0},"geometry":{"type":"Polygon","coordinates":[[[-34.5,30.0],[-34.44,30.0],[-26.82380862892218,30.0],[-27.11999999999972,30.14123956155182],[-34.5,32.244749876435776],[-34.5,30.0]]]}}]}