{"type":"FeatureCollection","properties":{"largura_maxima_km":108.271,"largura_sobre_pt_km":108.271,"linha_central_sobre_pt":false,"desenhavel_como_area":true,"perfil_largura":[{"t":1.78333,"lat":39.1746,"lon":-39.532,"largura_km":104.161,"eixo_na_terra":true},{"t":1.78889,"lat":39.3212,"lon":-38.5369,"largura_km":105.077,"eixo_na_terra":true},{"t":1.79444,"lat":39.4715,"lon":-37.4485,"largura_km":106.069,"eixo_na_terra":true},{"t":1.8,"lat":39.6265,"lon":-36.2385,"largura_km":107.147,"eixo_na_terra":true},{"t":1.80556,"lat":39.7879,"lon":-34.8612,"largura_km":108.271,"eixo_na_terra":true},{"t":1.81111,"lat":40.0836,"lon":-31.6948,"largura_km":null,"eixo_na_terra":false},{"t":1.81667,"lat":40.1408,"lon":-30.8196,"largura_km":null,"eixo_na_terra":false},{"t":1.82222,"lat":40.2142,"lon":-29.8848,"largura_km":null,"eixo_na_terra":false},{"t":1.82778,"lat":40.2312,"lon":-29.1825,"largura_km":null,"eixo_na_terra":false},{"t":1.83333,"lat":40.2869,"lon":-28.3518,"largura_km":null,"eixo_na_terra":false},{"t":1.83889,"lat":40.3599,"lon":-26.6988,"largura_km":null,"eixo_na_terra":false}]},"features":[{"type":"Feature","properties":{},"geometry":{"type":"Polygon","coordinates":[[[-36.9542348107631,40.02183944932152],[-35.65702230378008,40.18642586838703],[-34.068193462440775,40.36874221849969],[-34.093429732219384,40.34341581794839],[-33.616992587900796,40.40596524380564],[-33.04381271662686,40.47288222132373],[-32.423954780201,40.536491053988364],[-31.982520233985042,40.57691551436033],[-31.51613125511261,40.61570175381421],[-31.23815460239269,40.637007966304566],[-30.844697999202708,40.674059765519026],[-30.256036833553623,40.724662974803934],[-29.59441344753833,40.77578323503325],[-29.227054646832585,40.801871337886254],[-28.38365981099531,40.85648235998427],[-27.629331692685724,40.89978061632718],[-26.816672378951353,40.94895474666972],[-25.46181525378023,41.01760590680903],[-25.769229198504068,40.6219223210186],[-25.567732853950133,40.63595558341751],[-25.8827174817222,40.196047964313955],[-25.711843423464757,39.960968760118405],[-26.804179559871727,39.916060092982804],[-27.78101036174475,39.87109571127361],[-28.748372301028894,39.81099782054327],[-31.0188983325961,39.65920706709905],[-32.27537144470841,39.548791585295106],[-33.06218017418518,39.484572349808445],[-33.72043558544485,39.414698247759965],[-34.22435452555101,39.36464442283997],[-34.6900959503339,39.322151870500285],[-35.14781926737817,39.285260554163386],[-35.16965662070197,39.26334520922093],[-36.48619652364357,39.11037091059306],[-37.65203607392232,38.962556402384976],[-38.70639135549533,38.81861638521591],[-39.67391285571682,38.677741081066245],[-39.20588930765297,39.70189822273602],[-38.108005359074696,39.86334847105202],[-36.9542348107631,40.02183944932152]]]}}]}