{"type":"FeatureCollection","features":[{"type":"Feature","properties":{"magnitude":0.2,"percentagem":20.0,"territorio":"acores"},"geometry":{"type":"LineString","coordinates":[[-24.809453248392423,36.0],[-24.809439581759012,36.04],[-24.80942595551088,36.08],[-24.809412369475996,36.12],[-24.809398823483303,36.16],[-24.809385317362725,36.199999999999996],[-24.809371850945126,36.239999999999995],[-24.809358424062353,36.279999999999994],[-24.809345036547185,36.31999999999999],[-24.809331688233343,36.35999999999999],[-24.80931837895548,36.39999999999999],[-24.8093051085492,36.43999999999999],[-24.809291876851,36.47999999999999],[-24.8092786836983,36.51999999999999],[-24.80926552892945,36.55999999999999],[-24.809252412383678,36.59999999999999],[-24.809239333901125,36.639999999999986],[-24.809226293322805,36.679999999999986],[-24.809213290490636,36.719999999999985],[-24.80920032524741,36.759999999999984],[-24.809187397436773,36.79999999999998],[-24.80917450690326,36.83999999999998],[-24.809161653492254,36.87999999999998],[-24.809148837049996,36.91999999999998],[-24.80913605742357,36.95999999999998],[-24.80912331446091,36.99999999999998],[-24.809110608010783,37.03999999999998],[-24.809097937922786,37.07999999999998],[-24.809085304047347,37.119999999999976],[-24.8090727062357,37.159999999999975],[-24.80906014433991,37.199999999999974],[-24.80904761821284,37.239999999999974],[-24.809035127708157,37.27999999999997],[-24.80902267268033,37.31999999999997],[-24.809010252984613,37.35999999999997],[-24.808997868477057,37.39999999999997],[-24.80898551901448,37.43999999999997],[-24.80897320445449,37.47999999999997],[-24.80896092465546,37.51999999999997],[-24.808948679476526,37.55999999999997],[-24.808936468777585,37.599999999999966],[-24.808924292419302,37.639999999999965],[-24.808912150263073,37.679999999999964],[-24.808900042171054,37.71999999999996],[-24.808887968006125,37.75999999999996],[-24.808875927631924,37.79999999999996],[-24.808863920912803,37.83999999999996],[-24.80885194771384,37.87999999999996],[-24.808840007900844,37.91999999999996],[-24.808828101340335,37.95999999999996],[-24.808816227899538,37.99999999999996],[-24.80880438744639,38.03999999999996],[-24.80879257984953,38.079999999999956],[-24.80878080497829,38.119999999999955],[-24.808769062702705,38.159999999999954],[-24.808757352893483,38.19999999999995],[-24.80874567542203,38.23999999999995],[-24.80873403016042,38.27999999999995],[-24.808722416981407,38.31999999999995],[-24.80871083575841,38.35999999999995],[-24.808699286365524,38.39999999999995],[-24.80868776867749,38.43999999999995],[-24.808676282569724,38.47999999999995],[-24.808664827918278,38.519999999999946],[-24.808653404599863,38.559999999999945],[-24.808642012491827,38.599999999999945],[-24.808630651472168,38.639999999999944],[-24.808619321419506,38.67999999999994],[-24.808608022213104,38.71999999999994],[-24.808596753732846,38.75999999999994],[-24.80858551585925,38.79999999999994],[-24.80857430847344,38.83999999999994],[-24.80856313145716,38.87999999999994],[-24.808551984692773,38.919999999999945],[-24.808540868063233,38.95999999999994],[-24.808529781452123,38.999999999999936],[-24.8085187247436,39.039999999999935],[-24.808507697822435,39.079999999999934],[-24.808496700573976,39.11999999999993],[-24.808485732884172,39.15999999999993],[-24.808474794639558,39.19999999999993],[-24.808463885727235,39.23999999999993],[-24.808453006034895,39.27999999999993],[-24.8084421554508,39.31999999999993],[-24.80843133386378,39.35999999999993],[-24.808420541163226,39.39999999999993],[-24.808409777239103,39.43999999999993],[-24.808399041981932,39.479999999999926],[-24.808388335282782,39.519999999999925],[-24.808377657033283,39.559999999999924],[-24.808367007125604,39.59999999999992],[-24.808356385452477,39.63999999999992],[-24.80834579190715,39.67999999999992],[-24.80833522638343,39.71999999999992],[-24.808324688775656,39.75999999999992],[-24.808314178978684,39.79999999999991],[-24.808303696887915,39.83999999999992],[-24.80829324239927,39.87999999999992],[-24.808282815409182,39.919999999999916],[-24.800000000000153,39.928272830266884],[-24.768272830267126,39.959999999999916],[-24.768262457015425,39.999999999999915],[-24.76825211095863,40.039999999999914],[-24.768241791995223,40.07999999999991],[-24.768231500024168,40.11999999999991],[-24.76822123494496,40.15999999999991],[-24.768210996657565,40.19999999999991],[-24.768200785062476,40.23999999999991],[-24.768190600060656,40.27999999999991],[-24.768180441553564,40.31999999999991],[-24.768170309443146,40.35999999999991],[-24.768160203631844,40.399999999999906],[-24.768150124022558,40.43999999999991],[-24.76814007051869,40.479999999999905]]}},{"type":"Feature","properties":{"magnitude":0.4,"percentagem":40.0,"territorio":"acores"},"geometry":{"type":"LineString","coordinates":[[-24.818906496784688,36.0],[-24.818879163517874,36.04],[-24.818851911021607,36.08],[-24.81882473895184,36.120000000000005],[-24.818797646966452,36.16],[-24.81877063472529,36.2],[-24.8187437018901,36.239999999999995],[-24.818716848124552,36.27999999999999],[-24.818690073094217,36.31999999999999],[-24.818663376466528,36.35999999999999],[-24.818636757910813,36.39999999999999],[-24.81861021709824,36.43999999999999],[-24.818583753701837,36.47999999999999],[-24.81855736739645,36.51999999999999],[-24.81853105785875,36.55999999999999],[-24.818504824767203,36.59999999999999],[-24.818478667802093,36.639999999999986],[-24.81845258664546,36.679999999999986],[-24.818426580981125,36.719999999999985],[-24.81840065049466,36.75999999999998],[-24.818374794873392,36.79999999999998],[-24.818349013806365,36.83999999999998],[-24.818323306984354,36.87999999999998],[-24.81829767409983,36.91999999999999],[-24.818272114846984,36.95999999999998],[-24.818246628921663,36.99999999999998],[-24.81822121602141,37.03999999999998],[-24.81819587584542,37.07999999999998],[-24.81817060809454,37.119999999999976],[-24.818145412471246,37.159999999999975],[-24.81812028867967,37.199999999999974],[-24.818095236425528,37.23999999999998],[-24.81807025541616,37.27999999999997],[-24.818045345360506,37.319999999999965],[-24.818020505969073,37.35999999999997],[-24.81799573695396,37.39999999999998],[-24.81797103802881,37.43999999999997],[-24.817946408908828,37.47999999999997],[-24.817921849310764,37.51999999999997],[-24.817897358952898,37.55999999999997],[-24.817872937555023,37.599999999999966],[-24.81784858483845,37.639999999999965],[-24.81782430052599,37.679999999999964],[-24.817800084341947,37.71999999999996],[-24.817775936012097,37.75999999999996],[-24.817751855263694,37.79999999999996],[-24.81772784182545,37.83999999999996],[-24.81770389542753,37.87999999999996],[-24.81768001580154,37.91999999999996],[-24.817656202680517,37.95999999999996],[-24.817632455798922,37.99999999999996],[-24.817608774892626,38.03999999999996],[-24.817585159698908,38.079999999999956],[-24.817561609956428,38.11999999999995],[-24.817538125405257,38.159999999999954],[-24.817514705786817,38.19999999999995],[-24.81749135084391,38.23999999999995],[-24.817468060320685,38.279999999999944],[-24.81744483396266,38.31999999999995],[-24.81742167151667,38.35999999999996],[-24.817398572730895,38.39999999999995],[-24.817375537354827,38.43999999999994],[-24.817352565139295,38.47999999999995],[-24.817329655836403,38.519999999999946],[-24.817306809199568,38.559999999999945],[-24.817284024983497,38.59999999999994],[-24.817261302944175,38.639999999999944],[-24.817238642838852,38.67999999999994],[-24.817216044426047,38.71999999999994],[-24.81719350746554,38.75999999999995],[-24.817171031718345,38.79999999999994],[-24.81714861694672,38.83999999999993],[-24.81712626291417,38.87999999999994],[-24.81710396938539,38.91999999999994],[-24.81708173612632,38.95999999999994],[-24.81705956290409,38.99999999999993],[-24.81703744948705,39.039999999999935],[-24.817015395644713,39.079999999999934],[-24.816993401147798,39.11999999999993],[-24.816971465768198,39.15999999999994],[-24.816949589278963,39.19999999999993],[-24.816927771454317,39.23999999999993],[-24.816906012069637,39.27999999999993],[-24.816884310901443,39.31999999999993],[-24.816862667727403,39.35999999999993],[-24.816841082326295,39.39999999999992],[-24.81681955447805,39.43999999999993],[-24.816798083963707,39.479999999999926],[-24.81677667056541,39.519999999999925],[-24.816755314066413,39.559999999999924],[-24.816734014251058,39.59999999999992],[-24.8167127709048,39.63999999999992],[-24.81669158381415,39.67999999999992],[-24.81667045276671,39.71999999999992],[-24.816649377551155,39.75999999999992],[-24.816628357957214,39.79999999999991],[-24.816607393775676,39.83999999999992],[-24.816586484798385,39.87999999999992],[-24.816565630818214,39.919999999999916],[-24.800000000000153,39.93654566053385],[-24.776545660534097,39.95999999999991],[-24.776524914030695,39.999999999999915],[-24.77650422191711,40.039999999999914],[-24.77648358399029,40.07999999999991],[-24.776463000048185,40.11999999999991],[-24.776442469889766,40.15999999999991],[-24.776421993314983,40.19999999999991],[-24.7764015701248,40.23999999999991],[-24.776381200121154,40.27999999999991],[-24.776360883106967,40.31999999999991],[-24.776340618886138,40.35999999999991],[-24.776320407263526,40.399999999999906],[-24.77630024804496,40.439999999999905],[-24.776280141037226,40.479999999999905]]}},{"type":"Feature","properties":{"magnitude":0.6,"percentagem":60.0,"territorio":"acores"},"geometry":{"type":"LineString","coordinates":[[-24.828359745176954,36.0],[-24.828318745276732,36.04],[-24.82827786653234,36.08],[-24.82823710842768,36.12],[-24.828196470449605,36.16],[-24.828155952087858,36.199999999999996],[-24.828115552835076,36.239999999999995],[-24.828075272186755,36.279999999999994],[-24.828035109641245,36.31999999999999],[-24.827995064699714,36.35999999999999],[-24.82795513686614,36.39999999999999],[-24.82791532564729,36.43999999999999],[-24.82787563055268,36.47999999999999],[-24.8278360510946,36.51999999999999],[-24.827796586788043,36.55999999999999],[-24.82775723715073,36.59999999999999],[-24.82771800170306,36.639999999999986],[-24.827678879968115,36.679999999999986],[-24.82763987147161,36.719999999999985],[-24.82760097574192,36.759999999999984],[-24.827562192310012,36.79999999999998],[-24.82752352070947,36.83999999999998],[-24.82748496047645,36.87999999999998],[-24.827446511149674,36.91999999999998],[-24.8274081722704,36.95999999999998],[-24.82736994338242,36.99999999999998],[-24.82733182403204,37.03999999999998],[-24.82729381376805,37.07999999999998],[-24.82725591214173,37.119999999999976],[-24.827218118706796,37.159999999999975],[-24.82718043301942,37.199999999999974],[-24.827142854638215,37.239999999999974],[-24.827105383124167,37.27999999999997],[-24.827068018040684,37.31999999999997],[-24.827030758953537,37.35999999999997],[-24.826993605430857,37.39999999999997],[-24.826956557043133,37.43999999999997],[-24.826919613363167,37.47999999999997],[-24.82688277396607,37.51999999999997],[-24.826846038429267,37.55999999999997],[-24.82680940633246,37.599999999999966],[-24.826772877257596,37.639999999999965],[-24.82673645078891,37.679999999999964],[-24.826700126512844,37.71999999999996],[-24.82666390401807,37.75999999999996],[-24.82662778289546,37.79999999999996],[-24.826591762738097,37.83999999999996],[-24.82655584314122,37.87999999999996],[-24.826520023702237,37.91999999999996],[-24.826484304020703,37.95999999999996],[-24.82644868369831,37.99999999999996],[-24.826413162338863,38.03999999999996],[-24.82637773954828,38.079999999999956],[-24.82634241493457,38.119999999999955],[-24.826307188107812,38.159999999999954],[-24.826272058680146,38.19999999999995],[-24.826237026265787,38.23999999999995],[-24.826202090480955,38.27999999999995],[-24.82616725094391,38.31999999999995],[-24.826132507274927,38.35999999999995],[-24.82609785909626,38.39999999999995],[-24.826063306032168,38.43999999999995],[-24.826028847708862,38.47999999999995],[-24.825994483754528,38.519999999999946],[-24.825960213799277,38.559999999999945],[-24.82592603747517,38.599999999999945],[-24.825891954416186,38.639999999999944],[-24.825857964258198,38.67999999999994],[-24.825824066638997,38.71999999999994],[-24.82579026119823,38.75999999999994],[-24.82575654757744,38.79999999999994],[-24.825722925420006,38.83999999999994],[-24.82568939437117,38.87999999999994],[-24.825655954078005,38.91999999999994],[-24.825622604189398,38.95999999999994],[-24.82558934435606,38.999999999999936],[-24.825556174230496,39.039999999999935],[-24.82552309346699,39.079999999999934],[-24.82549010172162,39.11999999999993],[-24.825457198652217,39.15999999999993],[-24.825424383918367,39.19999999999993],[-24.8253916571814,39.23999999999993],[-24.825359018104383,39.27999999999993],[-24.82532646635209,39.31999999999993],[-24.825294001591026,39.35999999999993],[-24.825261623489368,39.39999999999993],[-24.825229331717004,39.43999999999993],[-24.825197125945486,39.479999999999926],[-24.825165005848035,39.519999999999925],[-24.82513297109954,39.559999999999924],[-24.82510102137651,39.59999999999992],[-24.82506915635712,39.63999999999992],[-24.82503737572115,39.67999999999992],[-24.82500567914999,39.71999999999992],[-24.824974066326657,39.75999999999992],[-24.824942536935747,39.79999999999992],[-24.82491109066344,39.83999999999992],[-24.8248797271975,39.87999999999992],[-24.824848446227243,39.919999999999916],[-24.800000000000153,39.94481849080083],[-24.78481849080107,39.959999999999916],[-24.784787371045965,39.999999999999915],[-24.784756332875588,40.039999999999914],[-24.784725375985353,40.07999999999991],[-24.7846945000722,40.11999999999991],[-24.784663704834568,40.15999999999991],[-24.784632989972398,40.19999999999991],[-24.784602355187122,40.23999999999991],[-24.784571800181656,40.27999999999991],[-24.784541324660374,40.31999999999991],[-24.78451092832913,40.35999999999991],[-24.784480610895212,40.399999999999906],[-24.78445037206737,40.439999999999905],[-24.784420211555766,40.479999999999905]]}},{"type":"Feature","properties":{"magnitude":0.8,"percentagem":80.0,"territorio":"acores"},"geometry":{"type":"LineString","coordinates":[[-24.837812993569223,36.0],[-24.837758327035594,36.04],[-24.837703822043064,36.08],[-24.837649477903522,36.12],[-24.837595293932754,36.16],[-24.837541269450426,36.199999999999996],[-24.837487403780045,36.239999999999995],[-24.837433696248954,36.279999999999994],[-24.837380146188277,36.31999999999999],[-24.837326752932903,36.35999999999999],[-24.837273515821472,36.39999999999999],[-24.83722043419633,36.43999999999999],[-24.83716750740352,36.47999999999999],[-24.837114734792745,36.51999999999999],[-24.837062115717337,36.55999999999999],[-24.837009649534256,36.59999999999999],[-24.83695733560403,36.639999999999986],[-24.836905173290766,36.679999999999986],[-24.836853161962097,36.719999999999985],[-24.836801300989173,36.759999999999984],[-24.83674958974663,36.79999999999998],[-24.836698027612577,36.83999999999998],[-24.836646613968554,36.87999999999998],[-24.836595348199513,36.91999999999998],[-24.836544229693814,36.95999999999998],[-24.836493257843177,36.99999999999998],[-24.83644243204267,37.03999999999998],[-24.836391751690684,37.07999999999998],[-24.83634121618892,37.119999999999976],[-24.836290824942342,37.159999999999975],[-24.83624057735918,37.199999999999974],[-24.8361904728509,37.239999999999974],[-24.836140510832173,37.27999999999997],[-24.836090690720862,37.31999999999997],[-24.836041011937997,37.35999999999997],[-24.83599147390776,37.39999999999997],[-24.83594207605746,37.43999999999997],[-24.835892817817502,37.47999999999997],[-24.835843698621378,37.51999999999997],[-24.83579471790564,37.55999999999997],[-24.83574587510989,37.599999999999966],[-24.835697169676745,37.639999999999965],[-24.83564860105183,37.679999999999964],[-24.83560016868374,37.719999999999956],[-24.835551872024038,37.75999999999996],[-24.835503710527234,37.79999999999996],[-24.835455683650746,37.83999999999996],[-24.83540779085491,37.87999999999996],[-24.835360031602928,37.91999999999996],[-24.83531240536088,37.95999999999995],[-24.835264911597694,37.99999999999996],[-24.8352175497851,38.03999999999996],[-24.83517031939766,38.079999999999956],[-24.835123219912706,38.119999999999955],[-24.835076250810364,38.159999999999954],[-24.835029411573483,38.19999999999995],[-24.834982701687665,38.23999999999995],[-24.834936120641224,38.27999999999995],[-24.834889667925168,38.31999999999995],[-24.834843343033185,38.35999999999995],[-24.834797145461636,38.39999999999995],[-24.83475107470951,38.43999999999995],[-24.834705130278437,38.47999999999995],[-24.834659311672652,38.519999999999946],[-24.834613618398983,38.559999999999945],[-24.834568049966844,38.599999999999945],[-24.834522605888196,38.639999999999944],[-24.83447728567755,38.67999999999994],[-24.834432088851944,38.71999999999994],[-24.834387014930925,38.75999999999994],[-24.834342063436534,38.79999999999994],[-24.83429723389329,38.83999999999994],[-24.83425252582818,38.87999999999994],[-24.834207938770625,38.91999999999994],[-24.83416347225248,38.95999999999994],[-24.834119125808034,38.999999999999936],[-24.83407489897394,39.039999999999935],[-24.83403079128927,39.079999999999934],[-24.833986802295446,39.11999999999993],[-24.833942931536235,39.15999999999993],[-24.83389917855777,39.19999999999993],[-24.833855542908484,39.23999999999993],[-24.833812024139124,39.27999999999993],[-24.83376862180274,39.31999999999993],[-24.83372533545465,39.35999999999993],[-24.83368216465244,39.39999999999993],[-24.833639108955953,39.43999999999993],[-24.83359616792726,39.479999999999926],[-24.833553341130663,39.519999999999925],[-24.833510628132668,39.559999999999924],[-24.833468028501965,39.59999999999992],[-24.833425541809444,39.63999999999992],[-24.833383167628146,39.67999999999992],[-24.83334090553327,39.71999999999992],[-24.83329875510216,39.75999999999992],[-24.83325671591428,39.79999999999992],[-24.833214787551206,39.83999999999992],[-24.833172969596617,39.87999999999992],[-24.833131261636275,39.919999999999916],[-24.800000000000153,39.9530913210678],[-24.79309132106804,39.959999999999916],[-24.79304982806124,39.999999999999915],[-24.79300844383407,40.039999999999914],[-24.792967167980425,40.07999999999991],[-24.792926000096216,40.11999999999992],[-24.792884939779373,40.15999999999991],[-24.792843986629812,40.19999999999991],[-24.792803140249447,40.23999999999991],[-24.792762400242154,40.27999999999991],[-24.792721766213784,40.31999999999991],[-24.792681237772122,40.3599999999999],[-24.792640814526898,40.399999999999906],[-24.79260049608977,40.439999999999905],[-24.7925602820743,40.479999999999905]]}},{"type":"Feature","properties":{"magnitude":0.9,"percentagem":90.0,"territorio":"acores"},"geometry":{"type":"LineString","coordinates":[[-32.0,37.28535807965221],[-31.96,37.28909409206346],[-31.92,37.29281710963538],[-31.880000000000003,37.29652714348008],[-31.840000000000003,37.30022420468857],[-31.800000000000004,37.303908304330854],[-31.760000000000005,37.30757945345603],[-31.720000000000006,37.311237663092214],[-31.680000000000007,37.3148829442467],[-31.640000000000008,37.31851530790597],[-31.623592352258534,37.31999999999997],[-31.600000000000005,37.32213492931922],[-31.56000000000001,37.32574176861388],[-31.520000000000014,37.32933572251023],[-31.48000000000001,37.332916801912155],[-31.440000000000012,37.33648501770293],[-31.400000000000013,37.34004038074531],[-31.360000000000014,37.34358290188156],[-31.320000000000014,37.34711259193348],[-31.280000000000015,37.350629461702525],[-31.240000000000016,37.35413352196976],[-31.200000000000017,37.35762478349593],[-31.172686883946533,37.35999999999997],[-31.160000000000018,37.361103342937874],[-31.12000000000002,37.36456930923795],[-31.08000000000002,37.36802250821069],[-31.04000000000002,37.371462950536284],[-31.00000000000002,37.37489064687484],[-30.960000000000022,37.37830560786642],[-30.920000000000023,37.381707844131135],[-30.880000000000024,37.38509736626914],[-30.840000000000025,37.388474184860684],[-30.800000000000026,37.39183831046618],[-30.760000000000026,37.39518975362625],[-30.720000000000027,37.39852852486174],[-30.702304157444118,37.39999999999997],[-30.68000000000003,37.40185478088113],[-30.64000000000003,37.40516850115019],[-30.60000000000003,37.408469580182654],[-30.560000000000027,37.411758028420905],[-30.52000000000003,37.41503385628783],[-30.480000000000032,37.41829707418677],[-30.440000000000033,37.42154769250166],[-30.400000000000034,37.42478572159704],[-30.360000000000035,37.42801117181803],[-30.320000000000036,37.431224053490496],[-30.280000000000037,37.434424376921],[-30.240000000000038,37.43761215239693],[-30.209919271912288,37.43999999999997],[-30.20000000000004,37.44078745301734],[-30.16000000000004,37.44395041588804],[-30.120000000000044,37.447100860785234],[-30.080000000000037,37.45023879791987],[-30.040000000000042,37.45336423748391],[-30.000000000000043,37.45647718965032],[-29.960000000000043,37.459577664573175],[-29.920000000000044,37.46266567238763],[-29.880000000000045,37.46574122321004],[-29.840000000000046,37.46880432713791],[-29.800000000000047,37.47185499425005],[-29.760000000000048,37.474893234606526],[-29.72000000000005,37.477919058248716],[-29.692377782139793,37.47999999999997],[-29.68000000000005,37.480932550545035],[-29.64000000000005,37.483933813443834],[-29.60000000000005,37.486922688865135],[-29.560000000000052,37.48989918677613],[-29.520000000000053,37.49286331712556],[-29.480000000000054,37.49581508984375],[-29.440000000000055,37.498754514842624],[-29.400000000000055,37.50168160201578],[-29.360000000000056,37.50459636123855],[-29.320000000000057,37.507498802367955],[-29.280000000000058,37.51038893524286],[-29.24000000000006,37.51326676968394],[-29.20000000000006,37.516132315493735],[-29.16000000000006,37.518985582456715],[-29.145717568365566,37.51999999999997],[-29.12000000000006,37.52182672984817],[-29.080000000000062,37.52465570011461],[-29.04000000000006,37.52747241999344],[-29.000000000000064,37.53027689919719],[-28.960000000000065,37.53306914742048],[-28.920000000000062,37.535849174340115],[-28.880000000000067,37.538616989615086],[-28.840000000000067,37.5413726028866],[-28.800000000000068,37.544116023778145],[-28.76000000000007,37.546847261895564],[-28.72000000000007,37.54956632682701],[-28.68000000000007,37.55227322814308],[-28.64000000000007,37.554967975396735],[-28.600000000000072,37.5576505781235],[-28.564808877414883,37.55999999999997],[-28.56000000000007,37.56032107245931],[-28.520000000000074,37.56297963518914],[-28.480000000000075,37.565626081096916],[-28.440000000000076,37.568260419648375],[-28.400000000000077,37.57088266029191],[-28.360000000000078,37.57349281245864],[-28.320000000000075,37.57609088556243],[-28.28000000000008,37.57867688899994],[-28.24000000000008,37.581250832150616],[-28.20000000000008,37.58381272437683],[-28.160000000000082,37.58636257502381],[-28.120000000000083,37.58890039341979],[-28.080000000000084,37.59142618887592],[-28.040000000000084,37.593939970686385],[-28.000000000000085,37.59644174812847],[-27.960000000000086,37.59893153046253],[-27.94275136754532,37.599999999999966],[-27.920000000000083,37.601409445396335],[-27.880000000000088,37.60387547265389],[-27.84000000000009,37.60632953167503],[-27.80000000000009,37.60877163165274],[-27.76000000000009,37.61120178176337],[-27.72000000000009,37.61361999116651],[-27.680000000000092,37.61602626900516],[-27.640000000000093,37.618420624405715],[-27.600000000000094,37.62080306647798],[-27.560000000000095,37.62317360431525],[-27.520000000000095,37.625532246994354],[-27.480000000000096,37.62787900357561],[-27.440000000000097,37.63021388310297],[-27.400000000000098,37.632536894604],[-27.3600000000001,37.63484804708993],[-27.3200000000001,37.63714734955566],[-27.2800000000001,37.63943481097985],[-27.270065391067508,37.639999999999965],[-27.2400000000001,37.64171058615449],[-27.200000000000102,37.643974585539254],[-27.160000000000103,37.64622676990017],[-27.120000000000104,37.64846714815096],[-27.08000000000011,37.65069572918934],[-27.040000000000106,37.65291252189694],[-27.000000000000103,37.655117535139354],[-26.960000000000107,37.65731077776625],[-26.92000000000011,37.65949225861131],[-26.88000000000011,37.661661986492305],[-26.84000000000011,37.663819970211186],[-26.80000000000011,37.665966218554026],[-26.76000000000011,37.668100740291095],[-26.720000000000113,37.67022354417693],[-26.680000000000113,37.67233463895031],[-26.640000000000114,37.67443403333435],[-26.600000000000115,37.676521736036506],[-26.560000000000116,37.67859775574858],[-26.532829280027105,37.679999999999964],[-26.520000000000117,37.680662158430074],[-26.480000000000118,37.68271501588283],[-26.440000000000115,37.68475621549266],[-26.40000000000012,37.68678576588899],[-26.36000000000012,37.68880367568579],[-26.320000000000125,37.69080995348164],[-26.280000000000122,37.69280460785973],[-26.240000000000123,37.6947876473879],[-26.200000000000124,37.69675908061866],[-26.160000000000124,37.69871891608928],[-26.120000000000125,37.700667162321764],[-26.080000000000126,37.70260382782292],[-26.040000000000127,37.70452892108436],[-26.000000000000128,37.706442450582585],[-25.96000000000013,37.708344424778964],[-25.92000000000013,37.71023485211984],[-25.88000000000013,37.71211374103646],[-25.84000000000013,37.7139810999451],[-25.800000000000132,37.715836937247055],[-25.760000000000133,37.7176812613287],[-25.720000000000134,37.7195140805615],[-25.709328187716213,37.71999999999996],[-25.680000000000135,37.721335520718405],[-25.640000000000136,37.7231455145776],[-25.600000000000136,37.72494402776215],[-25.560000000000137,37.72673106858386],[-25.520000000000138,37.728506645339856],[-25.48000000000014,37.7302707663125],[-25.44000000000014,37.73202343976955],[-25.40000000000014,37.73376467396402],[-25.36000000000014,37.735494477134395],[-25.320000000000142,37.737212857504595],[-25.280000000000143,37.73891982328393],[-25.240000000000144,37.740615382667244],[-25.200000000000145,37.74229954383492],[-25.160000000000146,37.743972314952835],[-25.120000000000147,37.74563370417251],[-25.080000000000148,37.74728371963107],[-25.04000000000015,37.74892236945127],[-25.00000000000015,37.7505496617416],[-24.96000000000015,37.75216560459623],[-24.92000000000015,37.753770206095034],[-24.88000000000015,37.75536347430377],[-24.840000000000153,37.75694541727393],[-24.839995856027024,37.75999999999996],[-24.839941674343116,37.79999999999996],[-24.83988764410707,37.83999999999996],[-24.839833764711752,37.87999999999996],[-24.839780035553275,37.91999999999996],[-24.839726456030974,37.95999999999996],[-24.839673025547384,37.99999999999996],[-24.83961974350822,38.03999999999996],[-24.839566609322343,38.079999999999956],[-24.839513622401775,38.119999999999955],[-24.839460782161638,38.159999999999954],[-24.839408088020146,38.19999999999995],[-24.839355539398603,38.23999999999995],[-24.839303135721355,38.27999999999995],[-24.839250876415793,38.31999999999995],[-24.839198760912314,38.35999999999995],[-24.83914678864432,38.39999999999995],[-24.839094959048175,38.43999999999995],[-24.839043271563217,38.47999999999995],[-24.838991725631715,38.519999999999946],[-24.83894032069884,38.559999999999945],[-24.83888905621268,38.599999999999945],[-24.8388379316242,38.639999999999944],[-24.838786946387224,38.67999999999994],[-24.838736099958417,38.71999999999994],[-24.838685391797274,38.75999999999994],[-24.83863482136608,38.79999999999994],[-24.838584388129934,38.83999999999994],[-24.83853409155668,38.87999999999994],[-24.838483931116933,38.91999999999994],[-24.838433906284024,38.95999999999994],[-24.838384016534018,38.999999999999936],[-24.838334261345665,39.039999999999935],[-24.838284640200413,39.079999999999934],[-24.838235152582357,39.11999999999993],[-24.838185797978248,39.15999999999993],[-24.838136575877474,39.19999999999993],[-24.838087485772025,39.23999999999993],[-24.838038527156495,39.27999999999993],[-24.837989699528062,39.31999999999993],[-24.83794100238646,39.35999999999993],[-24.837892435233975,39.39999999999993],[-24.83784399757543,39.43999999999993],[-24.83779568891815,39.479999999999926],[-24.83774750877198,39.519999999999925],[-24.837699456649233,39.559999999999924],[-24.837651532064694,39.59999999999992],[-24.837603734535605,39.639999999999915],[-24.837556063581644,39.67999999999992],[-24.83750851872491,39.719999999999914],[-24.83746109948991,39.75999999999992],[-24.837413805403543,39.79999999999992],[-24.837366635995085,39.83999999999992],[-24.837319590796174,39.87999999999992],[-24.83727266934079,39.919999999999916],[-24.800000000000153,39.95722773620129],[-24.797227736201524,39.959999999999916],[-24.79718105656887,39.999999999999915],[-24.79713449931331,40.03999999999992],[-24.797088063977956,40.07999999999991],[-24.797041750108225,40.11999999999991],[-24.796995557251773,40.15999999999991],[-24.79694948495852,40.19999999999991],[-24.79690353278061,40.23999999999991],[-24.796857700272405,40.27999999999991],[-24.796811986990484,40.31999999999991],[-24.796766392493616,40.35999999999991],[-24.796720916342743,40.399999999999906],[-24.796675558100972,40.439999999999905],[-24.79663031733357,40.479999999999905]]}},{"type":"Feature","properties":{"magnitude":0.95,"percentagem":95.0,"territorio":"acores"},"geometry":{"type":"LineString","coordinates":[[-32.0,38.92745847433571],[-31.96,38.93116322296811],[-31.92,38.93485529458912],[-31.880000000000003,38.93853469978468],[-31.840000000000003,38.94220144912045],[-31.800000000000004,38.94585555314182],[-31.760000000000005,38.94949702237402],[-31.720000000000006,38.95312586732208],[-31.680000000000007,38.956742098471],[-31.643837622145895,38.959999999999944],[-31.640000000000008,38.960345760448966],[-31.60000000000001,38.96393715032731],[-31.56000000000001,38.96751595668182],[-31.52000000000001,38.97108218991838],[-31.480000000000015,38.97463586042291],[-31.440000000000012,38.97817697856157],[-31.400000000000013,38.98170555468069],[-31.360000000000014,38.98522159910682],[-31.320000000000014,38.98872512214689],[-31.280000000000015,38.9922161340881],[-31.240000000000016,38.99569464519804],[-31.200000000000017,38.9991606657248],[-31.190278727421852,38.999999999999936],[-31.160000000000018,39.0026144664376],[-31.12000000000002,39.0060558795722],[-31.08000000000002,39.00948483169013],[-31.04000000000002,39.012901332962386],[-31.00000000000002,39.016305393540684],[-30.960000000000022,39.01969702355737],[-30.920000000000023,39.023076233125536],[-30.880000000000024,39.02644303233907],[-30.840000000000025,39.029797431272684],[-30.800000000000026,39.03313943998194],[-30.760000000000026,39.036469068503315],[-30.720000000000027,39.039786326854276],[-30.717413908782977,39.039999999999935],[-30.680000000000028,39.043091535752104],[-30.64000000000003,39.04638441486615],[-30.60000000000003,39.0496649526858],[-30.56000000000003,39.052933159153554],[-30.52000000000003,39.05618904419299],[-30.480000000000032,39.05943261770895],[-30.440000000000033,39.062663889587526],[-30.400000000000034,39.06588286969604],[-30.360000000000035,39.0690895678832],[-30.320000000000036,39.07228399397913],[-30.280000000000037,39.07546615779526],[-30.240000000000038,39.0786360691246],[-30.22272247420372,39.079999999999934],[-30.200000000000042,39.08179391958241],[-30.16000000000004,39.084939674249775],[-30.12000000000004,39.088073204633716],[-30.08000000000004,39.091194520454216],[-30.040000000000042,39.09430363141288],[-30.000000000000043,39.09740054719302],[-29.960000000000043,39.10048527745969],[-29.920000000000044,39.10355783185979],[-29.880000000000045,39.106618220021964],[-29.840000000000046,39.10966645155682],[-29.800000000000047,39.11270253605682],[-29.760000000000048,39.11572648309643],[-29.72000000000005,39.118738302232046],[-29.703175827112815,39.11999999999993],[-29.68000000000005,39.12173818074601],[-29.64000000000005,39.124726078344224],[-29.60000000000005,39.12770187553334],[-29.560000000000052,39.1306655817989],[-29.520000000000053,39.13361720660856],[-29.480000000000054,39.13655675941226],[-29.440000000000055,39.13948424964218],[-29.400000000000055,39.14239968671285],[-29.360000000000056,39.14530308002113],[-29.320000000000057,39.14819443894629],[-29.280000000000058,39.15107377285003],[-29.24000000000006,39.153941091076554],[-29.20000000000006,39.15679640295254],[-29.16000000000006,39.15963971778724],[-29.154910111092363,39.15999999999993],[-29.12000000000006,39.16247129988464],[-29.080000000000062,39.165290939608084],[-29.040000000000063,39.16809860904474],[-29.000000000000064,39.17089431743507],[-28.960000000000065,39.17367807400228],[-28.920000000000066,39.17644988795239],[-28.880000000000067,39.179209768474195],[-28.840000000000067,39.181957724739405],[-28.800000000000068,39.18469376590258],[-28.76000000000007,39.187417901101284],[-28.72000000000007,39.190130139456016],[-28.68000000000007,39.19283049007032],[-28.64000000000007,39.195518962030775],[-28.600000000000072,39.19819556440707],[-28.57291399417492,39.19999999999993],[-28.560000000000073,39.20086039584558],[-28.52000000000007,39.20351356257792],[-28.480000000000075,39.206154885762096],[-28.440000000000076,39.20878437440111],[-28.400000000000077,39.21140203748123],[-28.360000000000078,39.21400788397199],[-28.32000000000008,39.21660192282637],[-28.28000000000008,39.21918416298067],[-28.24000000000008,39.22175461335467],[-28.20000000000008,39.2243132828516],[-28.160000000000082,39.226860180358194],[-28.120000000000083,39.22939531474475],[-28.080000000000084,39.23191869486512],[-28.040000000000084,39.2344303295568],[-28.000000000000085,39.23693022764094],[-27.960000000000086,39.23941839792237],[-27.950605921807384,39.23999999999993],[-27.920000000000087,39.24189504844471],[-27.88000000000009,39.244360048790526],[-27.84000000000009,39.24681334657567],[-27.80000000000009,39.249254950540546],[-27.76000000000009,39.251684869409466],[-27.72000000000009,39.254103111890615],[-27.680000000000092,39.256509686676125],[-27.640000000000093,39.258904602442115],[-27.600000000000094,39.261287867848736],[-27.560000000000095,39.26365949154015],[-27.520000000000095,39.26601948214467],[-27.480000000000096,39.268367848274686],[-27.440000000000097,39.270704598526734],[-27.400000000000098,39.2730297414816],[-27.3600000000001,39.27534328570429],[-27.3200000000001,39.277645239744025],[-27.2800000000001,39.2799356121344],[-27.278869796171847,39.27999999999993],[-27.2400000000001,39.28221464660547],[-27.2000000000001,39.284482122205276],[-27.160000000000103,39.28673804058377],[-27.120000000000104,39.28898241021242],[-27.080000000000105,39.29121523954718],[-27.040000000000106,39.29343653702851],[-27.000000000000107,39.29564631108142],[-26.960000000000107,39.29784457011549],[-26.92000000000011,39.300031322524895],[-26.88000000000011,39.30220657668851],[-26.84000000000011,39.30437034096984],[-26.80000000000011,39.30652262371714],[-26.76000000000011,39.308663433263405],[-26.720000000000113,39.310792777926416],[-26.680000000000113,39.31291066600877],[-26.640000000000114,39.31501710579792],[-26.600000000000115,39.317112105566224],[-26.560000000000116,39.319195673570945],[-26.544473540702665,39.31999999999993],[-26.520000000000117,39.32126795413394],[-26.480000000000118,39.32332890462272],[-26.44000000000012,39.32537844694585],[-26.40000000000012,39.32741658930088],[-26.36000000000012,39.32944333987045],[-26.32000000000012,39.33145870682233],[-26.280000000000122,39.33346269830939],[-26.240000000000123,39.33545532246974],[-26.200000000000124,39.33743658742671],[-26.160000000000124,39.339406501288835],[-26.120000000000125,39.34136507215],[-26.080000000000126,39.34331230808934],[-26.040000000000127,39.34524821717141],[-26.000000000000128,39.3471728074461],[-25.96000000000013,39.34908608694873],[-25.92000000000013,39.350988063700086],[-25.88000000000013,39.352878745706434],[-25.84000000000013,39.35475814095953],[-25.800000000000132,39.35662625743674],[-25.760000000000133,39.3584831031009],[-25.72712370762817,39.35999999999993],[-25.720000000000134,39.36032872157655],[-25.680000000000135,39.362163248623496],[-25.64000000000014,39.36398652756998],[-25.600000000000136,39.36579856632166],[-25.560000000000137,39.36759937277],[-25.520000000000138,39.369388954792164],[-25.48000000000014,39.371167320251175],[-25.44000000000014,39.37293447699582],[-25.400000000000137,39.37469043286084],[-25.36000000000014,39.37643519566678],[-25.320000000000142,39.37816877322017],[-25.280000000000143,39.37989117331347],[-25.240000000000144,39.38160240372515],[-25.200000000000145,39.38330247221968],[-25.160000000000146,39.38499138654761],[-25.120000000000147,39.38666915444555],[-25.080000000000148,39.38833578363623],[-25.04000000000015,39.389991281828515],[-25.00000000000015,39.39163565671748],[-24.96000000000015,39.393268915984386],[-24.92000000000015,39.39489106729674],[-24.88000000000015,39.3965021183083],[-24.840000000000153,39.39810207665912],[-24.839997570524744,39.39999999999993],[-24.839946441885168,39.43999999999993],[-24.839895449413593,39.479999999999926],[-24.839844592592637,39.519999999999925],[-24.839793870907513,39.559999999999924],[-24.839743283846055,39.59999999999992],[-24.839692830898688,39.63999999999992],[-24.839642511558395,39.67999999999992],[-24.839592325320734,39.71999999999992],[-24.839542271683786,39.75999999999992],[-24.839492350148177,39.79999999999992],[-24.839442560217027,39.83999999999992],[-24.83939290139595,39.87999999999992],[-24.83934337319305,39.919999999999916],[-24.800000000000153,39.959295943768026],[-24.799295943768268,39.959999999999916],[-24.79924667082269,39.999999999999915],[-24.799197527052925,40.039999999999914],[-24.799148511976725,40.07999999999991],[-24.799099625114227,40.11999999999991],[-24.799050865987976,40.15999999999991],[-24.799002234122874,40.19999999999991],[-24.798953729046186,40.23999999999991],[-24.79890535028753,40.27999999999991],[-24.79885709737884,40.31999999999991],[-24.798808969854367,40.35999999999991],[-24.79876096725066,40.399999999999906],[-24.79871308910657,40.439999999999905],[-24.798665334963204,40.479999999999905]]}}]}