{"type":"FeatureCollection","features":[{"type":"Feature","properties":{"magnitude":0.2,"percentagem":20.0,"territorio":"continente"},"geometry":{"type":"LineString","coordinates":[[-6.59166050707025,36.0],[-6.580000000000084,36.008895689977926],[-6.540000000000084,36.03941662113429],[-6.539235623296168,36.04],[-6.500000000000085,36.06995813365856],[-6.486850537809123,36.08],[-6.460000000000086,36.10051396593934],[-6.434499103230216,36.12],[-6.420000000000087,36.13108405278606],[-6.382181046812072,36.16],[-6.380000000000088,36.161668328570684],[-6.340000000000089,36.19227208427837],[-6.329901142855127,36.199999999999996],[-6.3000000000000895,36.22289103157075],[-6.277655127183159,36.239999999999995],[-6.26000000000009,36.25352394673507],[-6.225441635896186,36.279999999999994],[-6.220000000000091,36.28417076235886],[-6.180000000000092,36.31483497699142],[-6.173263744096074,36.31999999999999],[-6.140000000000093,36.34551581504813],[-6.121120503568583,36.35999999999999],[-6.100000000000094,36.37621032723134],[-6.069008934189284,36.39999999999999],[-6.060000000000095,36.40691844434677],[-6.0200000000000955,36.437641718620476],[-6.016930280214844,36.43999999999999],[-5.980000000000096,36.4683831960182],[-5.964887174554303,36.47999999999999],[-5.940000000000097,36.499138046766404],[-5.912874887243552,36.51999999999999],[-5.900000000000098,36.52990619989314],[-5.860893145388777,36.55999999999999],[-5.860000000000099,36.560687583989484],[-5.8200000000001,36.59148795162587],[-5.808947098793012,36.59999999999999],[-5.780000000000101,36.62230185545198],[-5.757031456768802,36.639999999999986],[-5.7400000000001015,36.65312875210397],[-5.705145507643914,36.679999999999986],[-5.700000000000102,36.68396856840191],[-5.660000000000103,36.71482475710323],[-5.653292250369557,36.719999999999985],[-5.620000000000104,36.7456964016287],[-5.601470619576961,36.759999999999984],[-5.580000000000105,36.77658072246157],[-5.549677829329158,36.79999999999998],[-5.540000000000106,36.807477644657936]]}},{"type":"Feature","properties":{"magnitude":0.4,"percentagem":40.0,"territorio":"acores"},"geometry":{"type":"LineString","coordinates":[[-25.21468874556097,36.0],[-25.200000000000145,36.009241022104696],[-25.160000000000146,36.03441916983029],[-25.15113867316843,36.04],[-25.120000000000147,36.05962853970276],[-25.087698762804937,36.08],[-25.080000000000148,36.084859723952064],[-25.04000000000015,36.110122850377095],[-25.02436925791401,36.12],[-25.00000000000015,36.135412797063054],[-24.96114413067437,36.16],[-24.960000000000147,36.16072462791266],[-24.92000000000015,36.18607261477124],[-24.898032928095017,36.2],[-24.880000000000148,36.2114432676461],[-24.840000000000153,36.23683910493821],[-24.83502411559207,36.239999999999995],[-24.800000000000153,36.26226859460901],[-24.772125504681505,36.279999999999994],[-24.76000000000015,36.28772007659356],[-24.720000000000155,36.31320053079299],[-24.709331566846217,36.31999999999999],[-24.680000000000156,36.33871090147254],[-24.64664283777039,36.35999999999999],[-24.640000000000157,36.364243328898645],[-24.600000000000158,36.38980826323369],[-24.584061553823133,36.39999999999999],[-24.56000000000016,36.415399626578576],[-24.521580806278255,36.43999999999999],[-24.52000000000016,36.44101310905442],[-24.48000000000016,36.466662379568],[-24.459209972313005,36.47999999999999],[-24.440000000000158,36.49233484042605],[-24.400000000000162,36.518031493969765],[-24.396937428550903,36.51999999999999],[-24.360000000000163,36.54376293616826],[-24.33477274644555,36.55999999999999],[-24.320000000000164,36.56951659244321],[-24.280000000000165,36.59529729622603],[-24.272707320654007,36.59999999999999],[-24.240000000000165,36.62110996811819],[-24.21074582839059,36.639999999999986],[-24.200000000000166,36.64694491063326],[-24.160000000000167,36.67280950143315],[-24.14888535944069,36.679999999999986],[-24.120000000000168,36.69870348885856],[-24.08712519806171,36.719999999999985],[-24.08000000000017,36.72461980121999],[-24.04000000000017,36.75056810833709]]}},{"type":"Feature","properties":{"magnitude":0.2,"percentagem":20.0,"territorio":"madeira"},"geometry":{"type":"LineString","coordinates":[[-15.81877177823629,29.5],[-15.800000000000047,29.511987965526217],[-15.760000000000048,29.537545495689457],[-15.756160530783585,29.54],[-15.720000000000049,29.563132583589557],[-15.693646081061779,29.58],[-15.680000000000051,29.58873992703539],[-15.64000000000005,29.614371915749842],[-15.631221686680218,29.619999999999997],[-15.600000000000051,29.64003096389189],[-15.568890062750857,29.659999999999997],[-15.56000000000005,29.665710294771333],[-15.520000000000053,29.69141659334319],[-15.506650677221796,29.699999999999996],[-15.480000000000054,29.717147622135208],[-15.444500290165566,29.739999999999995],[-15.440000000000055,29.742898958940057],[-15.400000000000055,29.768679412665946],[-15.382444080968895,29.779999999999994],[-15.360000000000056,29.7944824363994],[-15.320473349593572,29.819999999999993],[-15.320000000000057,29.820305791466623],[-15.280000000000058,29.846160239570686],[-15.25859849579658,29.859999999999992],[-15.240000000000059,29.872035266318292],[-15.20000000000006,29.897932251011692],[-15.196807868751273,29.89999999999999],[-15.16000000000006,29.923858921298766],[-15.135110538703085,29.93999999999999],[-15.120000000000061,29.9498059528122],[-15.080000000000062,29.97577663366924],[-15.073498513727579,29.97999999999999],[-15.040000000000063,30.001775286212833]]}}]}