{"type":"FeatureCollection","properties":{"largura_maxima_km":100.259,"largura_sobre_pt_km":100.259,"linha_central_sobre_pt":false,"desenhavel_como_area":true,"perfil_largura":[{"t":2.06667,"lat":32.38,"lon":-39.4919,"largura_km":93.346,"eixo_na_terra":true},{"t":2.07222,"lat":32.6496,"lon":-38.8614,"largura_km":94.026,"eixo_na_terra":true},{"t":2.07778,"lat":32.9295,"lon":-38.1939,"largura_km":94.741,"eixo_na_terra":true},{"t":2.08333,"lat":33.2212,"lon":-37.4833,"largura_km":95.499,"eixo_na_terra":true},{"t":2.08889,"lat":33.5268,"lon":-36.722,"largura_km":96.306,"eixo_na_terra":true},{"t":2.09444,"lat":33.849,"lon":-35.8997,"largura_km":97.17,"eixo_na_terra":true},{"t":2.1,"lat":34.1916,"lon":-35.0019,"largura_km":98.106,"eixo_na_terra":true},{"t":2.10556,"lat":34.5602,"lon":-34.0078,"largura_km":99.131,"eixo_na_terra":true},{"t":2.11111,"lat":34.9633,"lon":-32.8844,"largura_km":100.259,"eixo_na_terra":true},{"t":2.11667,"lat":35.9475,"lon":-29.9057,"largura_km":null,"eixo_na_terra":false},{"t":2.12222,"lat":36.2344,"lon":-28.9986,"largura_km":null,"eixo_na_terra":false},{"t":2.12778,"lat":36.4505,"lon":-28.2834,"largura_km":null,"eixo_na_terra":false},{"t":2.13333,"lat":36.6513,"lon":-27.593,"largura_km":null,"eixo_na_terra":false},{"t":2.13889,"lat":36.9389,"lon":-26.5828,"largura_km":null,"eixo_na_terra":false},{"t":2.14444,"lat":37.2174,"lon":-25.5573,"largura_km":null,"eixo_na_terra":false}]},"features":[{"type":"Feature","properties":{},"geometry":{"type":"Polygon","coordinates":[[[-38.22759667005988,33.39125501448104],[-37.467083354223604,33.70563998896041],[-36.68653489178703,34.0210345332299],[-35.840557773245166,34.354532786815376],[-34.86522664116271,34.728329801313045],[-33.825623021196094,35.11497929302212],[-32.63849184514328,35.54176012172283],[-32.644538788980995,35.511905859406795],[-32.3568391452456,35.62461652547588],[-32.09458687382218,35.723519687430674],[-31.67684164382473,35.87457365187438],[-31.38219124451885,35.97684644023004],[-30.9161027507117,36.132252958033156],[-30.475361544519778,36.272701589435094],[-30.0264309774262,36.42579508779462],[-29.431755823268077,36.61984757005621],[-28.766301683966645,36.82733834266664],[-28.297203528357375,36.96845741060581],[-27.663508560220805,37.16751952778799],[-26.97868466792511,37.37491606979915],[-26.57487602702804,37.49409130278862],[-26.10533729267877,37.630161562922716],[-25.523652925238224,37.79545789210066],[-24.66521102292083,38.03373646921827],[-24.663411974167996,37.97867430342983],[-24.58157804854187,38.000646142519784],[-24.58319697069769,37.96350723158645],[-24.273364854593893,38.05197768425183],[-24.267612945549917,37.88137464263716],[-23.975469378804604,37.953972671029554],[-24.18193452544739,37.531546013246604],[-24.255061238399886,37.509087911243945],[-24.24293006385156,37.149274280590184],[-24.632527241255826,37.04773641687815],[-24.62956820824192,37.016832930119],[-25.339253479687187,36.82381049611784],[-25.863219694043494,36.6791523045465],[-27.02467322762833,36.354417144129314],[-28.853835082409034,35.80031706128342],[-29.41568877767004,35.631976081141985],[-30.36325596140142,35.3223790737137],[-30.680881726882433,35.22088516701625],[-31.075384943123684,35.09740975347602],[-31.71369317662817,34.876494865028896],[-32.227474123855075,34.70560272518494],[-32.584089091340076,34.591909577425035],[-32.847188425776125,34.51140782643369],[-32.85231509110437,34.48609705530309],[-34.00171513339626,34.07686349251207],[-34.9729910946657,33.71980080136771],[-35.812269346904685,33.40273167812473],[-36.62384011058592,33.087992801126944],[-37.37630588194651,32.78906864301379],[-38.079481089837884,32.5034046368094],[-38.74074504715338,32.229076274220695],[-39.36581190367096,31.964590388086265],[-39.54704465752235,32.82803750485612],[-38.906663413460706,33.104204931760066],[-38.22759667005988,33.39125501448104]]]}}]}