{"type":"FeatureCollection","features":[{"type":"Feature","properties":{"magnitude":0.2,"de":0.2,"ate":0.5,"percentagem":20.0},"geometry":{"type":"Polygon","coordinates":[[[-14.637693434310032,30.0],[-9.535300232006671,30.0],[-9.78416442898043,31.79999999999996],[-10.113910385489316,33.659999999999926],[-10.516599380340619,35.51999999999988],[-10.976602014379504,37.319999999999844],[-11.565260948323505,39.2999999999998],[-12.223423920522102,41.21999999999976],[-12.959999999999184,43.10576080430957],[-13.770119912577202,44.939999999999685],[-18.754765793350494,44.939999999999685],[-17.834868745747542,43.19999999999972],[-17.02304348793493,41.39999999999976],[-16.29613696068004,39.4799999999998],[-15.701458480838163,37.55999999999984],[-15.221128152634419,35.579999999999885],[-14.88517214436084,33.659999999999926],[-14.689414260858252,31.79999999999996],[-14.637693434310032,30.0]]]}},{"type":"Feature","properties":{"magnitude":0.5,"de":0.5,"ate":0.8,"percentagem":50.0},"geometry":{"type":"Polygon","coordinates":[[[-28.402843992692976,30.0],[-14.637693434310032,30.0],[-14.689414260858252,31.79999999999996],[-14.88517214436084,33.659999999999926],[-15.221128152634419,35.579999999999885],[-15.701458480838163,37.55999999999984],[-16.29613696068004,39.4799999999998],[-17.02304348793493,41.39999999999976],[-17.834868745747542,43.19999999999972],[-18.754765793350494,44.939999999999685],[-34.5,44.939999999999685],[-34.5,41.0561116943148],[-31.55999999999989,42.02243273920632],[-28.499999999999773,42.941997913583386],[-25.379999999999654,43.79477813759857],[-25.139999999999645,43.82394401281436],[-24.899999999999633,43.80970968712666],[-24.419999999999618,43.674187598437236],[-23.879999999999598,43.379208245492435],[-23.339999999999577,42.95204590876378],[-22.799999999999557,42.398375462431936],[-22.259999999999536,41.71239278891166],[-21.779999999999518,40.976032102719884],[-21.32463285658794,40.13999999999979],[-20.918967027645486,39.23999999999981],[-20.550401488566905,38.21999999999983],[-20.272193355112208,37.19999999999985],[-20.094064965507034,36.23999999999987],[-20.00604154627179,35.27999999999989],[-20.019236625903865,34.439999999999905],[-20.1352431240349,33.659999999999926],[-20.339999999999463,33.03990003870213],[-20.639999999999475,32.54786342525317],[-20.925894406148583,32.27999999999995],[-21.239999999999498,32.117024163362856],[-24.955440770932736,31.079999999999977],[-28.402843992692976,30.0]]]}},{"type":"Feature","properties":{"magnitude":0.8,"de":0.8,"ate":0.95,"percentagem":80.0},"geometry":{"type":"Polygon","coordinates":[[[-34.5,30.0],[-28.402843992692976,30.0],[-24.955440770932736,31.079999999999977],[-21.239999999999498,32.117024163362856],[-20.92589440614858,32.27999999999995],[-20.639999999999475,32.54786342525317],[-20.387589110973845,32.93999999999994],[-20.199188554377514,33.41999999999993],[-20.075991638582366,33.959999999999916],[-20.008059315715265,34.619999999999905],[-20.008591929748526,35.33999999999989],[-20.07028236157131,36.059999999999874],[-20.19559232837405,36.839999999999854],[-20.39195898605855,37.679999999999836],[-20.649278813629113,38.51999999999982],[-20.943558208442386,39.299999999999805],[-21.295019124008206,40.079999999999785],[-21.677040022495518,40.79999999999977],[-22.08573107354451,41.45999999999975],[-22.559999999999548,42.11061696762573],[-23.039999999999566,42.660174829978224],[-23.519999999999584,43.10852799584354],[-23.999999999999602,43.456617040306654],[-24.47999999999962,43.698110298473445],[-24.899999999999636,43.80970968712666],[-25.319999999999652,43.80659485882672],[-27.539999999999736,43.213378976054024],[-29.939999999999827,42.519803946950184],[-32.219999999999914,41.8127879037497],[-34.5,41.0561116943148],[-34.5,35.67012458975056],[-31.919999999999902,36.56614219938372],[-29.2199999999998,37.430536309855505],[-26.459999999999695,38.2418669761187],[-23.69999999999959,38.984878405605556],[-23.579999999999586,38.98626588086708],[-23.39999999999958,38.903010943795366],[-23.219999999999573,38.73790071181752],[-23.039999999999566,38.49001078799951],[-22.78700273451951,37.91999999999983],[-22.715631938984437,37.619999999999834],[-22.688825925895312,37.319999999999844],[-22.75175931102174,36.95999999999985],[-22.83349760456879,36.839999999999854],[-22.91999999999956,36.78439842966907],[-25.919999999999675,35.95171499216083],[-28.859999999999786,35.055169952680615],[-31.739999999999895,34.09278818146964],[-34.5,33.086135905744534],[-34.5,30.0]]]}},{"type":"Feature","properties":{"magnitude":0.95,"de":0.95,"ate":0.99,"percentagem":95.0},"geometry":{"type":"Polygon","coordinates":[[[-34.5,35.67012458975056],[-34.5,33.086135905744534],[-31.55999999999989,34.155500218413366],[-28.559999999999775,35.150519485936826],[-25.79999999999967,35.98655786689776],[-22.91999999999956,36.78439842966907],[-22.83349760456879,36.839999999999854],[-22.75175931102174,36.95999999999985],[-22.688825925895312,37.319999999999844],[-22.73926482364607,37.73999999999984],[-22.8991135657162,38.21999999999983],[-23.09805492752873,38.579999999999814],[-23.27999999999957,38.80164542161344],[-23.519999999999584,38.96846946386263],[-23.699999999999594,38.984878405605556],[-26.459999999999695,38.2418669761187],[-29.2199999999998,37.430536309855505],[-31.919999999999902,36.56614219938373],[-34.5,35.67012458975056]]]}}]}