{"type":"FeatureCollection","properties":{"largura_maxima_km":10.687,"largura_sobre_pt_km":4.928,"linha_central_sobre_pt":false,"desenhavel_como_area":true,"perfil_largura":[{"t":-0.35,"lat":25.0137,"lon":-27.8533,"largura_km":5.886,"eixo_na_terra":true},{"t":-0.34444,"lat":25.1055,"lon":-27.7597,"largura_km":5.787,"eixo_na_terra":true},{"t":-0.33889,"lat":25.1973,"lon":-27.6664,"largura_km":5.689,"eixo_na_terra":true},{"t":-0.33333,"lat":25.2893,"lon":-27.5733,"largura_km":5.592,"eixo_na_terra":true},{"t":-0.32778,"lat":25.3814,"lon":-27.4804,"largura_km":5.497,"eixo_na_terra":true},{"t":-0.32222,"lat":25.4736,"lon":-27.3878,"largura_km":5.403,"eixo_na_terra":true},{"t":-0.31667,"lat":25.5659,"lon":-27.2955,"largura_km":5.31,"eixo_na_terra":true},{"t":-0.31111,"lat":25.6583,"lon":-27.2034,"largura_km":5.219,"eixo_na_terra":true},{"t":-0.30556,"lat":25.7508,"lon":-27.1115,"largura_km":5.129,"eixo_na_terra":true},{"t":-0.3,"lat":25.8434,"lon":-27.0198,"largura_km":5.04,"eixo_na_terra":true},{"t":-0.29444,"lat":25.9361,"lon":-26.9283,"largura_km":4.952,"eixo_na_terra":true},{"t":-0.28889,"lat":26.0289,"lon":-26.8371,"largura_km":4.866,"eixo_na_terra":true},{"t":-0.28333,"lat":26.1218,"lon":-26.7461,"largura_km":4.781,"eixo_na_terra":true},{"t":-0.27778,"lat":26.2149,"lon":-26.6553,"largura_km":4.697,"eixo_na_terra":true},{"t":-0.27222,"lat":26.308,"lon":-26.5646,"largura_km":4.614,"eixo_na_terra":true},{"t":-0.26667,"lat":26.4012,"lon":-26.4742,"largura_km":4.533,"eixo_na_terra":true},{"t":-0.26111,"lat":26.4946,"lon":-26.384,"largura_km":4.453,"eixo_na_terra":true},{"t":-0.25556,"lat":26.588,"lon":-26.2939,"largura_km":4.374,"eixo_na_terra":true},{"t":-0.25,"lat":26.6816,"lon":-26.2041,"largura_km":4.296,"eixo_na_terra":true},{"t":-0.24444,"lat":26.7753,"lon":-26.1144,"largura_km":4.22,"eixo_na_terra":true},{"t":-0.23889,"lat":26.869,"lon":-26.0249,"largura_km":4.145,"eixo_na_terra":true},{"t":-0.23333,"lat":26.9629,"lon":-25.9355,"largura_km":4.071,"eixo_na_terra":true},{"t":-0.22778,"lat":27.0569,"lon":-25.8463,"largura_km":3.998,"eixo_na_terra":true},{"t":-0.22222,"lat":27.151,"lon":-25.7573,"largura_km":3.926,"eixo_na_terra":true},{"t":-0.21667,"lat":27.2452,"lon":-25.6685,"largura_km":3.855,"eixo_na_terra":true},{"t":-0.21111,"lat":27.3396,"lon":-25.5798,"largura_km":3.786,"eixo_na_terra":true},{"t":-0.20556,"lat":27.434,"lon":-25.4912,"largura_km":3.718,"eixo_na_terra":true},{"t":-0.2,"lat":27.5286,"lon":-25.4028,"largura_km":3.651,"eixo_na_terra":true},{"t":-0.19444,"lat":27.6232,"lon":-25.3145,"largura_km":3.585,"eixo_na_terra":true},{"t":-0.18889,"lat":27.718,"lon":-25.2263,"largura_km":3.52,"eixo_na_terra":true},{"t":-0.18333,"lat":27.8129,"lon":-25.1383,"largura_km":3.457,"eixo_na_terra":true},{"t":-0.17778,"lat":27.9079,"lon":-25.0504,"largura_km":3.394,"eixo_na_terra":true},{"t":-0.17222,"lat":28.003,"lon":-24.9627,"largura_km":3.333,"eixo_na_terra":true},{"t":-0.16667,"lat":28.0982,"lon":-24.875,"largura_km":3.273,"eixo_na_terra":true},{"t":-0.16111,"lat":28.1936,"lon":-24.7875,"largura_km":3.214,"eixo_na_terra":true},{"t":-0.15556,"lat":28.289,"lon":-24.7,"largura_km":3.156,"eixo_na_terra":true},{"t":-0.15,"lat":28.3846,"lon":-24.6127,"largura_km":3.099,"eixo_na_terra":true},{"t":-0.14444,"lat":28.4803,"lon":-24.5255,"largura_km":3.043,"eixo_na_terra":true},{"t":-0.13889,"lat":28.5761,"lon":-24.4384,"largura_km":2.989,"eixo_na_terra":true},{"t":-0.13333,"lat":28.672,"lon":-24.3513,"largura_km":2.935,"eixo_na_terra":true},{"t":-0.12778,"lat":28.7681,"lon":-24.2644,"largura_km":2.883,"eixo_na_terra":true},{"t":-0.12222,"lat":28.8642,"lon":-24.1775,"largura_km":2.832,"eixo_na_terra":true},{"t":-0.11667,"lat":28.9605,"lon":-24.0908,"largura_km":2.781,"eixo_na_terra":true},{"t":-0.11111,"lat":29.0569,"lon":-24.0041,"largura_km":2.732,"eixo_na_terra":true},{"t":-0.10556,"lat":29.1534,"lon":-23.9174,"largura_km":2.684,"eixo_na_terra":true},{"t":-0.1,"lat":29.2501,"lon":-23.8309,"largura_km":2.637,"eixo_na_terra":true},{"t":-0.09444,"lat":29.3468,"lon":-23.7444,"largura_km":2.591,"eixo_na_terra":true},{"t":-0.08889,"lat":29.4437,"lon":-23.658,"largura_km":2.546,"eixo_na_terra":true},{"t":-0.08333,"lat":29.5407,"lon":-23.5716,"largura_km":2.503,"eixo_na_terra":true},{"t":-0.07778,"lat":29.6378,"lon":-23.4853,"largura_km":2.46,"eixo_na_terra":true},{"t":-0.07222,"lat":29.7351,"lon":-23.399,"largura_km":2.418,"eixo_na_terra":true},{"t":-0.06667,"lat":29.8325,"lon":-23.3128,"largura_km":2.378,"eixo_na_terra":true},{"t":-0.06111,"lat":29.93,"lon":-23.2266,"largura_km":2.338,"eixo_na_terra":true},{"t":-0.05556,"lat":30.0276,"lon":-23.1404,"largura_km":2.299,"eixo_na_terra":true},{"t":-0.05,"lat":30.1253,"lon":-23.0543,"largura_km":2.262,"eixo_na_terra":true},{"t":-0.04444,"lat":30.2232,"lon":-22.9682,"largura_km":2.225,"eixo_na_terra":true},{"t":-0.03889,"lat":30.3212,"lon":-22.8821,"largura_km":2.19,"eixo_na_terra":true},{"t":-0.03333,"lat":30.4193,"lon":-22.7961,"largura_km":2.156,"eixo_na_terra":true},{"t":-0.02778,"lat":30.5176,"lon":-22.7101,"largura_km":2.122,"eixo_na_terra":true},{"t":-0.02222,"lat":30.616,"lon":-22.6241,"largura_km":2.09,"eixo_na_terra":true},{"t":-0.01667,"lat":30.7145,"lon":-22.5381,"largura_km":2.058,"eixo_na_terra":true},{"t":-0.01111,"lat":30.8132,"lon":-22.4521,"largura_km":2.028,"eixo_na_terra":true},{"t":-0.00556,"lat":30.9119,"lon":-22.3661,"largura_km":1.999,"eixo_na_terra":true},{"t":-0.0,"lat":31.0109,"lon":-22.2801,"largura_km":1.97,"eixo_na_terra":true},{"t":0.00556,"lat":31.1099,"lon":-22.1941,"largura_km":1.943,"eixo_na_terra":true},{"t":0.01111,"lat":31.2091,"lon":-22.1081,"largura_km":1.917,"eixo_na_terra":true},{"t":0.01667,"lat":31.3084,"lon":-22.022,"largura_km":1.891,"eixo_na_terra":true},{"t":0.02222,"lat":31.4078,"lon":-21.936,"largura_km":1.867,"eixo_na_terra":true},{"t":0.02778,"lat":31.5074,"lon":-21.8499,"largura_km":1.844,"eixo_na_terra":true},{"t":0.03333,"lat":31.6071,"lon":-21.7638,"largura_km":1.821,"eixo_na_terra":true},{"t":0.03889,"lat":31.707,"lon":-21.6777,"largura_km":1.8,"eixo_na_terra":true},{"t":0.04444,"lat":31.807,"lon":-21.5915,"largura_km":1.779,"eixo_na_terra":true},{"t":0.05,"lat":31.9071,"lon":-21.5053,"largura_km":1.76,"eixo_na_terra":true},{"t":0.05556,"lat":32.0074,"lon":-21.4191,"largura_km":1.741,"eixo_na_terra":true},{"t":0.06111,"lat":32.1078,"lon":-21.3328,"largura_km":1.724,"eixo_na_terra":true},{"t":0.06667,"lat":32.2083,"lon":-21.2464,"largura_km":1.707,"eixo_na_terra":true},{"t":0.07222,"lat":32.309,"lon":-21.16,"largura_km":1.692,"eixo_na_terra":true},{"t":0.07778,"lat":32.4098,"lon":-21.0736,"largura_km":1.677,"eixo_na_terra":true},{"t":0.08333,"lat":32.5108,"lon":-20.9871,"largura_km":1.663,"eixo_na_terra":true},{"t":0.08889,"lat":32.6119,"lon":-20.9005,"largura_km":1.651,"eixo_na_terra":true},{"t":0.09444,"lat":32.7131,"lon":-20.8138,"largura_km":1.639,"eixo_na_terra":true},{"t":0.1,"lat":32.8145,"lon":-20.7271,"largura_km":1.628,"eixo_na_terra":true},{"t":0.10556,"lat":32.9161,"lon":-20.6403,"largura_km":1.618,"eixo_na_terra":true},{"t":0.11111,"lat":33.0178,"lon":-20.5534,"largura_km":1.609,"eixo_na_terra":true},{"t":0.11667,"lat":33.1196,"lon":-20.4664,"largura_km":1.601,"eixo_na_terra":true},{"t":0.12222,"lat":33.2216,"lon":-20.3793,"largura_km":1.594,"eixo_na_terra":true},{"t":0.12778,"lat":33.3237,"lon":-20.2922,"largura_km":1.588,"eixo_na_terra":true},{"t":0.13333,"lat":33.426,"lon":-20.2049,"largura_km":1.583,"eixo_na_terra":true},{"t":0.13889,"lat":33.5285,"lon":-20.1175,"largura_km":1.579,"eixo_na_terra":true},{"t":0.14444,"lat":33.6311,"lon":-20.03,"largura_km":1.576,"eixo_na_terra":true},{"t":0.15,"lat":33.7338,"lon":-19.9424,"largura_km":1.573,"eixo_na_terra":true},{"t":0.15556,"lat":33.8367,"lon":-19.8547,"largura_km":1.572,"eixo_na_terra":true},{"t":0.16111,"lat":33.9397,"lon":-19.7669,"largura_km":1.571,"eixo_na_terra":true},{"t":0.16667,"lat":34.0429,"lon":-19.6789,"largura_km":1.572,"eixo_na_terra":true},{"t":0.17222,"lat":34.1463,"lon":-19.5908,"largura_km":1.573,"eixo_na_terra":true},{"t":0.17778,"lat":34.2498,"lon":-19.5025,"largura_km":1.575,"eixo_na_terra":true},{"t":0.18333,"lat":34.3535,"lon":-19.4142,"largura_km":1.579,"eixo_na_terra":true},{"t":0.18889,"lat":34.4573,"lon":-19.3257,"largura_km":1.583,"eixo_na_terra":true},{"t":0.19444,"lat":34.5613,"lon":-19.237,"largura_km":1.588,"eixo_na_terra":true},{"t":0.2,"lat":34.6654,"lon":-19.1482,"largura_km":1.594,"eixo_na_terra":true},{"t":0.20556,"lat":34.7698,"lon":-19.0592,"largura_km":1.601,"eixo_na_terra":true},{"t":0.21111,"lat":34.8742,"lon":-18.97,"largura_km":1.609,"eixo_na_terra":true},{"t":0.21667,"lat":34.9789,"lon":-18.8807,"largura_km":1.617,"eixo_na_terra":true},{"t":0.22222,"lat":35.0837,"lon":-18.7912,"largura_km":1.627,"eixo_na_terra":true},{"t":0.22778,"lat":35.1886,"lon":-18.7016,"largura_km":1.638,"eixo_na_terra":true},{"t":0.23333,"lat":35.2938,"lon":-18.6117,"largura_km":1.649,"eixo_na_terra":true},{"t":0.23889,"lat":35.3991,"lon":-18.5217,"largura_km":1.662,"eixo_na_terra":true},{"t":0.24444,"lat":35.5045,"lon":-18.4315,"largura_km":1.675,"eixo_na_terra":true},{"t":0.25,"lat":35.6102,"lon":-18.3411,"largura_km":1.689,"eixo_na_terra":true},{"t":0.25556,"lat":35.716,"lon":-18.2505,"largura_km":1.704,"eixo_na_terra":true},{"t":0.26111,"lat":35.822,"lon":-18.1596,"largura_km":1.72,"eixo_na_terra":true},{"t":0.26667,"lat":35.9281,"lon":-18.0686,"largura_km":1.737,"eixo_na_terra":true},{"t":0.27222,"lat":36.0345,"lon":-17.9774,"largura_km":1.755,"eixo_na_terra":true},{"t":0.27778,"lat":36.141,"lon":-17.8859,"largura_km":1.774,"eixo_na_terra":true},{"t":0.28333,"lat":36.2477,"lon":-17.7942,"largura_km":1.794,"eixo_na_terra":true},{"t":0.28889,"lat":36.3545,"lon":-17.7023,"largura_km":1.814,"eixo_na_terra":true},{"t":0.29444,"lat":36.4615,"lon":-17.6101,"largura_km":1.836,"eixo_na_terra":true},{"t":0.3,"lat":36.5688,"lon":-17.5177,"largura_km":1.858,"eixo_na_terra":true},{"t":0.30556,"lat":36.6762,"lon":-17.425,"largura_km":1.882,"eixo_na_terra":true},{"t":0.31111,"lat":36.7837,"lon":-17.3321,"largura_km":1.906,"eixo_na_terra":true},{"t":0.31667,"lat":36.8915,"lon":-17.239,"largura_km":1.931,"eixo_na_terra":true},{"t":0.32222,"lat":36.9995,"lon":-17.1455,"largura_km":1.957,"eixo_na_terra":true},{"t":0.32778,"lat":37.1076,"lon":-17.0519,"largura_km":1.984,"eixo_na_terra":true},{"t":0.33333,"lat":37.2159,"lon":-16.9579,"largura_km":2.012,"eixo_na_terra":true},{"t":0.33889,"lat":37.3244,"lon":-16.8636,"largura_km":2.041,"eixo_na_terra":true},{"t":0.34444,"lat":37.4331,"lon":-16.7691,"largura_km":2.071,"eixo_na_terra":true},{"t":0.35,"lat":37.542,"lon":-16.6743,"largura_km":2.102,"eixo_na_terra":true},{"t":0.35556,"lat":37.6511,"lon":-16.5792,"largura_km":2.133,"eixo_na_terra":true},{"t":0.36111,"lat":37.7604,"lon":-16.4837,"largura_km":2.166,"eixo_na_terra":true},{"t":0.36667,"lat":37.8698,"lon":-16.388,"largura_km":2.199,"eixo_na_terra":true},{"t":0.37222,"lat":37.9795,"lon":-16.292,"largura_km":2.233,"eixo_na_terra":true},{"t":0.37778,"lat":38.0894,"lon":-16.1956,"largura_km":2.269,"eixo_na_terra":true},{"t":0.38333,"lat":38.1994,"lon":-16.0989,"largura_km":2.305,"eixo_na_terra":true},{"t":0.38889,"lat":38.3097,"lon":-16.0019,"largura_km":2.342,"eixo_na_terra":true},{"t":0.39444,"lat":38.4201,"lon":-15.9045,"largura_km":2.38,"eixo_na_terra":true},{"t":0.4,"lat":38.5308,"lon":-15.8068,"largura_km":2.419,"eixo_na_terra":true},{"t":0.40556,"lat":38.6417,"lon":-15.7087,"largura_km":2.459,"eixo_na_terra":true},{"t":0.41111,"lat":38.7528,"lon":-15.6103,"largura_km":2.5,"eixo_na_terra":true},{"t":0.41667,"lat":38.864,"lon":-15.5115,"largura_km":2.542,"eixo_na_terra":true},{"t":0.42222,"lat":38.9755,"lon":-15.4124,"largura_km":2.584,"eixo_na_terra":true},{"t":0.42778,"lat":39.0872,"lon":-15.3128,"largura_km":2.628,"eixo_na_terra":true},{"t":0.43333,"lat":39.1991,"lon":-15.2129,"largura_km":2.673,"eixo_na_terra":true},{"t":0.43889,"lat":39.3113,"lon":-15.1126,"largura_km":2.718,"eixo_na_terra":true},{"t":0.44444,"lat":39.4236,"lon":-15.0119,"largura_km":2.765,"eixo_na_terra":true},{"t":0.45,"lat":39.5362,"lon":-14.9107,"largura_km":2.812,"eixo_na_terra":true},{"t":0.45556,"lat":39.649,"lon":-14.8092,"largura_km":2.86,"eixo_na_terra":true},{"t":0.46111,"lat":39.762,"lon":-14.7073,"largura_km":2.91,"eixo_na_terra":true},{"t":0.46667,"lat":39.8752,"lon":-14.6049,"largura_km":2.96,"eixo_na_terra":true},{"t":0.47222,"lat":39.9886,"lon":-14.5021,"largura_km":3.011,"eixo_na_terra":true},{"t":0.47778,"lat":40.1023,"lon":-14.3988,"largura_km":3.063,"eixo_na_terra":true},{"t":0.48333,"lat":40.2162,"lon":-14.2951,"largura_km":3.116,"eixo_na_terra":true},{"t":0.48889,"lat":40.3303,"lon":-14.1909,"largura_km":3.171,"eixo_na_terra":true},{"t":0.49444,"lat":40.4447,"lon":-14.0863,"largura_km":3.226,"eixo_na_terra":true},{"t":0.5,"lat":40.5592,"lon":-13.9812,"largura_km":3.282,"eixo_na_terra":true},{"t":0.50556,"lat":40.6741,"lon":-13.8756,"largura_km":3.339,"eixo_na_terra":true},{"t":0.51111,"lat":40.7891,"lon":-13.7695,"largura_km":3.397,"eixo_na_terra":true},{"t":0.51667,"lat":40.9044,"lon":-13.663,"largura_km":3.456,"eixo_na_terra":true},{"t":0.52222,"lat":41.0199,"lon":-13.5559,"largura_km":3.516,"eixo_na_terra":true},{"t":0.52778,"lat":41.1357,"lon":-13.4483,"largura_km":3.577,"eixo_na_terra":true},{"t":0.53333,"lat":41.2517,"lon":-13.3402,"largura_km":3.638,"eixo_na_terra":true},{"t":0.53889,"lat":41.368,"lon":-13.2315,"largura_km":3.701,"eixo_na_terra":true},{"t":0.54444,"lat":41.4845,"lon":-13.1223,"largura_km":3.765,"eixo_na_terra":true},{"t":0.55,"lat":41.6012,"lon":-13.0126,"largura_km":3.83,"eixo_na_terra":true},{"t":0.55556,"lat":41.7182,"lon":-12.9023,"largura_km":3.896,"eixo_na_terra":true},{"t":0.56111,"lat":41.8355,"lon":-12.7914,"largura_km":3.963,"eixo_na_terra":true},{"t":0.56667,"lat":41.953,"lon":-12.68,"largura_km":4.031,"eixo_na_terra":true},{"t":0.57222,"lat":42.0708,"lon":-12.5679,"largura_km":4.1,"eixo_na_terra":true},{"t":0.57778,"lat":42.1888,"lon":-12.4553,"largura_km":4.17,"eixo_na_terra":true},{"t":0.58333,"lat":42.3071,"lon":-12.342,"largura_km":4.241,"eixo_na_terra":true},{"t":0.58889,"lat":42.4257,"lon":-12.2282,"largura_km":4.313,"eixo_na_terra":true},{"t":0.59444,"lat":42.5445,"lon":-12.1137,"largura_km":4.386,"eixo_na_terra":true},{"t":0.6,"lat":42.6636,"lon":-11.9985,"largura_km":4.461,"eixo_na_terra":true},{"t":0.60556,"lat":42.7829,"lon":-11.8828,"largura_km":4.536,"eixo_na_terra":true},{"t":0.61111,"lat":42.9025,"lon":-11.7663,"largura_km":4.612,"eixo_na_terra":true},{"t":0.61667,"lat":43.0225,"lon":-11.6492,"largura_km":4.69,"eixo_na_terra":true},{"t":0.62222,"lat":43.1426,"lon":-11.5314,"largura_km":4.768,"eixo_na_terra":true},{"t":0.62778,"lat":43.2631,"lon":-11.4129,"largura_km":4.848,"eixo_na_terra":true},{"t":0.63333,"lat":43.3838,"lon":-11.2937,"largura_km":4.928,"eixo_na_terra":true},{"t":0.63889,"lat":43.5049,"lon":-11.1738,"largura_km":5.01,"eixo_na_terra":true},{"t":0.64444,"lat":43.6262,"lon":-11.0532,"largura_km":5.093,"eixo_na_terra":true},{"t":0.65,"lat":43.7478,"lon":-10.9318,"largura_km":5.177,"eixo_na_terra":true},{"t":0.65556,"lat":43.8697,"lon":-10.8097,"largura_km":5.262,"eixo_na_terra":true},{"t":0.66111,"lat":43.9919,"lon":-10.6868,"largura_km":5.348,"eixo_na_terra":true},{"t":0.66667,"lat":44.1144,"lon":-10.5631,"largura_km":5.435,"eixo_na_terra":true},{"t":0.67222,"lat":44.2372,"lon":-10.4386,"largura_km":5.523,"eixo_na_terra":true},{"t":0.67778,"lat":44.3602,"lon":-10.3133,"largura_km":5.613,"eixo_na_terra":true},{"t":0.68333,"lat":44.4836,"lon":-10.1872,"largura_km":5.704,"eixo_na_terra":true},{"t":0.68889,"lat":44.6073,"lon":-10.0603,"largura_km":5.796,"eixo_na_terra":true},{"t":0.69444,"lat":44.7314,"lon":-9.9325,"largura_km":5.889,"eixo_na_terra":true},{"t":0.7,"lat":44.8557,"lon":-9.8038,"largura_km":5.983,"eixo_na_terra":true},{"t":0.70556,"lat":44.9803,"lon":-9.6743,"largura_km":6.078,"eixo_na_terra":true},{"t":0.71111,"lat":45.1053,"lon":-9.5439,"largura_km":6.175,"eixo_na_terra":true},{"t":0.71667,"lat":45.2306,"lon":-9.4126,"largura_km":6.272,"eixo_na_terra":true},{"t":0.72222,"lat":45.3562,"lon":-9.2803,"largura_km":6.371,"eixo_na_terra":true},{"t":0.72778,"lat":45.4822,"lon":-9.1472,"largura_km":6.471,"eixo_na_terra":true},{"t":0.73333,"lat":45.6084,"lon":-9.013,"largura_km":6.573,"eixo_na_terra":true},{"t":0.73889,"lat":45.7351,"lon":-8.8779,"largura_km":6.675,"eixo_na_terra":true},{"t":0.74444,"lat":45.862,"lon":-8.7418,"largura_km":6.779,"eixo_na_terra":true},{"t":0.75,"lat":45.9893,"lon":-8.6047,"largura_km":6.884,"eixo_na_terra":true},{"t":0.75556,"lat":46.117,"lon":-8.4666,"largura_km":6.991,"eixo_na_terra":true},{"t":0.76111,"lat":46.2449,"lon":-8.3274,"largura_km":7.099,"eixo_na_terra":true},{"t":0.76667,"lat":46.3733,"lon":-8.1872,"largura_km":7.208,"eixo_na_terra":true},{"t":0.77222,"lat":46.502,"lon":-8.0459,"largura_km":7.318,"eixo_na_terra":true},{"t":0.77778,"lat":46.6311,"lon":-7.9035,"largura_km":7.429,"eixo_na_terra":true},{"t":0.78333,"lat":46.7605,"lon":-7.7599,"largura_km":7.542,"eixo_na_terra":true},{"t":0.78889,"lat":46.8903,"lon":-7.6153,"largura_km":7.657,"eixo_na_terra":true},{"t":0.79444,"lat":47.0204,"lon":-7.4695,"largura_km":7.772,"eixo_na_terra":true},{"t":0.8,"lat":47.151,"lon":-7.3225,"largura_km":7.889,"eixo_na_terra":true},{"t":0.80556,"lat":47.2819,"lon":-7.1743,"largura_km":8.008,"eixo_na_terra":true},{"t":0.81111,"lat":47.4132,"lon":-7.0248,"largura_km":8.127,"eixo_na_terra":true},{"t":0.81667,"lat":47.5449,"lon":-6.8742,"largura_km":8.248,"eixo_na_terra":true},{"t":0.82222,"lat":47.6769,"lon":-6.7222,"largura_km":8.371,"eixo_na_terra":true},{"t":0.82778,"lat":47.8094,"lon":-6.569,"largura_km":8.495,"eixo_na_terra":true},{"t":0.83333,"lat":47.9423,"lon":-6.4145,"largura_km":8.62,"eixo_na_terra":true},{"t":0.83889,"lat":48.0756,"lon":-6.2586,"largura_km":8.747,"eixo_na_terra":true},{"t":0.84444,"lat":48.2093,"lon":-6.1013,"largura_km":8.876,"eixo_na_terra":true},{"t":0.85,"lat":48.3433,"lon":-5.9427,"largura_km":9.006,"eixo_na_terra":true},{"t":0.85556,"lat":48.4779,"lon":-5.7826,"largura_km":9.137,"eixo_na_terra":true},{"t":0.86111,"lat":48.6128,"lon":-5.6211,"largura_km":9.27,"eixo_na_terra":true},{"t":0.86667,"lat":48.7482,"lon":-5.4582,"largura_km":9.404,"eixo_na_terra":true},{"t":0.87222,"lat":48.884,"lon":-5.2937,"largura_km":9.54,"eixo_na_terra":true},{"t":0.87778,"lat":49.0202,"lon":-5.1277,"largura_km":9.678,"eixo_na_terra":true},{"t":0.88333,"lat":49.1569,"lon":-4.9601,"largura_km":9.817,"eixo_na_terra":true},{"t":0.88889,"lat":49.294,"lon":-4.7909,"largura_km":9.958,"eixo_na_terra":true},{"t":0.89444,"lat":49.4316,"lon":-4.6202,"largura_km":10.101,"eixo_na_terra":true},{"t":0.9,"lat":49.5696,"lon":-4.4477,"largura_km":10.245,"eixo_na_terra":true},{"t":0.90556,"lat":49.7081,"lon":-4.2736,"largura_km":10.391,"eixo_na_terra":true},{"t":0.91111,"lat":49.8471,"lon":-4.0977,"largura_km":10.538,"eixo_na_terra":true},{"t":0.91667,"lat":49.9865,"lon":-3.9201,"largura_km":10.687,"eixo_na_terra":true}]},"features":[{"type":"Feature","properties":{},"geometry":{"type":"Polygon","coordinates":[[[-27.688509656332315,25.21347318186011],[-27.223843749466198,25.67297502154717],[-26.76479955858173,26.135394261783684],[-26.31102277342353,26.600532084793272],[-25.772632711086374,27.162352970633485],[-25.328439809109682,27.63364345659848],[-24.799959834547053,28.203002316781266],[-24.275588121149042,28.77661472432134],[-23.75443639704372,29.35459061676209],[-23.321972297661148,29.83965518216813],[-22.804461127045556,30.425942747026774],[-22.287798041530664,31.016852363535676],[-21.770947312031353,31.612725848706084],[-21.253133073886715,32.21360988467938],[-20.646626530786705,32.92118958233345],[-18.618203482431397,35.29920861526998],[-17.709285073307115,36.36071146309551],[-16.777112862247122,37.440335596802186],[-16.300585313537,37.98736119246968],[-15.913687791937718,38.428596447152295],[-15.422319119937754,38.984809292342206],[-14.921576512803142,39.546386321292196],[-14.410589045745837,40.11352796057182],[-13.993800251652033,40.571390555676295],[-13.569355095882315,41.03306605922039],[-13.136717871309145,41.498675947726426],[-12.695320142899561,41.96834819104619],[-12.244557390986017,42.442217737080156],[-11.666663609405191,43.040967844841504],[-11.192380241765932,43.52483798507253],[-10.706466950190872,44.01340069242724],[-10.208117652883288,44.50682734179084],[-9.69646433377386,45.005299814118764],[-9.170569883459223,45.509011419882476],[-8.629419915335347,46.01816793243714],[-8.071381748051635,46.5334740226776],[-7.496271732725347,47.054229901460666],[-7.0526330081546575,47.44881954663546],[-6.750685596899189,47.713856818125166],[-6.443570009744519,47.98051653790236],[-5.972773404153713,48.38362753888761],[-5.489197942100873,48.790598180573305],[-4.991247876018008,49.202243582223645],[-4.479715402837996,49.617383392046285],[-3.952930218044287,50.03681448600116],[-3.886668637751086,49.937439043448705],[-4.415145974639756,49.522989952069196],[-4.758975483436927,49.24895257832185],[-5.096321041877616,48.976676058962695],[-5.427430746927939,48.70612036586442],[-5.752540305579714,48.43724695082442],[-6.071873863137114,48.17001866855358],[-6.385644763921846,47.90439970486793],[-6.694056250928895,47.64035550965101],[-6.996684300645029,47.37839360253044],[-7.29497582678971,47.1173810678508],[-7.588462080739589,46.85784722717276],[-8.161686889906775,46.34309621374893],[-8.441741589225671,46.087821760943775],[-8.854045472122039,45.7074593826133],[-9.257435034305786,45.330077871166125],[-9.782188160560338,44.83139416878607],[-10.166467400434954,44.4606464951276],[-10.667197620493482,43.97052554227932],[-11.155098722260448,43.48537094643691],[-11.63161863123372,43.004375208940125],[-12.097165477344788,42.5277221803078],[-12.552436514340798,42.05526764406374],[-12.998084351337866,41.586874969349566],[-13.434721198845068,41.122414567889486],[-13.862922652577083,40.66176340120014],[-14.28323107578268,40.20480453246958],[-14.696158631844298,39.7514267182579],[-15.202674714153375,39.189579420412834],[-15.699306007306689,38.63296635581331],[-16.186777735447777,38.08153087251575],[-16.570871656857832,37.64378924181291],[-17.0441408051002,37.10087190681362],[-17.970529491973195,36.02864671798364],[-18.874436075405697,34.97361118749487],[-20.980611811856136,32.50561421425285],[-21.58461097208061,31.80151070665921],[-22.100614802865152,31.20326884504727],[-22.70183854683063,30.511261264391855],[-23.217580475965065,29.922930339583946],[-23.734419965767756,29.339109422574367],[-24.253301817584315,28.759570838398954],[-24.600783325736074,28.375532337371816],[-24.949814387960316,27.993311425802997],[-25.3006568718356,27.612876380158724],[-25.56513724403544,27.32870376169081],[-25.919792304811608,26.951321762006483],[-26.18744477193121,26.669406066426248],[-26.727535050699885,26.108407954065623],[-27.000216023509836,25.82930411974625],[-27.27504606847691,25.55089043886435],[-27.551714835812106,25.273599331177248],[-27.830567653651144,24.99720543812233],[-27.87624646153222,25.030322631217178],[-27.688509656332315,25.21347318186011]]]}}]}