{"type":"FeatureCollection","features":[{"type":"Feature","properties":{"t_inicio":-0.35000000000001297,"t_fim":0.9166666666666492},"geometry":{"type":"LineString","coordinates":[[-27.853297146324735,25.01368904457375],[-27.759698174339633,25.105467833278876],[-27.666357743210483,25.19734866454649],[-27.573270792015762,25.289331855391666],[-27.480432305056866,25.381417728242713],[-27.387837310610394,25.473606610927966],[-27.29548087970784,25.565898836664278],[-27.203358124940337,25.658294744046998],[-27.111464199288605,25.75079467704137],[-27.019794294976748,25.84339898497553],[-26.928343642349148,25.936108022534754],[-26.83710750876935,26.02892214975733],[-26.746081197541002,26.12184173203162],[-26.655260046849207,26.214867140094626],[-26.564639428721534,26.307998750031906],[-26.47421474800933,26.401236943278715],[-26.38398144138654,26.494582106622588],[-26.29393497636721,26.58803463220711],[-26.20407085034003,26.68159491753707],[-26.11438458961959,26.77526336548477],[-26.024871748513647,26.869040384297755],[-25.935527908406073,26.96292638760753],[-25.846348676854518,27.056921794439784],[-25.75732968670252,27.151027029225634],[-25.66846659520553,27.245242521814117],[-25.579755083169914,27.339568707485984],[-25.491190854105184,27.434006026968525],[-25.402769633388175,27.52855492645167],[-25.314487167439438,27.623215857605295],[-25.226339222910212,27.71798927759753],[-25.138321585881215,27.81287564911445],[-25.05043006107121,27.907875440380764],[-24.962660471055926,28.00298912518169],[-24.875008655496174,28.09821718288602],[-24.78747047037575,28.193560098470304],[-24.700041787247244,28.289018362544116],[-24.612718492487204,28.38459247137652],[-24.525496486558268,28.480282926923838],[-24.438371683279684,28.576090236858153],[-24.35134000910449,28.6720149145973],[-24.264397402404143,28.76805747933592],[-24.17753981275888,28.864218456077545],[-24.090763200254912,28.960498375667967],[-24.00406353478712,29.056897774829665],[-23.91743679536711,29.153417196197356],[-23.830878969436753,29.25005718835484],[-23.7443860521862,29.346818305872844],[-23.657954045876465,29.44370110934806],[-23.571578959166345,29.540706165443485],[-23.485256806442976,29.63783404692982],[-23.39898360715597,29.735085332727863],[-23.31275538515507,29.832460607952648],[-23.226568168030212,29.929960463958075],[-23.140417986454793,30.027585498383242],[-23.054300873530906,30.125336315199903],[-22.96821286413683,30.223213524760897],[-22.882149994276006,30.32121774385017],[-22.796108300428102,30.419349595733742],[-22.710083818900443,30.517609710212092],[-22.62407258518101,30.61599872367378],[-22.53807063329174,30.71451727915027],[-22.452073995142314,30.813166026372198],[-22.36607869988387,30.911945621826714],[-22.280080773262682,31.010856728816425],[-22.194076236973217,31.109900017519447],[-22.108061108010475,31.209076165050835],[-22.022031398021113,31.308385855525533],[-21.93598311265373,31.40782978012257],[-21.849912250906925,31.507408637150554],[-21.763814804475885,31.60712313211494],[-21.677686757096694,31.706973977786305],[-21.59152408388809,31.806961894270387],[-21.505322750690823,31.907087609079422],[-21.419078713403565,32.0073518572051],[-21.332787917315954,32.107755381192916],[-21.24644629643751,32.20829893121821],[-21.160049772823584,32.30898326516355],[-21.073594255896126,32.409809148698024],[-20.987075641760498,32.5107773553577],[-20.90048981251772,32.611888666628175],[-20.813832635571373,32.71314387202851],[-20.727099962929174,32.8145437691968],[-20.64028763049879,32.91608916397781],[-20.553391457378098,33.017780870511885],[-20.466407245138726,33.119619711325996],[-20.379330777103178,33.22160651742642],[-20.29215781761485,33.32374212839331],[-20.204884111301112,33.426027392477025],[-20.11750538232843,33.52846316669651],[-20.030017333649937,33.631050316939564],[-19.94241564624417,33.73378971806492],[-19.85469597834583,33.836682254006526],[-19.76685396466695,33.939728817879825],[-19.67888521560917,34.04293031208995],[-19.590785316466054,34.14628764844227],[-19.502549826615166,34.2498017482549],[-19.41417427869999,34.35347354247347],[-19.325654177800686,34.45730397178817],[-19.236985000593563,34.56129398675308],[-19.14816219449915,34.66544454790768],[-19.05918117681756,34.769756625900946],[-18.970037333851963,34.874231201617675],[-18.880726020018358,34.978869266307406],[-18.791242556942564,35.08367182171583],[-18.701582232542762,35.188639880218695],[-18.611740300097892,35.29377446495843],[-18.521711977301152,35.39907660998333],[-18.43149244529809,35.50454736038968],[-18.341076847708678,35.6101877724664],[-18.250460289633224,35.715998913842725],[-18.15963783664108,35.82198186363875],[-18.068604513742116,35.92813771261888],[-17.977355304339767,36.03446756334844],[-17.885885149165574,36.14097253035332],[-17.794188945194776,36.24765374028267],[-17.7022615445415,36.354512332075096],[-17.610097753333775,36.46154945712798],[-17.517692330567286,36.568766279470175],[-17.425039986937293,36.676163975938316],[-17.33213538364805,36.78374373635642],[-17.23897313119903,36.89150676371948],[-17.145547788146985,36.99945427438039],[-17.051853859843618,37.10758749824081],[-16.957885797147412,37.21590767894603],[-16.863637995109514,37.3244160740836],[-16.769104791632003,37.43311395538615],[-16.674280466098594,37.54200260893829],[-16.579159237976626,37.65108333538785],[-16.483735265388532,37.76035745016146],[-16.388002643653465,37.86982628368452],[-16.291955403796578,37.97949118160577],[-16.195587511026474,38.08935350502678],[-16.098892863177582,38.199414630735696],[-16.001865289119507,38.30967595144654],[-15.904498547129037,38.42013887604308],[-15.80678632322605,38.53080482982813],[-15.70872222947088,38.64167525477792],[-15.610299802222244,38.752751609802225],[-15.511512500354854,38.86403537100968],[-15.412353703434746,38.97552803197907],[-15.312816709851575,39.08723110403638],[-15.212894734906001,39.19914611653788],[-15.112580908851044,39.311274617159285],[-15.011868274886126,39.42361817219141],[-14.910749787101452,39.53617836684215],[-14.80921830837184,39.64895680554519],[-14.707266608198324,39.76195511227555],[-14.604887360495411,39.875174930872184],[-14.502073141322512,39.98861792536769],[-14.398816426557516,40.10228578032557],[-14.295109589510787,40.21618020118497],[-14.19094489847754,40.33030291461324],[-14.08631451422633,40.44465566886664],[-13.981210487421833,40.55924023415916],[-13.875624755979572,40.67405840303997],[-13.769549142350002,40.78911199077936],[-13.662975350730164,40.904402835763875],[-13.555894964199865,41.01993279990062],[-13.448299441779909,41.135703769030876],[-13.34018011541042,41.251717653353666],[-13.231528186844685,41.36797638785932],[-13.122334724458142,41.4844819327732],[-13.012590659967145,41.60123627401031],[-12.902286785055765,41.71824142364061],[-12.791413747906802,41.83549942036577],[-12.679962049634128,41.9530123300073],[-12.567922040611904,42.070782246007],[-12.455283916698136,42.1888112899391],[-12.342037715347772,42.307101612035865],[-12.22817331161184,42.425655391725414],[-12.113680414018518,42.54447483818375],[-11.998548560331301,42.663562190900144],[-11.882767113180705,42.78291972025696],[-11.766325255563402,42.90254972812443],[-11.649211986205387,43.022454548470385],[-11.531416114782814,43.14263654798574],[-11.412926256995945,43.26309812672628],[-11.29373082949013,43.38384171877104],[-11.1738180446186,43.504869792897935],[-11.05317590503995,43.62618485327729],[-10.931792198145104,43.7477894401837],[-10.809654490306514,43.86968613072687],[-10.686750120942463,43.99187753960203],[-10.563066196389684,44.11436631986079],[-10.438589583576345,44.23715516370281],[-10.313306903487728,44.360246803289115],[-10.187204524416074,44.4836440115779],[-10.060268554985726,44.60734960318345],[-9.932484836944866,44.731366435259],[-9.80383893771409,44.8556974084045],[-9.674316142681619,44.98034546759988],[-9.543901447234987,45.10531360316488],[-9.412579548517726,45.23060485174664],[-9.280334836900352,45.3562222973355],[-9.147151387152405,45.48216907231024],[-9.013012949303572,45.6084483585144],[-8.877902939180728,45.735063388363564],[-8.741804428605974,45.8620174459862],[-8.604700135241899,45.989313868398035],[-8.466572412067876,46.11695604671216],[-8.327403236471525,46.244947427385554],[-8.187174198938294,46.37329151350377],[-8.045866491320282,46.50199186610516],[-7.90346089466675,46.631052105546026],[-7.759937766595101,46.760475912908646],[-7.615277028181595,46.8902670314532],[-7.469458150350306,47.02042926811614],[-7.322460139735824,47.15096649505609],[-7.174261523996051,47.2818826512498],[-7.024840336548266,47.41318174413963],[-6.874174100701339,47.544867851335134],[-6.722239813155454,47.676945122370725],[-6.569013926837783,47.80941778052157],[-6.414472333042454,47.94229012468064],[-6.258590342840193,48.07556653129899],[-6.101342667721724,48.20925145639223],[-5.942703399435743,48.343349437615956],[-5.782645988981869,48.477865096413076],[-5.621143224714956,48.6128031402362],[-5.458167209514613,48.7481683648486],[-5.293689336972818,48.8839656567066],[-5.127680266546918,49.02019999542793],[-4.960109897624193,49.15687645634922],[-4.790947342439722,49.294000213176965],[-4.620160897786661,49.43157654073638],[-4.44771801545204,49.569610817822486],[-4.273585271309912,49.70810853015832],[-4.09772833299678,49.84707527346537],[-3.920111926090499,49.98651675665174]]}}]}