{"type":"FeatureCollection","features":[{"type":"Feature","properties":{"magnitude":0.5,"de":0.5,"ate":0.8,"percentagem":50.0},"geometry":{"type":"MultiPolygon","coordinates":[[[[-12.15022333869401,30.0],[-9.732113553448517,32.75999999999994],[-7.619999999998981,35.060458779464135],[-5.579999999998904,37.159246467322134],[-3.5399999999988268,39.12576685254272],[-3.5399999999988268,30.0],[-12.15022333869401,30.0]]],[[[-34.5,32.3183707095411],[-34.5,44.939999999999685],[-23.37644292589879,44.939999999999685],[-27.959999999999752,39.44717972582772],[-30.359999999999843,36.665995317451774],[-31.679999999999893,35.20721501290659],[-32.97408862434233,33.83999999999992],[-34.5,32.3183707095411]]]]}},{"type":"Feature","properties":{"magnitude":0.8,"de":0.8,"ate":0.95,"percentagem":80.0},"geometry":{"type":"MultiPolygon","coordinates":[[[[-34.5,30.0],[-34.5,32.3183707095411],[-32.39835473827497,34.439999999999905],[-30.11999999999983,36.937389812009265],[-27.831105466727056,39.599999999999795],[-23.37644292589879,44.939999999999685],[-12.986274426971182,44.939999999999685],[-14.989200663633733,42.839999999999726],[-17.10788795101451,40.49999999999977],[-23.763626212800595,32.75999999999994],[-26.21271512313947,30.0],[-34.5,30.0]]],[[[-20.253353711748275,30.0],[-15.2609875029774,35.81999999999988],[-12.30927043714927,39.119999999999806],[-10.799999999999102,40.7226551541046],[-9.359999999999047,42.18899095690254],[-7.919999999998993,43.59070572486951],[-6.4651501232921955,44.939999999999685],[-3.5399999999988268,44.939999999999685],[-3.5399999999988268,39.12576685254272],[-5.579999999998904,37.159246467322134],[-7.619999999998981,35.060458779464135],[-9.732113553448517,32.75999999999994],[-12.15022333869401,30.0],[-20.253353711748275,30.0]]]]}},{"type":"Feature","properties":{"magnitude":0.95,"de":0.95,"ate":0.99,"percentagem":95.0},"geometry":{"type":"MultiPolygon","coordinates":[[[[-26.21271512313947,30.0],[-23.759999999999593,32.764182558928006],[-17.10788795101451,40.49999999999977],[-14.989200663633733,42.839999999999726],[-12.986274426971182,44.939999999999685],[-10.329726880913425,44.939999999999685],[-12.779999999999177,42.47467598146759],[-15.386412419021209,39.6599999999998],[-17.57999999999936,37.167983330704544],[-23.747790033151375,30.0],[-26.21271512313947,30.0]]],[[[-22.582137803482823,30.0],[-16.739999999999327,36.79819864021742],[-14.339999999999236,39.51863321007765],[-11.692929835463211,42.35999999999974],[-9.10292003041722,44.939999999999685],[-6.4651501232921955,44.939999999999685],[-7.919999999998993,43.59070572486951],[-9.359999999999047,42.18899095690254],[-10.799999999999102,40.7226551541046],[-12.309270437149271,39.11999999999981],[-15.2609875029774,35.81999999999988],[-20.253353711748275,30.0],[-22.582137803482823,30.0]]]]}},{"type":"Feature","properties":{"magnitude":0.99,"de":0.99,"ate":2.0,"percentagem":99.0},"geometry":{"type":"Polygon","coordinates":[[[-23.747790033151375,30.0],[-22.582137803482823,30.0],[-16.739999999999327,36.79819864021742],[-14.339999999999236,39.51863321007765],[-11.692929835463211,42.359999999999744],[-9.10292003041722,44.939999999999685],[-10.329726880913425,44.939999999999685],[-11.999999999999147,43.27955727698183],[-14.018566776344239,41.15999999999976],[-16.139999999999304,38.81450043207714],[-23.747790033151375,30.0]]]}}]}