{"type":"FeatureCollection","features":[{"type":"Feature","properties":{"magnitude":0.2,"de":0.2,"ate":0.5,"percentagem":20.0},"geometry":{"type":"Polygon","coordinates":[[[-34.5,31.573517842549066],[-32.660183694483074,30.0],[-3.5399999999988268,30.0],[-3.5399999999988268,41.34200653277756],[-5.21999999999889,41.49646773758139],[-6.839999999998952,41.73446938838351],[-8.399999999999011,42.05449935108119],[-9.899999999999068,42.45451422161524],[-11.339999999999122,42.9316982528347],[-12.779999999999177,43.508655262046396],[-14.15999999999923,44.16369521034487],[-15.560884594514159,44.939999999999685],[-34.5,44.939999999999685],[-34.5,31.573517842549066]]]}},{"type":"Feature","properties":{"magnitude":0.5,"de":0.5,"ate":0.8,"percentagem":50.0},"geometry":{"type":"Polygon","coordinates":[[[-5.879999999998916,41.582374107285716],[-3.5399999999988268,41.34200653277756],[-3.5399999999988268,44.939999999999685],[-15.560884594514159,44.939999999999685],[-14.279999999999234,44.22567013095162],[-12.959999999999184,43.58825381754274],[-11.639999999999134,43.043377153782544],[-10.259999999999081,42.564927350787656],[-8.819999999999027,42.157031251749515],[-7.379999999998972,41.83472693700578],[-5.879999999998916,41.582374107285716]]]}}]}