{"type":"FeatureCollection","features":[{"type":"Feature","properties":{"magnitude":0.2,"de":0.2,"ate":0.5,"percentagem":20.0},"geometry":{"type":"Polygon","coordinates":[[[-34.5,30.0],[-22.874718448284625,30.0],[-20.399999999999466,30.818070973193855],[-17.939999999999372,31.51482871560572],[-15.539999999999281,32.07699099870844],[-13.13999999999919,32.519171565749076],[-10.7399999999991,32.839216838635295],[-8.339999999999009,33.03647759803109],[-5.939999999998918,33.111671789601814],[-3.5399999999988268,33.06673046798377],[-3.5399999999988268,43.29010993054861],[-5.519999999998902,43.31652507244314],[-7.4399999999989745,43.28787556631325],[-9.359999999999047,43.205248445451744],[-11.279999999999118,43.0681203877641],[-13.199999999999193,42.875973455748365],[-15.119999999999266,42.62832588761167],[-17.03999999999934,42.324759318940814],[-18.95999999999941,41.964953929308386],[-20.81999999999948,41.56259538300439],[-22.739999999999554,41.091745124768735],[-24.659999999999627,40.56477759484121],[-26.5799999999997,39.98229563400646],[-28.499999999999773,39.34529168597775],[-30.479999999999848,38.632819748822364],[-32.45999999999992,37.86607886335464],[-34.5,37.02229265042975],[-34.5,30.0]]]}},{"type":"Feature","properties":{"magnitude":0.5,"de":0.5,"ate":0.8,"percentagem":50.0},"geometry":{"type":"Polygon","coordinates":[[[-34.5,44.939999999999685],[-34.5,37.02229265042975],[-32.15999999999991,37.98563693754054],[-29.819999999999823,38.876459251299806],[-28.019999999999754,39.50958323956297],[-26.27999999999969,40.076931645156634],[-24.419999999999618,40.63370106511433],[-22.559999999999548,41.13827847459205],[-20.699999999999477,41.59015185690353],[-18.839999999999407,41.989092774325215],[-16.979999999999336,42.33509570064927],[-15.059999999999263,42.636909211411236],[-13.13999999999919,42.88281541204459],[-11.219999999999118,43.07323521986169],[-9.299999999999045,43.20865323961817],[-7.379999999998972,43.28958515103558],[-5.4599999999988995,43.31655656991579],[-3.5399999999988268,43.29010993054861],[-3.5399999999988268,44.939999999999685],[-34.5,44.939999999999685]]]}}]}