{"type":"FeatureCollection","features":[{"type":"Feature","properties":{"magnitude":0.2,"de":0.2,"ate":0.5,"percentagem":20.0},"geometry":{"type":"Polygon","coordinates":[[[-21.626279992177054,34.619999999999905],[-18.11648865602801,30.0],[-13.789629294836196,30.0],[-17.939999999999372,35.5275497249907],[-20.579999999999472,38.96796113500308],[-23.099999999999568,42.13491298148928],[-25.43800936090413,44.939999999999685],[-30.39021681206002,44.939999999999685],[-28.97999999999979,43.42407570430632],[-27.544165518250765,41.81999999999975],[-24.659999999999627,38.421633995321706],[-21.626279992177054,34.619999999999905]]]}},{"type":"Feature","properties":{"magnitude":0.5,"de":0.5,"ate":0.8,"percentagem":50.0},"geometry":{"type":"Polygon","coordinates":[[[-17.939999999999372,35.5275497249907],[-13.789629294836196,30.0],[-9.45828324101868,30.0],[-10.714263195116972,31.679999999999964],[-11.93896952393758,33.41999999999993],[-13.044652226766889,35.099999999999895],[-13.913385343488525,36.539999999999864],[-14.51715059774221,37.679999999999836],[-14.892542477864163,38.579999999999814],[-14.993318927003292,38.93999999999981],[-15.034207932588693,39.2399999999998],[-15.01309765178277,39.4799999999998],[-14.939999999999259,39.63731665040657],[-14.759999999999252,39.76482436985823],[-11.639999999999134,40.78571166151809],[-8.558543368087642,41.87999999999975],[-6.038442434500803,42.839999999999726],[-3.5399999999988268,43.849691387793804],[-3.5399999999988268,44.939999999999685],[-25.43800936090413,44.939999999999685],[-23.099999999999568,42.13491298148928],[-20.579999999999472,38.96796113500308],[-17.939999999999372,35.5275497249907]]]}},{"type":"Feature","properties":{"magnitude":0.8,"de":0.8,"ate":0.95,"percentagem":80.0},"geometry":{"type":"Polygon","coordinates":[[[-10.714263195116972,31.679999999999964],[-9.45828324101868,30.0],[-7.262142032336235,30.000000000000004],[-8.021574831708403,30.95999999999998],[-8.645536417636134,31.91999999999996],[-8.980256483721712,32.639999999999944],[-9.030453788331688,32.87999999999994],[-8.99205804832768,33.05999999999993],[-8.883743739100561,33.11999999999993],[-6.179999999998927,33.99245635469508],[-3.5399999999988268,34.90308863948098],[-3.5399999999988268,43.849691387793804],[-6.345204528894466,42.71999999999973],[-9.119999999999038,41.674127010150706],[-11.939999999999145,40.683800819828164],[-14.759999999999252,39.76482436985823],[-14.921393689942667,39.6599999999998],[-14.994018202346712,39.53999999999979],[-15.03499924704442,39.2999999999998],[-15.015770661405654,39.0599999999998],[-14.82878375057814,38.39999999999982],[-14.428863922591844,37.499999999999844],[-13.810029507083605,36.359999999999864],[-12.968563252559207,34.97999999999989],[-11.8980031648098,33.35999999999993],[-10.714263195116972,31.679999999999964]]]}},{"type":"Feature","properties":{"magnitude":0.95,"de":0.95,"ate":0.99,"percentagem":95.0},"geometry":{"type":"Polygon","coordinates":[[[-7.262142032336235,30.000000000000004],[-3.5399999999988268,30.0],[-3.5399999999988268,30.99265384612019],[-6.53999999999894,30.07301623190376],[-6.7799999999989495,30.203435590351],[-7.171080663122572,30.599999999999987],[-7.511679360515952,31.079999999999977],[-7.634211744383132,31.379999999999967],[-7.619999999998981,31.451205706038007],[-7.559999999998979,31.477987474221198],[-3.5399999999988263,32.79522177701061],[-3.5399999999988268,34.90308863948098],[-6.179999999998927,33.99245635469508],[-8.883743739100561,33.11999999999993],[-8.99205804832768,33.05999999999993],[-9.030453788331688,32.87999999999994],[-8.980256483721712,32.639999999999944],[-8.645536417636134,31.91999999999996],[-8.021574831708405,30.959999999999983],[-7.262142032336235,30.000000000000004]]]}},{"type":"Feature","properties":{"magnitude":0.99,"de":0.99,"ate":2.0,"percentagem":99.0},"geometry":{"type":"Polygon","coordinates":[[[-6.663149108285252,30.119999999999997],[-6.53999999999894,30.07301623190376],[-6.479999999998938,30.084422412946992],[-3.5399999999988268,30.99265384612019],[-3.5399999999988263,32.79522177701061],[-7.619999999998981,31.451205706038007],[-7.634211744383132,31.37999999999997],[-7.6005697191953505,31.259999999999973],[-7.356551716361956,30.839999999999982],[-7.0199999999989595,30.429284742046274],[-6.663149108285252,30.119999999999997]]]}}]}