{"type":"FeatureCollection","properties":{"largura_maxima_km":87.976,"largura_sobre_pt_km":84.188,"linha_central_sobre_pt":false,"desenhavel_como_area":true,"perfil_largura":[{"t":0.61667,"lat":44.3562,"lon":-39.9282,"largura_km":87.976,"eixo_na_terra":true},{"t":0.62222,"lat":44.503,"lon":-39.5912,"largura_km":87.624,"eixo_na_terra":true},{"t":0.62778,"lat":44.6516,"lon":-39.2479,"largura_km":87.268,"eixo_na_terra":true},{"t":0.63333,"lat":44.8022,"lon":-38.898,"largura_km":86.906,"eixo_na_terra":true},{"t":0.63889,"lat":44.9547,"lon":-38.5413,"largura_km":86.537,"eixo_na_terra":true},{"t":0.64444,"lat":45.1094,"lon":-38.1774,"largura_km":86.163,"eixo_na_terra":true},{"t":0.65,"lat":45.2663,"lon":-37.8059,"largura_km":85.782,"eixo_na_terra":true},{"t":0.65556,"lat":45.4255,"lon":-37.4266,"largura_km":85.395,"eixo_na_terra":true},{"t":0.66111,"lat":45.5871,"lon":-37.0389,"largura_km":85.0,"eixo_na_terra":true},{"t":0.66667,"lat":45.7512,"lon":-36.6424,"largura_km":84.598,"eixo_na_terra":true},{"t":0.67222,"lat":45.918,"lon":-36.2367,"largura_km":84.188,"eixo_na_terra":true},{"t":0.67778,"lat":46.0875,"lon":-35.8212,"largura_km":83.77,"eixo_na_terra":true},{"t":0.68333,"lat":46.26,"lon":-35.3953,"largura_km":83.343,"eixo_na_terra":true},{"t":0.68889,"lat":46.4355,"lon":-34.9585,"largura_km":82.907,"eixo_na_terra":true},{"t":0.69444,"lat":46.6143,"lon":-34.5099,"largura_km":82.461,"eixo_na_terra":true},{"t":0.7,"lat":46.7966,"lon":-34.0488,"largura_km":82.003,"eixo_na_terra":true},{"t":0.70556,"lat":46.9825,"lon":-33.5744,"largura_km":81.536,"eixo_na_terra":true},{"t":0.71111,"lat":47.1723,"lon":-33.0856,"largura_km":81.056,"eixo_na_terra":true},{"t":0.71667,"lat":47.3664,"lon":-32.5815,"largura_km":80.563,"eixo_na_terra":true},{"t":0.72222,"lat":47.5649,"lon":-32.0607,"largura_km":80.056,"eixo_na_terra":true},{"t":0.72778,"lat":47.7682,"lon":-31.5219,"largura_km":79.533,"eixo_na_terra":true},{"t":0.73333,"lat":47.9768,"lon":-30.9636,"largura_km":78.992,"eixo_na_terra":true},{"t":0.73889,"lat":48.191,"lon":-30.3838,"largura_km":78.433,"eixo_na_terra":true},{"t":0.74444,"lat":48.4115,"lon":-29.7805,"largura_km":77.854,"eixo_na_terra":true},{"t":0.75,"lat":48.6387,"lon":-29.1512,"largura_km":77.25,"eixo_na_terra":true},{"t":0.75556,"lat":48.8735,"lon":-28.4929,"largura_km":76.619,"eixo_na_terra":true},{"t":0.76111,"lat":49.1166,"lon":-27.8022,"largura_km":75.957,"eixo_na_terra":true},{"t":0.76667,"lat":49.3692,"lon":-27.0747,"largura_km":75.26,"eixo_na_terra":true},{"t":0.77222,"lat":49.6324,"lon":-26.3052,"largura_km":74.518,"eixo_na_terra":true},{"t":0.77778,"lat":49.908,"lon":-25.487,"largura_km":73.722,"eixo_na_terra":true}]},"features":[{"type":"Feature","properties":{},"geometry":{"type":"Polygon","coordinates":[[[-39.72641984453426,44.90559530321339],[-38.67039849774409,45.35405302500846],[-37.930832662614364,45.663290762231156],[-37.15946143082033,45.98158862908757],[-36.76079673983736,46.14439880037534],[-35.93507524524057,46.4779489257694],[-35.06770665634684,46.82301361657046],[-34.15331687939988,47.18092125799637],[-33.16782969434337,47.55997857793615],[-32.137212431377804,47.949006027206245],[-31.034190552713937,48.35707391492702],[-30.451408679316643,48.569244309934334],[-29.845061796026698,48.787493559692976],[-29.212678446450923,49.0124147883745],[-28.551334702119448,49.24470764998894],[-27.857529491671357,49.4852074252184],[-27.12701202341185,49.73492524472],[-26.330169427352956,50.00324245343862],[-25.507919021130647,50.275723950985885],[-24.628394267992405,50.56228071374016],[-26.22355488408118,49.28143172369931],[-27.015060080411814,49.00645931858631],[-27.739884235397454,48.75097441174238],[-28.427894914509352,48.505115444961106],[-29.083401956609805,48.26781281699629],[-29.70994710052372,48.03818498797864],[-30.31048252298558,47.81549503311807],[-30.88749936080842,47.59911932595597],[-31.424445438892405,47.39565421356722],[-32.47946237814185,46.98980970348588],[-33.467842641835716,46.6023053589898],[-34.398889855898915,46.23077708702106],[-35.27997565249612,45.873341474538435],[-36.11705659147407,45.52846847278303],[-36.91502602336283,45.194894504019715],[-37.677961038490764,44.871561315092016],[-38.40930035185977,44.55757181523507],[-39.11197534208114,44.25215745814574],[-40.11766719858059,43.80868428272634],[-39.72641984453426,44.90559530321339]]]}}]}