{"type":"FeatureCollection","features":[{"type":"Feature","properties":{"magnitude":0.2,"de":0.2,"ate":0.5,"percentagem":20.0},"geometry":{"type":"Polygon","coordinates":[[[-27.010783357409274,30.0],[-3.5399999999988268,30.0],[-3.5399999999988268,37.058263726216865],[-10.139999999999077,35.42581392375186],[-13.019999999999186,34.64161708153904],[-15.839999999999293,33.82057615657635],[-18.6599999999994,32.944339479714465],[-21.479999999999507,32.01026141319627],[-24.23999999999961,31.037451925277082],[-27.010783357409274,30.0]]]}},{"type":"Feature","properties":{"magnitude":0.5,"de":0.5,"ate":0.8,"percentagem":50.0},"geometry":{"type":"Polygon","coordinates":[[[-34.5,30.0],[-27.010783357409274,30.0],[-24.23999999999961,31.037451925277082],[-21.479999999999507,32.01026141319627],[-18.659999999999403,32.944339479714465],[-15.839999999999293,33.82057615657635],[-13.019999999999186,34.64161708153904],[-10.139999999999077,35.42581392375186],[-3.5399999999988268,37.058263726216865],[-3.5399999999988268,44.939999999999685],[-14.464524997521439,44.939999999999685],[-17.09999999999934,44.182822855839234],[-19.67999999999944,43.39869074638936],[-22.199999999999534,42.59020894133872],[-24.71999999999963,41.738048373767015],[-27.179999999999723,40.86253052846736],[-29.639999999999816,39.94248383277277],[-32.09999999999991,38.97660334854939],[-34.5,37.98906018304636],[-34.5,30.0]]]}},{"type":"Feature","properties":{"magnitude":0.8,"de":0.8,"ate":0.95,"percentagem":80.0},"geometry":{"type":"Polygon","coordinates":[[[-34.5,44.049191581276915],[-34.5,37.98906018304636],[-31.679999999999893,39.14480498005108],[-28.79999999999978,40.26173466386461],[-24.359999999999616,41.86251982619839],[-19.43999999999943,43.473469192582726],[-14.464524997521439,44.939999999999685],[-32.268603094297355,44.939999999999685],[-34.5,44.049191581276915]]]}},{"type":"Feature","properties":{"magnitude":0.95,"de":0.95,"ate":0.99,"percentagem":95.0},"geometry":{"type":"Polygon","coordinates":[[[-34.5,44.939999999999685],[-34.5,44.049191581276915],[-32.268603094297355,44.939999999999685],[-34.5,44.939999999999685]]]}}]}