{"type":"FeatureCollection","features":[{"type":"Feature","properties":{"t_inicio":0.44444444444442865,"t_fim":0.5555555555555394},"geometry":{"type":"LineString","coordinates":[[-39.707774929307334,35.196383745811026],[-39.3000189896793,35.23904349753356],[-38.880500195661256,35.28467078833643],[-38.44824960674072,35.333493479815736],[-38.00216070068291,35.38577162022052],[-37.54096041009001,35.44180419562103],[-37.06317182221696,35.501937820421226],[-36.56706540845673,35.56657809522295],[-36.05059415522521,35.63620470698363],[-35.51130558498622,35.711391899391934],[-34.94621973453721,35.79283685118463],[-34.35165546424727,35.88140005258045],[-33.72297555240411,35.97816453388072],[-33.054198713352775,36.084525973419844],[-32.33738231522264,36.202335993513216],[-31.56158465428132,36.33414294550243],[-30.710992885473274,36.483626083695086],[-29.761212937620172,36.65645560334994],[-28.670874631745562,36.86223771406157],[-27.35832122563886,37.119912875476125],[-25.60712700048441,37.479623973620654]]}}]}