{"type":"FeatureCollection","features":[{"type":"Feature","properties":{"magnitude":0.95,"percentagem":95.0,"territorio":"acores"},"geometry":{"type":"LineString","coordinates":[[-28.807943271494953,40.479999999999905],[-28.840000000000067,40.47413297652883],[-28.880000000000067,40.466822079217],[-28.920000000000066,40.459520787248955],[-28.960000000000065,40.452229125457556],[-29.000000000000064,40.4449471187193],[-29.027212586476757,40.43999999999991],[-29.040000000000063,40.43767743324836],[-29.080000000000062,40.430423064463604],[-29.12000000000006,40.42317841932932],[-29.16000000000006,40.41594352285112],[-29.20000000000006,40.40871840007819],[-29.24000000000006,40.40150307610327],[-29.248345514936823,40.399999999999906],[-29.280000000000058,40.39430405373957],[-29.32000000000006,40.387116580929884],[-29.360000000000056,40.37993897592135],[-29.400000000000055,40.372771263935356],[-29.440000000000055,40.36561347023685],[-29.471414969070672,40.35999999999991],[-29.480000000000054,40.358467362619166],[-29.520000000000053,40.35133759025369],[-29.560000000000052,40.344217805496854],[-29.60000000000005,40.33710803374181],[-29.64000000000005,40.330008300425135],[-29.68000000000005,40.32291863102691],[-29.696492562744233,40.31999999999991],[-29.72000000000005,40.315843776324016],[-29.760000000000048,40.308782343209685],[-29.800000000000047,40.301731043734904],[-29.840000000000046,40.294689903507376],[-29.880000000000045,40.287658948178205],[-29.920000000000044,40.28063820344191],[-29.92364214093802,40.27999999999991],[-29.960000000000043,40.27363493141318],[-30.00000000000004,40.26664263885523],[-30.040000000000042,40.25966062700766],[-30.08000000000004,40.252688921692],[-30.12000000000004,40.24572754877307],[-30.152960775625033,40.23999999999991],[-30.16000000000004,40.23877792309524],[-30.20000000000004,40.23184517465881],[-30.240000000000038,40.22492282904625],[-30.280000000000037,40.21801091224877],[-30.320000000000036,40.211109450300775],[-30.360000000000035,40.20421846927995],[-30.38452638025354,40.19999999999991],[-30.400000000000034,40.197341017224765],[-30.440000000000033,40.19047887824594],[-30.480000000000032,40.18362729101082],[-30.52000000000003,40.17678628172264],[-30.56000000000003,40.169955876627824],[-30.60000000000003,40.16313610201592],[-30.61842513614009,40.15999999999991],[-30.64000000000003,40.15633115363387],[-30.680000000000028,40.14954043952297],[-30.720000000000027,40.14276042709665],[-30.760000000000026,40.135991142769186],[-30.800000000000026,40.129232612997924],[-30.840000000000025,40.122484864283194],[-30.85475570270015,40.11999999999991],[-30.880000000000024,40.115752749608106],[-30.920000000000023,40.10903428073568],[-30.960000000000022,40.1023266645021],[-31.00000000000002,40.095629927531554],[-31.04000000000002,40.08894409649116],[-31.08000000000002,40.082269198090884],[-31.093622722723893,40.07999999999991],[-31.120000000000022,40.0756102470968],[-31.160000000000018,40.06896484874419],[-31.200000000000017,40.062330454989905],[-31.240000000000016,40.055707092666786],[-31.280000000000015,40.04909478865045],[-31.320000000000014,40.04249356985916],[-31.335137281615232,40.039999999999914],[-31.360000000000014,40.03590811241557],[-31.400000000000013,40.02933661472238],[-31.440000000000012,40.02277627458341],[-31.48000000000001,40.01622711903872],[-31.52000000000001,40.00968917517106],[-31.56000000000001,40.00316247010561],[-31.579417409499765,39.999999999999915],[-31.60000000000001,39.996650835931185],[-31.640000000000008,39.99015407383942],[-31.680000000000003,39.9836686232446],[-31.720000000000006,39.97719451139268],[-31.760000000000005,39.970731765571955],[-31.800000000000004,39.96428041311305],[-31.82658863093897,39.959999999999916],[-31.840000000000003,39.95784293172794],[-31.880000000000003,39.95142174492253],[-31.92,39.94501202453367],[-31.96,39.93861379801151],[-32.0,39.93222709284839]]}},{"type":"Feature","properties":{"magnitude":0.99,"percentagem":99.0,"territorio":"acores"},"geometry":{"type":"LineString","coordinates":[[-25.626964717298602,36.0],[-25.600000000000136,36.0058466190625],[-25.560000000000137,36.01452691274003],[-25.520000000000138,36.02321394560816],[-25.48000000000014,36.031907698589436],[-25.442796458186084,36.040000000000006],[-25.44000000000014,36.04060871229459],[-25.40000000000014,36.04932385809834],[-25.36000000000014,36.05804566748464],[-25.320000000000142,36.066774121504],[-25.280000000000143,36.07550920124545],[-25.25945303273364,36.08],[-25.240000000000144,36.084254799401045],[-25.200000000000145,36.09301111972614],[-25.160000000000146,36.10177400961222],[-25.120000000000147,36.11054345027578],[-25.080000000000148,36.11931942297164],[-25.0769008492014,36.12],[-25.04000000000015,36.128109363587],[-25.00000000000015,36.13690642552158],[-24.96000000000015,36.14570996369556],[-24.92000000000015,36.154519959490635],[-24.89513897070654,36.16],[-24.88000000000015,36.16333946499359],[-24.840000000000153,36.17217043650806],[-24.800000000000153,36.181007810129266],[-24.760000000000154,36.1898515673654],[-24.720000000000155,36.1987016897626],[-24.71413718152692,36.199999999999996],[-24.680000000000156,36.20756511450377],[-24.640000000000157,36.21643606285397],[-24.600000000000158,36.22531332121681],[-24.56000000000016,36.23419687126431],[-24.533890414073277,36.239999999999995],[-24.52000000000016,36.243089536084184],[-24.48000000000016,36.251993799786405],[-24.44000000000016,36.26090430030166],[-24.400000000000162,36.26982101942746],[-24.360000000000163,36.27874393899892],[-24.354374113641104,36.279999999999994],[-24.320000000000164,36.28768010346981],[-24.280000000000165,36.2966235884995],[-24.240000000000165,36.30557321946672],[-24.200000000000166,36.31452897833145],[-24.17558272517714,36.31999999999999],[-24.160000000000167,36.32349406106056],[-24.120000000000168,36.33247027429914],[-24.08000000000017,36.34145256120207],[-24.04000000000017,36.350440903853844]]}},{"type":"Feature","properties":{"magnitude":0.99,"percentagem":99.0,"territorio":"acores"},"geometry":{"type":"LineString","coordinates":[[-24.04000000000017,39.334835633532556],[-24.08000000000017,39.326339670801886],[-24.109873198412256,39.31999999999992],[-24.120000000000168,39.317852681900455],[-24.160000000000167,39.309379048291476],[-24.200000000000166,39.300912186696905],[-24.240000000000165,39.29245211658412],[-24.280000000000165,39.28399885745951],[-24.298939612762936,39.27999999999993],[-24.320000000000164,39.27555706220941],[-24.360000000000163,39.2671262802588],[-24.400000000000162,39.25870236669128],[-24.44000000000016,39.25028534113849],[-24.48000000000016,39.24187522327124],[-24.488927707593536,39.23999999999993],[-24.52000000000016,39.23347883296574],[-24.56000000000016,39.22509134109875],[-24.600000000000158,39.216710814655286],[-24.640000000000157,39.2083372734317],[-24.67986012567555,39.19999999999993],[-24.680000000000156,39.1999707677345],[-24.720000000000155,39.19161996395265],[-24.760000000000154,39.18327620338582],[-24.800000000000153,39.174939505956246],[-24.840000000000153,39.16660989162562],[-24.871770113070816,39.15999999999993],[-24.88000000000015,39.15828916357504],[-24.92000000000015,39.14998243688332],[-24.96000000000015,39.14168285162958],[-25.00000000000015,39.13339042790169],[-25.04000000000015,39.125105185827096],[-25.064670561517215,39.11999999999993],[-25.08000000000015,39.1168304488827],[-25.120000000000147,39.1085682454194],[-25.160000000000146,39.100313282292824],[-25.200000000000145,39.09206557975691],[-25.240000000000144,39.083825158105384],[-25.258586336200736,39.079999999999934],[-25.280000000000143,39.07559662648042],[-25.320000000000142,39.06737939518784],[-25.36000000000014,39.059169503807794],[-25.40000000000014,39.050966972760854],[-25.44000000000014,39.04277182250736],[-25.45354319762432,39.039999999999935],[-25.48000000000014,39.03458971116697],[-25.520000000000138,39.026417903795306],[-25.560000000000137,39.01825353659042],[-25.600000000000136,39.010096630139756],[-25.640000000000136,39.001947205070834],[-25.649567842375216,38.999999999999936],[-25.680000000000135,38.993811729730105],[-25.720000000000134,38.98568580084094],[-25.760000000000133,38.977567413052256],[-25.800000000000132,38.969456587118806],[-25.84000000000013,38.96135334383563],[-25.846687946132082,38.95999999999994],[-25.88000000000013,38.95326472095733],[-25.92000000000013,38.94518512792658],[-25.96000000000013,38.937113177610435],[-26.000000000000128,38.929048890931455],[-26.040000000000127,38.92099228885253],[-26.044932209058373,38.91999999999994],[-26.080000000000126,38.91295073564466],[-26.120000000000125,38.90491793866495],[-26.160000000000124,38.89689288669541],[-26.200000000000124,38.88887560082668],[-26.240000000000123,38.880866102189934],[-26.244330403736363,38.87999999999994],[-26.280000000000122,38.87287183660291],[-26.32000000000012,38.8648862986856],[-26.36000000000012,38.8569086087562],[-26.40000000000012,38.84893878807378],[-26.44000000000012,38.84097685793809],[-26.44491342580982,38.83999999999994],[-26.480000000000118,38.833030098661865],[-26.520000000000117,38.8250922856384],[-26.560000000000116,38.817162424263415],[-26.600000000000115,38.80924053596477],[-26.640000000000114,38.801326642211066],[-26.646713347515103,38.79999999999994],[-26.680000000000113,38.79342760867169],[-26.720000000000113,38.785537989194474],[-26.76000000000011,38.777656425709765],[-26.80000000000011,38.769782939814455],[-26.84000000000011,38.761917553146226],[-26.8497634742948,38.75999999999994],[-26.88000000000011,38.75406646550231],[-26.92000000000011,38.74622551104502],[-26.960000000000107,38.73839271760808],[-27.000000000000107,38.730568106957676],[-27.040000000000106,38.72275170090092],[-27.054098404701378,38.71999999999994],[-27.080000000000105,38.71494878003972],[-27.120000000000104,38.707156964896974],[-27.160000000000103,38.699373416486665],[-27.200000000000102,38.69159815674439],[-27.2400000000001,38.68383120764684],[-27.259754093817726,38.67999999999994],[-27.280000000000097,38.676076675180084],[-27.3200000000001,38.668334476466704],[-27.3600000000001,38.660600650882046],[-27.400000000000098,38.652875220531456],[-27.440000000000097,38.645158207561416],[-27.466767920435874,38.639999999999944],[-27.480000000000093,38.63745228582079],[-27.5200000000001,38.62976018347016],[-27.560000000000095,38.62207656132892],[-27.600000000000094,38.61440144167226],[-27.640000000000093,38.60673484681659],[-27.675178758257527,38.59999999999994],[-27.680000000000092,38.599077758848985],[-27.72000000000009,38.59143623561095],[-27.76000000000009,38.58380330034721],[-27.80000000000009,38.57617897550293],[-27.84000000000009,38.56856328356461],[-27.880000000000088,38.56095624706017],[-27.88503487826284,38.559999999999945],[-27.920000000000083,38.55336479456501],[-27.960000000000086,38.545783032426385],[-28.000000000000085,38.53820998932612],[-28.040000000000084,38.5306456879209],[-28.080000000000084,38.52309015090893],[-28.096380712369022,38.519999999999946],[-28.120000000000083,38.51554803396258],[-28.160000000000082,38.50801793400647],[-28.20000000000008,38.500496662391285],[-28.24000000000008,38.492984241943915],[-28.28000000000008,38.48548069553288],[-28.309252868210834,38.47999999999995],[-28.32000000000008,38.47798813936681],[-28.360000000000078,38.47051019345624],[-28.400000000000077,38.463041185872186],[-28.440000000000076,38.45558113961176],[-28.480000000000075,38.44813007771375],[-28.520000000000074,38.440688023258666],[-28.523703214784224,38.43999999999995],[-28.560000000000073,38.43326201104816],[-28.600000000000072,38.425845762841064],[-28.64000000000007,38.4184385867957],[-28.68000000000007,38.41104050612112],[-28.72000000000007,38.403651544068104],[-28.739794109453882,38.39999999999995],[-28.76000000000007,38.396275598929925],[-28.800000000000068,38.38891260823957],[-28.840000000000067,38.381558801230334],[-28.880000000000067,38.37421420128145],[-28.920000000000066,38.366878831814034],[-28.957558338783674,38.35999999999994],[-28.960000000000065,38.359553181092835],[-29.000000000000064,38.352243948846294],[-29.040000000000063,38.34494401248034],[-29.080000000000062,38.337653395544436],[-29.12000000000006,38.3303721216298],[-29.16000000000006,38.32310021436953],[-29.177077161864453,38.31999999999995],[-29.20000000000006,38.315842023240656],[-29.24000000000006,38.308596461903726],[-29.280000000000058,38.30136033304525],[-29.320000000000057,38.29413366042647],[-29.360000000000056,38.286916467850524],[-29.398384150444535,38.27999999999995],[-29.400000000000055,38.279709081763684],[-29.440000000000055,38.27251840261163],[-29.48000000000005,38.265337269663554],[-29.520000000000053,38.25816570685065],[-29.560000000000052,38.251003738145876],[-29.60000000000005,38.24385138756415],[-29.62157025514795,38.23999999999995],[-29.64000000000005,38.236712099424025],[-29.68000000000005,38.229586472978596],[-29.72000000000005,38.22247053123901],[-29.760000000000048,38.21536429834795],[-29.800000000000047,38.208267798489906],[-29.840000000000046,38.201181055891325],[-29.84667663484034,38.19999999999995],[-29.880000000000045,38.19411022222066],[-29.920000000000044,38.18705041556876],[-29.960000000000043,38.180000433178776],[-30.000000000000043,38.17296029940459],[-30.040000000000042,38.16593003864206],[-30.073788716613354,38.159999999999954],[-30.08000000000004,38.15891080821837],[-30.12000000000004,38.15190765340411],[-30.160000000000043,38.14491443893604],[-30.20000000000004,38.137931189337095],[-30.240000000000038,38.13095792917211],[-30.280000000000037,38.12399468304781],[-30.302982368988467,38.119999999999955],[-30.320000000000036,38.117044549838994],[-30.360000000000035,38.110108623434584],[-30.400000000000034,38.103182778820724],[-30.440000000000033,38.0962670407309],[-30.480000000000032,38.08936143394043],[-30.52000000000003,38.08246598326664],[-30.534328009906904,38.079999999999956],[-30.56000000000003,38.075585305943946],[-30.60000000000003,38.06871738982992],[-30.64000000000003,38.06185969799502],[-30.680000000000028,38.05501225538278],[-30.720000000000027,38.04817508697859],[-30.760000000000026,38.041348217809755],[-30.767912732963453,38.03999999999996],[-30.800000000000026,38.03453735571242],[-30.840000000000025,38.02773823699968],[-30.880000000000024,38.020949486094544],[-30.920000000000023,38.01417112815001],[-30.960000000000022,38.00740318836099],[-31.00000000000002,38.00064569196411],[-31.00382871015471,37.99999999999996],[-31.04000000000002,37.99390500506563],[-31.08000000000002,37.98717547606492],[-31.12000000000002,37.98045645943533],[-31.160000000000018,37.97374798053874],[-31.200000000000017,37.9670500647788],[-31.240000000000016,37.960362737600896],[-31.242173566576476,37.95999999999996],[-31.280000000000015,37.953692586473906],[-31.320000000000014,37.94703344466253],[-31.360000000000014,37.940384960815514],[-31.400000000000013,37.93374716050287],[-31.440000000000012,37.927120069336254],[-31.48000000000001,37.920503712969],[-31.483050788716668,37.91999999999996],[-31.520000000000014,37.913904458748874],[-31.56000000000001,37.90731650673456],[-31.60000000000001,37.90073935930177],[-31.640000000000008,37.89417304222773],[-31.680000000000007,37.88761758133126],[-31.720000000000006,37.881073002472824],[-31.726570169908328,37.87999999999996],[-31.76000000000001,37.87454500681955],[-31.800000000000008,37.86802905230146],[-31.840000000000003,37.861524049999524],[-31.880000000000003,37.85503002589728],[-31.92,37.8485470060198],[-31.96,37.8420750164336],[-31.972848296942527,37.83999999999996],[-32.0,37.83561864149224]]}}]}