{"type":"FeatureCollection","features":[{"type":"Feature","properties":{"magnitude":0.2,"de":0.2,"ate":0.5,"percentagem":20.0},"geometry":{"type":"Polygon","coordinates":[[[-20.27999999999946,32.12751272058189],[-14.76063681124296,30.0],[-3.5399999999988268,30.0],[-3.5399999999988268,36.48711564204992],[-6.899999999998954,37.87408352799719],[-10.019999999999072,39.11716292537189],[-13.019999999999186,40.26408951221087],[-15.899999999999295,41.31434288526543],[-18.6599999999994,42.269197705240956],[-21.419999999999504,43.169388388598335],[-24.119999999999607,43.993772096934364],[-26.759999999999707,44.74343289333747],[-27.487793314504756,44.939999999999685],[-34.5,44.939999999999685],[-34.5,36.61942279199076],[-32.219999999999914,36.014534743312765],[-29.939999999999827,35.3619937148735],[-27.59999999999974,34.645217062493],[-25.25999999999965,33.88355772113746],[-22.799999999999557,33.03780775429757],[-20.27999999999946,32.12751272058189]]]}},{"type":"Feature","properties":{"magnitude":0.5,"de":0.5,"ate":0.8,"percentagem":50.0},"geometry":{"type":"Polygon","coordinates":[[[-34.5,30.0],[-34.44,30.0],[-14.76063681124296,30.0],[-20.159999999999457,32.08312900256045],[-22.739999999999554,33.01663380173787],[-25.199999999999648,33.863464842047954],[-27.59999999999974,34.645217062493],[-29.939999999999827,35.3619937148735],[-32.219999999999914,36.014534743312765],[-34.5,36.61942279199076],[-34.5,30.0]]]}}]}