{"type":"FeatureCollection","properties":{"largura_maxima_km":32.35,"largura_sobre_pt_km":31.38,"linha_central_sobre_pt":false,"desenhavel_como_area":true,"perfil_largura":[{"t":-0.72222,"lat":25.009,"lon":-26.9621,"largura_km":32.35,"eixo_na_terra":true},{"t":-0.71667,"lat":25.0228,"lon":-26.8575,"largura_km":32.317,"eixo_na_terra":true},{"t":-0.71111,"lat":25.0363,"lon":-26.7529,"largura_km":32.284,"eixo_na_terra":true},{"t":-0.70556,"lat":25.0497,"lon":-26.6484,"largura_km":32.252,"eixo_na_terra":true},{"t":-0.7,"lat":25.0628,"lon":-26.5439,"largura_km":32.22,"eixo_na_terra":true},{"t":-0.69444,"lat":25.0756,"lon":-26.4395,"largura_km":32.19,"eixo_na_terra":true},{"t":-0.68889,"lat":25.0883,"lon":-26.3351,"largura_km":32.159,"eixo_na_terra":true},{"t":-0.68333,"lat":25.1007,"lon":-26.2307,"largura_km":32.13,"eixo_na_terra":true},{"t":-0.67778,"lat":25.1129,"lon":-26.1263,"largura_km":32.1,"eixo_na_terra":true},{"t":-0.67222,"lat":25.1249,"lon":-26.022,"largura_km":32.072,"eixo_na_terra":true},{"t":-0.66667,"lat":25.1367,"lon":-25.9177,"largura_km":32.044,"eixo_na_terra":true},{"t":-0.66111,"lat":25.1482,"lon":-25.8134,"largura_km":32.016,"eixo_na_terra":true},{"t":-0.65556,"lat":25.1596,"lon":-25.7092,"largura_km":31.989,"eixo_na_terra":true},{"t":-0.65,"lat":25.1707,"lon":-25.605,"largura_km":31.962,"eixo_na_terra":true},{"t":-0.64444,"lat":25.1816,"lon":-25.5008,"largura_km":31.936,"eixo_na_terra":true},{"t":-0.63889,"lat":25.1922,"lon":-25.3967,"largura_km":31.91,"eixo_na_terra":true},{"t":-0.63333,"lat":25.2027,"lon":-25.2926,"largura_km":31.885,"eixo_na_terra":true},{"t":-0.62778,"lat":25.2129,"lon":-25.1885,"largura_km":31.86,"eixo_na_terra":true},{"t":-0.62222,"lat":25.2229,"lon":-25.0844,"largura_km":31.836,"eixo_na_terra":true},{"t":-0.61667,"lat":25.2327,"lon":-24.9803,"largura_km":31.812,"eixo_na_terra":true},{"t":-0.61111,"lat":25.2423,"lon":-24.8763,"largura_km":31.788,"eixo_na_terra":true},{"t":-0.60556,"lat":25.2516,"lon":-24.7723,"largura_km":31.766,"eixo_na_terra":true},{"t":-0.6,"lat":25.2608,"lon":-24.6683,"largura_km":31.743,"eixo_na_terra":true},{"t":-0.59444,"lat":25.2697,"lon":-24.5643,"largura_km":31.722,"eixo_na_terra":true},{"t":-0.58889,"lat":25.2784,"lon":-24.4603,"largura_km":31.701,"eixo_na_terra":true},{"t":-0.58333,"lat":25.2869,"lon":-24.3564,"largura_km":31.681,"eixo_na_terra":true},{"t":-0.57778,"lat":25.2951,"lon":-24.2525,"largura_km":31.661,"eixo_na_terra":true},{"t":-0.57222,"lat":25.3031,"lon":-24.1485,"largura_km":31.642,"eixo_na_terra":true},{"t":-0.56667,"lat":25.311,"lon":-24.0446,"largura_km":31.623,"eixo_na_terra":true},{"t":-0.56111,"lat":25.3186,"lon":-23.9407,"largura_km":31.605,"eixo_na_terra":true},{"t":-0.55556,"lat":25.326,"lon":-23.8368,"largura_km":31.587,"eixo_na_terra":true},{"t":-0.55,"lat":25.3331,"lon":-23.733,"largura_km":31.569,"eixo_na_terra":true},{"t":-0.54444,"lat":25.3401,"lon":-23.6291,"largura_km":31.552,"eixo_na_terra":true},{"t":-0.53889,"lat":25.3468,"lon":-23.5252,"largura_km":31.536,"eixo_na_terra":true},{"t":-0.53333,"lat":25.3533,"lon":-23.4214,"largura_km":31.52,"eixo_na_terra":true},{"t":-0.52778,"lat":25.3596,"lon":-23.3175,"largura_km":31.504,"eixo_na_terra":true},{"t":-0.52222,"lat":25.3657,"lon":-23.2137,"largura_km":31.489,"eixo_na_terra":true},{"t":-0.51667,"lat":25.3715,"lon":-23.1098,"largura_km":31.475,"eixo_na_terra":true},{"t":-0.51111,"lat":25.3772,"lon":-23.006,"largura_km":31.461,"eixo_na_terra":true},{"t":-0.50556,"lat":25.3826,"lon":-22.9021,"largura_km":31.447,"eixo_na_terra":true},{"t":-0.5,"lat":25.3878,"lon":-22.7983,"largura_km":31.435,"eixo_na_terra":true},{"t":-0.49444,"lat":25.3928,"lon":-22.6945,"largura_km":31.423,"eixo_na_terra":true},{"t":-0.48889,"lat":25.3976,"lon":-22.5906,"largura_km":31.411,"eixo_na_terra":true},{"t":-0.48333,"lat":25.4021,"lon":-22.4868,"largura_km":31.4,"eixo_na_terra":true},{"t":-0.47778,"lat":25.4064,"lon":-22.3829,"largura_km":31.39,"eixo_na_terra":true},{"t":-0.47222,"lat":25.4106,"lon":-22.2791,"largura_km":31.379,"eixo_na_terra":true},{"t":-0.46667,"lat":25.4144,"lon":-22.1752,"largura_km":31.37,"eixo_na_terra":true},{"t":-0.46111,"lat":25.4181,"lon":-22.0713,"largura_km":31.361,"eixo_na_terra":true},{"t":-0.45556,"lat":25.4216,"lon":-21.9675,"largura_km":31.352,"eixo_na_terra":true},{"t":-0.45,"lat":25.4248,"lon":-21.8636,"largura_km":31.344,"eixo_na_terra":true},{"t":-0.44444,"lat":25.4279,"lon":-21.7597,"largura_km":31.336,"eixo_na_terra":true},{"t":-0.43889,"lat":25.4307,"lon":-21.6558,"largura_km":31.329,"eixo_na_terra":true},{"t":-0.43333,"lat":25.4333,"lon":-21.5519,"largura_km":31.322,"eixo_na_terra":true},{"t":-0.42778,"lat":25.4356,"lon":-21.4479,"largura_km":31.315,"eixo_na_terra":true},{"t":-0.42222,"lat":25.4378,"lon":-21.344,"largura_km":31.31,"eixo_na_terra":true},{"t":-0.41667,"lat":25.4397,"lon":-21.24,"largura_km":31.304,"eixo_na_terra":true},{"t":-0.41111,"lat":25.4414,"lon":-21.1361,"largura_km":31.3,"eixo_na_terra":true},{"t":-0.40556,"lat":25.4429,"lon":-21.0321,"largura_km":31.296,"eixo_na_terra":true},{"t":-0.4,"lat":25.4442,"lon":-20.9281,"largura_km":31.292,"eixo_na_terra":true},{"t":-0.39444,"lat":25.4453,"lon":-20.824,"largura_km":31.289,"eixo_na_terra":true},{"t":-0.38889,"lat":25.4461,"lon":-20.72,"largura_km":31.287,"eixo_na_terra":true},{"t":-0.38333,"lat":25.4468,"lon":-20.6159,"largura_km":31.285,"eixo_na_terra":true},{"t":-0.37778,"lat":25.4472,"lon":-20.5119,"largura_km":31.284,"eixo_na_terra":true},{"t":-0.37222,"lat":25.4474,"lon":-20.4077,"largura_km":31.283,"eixo_na_terra":true},{"t":-0.36667,"lat":25.4473,"lon":-20.3036,"largura_km":31.282,"eixo_na_terra":true},{"t":-0.36111,"lat":25.4471,"lon":-20.1994,"largura_km":31.282,"eixo_na_terra":true},{"t":-0.35556,"lat":25.4466,"lon":-20.0953,"largura_km":31.283,"eixo_na_terra":true},{"t":-0.35,"lat":25.446,"lon":-19.9911,"largura_km":31.284,"eixo_na_terra":true},{"t":-0.34444,"lat":25.4451,"lon":-19.8868,"largura_km":31.285,"eixo_na_terra":true},{"t":-0.33889,"lat":25.4439,"lon":-19.7825,"largura_km":31.287,"eixo_na_terra":true},{"t":-0.33333,"lat":25.4426,"lon":-19.6782,"largura_km":31.289,"eixo_na_terra":true},{"t":-0.32778,"lat":25.441,"lon":-19.5739,"largura_km":31.292,"eixo_na_terra":true},{"t":-0.32222,"lat":25.4393,"lon":-19.4696,"largura_km":31.296,"eixo_na_terra":true},{"t":-0.31667,"lat":25.4373,"lon":-19.3652,"largura_km":31.3,"eixo_na_terra":true},{"t":-0.31111,"lat":25.435,"lon":-19.2607,"largura_km":31.305,"eixo_na_terra":true},{"t":-0.30556,"lat":25.4326,"lon":-19.1563,"largura_km":31.31,"eixo_na_terra":true},{"t":-0.3,"lat":25.4299,"lon":-19.0518,"largura_km":31.316,"eixo_na_terra":true},{"t":-0.29444,"lat":25.4271,"lon":-18.9472,"largura_km":31.322,"eixo_na_terra":true},{"t":-0.28889,"lat":25.424,"lon":-18.8427,"largura_km":31.329,"eixo_na_terra":true},{"t":-0.28333,"lat":25.4207,"lon":-18.7381,"largura_km":31.336,"eixo_na_terra":true},{"t":-0.27778,"lat":25.4171,"lon":-18.6334,"largura_km":31.344,"eixo_na_terra":true},{"t":-0.27222,"lat":25.4134,"lon":-18.5287,"largura_km":31.352,"eixo_na_terra":true},{"t":-0.26667,"lat":25.4094,"lon":-18.424,"largura_km":31.361,"eixo_na_terra":true},{"t":-0.26111,"lat":25.4052,"lon":-18.3192,"largura_km":31.37,"eixo_na_terra":true},{"t":-0.25556,"lat":25.4008,"lon":-18.2144,"largura_km":31.38,"eixo_na_terra":true},{"t":-0.25,"lat":25.3961,"lon":-18.1095,"largura_km":31.39,"eixo_na_terra":true},{"t":-0.24444,"lat":25.3913,"lon":-18.0046,"largura_km":31.401,"eixo_na_terra":true},{"t":-0.23889,"lat":25.3862,"lon":-17.8997,"largura_km":31.412,"eixo_na_terra":true},{"t":-0.23333,"lat":25.3809,"lon":-17.7946,"largura_km":31.424,"eixo_na_terra":true},{"t":-0.22778,"lat":25.3754,"lon":-17.6896,"largura_km":31.436,"eixo_na_terra":true},{"t":-0.22222,"lat":25.3696,"lon":-17.5845,"largura_km":31.449,"eixo_na_terra":true},{"t":-0.21667,"lat":25.3636,"lon":-17.4793,"largura_km":31.463,"eixo_na_terra":true},{"t":-0.21111,"lat":25.3574,"lon":-17.3741,"largura_km":31.477,"eixo_na_terra":true},{"t":-0.20556,"lat":25.351,"lon":-17.2688,"largura_km":31.492,"eixo_na_terra":true},{"t":-0.2,"lat":25.3444,"lon":-17.1635,"largura_km":31.507,"eixo_na_terra":true},{"t":-0.19444,"lat":25.3375,"lon":-17.0582,"largura_km":31.523,"eixo_na_terra":true},{"t":-0.18889,"lat":25.3304,"lon":-16.9527,"largura_km":31.539,"eixo_na_terra":true},{"t":-0.18333,"lat":25.3231,"lon":-16.8472,"largura_km":31.555,"eixo_na_terra":true},{"t":-0.17778,"lat":25.3156,"lon":-16.7417,"largura_km":31.573,"eixo_na_terra":true},{"t":-0.17222,"lat":25.3078,"lon":-16.6361,"largura_km":31.59,"eixo_na_terra":true},{"t":-0.16667,"lat":25.2998,"lon":-16.5304,"largura_km":31.609,"eixo_na_terra":true},{"t":-0.16111,"lat":25.2916,"lon":-16.4247,"largura_km":31.627,"eixo_na_terra":true},{"t":-0.15556,"lat":25.2832,"lon":-16.3189,"largura_km":31.646,"eixo_na_terra":true},{"t":-0.15,"lat":25.2745,"lon":-16.213,"largura_km":31.666,"eixo_na_terra":true},{"t":-0.14444,"lat":25.2656,"lon":-16.1071,"largura_km":31.686,"eixo_na_terra":true},{"t":-0.13889,"lat":25.2565,"lon":-16.0011,"largura_km":31.707,"eixo_na_terra":true},{"t":-0.13333,"lat":25.2472,"lon":-15.895,"largura_km":31.728,"eixo_na_terra":true},{"t":-0.12778,"lat":25.2376,"lon":-15.7889,"largura_km":31.75,"eixo_na_terra":true},{"t":-0.12222,"lat":25.2278,"lon":-15.6827,"largura_km":31.773,"eixo_na_terra":true},{"t":-0.11667,"lat":25.2178,"lon":-15.5764,"largura_km":31.796,"eixo_na_terra":true},{"t":-0.11111,"lat":25.2076,"lon":-15.47,"largura_km":31.82,"eixo_na_terra":true},{"t":-0.10556,"lat":25.1971,"lon":-15.3636,"largura_km":31.844,"eixo_na_terra":true},{"t":-0.1,"lat":25.1864,"lon":-15.2571,"largura_km":31.869,"eixo_na_terra":true},{"t":-0.09444,"lat":25.1755,"lon":-15.1505,"largura_km":31.894,"eixo_na_terra":true},{"t":-0.08889,"lat":25.1643,"lon":-15.0439,"largura_km":31.92,"eixo_na_terra":true},{"t":-0.08333,"lat":25.1529,"lon":-14.9372,"largura_km":31.947,"eixo_na_terra":true},{"t":-0.07778,"lat":25.1413,"lon":-14.8303,"largura_km":31.974,"eixo_na_terra":true},{"t":-0.07222,"lat":25.1295,"lon":-14.7234,"largura_km":32.001,"eixo_na_terra":true},{"t":-0.06667,"lat":25.1174,"lon":-14.6165,"largura_km":32.029,"eixo_na_terra":true},{"t":-0.06111,"lat":25.1051,"lon":-14.5094,"largura_km":32.057,"eixo_na_terra":true},{"t":-0.05556,"lat":25.0926,"lon":-14.4023,"largura_km":32.086,"eixo_na_terra":true},{"t":-0.05,"lat":25.0798,"lon":-14.295,"largura_km":32.116,"eixo_na_terra":true},{"t":-0.04444,"lat":25.0668,"lon":-14.1877,"largura_km":32.146,"eixo_na_terra":true},{"t":-0.03889,"lat":25.0536,"lon":-14.0803,"largura_km":32.176,"eixo_na_terra":true},{"t":-0.03333,"lat":25.0401,"lon":-13.9728,"largura_km":32.208,"eixo_na_terra":true},{"t":-0.02778,"lat":25.0264,"lon":-13.8652,"largura_km":32.239,"eixo_na_terra":true},{"t":-0.02222,"lat":25.0125,"lon":-13.7575,"largura_km":32.272,"eixo_na_terra":true}]},"features":[{"type":"Feature","properties":{},"geometry":{"type":"Polygon","coordinates":[[[-14.165648536546144,25.209842971261622],[-13.731640111138233,25.155598614020693],[-13.783211072918476,24.86943354075431],[-14.20960214757929,24.923827478501824],[-14.530572392420197,24.96243834615881],[-15.170262867779883,25.033381976785186],[-15.48904974159737,25.06573417192304],[-15.910321059805597,25.10540591498289],[-16.54432896767284,25.15845976403651],[-17.176100256832456,25.203348178480717],[-17.593434738057425,25.228611838655386],[-17.90794099778364,25.245326776346644],[-18.53568472579917,25.272719102575202],[-18.84897862579902,25.28340636458712],[-19.266166997393128,25.29454559714507],[-19.78418168757969,25.303441457396325],[-20.20021654353755,25.30662494579406],[-20.615841115440958,25.306278183817113],[-21.134891530306817,25.300888244937],[-21.650825542900577,25.290056024344164],[-22.065510272672498,25.277399923520512],[-22.58369476166621,25.256635820394315],[-23.099097211293383,25.23052356551851],[-23.513608179952882,25.205572833750438],[-24.03188615939692,25.169432866438612],[-24.55043618719182,25.127783238217777],[-25.06665143357094,25.080864293771956],[-25.586117284790703,25.02817559007025],[-26.002157358713873,24.98202783568999],[-26.41868692177229,24.932316265604044],[-26.93736723065109,24.865506074157476],[-26.98701935754343,25.152624835787993],[-26.567834483927157,25.205898820877046],[-26.251079608926005,25.243878186283155],[-25.832906942961273,25.290994076013178],[-25.415208684989636,25.33461471381941],[-24.997915820595296,25.374749735671813],[-24.578228960520505,25.41164120118946],[-24.16155092168765,25.44481574760268],[-23.745075938916756,25.47452626786494],[-23.328738368012495,25.500777483574474],[-22.909761398965003,25.52371176847201],[-22.493507432211544,25.54304117534723],[-22.181282650769106,25.555272754085752],[-21.76488574436587,25.568561035800005],[-21.34831904512737,25.578396503766776],[-21.033040318522183,25.583545533760223],[-20.616022063340893,25.587320673961663],[-20.198656673442713,25.587634767136095],[-19.780879568036056,25.58448263044483],[-19.359916071037247,25.57780465877946],[-18.941116290826756,25.567687237829876],[-18.521707191989208,25.554080872440412],[-18.101621855344632,25.536975584137174],[-17.680792478895654,25.516360153373327],[-17.361907601534853,25.498430839939733],[-16.93960182558149,25.471628740153683],[-16.516358968644084,25.44127888205332],[-16.092106754764217,25.407365130710517],[-15.770446898195246,25.379330521399194],[-15.344238145869298,25.339123080892463],[-14.916811952361854,25.295299866264624],[-14.488089548045934,25.247839290306807],[-14.165648536546144,25.209842971261622]]]}}]}