{"type":"FeatureCollection","features":[{"type":"Feature","properties":{"magnitude":0.4,"percentagem":40.0,"territorio":"continente"},"geometry":{"type":"LineString","coordinates":[[-5.540000000000106,37.276533696619495],[-5.550283613053086,37.27999999999997],[-5.580000000000105,37.29003428187494],[-5.620000000000104,37.30357192040579],[-5.660000000000103,37.317140878374666],[-5.66840976152754,37.31999999999997],[-5.700000000000102,37.33075900359959],[-5.7400000000001015,37.344413270541786],[-5.780000000000101,37.358098944508086],[-5.785544152492946,37.35999999999997],[-5.8200000000001,37.37183568788311],[-5.860000000000099,37.38560707410413],[-5.900000000000098,37.39940995429826],[-5.901706210463735,37.39999999999997],[-5.940000000000097,37.41326639939756],[-5.980000000000096,37.42715539504971],[-6.016908577161613,37.43999999999997],[-6.0200000000000955,37.441077765857536],[-6.060000000000095,37.45505320669218],[-6.100000000000094,37.46906030114073],[-6.131170750867219,37.47999999999997],[-6.140000000000093,37.483104239008156],[-6.180000000000092,37.497198181981005],[-6.220000000000091,37.51132386373069],[-6.244514351679724,37.51999999999997],[-6.26000000000009,37.52549046752808],[-6.3000000000000895,37.5397034009256],[-6.340000000000089,37.55394815754598],[-6.356957056133721,37.55999999999997],[-6.380000000000088,37.568238531292785],[-6.420000000000087,37.582570942412076],[-6.460000000000086,37.59693526046145],[-6.468516118613037,37.599999999999966],[-6.500000000000085,37.61135051325113],[-6.540000000000084,37.62580288832296],[-6.5792068056964075,37.639999999999965],[-6.580000000000084,37.640287736095765],[-6.620000000000083,37.654828499193364],[-6.660000000000082,37.66940132330348],[-6.68902858753215,37.679999999999964],[-6.700000000000081,37.68401296314965],[-6.74000000000008,37.69867457751327],[-6.780000000000079,37.71336833452253],[-6.79801464694954,37.71999999999996],[-6.820000000000078,37.72810788995608],[-6.860000000000078,37.742890838964655],[-6.900000000000077,37.75770601142749],[-6.9061807221636276,37.75999999999996],[-6.940000000000076,37.77257461074554],[-6.980000000000075,37.78747937641242],[-7.01352956290714,37.79999999999996],[-7.020000000000074,37.80242053134507],[-7.060000000000073,37.817415221688755],[-7.1000000000000725,37.83244228457772],[-7.120075386216145,37.83999999999996],[-7.140000000000072,37.847514432535625],[-7.180000000000071,37.86263182063763],[-7.22000000000007,37.8777816597775],[-7.225845054184982,37.87999999999996],[-7.260000000000069,37.89298594267815],[-7.300000000000068,37.90822650686027],[-7.3308353191877895,37.91999999999996],[-7.340000000000067,37.92350554310446],[-7.3800000000000665,37.93883716387158],[-7.420000000000066,37.95420138077017],[-7.43506540201623,37.95999999999996],[-7.460000000000065,37.969614526818376],[-7.500000000000064,37.98507019917286],[-7.53855765114608,37.99999999999996],[-7.540000000000063,38.000559495033805],[-7.580000000000062,38.016106954394196],[-7.620000000000062,38.03168715231573],[-7.6412983050789975,38.03999999999996],[-7.6600000000000605,38.04731254923833],[-7.70000000000006,38.06298493188774],[-7.740000000000059,38.07869012742338],[-7.743329491813974,38.07999999999995],[-7.780000000000058,38.094452788555515],[-7.820000000000057,38.11025056554414],[-7.844635221899098,38.119999999999955],[-7.860000000000056,38.126091631702366],[-7.900000000000055,38.14198232121707],[-7.940000000000054,38.157905961500084],[-7.94524977262917,38.159999999999954],[-7.980000000000054,38.173886307068614],[-8.020000000000053,38.189903255138],[-8.045164160580338,38.19999999999995],[-8.060000000000052,38.20596343882965],[-8.100000000000051,38.22207402540607],[-8.14000000000005,38.23821769760729],[-8.144407435888127,38.23999999999995],[-8.18000000000005,38.25441919112781],[-8.220000000000049,38.27065689542397],[-8.242969837218288,38.27999999999995],[-8.260000000000048,38.28693967413703],[-8.300000000000047,38.303271740748315],[-8.340000000000046,38.319637024668474],[-8.340885465862991,38.31999999999995],[-8.380000000000045,38.336063158348075],[-8.420000000000044,38.35252319628443],[-8.438133825613594,38.35999999999995],[-8.460000000000043,38.36903207590109],[-8.500000000000043,38.385587197420385],[-8.534754201124544,38.39999999999995],[-8.540000000000042,38.40217942395607],[-8.580000000000041,38.418829958521165],[-8.62000000000004,38.43551389888624],[-8.630734698835832,38.43999999999995],[-8.66000000000004,38.45225241283546],[-8.700000000000038,38.469032155131224],[-8.72609419416444,38.47999999999995],[-8.740000000000038,38.48585549637423],[-8.780000000000037,38.502731369184914],[-8.820000000000036,38.51964077122172],[-8.820848163151629,38.51999999999995],[-8.860000000000035,38.536612479579176],[-8.900000000000034,38.553618398582074],[-8.914981521294342,38.559999999999945],[-8.940000000000033,38.57067642749315],[-8.980000000000032,38.587779191001495],[-9.008526641529905,38.599999999999945],[-9.020000000000032,38.60492415670768],[-9.06000000000003,38.62212409199226],[-9.10000000000003,38.6393577327334],[-9.101487939103043,38.639999999999944],[-9.140000000000029,38.65665404759239],[-9.180000000000028,38.673985242940624],[-9.193855679558395,38.67999999999994],[-9.220000000000027,38.69137000631753],[-9.260000000000026,38.70879908225441],[-9.285657250068889,38.71999999999994],[-9.300000000000026,38.72627291911142],[-9.340000000000025,38.743800201247],[-9.3768993942583,38.75999999999994],[-9.380000000000024,38.761363739295525],[-9.420000000000023,38.77898955283732],[-9.460000000000022,38.79664929376309],[-9.467575415633725,38.79999999999994],[-9.500000000000021,38.81436809223881],[-9.54000000000002,38.832126742138485],[-9.557700817581722,38.83999999999995],[-9.58000000000002,38.84993677690595],[-9.620000000000019,38.86779465936465],[-9.647287500873766,38.87999999999994],[-9.660000000000018,38.88569656647951],[-9.700000000000017,38.90365400457031],[-9.73634180395822,38.91999999999993],[-9.740000000000016,38.921648422730726],[-9.780000000000015,38.93970573898163],[-9.820000000000014,38.95779719047009],[-9.824861536971575,38.95999999999994],[-9.860000000000014,38.97595082586457],[-9.900000000000013,38.99414252693119],[-9.9128559312083,38.999999999999936],[-9.940000000000012,39.01239023046594],[-9.980000000000011,39.03068250166279],[-10.000337394632709,39.039999999999935],[-10.02000000000001,39.04902491995324],[-10.06000000000001,39.067418081170835],[-10.087311890343337,39.079999999999934],[-10.100000000000009,39.085855863352926],[-10.140000000000008,39.10435023378521],[-10.173785296785644,39.11999999999993],[-10.180000000000007,39.12288403148783],[-10.220000000000006,39.14147992959653],[-10.259763409211978,39.15999999999993],[-10.260000000000005,39.16011039691287],[-10.300000000000004,39.17880814039141],[-10.340000000000003,39.197540302632106],[-10.345243031298235,39.19999999999993],[-10.380000000000003,39.21633583958641],[-10.420000000000002,39.23517020824112],[-10.430239181919806,39.23999999999994],[-10.46,39.2540640021607],[-10.5,39.27300089239542]]}},{"type":"Feature","properties":{"magnitude":0.6,"percentagem":60.0,"territorio":"acores"},"geometry":{"type":"LineString","coordinates":[[-31.462813054193525,36.0],[-31.48000000000001,36.01410231285024],[-31.511535079217385,36.04],[-31.52000000000001,36.046959444831415],[-31.56000000000001,36.07987384637669],[-31.56015317536839,36.08],[-31.60000000000001,36.11285397344278],[-31.608659611059714,36.12],[-31.640000000000008,36.14589127398125],[-31.657063497594994,36.16],[-31.680000000000007,36.178985810495995],[-31.705365378124114,36.199999999999996],[-31.720000000000006,36.21213764451147],[-31.753565793437893,36.239999999999995],[-31.760000000000005,36.245346836561936],[-31.800000000000004,36.27861516291262],[-31.801663613609332,36.279999999999994],[-31.840000000000003,36.3119475156295],[-31.849654712176854,36.31999999999999],[-31.880000000000003,36.34533733285272],[-31.897546077811093,36.35999999999999],[-31.92,36.37878467082335],[-31.945338240995298,36.39999999999999],[-31.96,36.41228958474085],[-31.993031729924482,36.43999999999999],[-32.0,36.44585212875283]]}}]}