{"type":"FeatureCollection","features":[{"type":"Feature","properties":{"magnitude":0.8,"percentagem":80.0,"territorio":"continente"},"geometry":{"type":"LineString","coordinates":[[-7.694949319840168,36.0],[-7.70000000000006,36.00376548423123],[-7.740000000000059,36.033569967539705],[-7.748634993434835,36.04],[-7.780000000000058,36.06334646486701],[-7.802388830117783,36.08],[-7.820000000000057,36.093094448529655],[-7.85621139806946,36.12],[-7.860000000000056,36.12281383698188],[-7.900000000000055,36.1525054147151],[-7.910103171475405,36.16],[-7.940000000000055,36.182168554096236],[-7.964064728047646,36.199999999999996],[-7.980000000000054,36.21180284868218],[-8.018096600140943,36.239999999999995],[-8.020000000000053,36.24140821900734],[-8.060000000000052,36.270985606958526],[-8.072199349848827,36.279999999999994],[-8.100000000000051,36.300534065622216],[-8.126373506244954,36.31999999999999],[-8.14000000000005,36.33005335691112],[-8.18000000000005,36.359543454384216],[-8.180619590778269,36.35999999999999],[-8.220000000000049,36.389005349483625],[-8.234938274675647,36.39999999999999],[-8.260000000000048,36.418437838983465],[-8.28932998454652,36.43999999999999],[-8.300000000000047,36.44784084708977],[-8.340000000000046,36.47721460336705],[-8.343795309479793,36.47999999999999],[-8.380000000000045,36.50655958278148],[-8.398334929456523,36.51999999999999],[-8.420000000000044,36.53587484906396],[-8.452949221914572,36.55999999999999],[-8.460000000000043,36.56516032849612],[-8.500000000000043,36.59441654742442],[-8.507638902667733,36.59999999999999],[-8.540000000000042,36.62364338296746],[-8.56240454098154,36.639999999999986],[-8.580000000000041,36.652840206406985],[-8.61724652237937,36.679999999999986],[-8.62000000000004,36.68200694609393],[-8.66000000000004,36.71114446407516],[-8.672165767934189,36.719999999999985],[-8.700000000000038,36.740251962004606],[-8.72716258535663,36.759999999999984],[-8.740000000000038,36.769329157406005],[-8.780000000000035,36.79837614939637],[-8.78223752301388,36.79999999999998],[-8.820000000000036,36.827393666808305],[-8.837391556495863,36.83999999999998],[-8.860000000000035,36.85638066780485],[-8.89262479414948,36.87999999999998],[-8.900000000000034,36.885337084373646],[-8.940000000000033,36.91426343411872],[-8.947938140580652,36.91999999999998],[-8.980000000000032,36.943159605095374],[-9.003332179426328,36.95999999999998],[-9.020000000000032,36.97202498420941],[-9.058807160656505,36.99999999999998],[-9.06000000000003,37.000859505490475],[-9.10000000000003,37.029664138876065],[-9.114364388468223,37.03999999999998],[-9.140000000000029,37.058437864282865],[-9.170003814011466,37.07999999999998],[-9.180000000000028,37.087180530850006],[-9.220000000000026,37.1158924805345],[-9.225726273522875,37.119999999999976],[-9.260000000000026,37.14457395045012],[-9.281532631157681,37.159999999999975],[-9.300000000000026,37.17322416536683],[-9.337422910229735,37.199999999999974],[-9.340000000000025,37.20184306289261],[-9.380000000000024,37.23043151030974],[-9.393398554967632,37.239999999999974],[-9.420000000000023,37.25898869106844],[-9.449459510460983,37.27999999999997],[-9.460000000000022,37.28751436465134],[-9.500000000000021,37.31600885315575],[-9.505606591786153,37.31999999999997],[-9.54000000000002,37.34447243164475],[-9.561840782823156,37.35999999999997],[-9.58000000000002,37.37290431797842],[-9.6181619522215,37.39999999999997],[-9.620000000000019,37.40130445329275],[-9.660000000000018,37.42967375237703],[-9.674571828295072,37.43999999999997],[-9.700000000000017,37.45801130249076],[-9.731070082882724,37.47999999999997],[-9.740000000000016,37.486316922908955],[-9.780000000000015,37.514591060049284],[-9.787657814191586,37.51999999999997],[-9.820000000000014,37.54283373926012],[-9.844335787378274,37.55999999999997],[-9.860000000000014,37.57104431484975],[-9.900000000000015,37.59922280284268],[-9.901103975374456,37.599999999999966],[-9.940000000000012,37.62737009070116],[-9.95796433180962,37.63999999999997],[-9.980000000000011,37.65548510573738],[-10.014916098933094,37.679999999999964],[-10.02000000000001,37.68356779404593],[-10.06000000000001,37.71161886044274],[-10.071961051582145,37.71999999999996],[-10.100000000000009,37.739637813345794],[-10.129099207251476,37.75999999999996],[-10.140000000000008,37.767624276495006],[-10.180000000000007,37.79557859318272],[-10.186331352660268,37.79999999999996],[-10.220000000000006,37.823500996449525],[-10.243658640144705,37.83999999999996],[-10.260000000000005,37.85139075158924],[-10.300000000000004,37.879247874526115],[-10.301080712841935,37.87999999999995],[-10.340000000000003,37.90707325465618],[-10.358599908485063,37.91999999999996],[-10.380000000000003,37.93486583290577],[-10.416215116588418,37.95999999999996],[-10.420000000000002,37.96262556017998],[-10.46,37.990353228222986],[-10.473928596825466,37.99999999999996],[-10.5,38.01804817458939]]}},{"type":"Feature","properties":{"magnitude":0.9,"percentagem":90.0,"territorio":"acores"},"geometry":{"type":"LineString","coordinates":[[-32.0,37.93307470862437],[-31.963645961685806,37.91999999999996],[-31.96,37.91868826314634],[-31.92,37.90426822066794],[-31.880000000000003,37.88981384797771],[-31.852902652672242,37.87999999999996],[-31.840000000000003,37.875325357053114],[-31.800000000000004,37.860802981565925],[-31.760000000000005,37.846246177101335],[-31.74287287042647,37.83999999999996],[-31.720000000000006,37.831655335323916],[-31.680000000000007,37.817030315300634],[-31.640000000000008,37.80237076795373],[-31.63354408037009,37.79999999999996],[-31.60000000000001,37.787677269737614],[-31.56000000000001,37.77294929467509],[-31.524911433677506,37.75999999999996],[-31.52000000000001,37.75818678169101],[-31.48000000000001,37.743390234045755],[-31.440000000000012,37.72855899453905],[-31.416966101720682,37.71999999999996],[-31.400000000000013,37.71369332739607],[-31.360000000000014,37.698793304204266],[-31.320000000000014,37.68385849202173],[-31.30968656798889,37.679999999999964],[-31.280000000000015,37.66888936483387],[-31.240000000000016,37.65388555860923],[-31.20306590494024,37.639999999999965],[-31.200000000000017,37.638846917821475],[-31.160000000000018,37.6237739737773],[-31.12000000000002,37.6086660783366],[-31.09710431196357,37.599999999999966],[-31.08000000000002,37.59352347916506],[-31.04000000000002,37.578346236844865],[-31.00000000000002,37.56313394738563],[-30.99177557983021,37.55999999999997],[-30.960000000000022,37.547887084254086],[-30.920000000000023,37.5326052397472],[-30.887079156267337,37.51999999999997],[-30.880000000000024,37.51728836259727],[-30.840000000000025,37.501936820626476],[-30.800000000000026,37.48655007153749],[-30.78300683984989,37.47999999999997],[-30.760000000000026,37.471128432507875],[-30.720000000000024,37.45567177933637],[-30.680000000000028,37.440179824865524],[-30.679536551546715,37.43999999999997],[-30.64000000000003,37.42465311933941],[-30.60000000000003,37.40909105521117],[-30.57668154792079,37.39999999999997],[-30.56000000000003,37.39349383477606],[-30.52000000000003,37.377861520218715],[-30.48000000000003,37.362193747112336],[-30.47440988121869,37.35999999999998],[-30.440000000000033,37.346490963786735],[-30.400000000000038,37.33075273648812],[-30.372728799131878,37.31999999999997],[-30.360000000000035,37.31497913011931],[-30.320000000000036,37.29917030901552],[-30.280000000000037,37.28332587397279],[-30.271619587532342,37.27999999999997],[-30.240000000000038,37.26744620970984],[-30.200000000000042,37.25153097908032],[-30.171080316323685,37.239999999999974],[-30.16000000000004,37.23558018398753],[-30.12000000000004,37.219594019436265],[-30.08000000000004,37.203572087541716],[-30.071098792496926,37.199999999999974],[-30.040000000000042,37.18751474141507],[-30.00000000000004,37.171421675972134],[-29.971670344738058,37.159999999999975],[-29.960000000000043,37.15529289189156],[-29.920000000000044,37.13912855596523],[-29.88000000000004,37.122928301404485],[-29.87278308348529,37.119999999999976],[-29.840000000000046,37.10669247550513],[-29.800000000000047,37.090420753166384],[-29.77443555152918,37.07999999999998],[-29.760000000000048,37.074113183178895],[-29.72000000000005,37.05776985765185],[-29.680000000000046,37.041390464441875],[-29.676610415388144,37.03999999999998],[-29.64000000000005,37.02497536471324],[-29.60000000000005,37.00852417353286],[-29.579314929867174,36.99999999999998],[-29.560000000000052,36.99203702491173],[-29.520000000000056,36.97551390200275],[-29.482524226936878,36.95999999999998],[-29.480000000000054,36.958954589560655],[-29.440000000000055,36.94235940183845],[-29.400000000000055,36.925727940757284],[-29.386249707383175,36.91999999999998],[-29.360000000000056,36.909060425845],[-29.320000000000057,36.89235670897327],[-29.290470391345885,36.87999999999998],[-29.280000000000058,36.87561672769016],[-29.24000000000006,36.858840623779486],[-29.200000000000063,36.842028103388316],[-29.19518325872051,36.83999999999998],[-29.16000000000006,36.82517944050213],[-29.12000000000006,36.80829434505626],[-29.1003888385018,36.79999999999998],[-29.080000000000062,36.79137291544413],[-29.040000000000063,36.774415115664816],[-29.00606842643894,36.759999999999984],[-29.000000000000064,36.75742080593169],[-28.960000000000065,36.74039017334624],[-28.920000000000066,36.723322927465425],[-28.912225915601105,36.719999999999985],[-28.880000000000067,36.70621927732655],[-28.840000000000067,36.68907901507626],[-28.81885302618813,36.679999999999986],[-28.800000000000068,36.671902187973636],[-28.76000000000007,36.65468878304326],[-28.725936988411142,36.639999999999986],[-28.72000000000007,36.63743866684567],[-28.68000000000007,36.62015199381092],[-28.64000000000007,36.60282851636312],[-28.6334802284096,36.59999999999998],[-28.600000000000072,36.585468411087106],[-28.560000000000073,36.568071486814816],[-28.541476146840836,36.55999999999999],[-28.520000000000074,36.550637799892804],[-28.480000000000075,36.53316730573085],[-28.449912547324903,36.51999999999999],[-28.440000000000076,36.51565992661269],[-28.400000000000077,36.49811574046441],[-28.360000000000078,36.480534564876656],[-28.3587857751799,36.47999999999999],[-28.32000000000008,36.46291655980761],[-28.280000000000076,36.4452615187553],[-28.26810027811663,36.43999999999999],[-28.24000000000008,36.427569534043286],[-28.20000000000008,36.40984050798995],[-28.177839640728962,36.39999999999999],[-28.160000000000082,36.39207443499712],[-28.120000000000083,36.37427130545886],[-28.087999029187646,36.35999999999999],[-28.080000000000084,36.35643103609044],[-28.040000000000084,36.33855368566074],[-28.00000000000008,36.320639116830854],[-27.998575268412935,36.31999999999999],[-27.960000000000086,36.30268742476829],[-27.920000000000087,36.28469846890401],[-27.90957045093113,36.27999999999999],[-27.880000000000088,36.26667230068201],[-27.84000000000009,36.24860884320276],[-27.82097095854804,36.239999999999995],[-27.80000000000009,36.230508093084715],[-27.76000000000009,36.212370020573466],[-27.732772232416938,36.199999999999996],[-27.72000000000009,36.1941945834964],[-27.680000000000092,36.17598178372517],[-27.644969775873204,36.16],[-27.640000000000093,36.157731555329654],[-27.600000000000094,36.139443917285135],[-27.560000000000095,36.12111879643075],[-27.557561770811585,36.12],[-27.520000000000095,36.10275620785486],[-27.480000000000096,36.08435609249482],[-27.47054606282275,36.08],[-27.440000000000097,36.065918444066625],[-27.400000000000098,36.04744322634724],[-27.38391298194538,36.04],[-27.3600000000001,36.02893041664026],[-27.3200000000001,36.010379990010904],[-27.29765828548287,36.0]]}},{"type":"Feature","properties":{"magnitude":0.95,"percentagem":95.0,"territorio":"acores"},"geometry":{"type":"LineString","coordinates":[[-24.04000000000017,39.42554962338341],[-24.07031781113367,39.43999999999993],[-24.08000000000017,39.444612613633424],[-24.120000000000168,39.46364000658636],[-24.15445551486671,39.479999999999926],[-24.160000000000167,39.48263134979483],[-24.200000000000166,39.50158723494738],[-24.238927544779266,39.519999999999925],[-24.240000000000165,39.52050703148749],[-24.280000000000165,39.53939151912626],[-24.320000000000164,39.55823994588056],[-24.32374058079576,39.559999999999924],[-24.360000000000163,39.57705307158216],[-24.400000000000162,39.59583026187288],[-24.40889605585092,39.59999999999992],[-24.44000000000016,39.61457210652273],[-24.48000000000016,39.63327817333127],[-24.494396508312438,39.63999999999992],[-24.52000000000016,39.65194883985383],[-24.56000000000016,39.670583897202526],[-24.580245459439492,39.67999999999992],[-24.600000000000158,39.689183489129555],[-24.640000000000157,39.70774765205916],[-24.66644647471524,39.71999999999992],[-24.680000000000156,39.72627627350258],[-24.720000000000155,39.744769658050004],[-24.7530031644364,39.75999999999992],[-24.760000000000154,39.76322741367512],[-24.800000000000153,39.78165013685114],[-24.839919184311807,39.79999999999992],[-24.840000000000153,39.80003713185018],[-24.88000000000015,39.81838931161738],[-24.92000000000015,39.83670581431045],[-24.927204946688303,39.83999999999992],[-24.96000000000015,39.8549874069341],[-25.000000000000153,39.873233538481585],[-25.01485800719764,39.87999999999992],[-25.04000000000015,39.8914446487696],[-25.08000000000015,39.90962052943165],[-25.102882098205804,39.919999999999916],[-25.120000000000147,39.92776126442774],[-25.160000000000146,39.94586701534186],[-25.19128107496771,39.959999999999916],[-25.200000000000145,39.9639374825012],[-25.240000000000144,39.981973225660944],[-25.28000000000014,39.99997353423315],[-25.28005889812375,39.999999999999915],[-25.320000000000142,40.01793939105859],[-25.360000000000145,40.03586987005393],[-25.369228289635807,40.03999999999991],[-25.40000000000014,40.053765743379984],[-25.44000000000014,40.071626516860675],[-25.45878493176877,40.07999999999991],[-25.48000000000014,40.089452515600364],[-25.520000000000138,40.107243708412206],[-25.548732891338112,40.11999999999991],[-25.560000000000137,40.12499994178036],[-25.600000000000136,40.14272167953183],[-25.639076286807096,40.15999999999991],[-25.640000000000136,40.16040825702156],[-25.680000000000135,40.178060666063104],[-25.720000000000134,40.195677948669214],[-25.729829113137292,40.19999999999991],[-25.760000000000133,40.21326090482626],[-25.800000000000132,40.23080904333655],[-25.820987244991272,40.23999999999991],[-25.84000000000013,40.24832263357491],[-25.88000000000013,40.26580175613654],[-25.912554055859683,40.27999999999991],[-25.92000000000013,40.28324609095341],[-25.96000000000013,40.30065632638584],[-26.000000000000128,40.31803163698915],[-26.004538538228157,40.319999999999915],[-26.040000000000127,40.335372994229544],[-26.080000000000126,40.35267960597937],[-26.096948625604746,40.3599999999999],[-26.120000000000125,40.36995200059971],[-26.160000000000124,40.38719004394584],[-26.18978121169461,40.399999999999906],[-26.200000000000124,40.4043935871742],[-26.240000000000123,40.42156319317085],[-26.280000000000122,40.43869808018959],[-26.283044017123594,40.439999999999905],[-26.32000000000012,40.455799296622594],[-26.360000000000124,40.47286593790034],[-26.37674973518337,40.479999999999905]]}},{"type":"Feature","properties":{"magnitude":0.95,"percentagem":95.0,"territorio":"acores"},"geometry":{"type":"LineString","coordinates":[[-32.0,39.749991350473465],[-31.96,39.7362983442862],[-31.919999999999998,39.72257283757275],[-31.912517308356335,39.71999999999992],[-31.880000000000003,39.70881575204339],[-31.84,39.69502631842744],[-31.800000000000004,39.68120428469285],[-31.79652180780204,39.67999999999992],[-31.760000000000005,39.6673506800061],[-31.720000000000006,39.65346450905676],[-31.681305229052107,39.63999999999992],[-31.680000000000007,39.63954567615885],[-31.640000000000008,39.62559522510949],[-31.60000000000001,39.61161200720176],[-31.566858426476,39.59999999999992],[-31.56000000000001,39.59759618607599],[-31.52000000000001,39.58354847787889],[-31.48000000000001,39.5694679037262],[-31.453162706179974,39.559999999999924],[-31.440000000000012,39.55535480325587],[-31.400000000000013,39.541209528795704],[-31.360000000000014,39.527031289509594],[-31.340205076154966,39.519999999999925],[-31.320000000000014,39.512820617878276],[-31.280000000000015,39.49857746847958],[-31.240000000000016,39.484301255630385],[-31.227972845113747,39.479999999999926],[-31.200000000000017,39.469992720385946],[-31.160000000000018,39.455651387874596],[-31.12000000000002,39.44127689355313],[-31.11645361495043,39.43999999999992],[-31.08000000000002,39.42687020167331],[-31.04000000000002,39.41243037843894],[-31.005643492605518,39.39999999999993],[-31.00000000000002,39.39795744786999],[-30.960000000000022,39.38345215327908],[-30.920000000000023,39.36891353233846],[-30.895528394084835,39.35999999999993],[-30.880000000000024,39.354341968600565],[-30.840000000000025,39.3397376675825],[-30.800000000000026,39.325099942643895],[-30.786091495349844,39.31999999999993],[-30.760000000000026,39.31042945132147],[-30.72000000000003,39.295725838003335],[-30.68000000000003,39.28098870353182],[-30.67732145937578,39.27999999999993],[-30.64000000000003,39.26621898989383],[-30.60000000000003,39.25141575920554],[-30.569220186267884,39.23999999999993],[-30.56000000000003,39.23657914812356],[-30.52000000000003,39.22170967956337],[-30.480000000000032,39.20680652730468],[-30.46176827349772,39.19999999999993],[-30.440000000000033,39.19187021432201],[-30.400000000000034,39.17690061717054],[-30.360000000000035,39.16189724007893],[-30.35495129707033,39.15999999999993],[-30.320000000000036,39.146860929777205],[-30.28000000000004,39.131790901364226],[-30.24877092485317,39.11999999999993],[-30.240000000000038,39.11668721466095],[-30.20000000000004,39.101550394108585],[-30.160000000000043,39.08637963281919],[-30.143212467711262,39.07999999999993],[-30.12000000000004,39.07117546793313],[-30.08000000000004,39.05593770911216],[-30.040000000000042,39.04066591445711],[-30.038258983788158,39.039999999999935],[-30.000000000000043,39.025360975837664],[-29.960000000000043,39.01002197898397],[-29.9339193892758,38.999999999999936],[-29.920000000000044,38.99464918273698],[-29.880000000000045,38.9792428439504],[-29.840000000000046,38.963802310547585],[-29.83016830196954,38.95999999999994],[-29.800000000000047,38.948328259369646],[-29.760000000000048,38.93282018063255],[-29.727003284835895,38.91999999999994],[-29.72000000000005,38.91727797530014],[-29.68000000000005,38.90170221228448],[-29.64000000000005,38.88609209726414],[-29.62441942774754,38.87999999999994],[-29.60000000000005,38.87044815595628],[-29.560000000000056,38.85477015467053],[-29.522397832885694,38.83999999999994],[-29.520000000000053,38.8390577622281],[-29.480000000000054,38.82331173662699],[-29.440000000000055,38.807531203137756],[-29.42094734958647,38.79999999999994],[-29.400000000000055,38.79171659423495],[-29.360000000000056,38.77586783601051],[-29.320039072475033,38.75999999999994],[-29.320000000000057,38.75998447880846],[-29.280000000000058,38.74406735880019],[-29.24000000000006,38.728115576638736],[-29.219689365055224,38.71999999999994],[-29.20000000000006,38.71212952347335],[-29.16000000000006,38.69610918083125],[-29.12000000000006,38.680054085126116],[-29.119865481525913,38.67999999999994],[-29.080000000000062,38.66396504323728],[-29.040000000000063,38.64784118949217],[-29.020584992501462,38.639999999999944],[-29.000000000000064,38.631682916912524],[-28.960000000000065,38.61549016993483],[-28.92181704546278,38.599999999999945],[-28.920000000000066,38.59926255530536],[-28.880000000000067,38.583000780380914],[-28.840000000000067,38.56670404009038],[-28.82357588661037,38.559999999999945],[-28.800000000000068,38.550372775206675],[-28.76000000000007,38.534006812200346],[-28.72583686387258,38.51999999999994],[-28.72000000000007,38.51760590927591],[-28.68000000000007,38.5011705901779],[-28.64000000000007,38.48470015700147],[-28.62860575764253,38.47999999999995],[-28.600000000000072,38.46819512995872],[-28.560000000000073,38.45165514813295],[-28.53186938178171,38.43999999999995],[-28.520000000000074,38.43508018806402],[-28.480000000000075,38.41847052566868],[-28.440000000000072,38.40182560257172],[-28.435620294159584,38.39999999999995],[-28.400000000000077,38.385146047349984],[-28.360000000000078,38.368431253506465],[-28.3398611585757,38.35999999999995],[-28.32000000000008,38.3516814716047],[-28.28000000000008,38.33489667666988],[-28.244572419011096,38.31999999999995],[-28.24000000000008,38.31807655758858],[-28.20000000000008,38.301221631862234],[-28.160000000000082,38.28433124309818],[-28.149760626458118,38.27999999999995],[-28.120000000000083,38.26740587967448],[-28.080000000000084,38.25044517354796],[-28.055413232834127,38.23999999999995],[-28.040000000000084,38.23344918153076],[-28.000000000000085,38.21641803009023],[-27.961519750600637,38.19999999999995],[-27.960000000000086,38.1993512997318],[-27.920000000000087,38.1822495757424],[-27.880000000000088,38.16511219108213],[-27.868088569117695,38.159999999999954],[-27.84000000000009,38.14793957446351],[-27.80000000000009,38.130731434642385],[-27.775102209604967,38.119999999999955],[-27.76000000000009,38.113487791198715],[-27.72000000000009,38.09620877090829],[-27.682554005197844,38.079999999999956],[-27.680000000000092,38.07889399192425],[-27.640000000000093,38.061543966647015],[-27.60000000000009,38.04415808812743],[-27.590449631363,38.03999999999996],[-27.560000000000095,38.026736789724325],[-27.5200000000001,38.009279727925914],[-27.4987759139329,37.99999999999996],[-27.480000000000096,37.991787009150826],[-27.440000000000097,37.974258641664626],[-27.40752528829867,37.95999999999996],[-27.400000000000098,37.9566943951286],[-27.3600000000001,37.939094600412716],[-27.3200000000001,37.9214587653085],[-27.316696649169653,37.91999999999996],[-27.2800000000001,37.903787376500695],[-27.2400000000001,37.88607994056334],[-27.226289383331384,37.87999999999996],[-27.200000000000102,37.86833674356831],[-27.160000000000103,37.850557587550696],[-27.13629080554226,37.83999999999996],[-27.120000000000104,37.83274247661295],[-27.080000000000105,37.81489148221283],[-27.046696448113515,37.79999999999996],[-27.040000000000106,37.79700435203865],[-27.000000000000107,37.779081401921786],[-26.96000000000011,37.7611221788597],[-26.957504506079356,37.75999999999997],[-26.92000000000011,37.74312712552871],[-26.880000000000113,37.72509577972752],[-26.868714507239382,37.71999999999996],[-26.84000000000011,37.70702843341409],[-26.80000000000011,37.68892485008068],[-26.78031514085574,37.679999999999964],[-26.76000000000011,37.67078510753817],[-26.720000000000113,37.652609172927356],[-26.692302183181084,37.639999999999965],[-26.680000000000113,37.63439693149199],[-26.640000000000114,37.616148532930175],[-26.604671465758134,37.599999999999966],[-26.600000000000115,37.597863690548756],[-26.560000000000116,37.57954271645782],[-26.520000000000117,37.56118519908464],[-26.517421459571803,37.559999999999974],[-26.480000000000118,37.542791511637105],[-26.44000000000012,37.524361260634365],[-26.430549753174688,37.51999999999997],[-26.40000000000012,37.50589470840542],[-26.36000000000012,37.48739161504631],[-26.34404763910907,37.47999999999997],[-26.32000000000012,37.468852098563694],[-26.280000000000122,37.450276055299064],[-26.2579111750195,37.43999999999997],[-26.240000000000123,37.43166347582979],[-26.200000000000124,37.4130143763125],[-26.172136469871646,37.39999999999997],[-26.160000000000124,37.394328635892215],[-26.120000000000125,37.375606375001674],[-26.086719683241338,37.35999999999997],[-26.080000000000126,37.35684737646444],[-26.040000000000127,37.33805185033113],[-26.00165702461428,37.31999999999997],[-26.000000000000128,37.31921949733941],[-25.96000000000013,37.30035060336962],[-25.92000000000013,37.28144482496749],[-25.91694764550798,37.27999999999997],[-25.88000000000013,37.26250243734531],[-25.84000000000013,37.243523146789734],[-25.832586147443635,37.239999999999974],[-25.800000000000132,37.2245071577012],[-25.760000000000133,37.205454255686604],[-25.748567315835544,37.199999999999974],[-25.720000000000134,37.18636457215105],[-25.680000000000135,37.16723796073243],[-25.664887564043124,37.159999999999975],[-25.640000000000136,37.14807449073571],[-25.600000000000136,37.12887407335365],[-25.581543351794206,37.119999999999976],[-25.560000000000137,37.10963672587964],[-25.52000000000014,37.090362407385555],[-25.49853118454897,37.07999999999998],[-25.48000000000014,37.071051092448016],[-25.44000000000014,37.05170277912934],[-25.415847612873712,37.03999999999998],[-25.40000000000014,37.03231740780397],[-25.36000000000014,37.01289500740951],[-25.33348923182367,36.99999999999998],[-25.320000000000142,36.993435491866265],[-25.280000000000143,36.97393891363162],[-25.251452680335166,36.95999999999998],[-25.240000000000144,36.954405167167295],[-25.200000000000145,36.934834321840285],[-25.169734640626547,36.91999999999998],[-25.160000000000146,36.91522625891139],[-25.120000000000147,36.895581058777545],[-25.088331837608095,36.87999999999998],[-25.080000000000148,36.87589859503336],[-25.04000000000015,36.85617895394158],[-25.007241038300457,36.83999999999998],[-25.00000000000015,36.83642200625746],[-24.96000000000015,36.81662783964557],[-24.926459051261677,36.79999999999998],[-24.92000000000015,36.796796326156475],[-24.88000000000015,36.776927551076895],[-24.84598272602258,36.759999999999984],[-24.840000000000153,36.7570213912112],[-24.800000000000153,36.737077926356704],[-24.765808952530286,36.719999999999985],[-24.760000000000154,36.7170970408701],[-24.720000000000155,36.69707880659954],[-24.68593466059976,36.679999999999986],[-24.680000000000156,36.677023117609316],[-24.640000000000157,36.65693003597337],[-24.606356819373502,36.639999999999986],[-24.600000000000158,36.636799466992755],[-24.56000000000016,36.616631461759745],[-24.52707243678867,36.59999999999999],[-24.52000000000016,36.596425937732555],[-24.48000000000016,36.57618293441424],[-24.448078559052327,36.55999999999999],[-24.44000000000016,36.555902381749604],[-24.400000000000162,36.53558430762709],[-24.369372270123627,36.51999999999999],[-24.360000000000163,36.51522865423442],[-24.320000000000164,36.49483543838391],[-24.290950691203996,36.47999999999999],[-24.280000000000165,36.474404613708074],[-24.240000000000165,36.45393618702673],[-24.21281098023411,36.43999999999999],[-24.200000000000166,36.43343012208337],[-24.160000000000167,36.41288641731521],[-24.134950331398212,36.39999999999999],[-24.120000000000168,36.39230504472617],[-24.08000000000017,36.37168599648784],[-24.057365974635495,36.35999999999999],[-24.04000000000017,36.35102925051682]]}},{"type":"Feature","properties":{"magnitude":0.9,"percentagem":90.0,"territorio":"madeira"},"geometry":{"type":"LineString","coordinates":[[-18.0,30.636054753965567],[-17.976661219634245,30.619999999999976],[-17.96,30.608532770458947],[-17.92,30.580975187450647],[-17.91858563661223,30.579999999999977],[-17.880000000000003,30.553381823509767],[-17.8606211044072,30.539999999999978],[-17.840000000000003,30.525753003578743],[-17.802762116312124,30.49999999999998],[-17.800000000000004,30.498088784932236],[-17.760000000000005,30.470388999653053],[-17.74501198789114,30.45999999999998],[-17.720000000000006,30.442653898130132],[-17.68736652810987,30.41999999999998],[-17.680000000000007,30.414883581420003],[-17.640000000000008,30.387077963104552],[-17.62982691803222,30.379999999999978],[-17.60000000000001,30.35923715068732],[-17.57239157092653,30.339999999999982],[-17.56000000000001,30.33136131190283],[-17.52000000000001,30.303450440758912],[-17.51505905353212,30.299999999999983],[-17.48000000000001,30.27550450406227],[-17.457830452645766,30.259999999999984],[-17.440000000000012,30.247523735134827],[-17.400701835836582,30.219999999999985],[-17.400000000000013,30.219508196801463],[-17.360000000000014,30.191457747381392],[-17.34367648872014,30.179999999999986],[-17.320000000000014,30.16337265622616],[-17.28674974006565,30.139999999999986],[-17.280000000000015,30.135252996849207],[-17.240000000000016,30.10709871614019],[-17.229923099973842,30.099999999999984],[-17.200000000000017,30.078909926689782],[-17.173194969131007,30.059999999999988],[-17.160000000000018,30.050686775568575],[-17.12000000000002,30.022429292235827],[-17.11656381044667,30.01999999999999],[-17.08000000000002,29.994137444465977],[-17.06003109314352,29.97999999999999],[-17.04000000000002,29.965811446958032],[-17.003593045862534,29.93999999999999],[-17.00000000000002,29.937451368211736],[-16.960000000000022,29.909057153924493],[-16.94725178243637,29.899999999999995],[-16.920000000000023,29.88062897146008],[-16.891004498702195,29.859999999999992],[-16.880000000000024,29.85216692682193],[-16.840000000000025,29.82367104584425],[-16.834850805503823,29.819999999999993],[-16.800000000000026,29.795141355932614],[-16.77879118987642,29.779999999999994],[-16.760000000000026,29.766578028320883],[-16.72282260633298,29.739999999999995],[-16.720000000000027,29.73798113551888],[-16.680000000000028,29.709350653597603],[-16.666947027157892,29.699999999999996],[-16.64000000000003,29.68068674201259],[-16.611161614889433,29.659999999999997],[-16.60000000000003,29.65198949687644],[-16.56000000000003,29.62325896396699],[-16.555466011647,29.619999999999997],[-16.52000000000003,29.594495183477548],[-16.499860779150687,29.58],[-16.480000000000032,29.56569830649562],[-16.44434305221941,29.54],[-16.440000000000033,29.536868409572016],[-16.400000000000034,29.50800551446716],[-16.38891423278188,29.5]]}},{"type":"Feature","properties":{"magnitude":0.95,"percentagem":95.0,"territorio":"madeira"},"geometry":{"type":"LineString","coordinates":[[-18.0,32.79620808433786],[-17.975433610016253,32.77999999999993],[-17.96,32.769812005655666],[-17.92,32.743379586846956],[-17.914890359617825,32.73999999999993],[-17.880000000000003,32.71691078930541],[-17.854474216692818,32.69999999999993],[-17.840000000000003,32.69040577335795],[-17.800000000000004,32.66386453596227],[-17.794181114954863,32.65999999999993],[-17.760000000000005,32.63728705648459],[-17.734012875895278,32.61999999999993],[-17.720000000000006,32.61067348376298],[-17.680000000000007,32.584023817095314],[-17.673965895995305,32.579999999999934],[-17.640000000000008,32.55733804582535],[-17.614041730589243,32.539999999999935],[-17.60000000000001,32.53061631114349],[-17.56000000000001,32.503858618249275],[-17.554236915735217,32.499999999999936],[-17.52000000000001,32.47706495972912],[-17.494553049176673,32.45999999999994],[-17.48000000000001,32.450235472350286],[-17.440000000000012,32.4233701700551],[-17.434986511177797,32.41999999999994],[-17.400000000000013,32.39646904334778],[-17.375539223066063,32.37999999999994],[-17.360000000000014,32.369532227105225],[-17.320000000000014,32.342559746059315],[-17.316207140929848,32.33999999999994],[-17.280000000000015,32.315551584865375],[-17.256992764285396,32.29999999999994],[-17.240000000000016,32.288507878276846],[-17.200000000000017,32.261428662994604],[-17.197891382840357,32.25999999999994],[-17.160000000000018,32.23431391576253],[-17.138906303137265,32.21999999999994],[-17.12000000000002,32.20716377213845],[-17.08003194039576,32.17999999999994],[-17.08000000000002,32.17997828089108],[-17.04000000000002,32.15275741106287],[-17.021272585895332,32.139999999999944],[-17.00000000000002,32.12550129860827],[-16.962622292512997,32.099999999999945],[-16.960000000000022,32.09820999397759],[-16.920000000000023,32.070883489561346],[-16.90408447254166,32.059999999999945],[-16.880000000000024,32.04352189147102],[-16.845654757841533,32.019999999999946],[-16.840000000000025,32.0161252616131],[-16.800000000000026,31.988693614033867],[-16.787334934543996,31.97999999999995],[-16.760000000000026,31.961227028581078],[-16.729122357122662,31.939999999999948],[-16.720000000000027,31.933725576767493],[-16.680000000000028,31.906189291428273],[-16.671017052672248,31.89999999999995],[-16.64000000000003,31.878618232046428],[-16.613018219500965,31.85999999999995],[-16.60000000000003,31.85101247674362],[-16.56000000000003,31.823372073035927],[-16.555124014853824,31.81999999999995],[-16.52000000000003,31.7956970683935],[-16.49733558039431,31.77999999999995],[-16.480000000000032,31.767987543335096],[-16.440000000000033,31.74024355464403],[-16.439649114066718,31.739999999999952],[-16.400000000000034,31.712465148712162],[-16.382067779402032,31.69999999999995],[-16.360000000000035,31.684652402964247],[-16.324586780502166,31.659999999999954],[-16.320000000000036,31.65680537611721],[-16.280000000000037,31.62892412878111],[-16.26720825824985,31.61999999999996],[-16.240000000000038,31.601008726800202],[-16.20992957516652,31.579999999999956],[-16.20000000000004,31.573059231074005],[-16.16000000000004,31.545075709172874],[-16.15275055877159,31.539999999999957],[-16.12000000000004,31.51705823085659],[-16.09567100277514,31.499999999999957],[-16.08000000000004,31.48900685130641],[-16.040000000000042,31.46092163533863],[-16.038688320926546,31.459999999999958],[-16.000000000000043,31.432802676068924],[-15.98180474705023,31.41999999999996],[-15.960000000000043,31.40465001325517],[-15.925016290010046,31.37999999999996],[-15.920000000000044,31.376463711035598],[-15.880000000000045,31.348243868351073],[-15.86832458708491,31.33999999999996],[-15.840000000000046,31.31999053837243],[-15.811727544859075,31.29999999999996],[-15.800000000000047,31.291703773540945],[-15.760000000000048,31.263383658631028],[-15.755224395444097,31.25999999999996],[-15.720000000000049,31.235030293149684],[-15.698815726553386,31.219999999999963],[-15.68000000000005,31.206643702588487],[-15.642498597011445,31.179999999999964],[-15.64000000000005,31.178223954929834],[-15.60000000000005,31.149771189124706],[-15.58627484032677,31.139999999999965],[-15.560000000000052,31.121285425308834],[-15.53014166257,31.099999999999966],[-15.520000000000053,31.092766721084857],[-15.480000000000054,31.064215182866903],[-15.474098980425504,31.059999999999967],[-15.440000000000055,31.035630913871234],[-15.418146811947846,31.019999999999968],[-15.400000000000055,31.007013926402834],[-15.362282711478576,30.97999999999997],[-15.360000000000056,30.978364292330426],[-15.320000000000057,30.949682185439578],[-15.306508265860627,30.93999999999997],[-15.280000000000058,30.920967603651533],[-15.250820892628447,30.89999999999997],[-15.240000000000059,30.892220604143326],[-15.20000000000006,30.863441302106953],[-15.195220329763448,30.85999999999997],[-15.16000000000006,30.834629830516036],[-15.139706835896966,30.819999999999972],[-15.120000000000061,30.805786175345098],[-15.084278040540514,30.779999999999973],[-15.080000000000062,30.776910412378466],[-15.040000000000063,30.748002729503234]]}}]}