{"type":"FeatureCollection","features":[{"type":"Feature","properties":{"t_inicio":-0.47222222222223476,"t_fim":0.19444444444442954},"geometry":{"type":"LineString","coordinates":[[-39.99745642526028,40.28800619627088],[-39.86612702605461,40.332742374726706],[-39.7354589777739,40.37806487431314],[-39.60543750086521,40.42397066560721],[-39.47604812882895,40.47045686901869],[-39.34727669609208,40.51752075095528],[-39.21910932639648,40.565159720190366],[-39.091532421674174,40.61337132442421],[-38.964532651382626,40.662153247028826],[-38.83809694227486,40.71150330396783],[-38.712212468580844,40.76141944088354],[-38.586866642577775,40.81189973034299],[-38.462047105528825,40.86294236923663],[-38.33774171897005,40.9145456763224],[-38.21393855632766,40.966708089909346],[-38.09062589484756,41.01942816567476],[-37.96779220782122,41.07270457460986],[-37.84542615709202,41.126536101088206],[-37.723516585827724,41.18092164105294],[-37.602052511544656,41.23586020031793],[-37.48102311937123,41.291350892978954],[-37.36041775553764,41.34739293993093],[-37.240225921080594,41.40398566748775],[-37.120437265751434,41.461128506101474],[-37.001041582117324,41.51882098917757],[-36.88202879984544,41.57706275198351],[-36.76338898016047,41.635853530648134],[-36.6451123104662,41.69519316124918],[-36.52718909912318,41.75508157898692],[-36.409609770373265,41.81551881744159],[-36.29236485940362,41.87650500791297],[-36.175445007543146,41.938040378840384],[-36.05884095758287,42.00012525530123],[-35.94254354921486,42.0627600585872],[-35.82654371458182,42.12594530585629],[-35.7108324739319,42.18968160986018],[-35.59540093137207,42.25396967874531],[-35.48024027071466,42.31881031592748],[-35.365341751410824,42.38420442003878],[-35.25069670456634,42.45015298494663],[-35.13629652903356,42.51665709984409],[-35.02213268757512,42.583717949411785],[-34.908196703094234,42.651336814050396],[-34.79448015492673,42.71951507018448],[-34.68097467519027,42.788254190637076],[-34.567671945186476,42.85755574507557],[-34.45456369185075,42.92742140052919],[-34.34164168424684,42.997852921977895],[-34.22889773010053,43.06885217301456],[-34.11632367236902,43.140421116579404],[-34.00391138584229,43.21256181576891],[-33.891652773771455,43.28527643471915],[-33.779539764521076,43.35856723956522],[-33.66756430824097,43.43243659947763],[-33.5557183735541,43.506886987776824],[-33.44399394425602,43.581920983127596],[-33.332383016023016,43.65754127081493],[-33.22087759312399,43.7337506441026],[-33.10946968513332,43.81055200567682],[-32.998151303640014,43.88794836917683],[-32.88691445895,43.96594286081457],[-32.77575115677712,44.044538721085694],[-32.664653394919185,44.1237393065747],[-32.553613159915045,44.20354809185644],[-32.44262242367881,44.283968671497426],[-32.33167314010683,44.36500476215942],[-32.22075724165359,44.44666020480921],[-32.10986663587212,44.52893896703742],[-31.998993201914317,44.6118451454903],[-31.888128786987437,44.695382968419054],[-31.777265202761413,44.77955679834947],[-31.666394221722584,44.86437113487788],[-31.555507573469356,44.949830617597165],[-31.444596940944052,45.035940029158034],[-31.333653956596464,45.12270429847107],[-31.222670198473168,45.210128504055135],[-31.111637186227654,45.2982178775378],[-31.00054637704477,45.386977807314636],[-30.889389161474156,45.476413842373844],[-30.77815685916579,45.56653169629322],[-30.66684071450146,45.65733725141717],[-30.55543189211525,45.748836563222135],[-30.443921472295756,45.841035864878165],[-30.33230044626268,45.933941572016565],[-30.220559711309562,46.02756028771254],[-30.10869006580498,46.12189880769341],[-29.996682204043026,46.21696412578325],[-29.884526710933812,46.312763439595074],[-29.772214056524973,46.409304156483344],[-29.65973459034322,46.506593899769385],[-29.547078535545637,46.6046405152539],[-29.43423598286944,46.70345207803103],[-29.321196884367595,46.8030368996197],[-29.207951046918367,46.903403535429256],[-29.094488125494536,47.00456079257703],[-28.980797616178506,47.10651773807656],[-28.86686884890773,47.20928370741722],[-28.752690979934556,47.3128683135567],[-28.638252983983193,47.41728145634948],[-28.523543646085358,47.522533332436],[-28.408551553075426,47.62863444561887],[-28.29326508472397,47.73559561775489],[-28.177672404487623,47.84342800019242],[-28.06176144985156,47.95214308578743],[-27.9455199222393,48.061752721532386],[-27.828935276462516,48.17226912183569],[-27.711994709681903,48.283704882491875],[-27.59468514984809,48.396072995385474],[-27.476993243588737,48.50938686397508],[-27.358905343506592,48.62366031960803],[-27.24040749484911,48.738907638718295],[-27.121485421508908,48.85514356096742],[-27.002124511309745,48.97238330838949],[-26.88230980053018,49.09064260560889],[-26.762025957612735,49.209937701203316],[-26.641257266002583,49.330285390292104],[-26.519987606054826,49.45170303843443],[-26.39820043594483,49.574208606931315],[-26.27587877151049,49.69782067963215],[-26.153005164948866,49.822558491355004],[-26.029561682284083,49.94844195804065]]}}]}