{"type":"FeatureCollection","features":[{"type":"Feature","properties":{"magnitude":0.2,"de":0.2,"ate":0.5,"percentagem":20.0},"geometry":{"type":"Polygon","coordinates":[[[-8.439708450770386,30.0],[-3.5399999999988268,30.0],[-3.5399999999988268,34.5413666120822],[-5.819999999998913,32.46344608130966],[-8.439708450770386,30.0]]]}},{"type":"Feature","properties":{"magnitude":0.5,"de":0.5,"ate":0.8,"percentagem":50.0},"geometry":{"type":"Polygon","coordinates":[[[-33.913310431046995,30.0],[-8.439708450770386,30.0],[-5.819999999998913,32.46344608130966],[-3.5399999999988268,34.5413666120822],[-3.5399999999988268,44.939999999999685],[-14.571981966785279,44.939999999999685],[-18.624004238271333,41.039999999999765],[-21.179999999999495,38.657036181845335],[-23.518275796669517,36.59999999999986],[-25.619999999999663,34.89636168016237],[-27.726866035900414,33.35999999999993],[-28.799999999999784,32.651002607409495],[-29.819999999999823,32.025526488869204],[-30.83999999999986,31.44815309073468],[-31.8599999999999,30.919212765025286],[-32.87999999999994,30.43848970104625],[-33.913310431046995,30.0]]]}},{"type":"Feature","properties":{"magnitude":0.8,"de":0.8,"ate":0.95,"percentagem":80.0},"geometry":{"type":"MultiPolygon","coordinates":[[[[-34.5,30.0],[-34.5,42.32060389646882],[-32.63999999999993,43.53732094012169],[-30.777500918759667,44.939999999999685],[-14.571981966785279,44.939999999999685],[-18.839999999999407,40.8348909187112],[-21.53999999999951,38.33119352525955],[-24.01922631689133,36.179999999999865],[-26.27999999999969,34.395351787336125],[-27.539999999999736,33.48867904675451],[-28.73999999999978,32.68927733298038],[-29.939999999999827,31.95509548476104],[-31.139999999999873,31.287560549285235],[-32.519999999999925,30.602673444577775],[-33.913310431046995,30.0],[-34.5,30.0]]],[[[-34.5,43.482361274421216],[-34.5,44.939999999999685],[-32.381691301771795,44.939999999999685],[-33.47247066422502,44.1599999999997],[-34.5,43.482361274421216]]]]}},{"type":"Feature","properties":{"magnitude":0.95,"de":0.95,"ate":0.99,"percentagem":95.0},"geometry":{"type":"Polygon","coordinates":[[[-34.5,43.482361274421216],[-34.5,42.32060389646882],[-32.86537412289441,43.37999999999971],[-31.799999999999898,44.14743724414905],[-30.777500918759667,44.939999999999685],[-32.381691301771795,44.939999999999685],[-33.47247066422503,44.1599999999997],[-34.5,43.482361274421216]]]}}]}