{"type":"FeatureCollection","features":[{"type":"Feature","properties":{"t_inicio":-1.51111111111112,"t_fim":-1.127777777777788},"geometry":{"type":"LineString","coordinates":[[-39.95024070597634,39.767600958324365],[-39.69902615331432,39.94681394208684],[-39.45106062068669,40.12442787996922],[-39.206207952120906,40.30049981525226],[-38.964339887366464,40.47508344474871],[-38.725335422841965,40.648229386844484],[-38.489080237266194,40.819985422490056],[-38.255466174147614,40.99039671240667],[-38.02439077440266,41.15950599331554],[-37.79575685329257,41.3273537556154],[-37.56947211664925,41.49397840460812],[-37.34544881201998,41.65941640709746],[-37.1236034109254,41.823702424951065],[-36.903856318902854,41.98686943701538],[-36.68613161042242,42.148948850601776],[-36.47035678611576,42.30997060361365],[-36.25646255006188,42.469963258257266],[-36.044382605141834,42.6289540871691],[-35.83405346469948,42.786969152695974],[-35.62541427894723,42.94403337998221],[-35.41840667472843,43.100170624444225],[-35.212974607399644,43.255403734150974],[-35.00906422372998,43.40975460757183],[-34.806623734829316,43.56324424710567],[-34.605603298223286,43.715892808761424],[-34.405954908279114,43.867719648322755],[-34.20763229427098,44.01874336429598],[-34.010590825440545,44.16898183791072],[-33.814787422474524,44.31845227041651],[-33.620180474873166,44.46717121789481],[-33.426729763738024,44.6151546237862],[-33.23439638954727,44.76241784931211],[-33.04314270452943,44.90897570195565],[-32.85293224928063,45.05484246215014],[-32.66372969330257,45.200031908310955],[-32.475500779167305,45.34455734033426],[-32.28821227003948,45.48843160167551],[-32.10183190031182,45.63166710011106],[-31.916328329128532,45.774275827276675],[-31.7316710965909,45.916269377070215],[-31.547830582456868,46.0576589629971],[-31.36477796716167,46.19845543453208],[-31.182485194999174,46.33866929256357],[-31.000924939318963,46.47831070398281],[-30.82007056960282,46.61738951547442],[-30.639896120297294,46.75591526656049],[-30.460376261286967,46.89389720194702],[-30.28148626990236,47.031344283216974],[-30.10320200436462,47.168265199911595],[-29.92549987857558,47.304668380037924],[-29.748356838170196,47.44056200003845],[-29.571750337751723,47.575953994255],[-29.395658319238862,47.71085206391844],[-29.220059191256496,47.845263685691435],[-29.044931809507716,47.97919611979163],[-28.87025545806921,48.11265641771898],[-28.69600983155584,48.24565142961051],[-28.522175018103667,48.37818781124391],[-28.348731483124368,48.51027203070923],[-28.175660053787055,48.641910374768024],[-28.00294190418731,48.773108954916516],[-27.830558541163157,48.903873713169396],[-27.65849179072461,49.03421042757931],[-27.486723785060917,49.16412471750606],[-27.315236950095482,49.29362204864904],[-27.144013993558872,49.42270773785494],[-26.973037893551293,49.55138695771287],[-26.802291887569652,49.67966474094747],[-26.631759461974866,49.807545984620425],[-26.461424341875613,49.93503545414989]]}}]}