{"type":"FeatureCollection","features":[{"type":"Feature","properties":{"magnitude":0.2,"de":0.2,"ate":0.5,"percentagem":20.0},"geometry":{"type":"Polygon","coordinates":[[[-13.852336529125783,30.0],[-3.5399999999988268,30.0],[-3.5399999999988268,37.473559102392116],[-5.579999999998904,36.06772717007884],[-7.799999999998988,34.48312747844939],[-13.852336529125783,30.0]]]}},{"type":"Feature","properties":{"magnitude":0.5,"de":0.5,"ate":0.8,"percentagem":50.0},"geometry":{"type":"Polygon","coordinates":[[[-34.5,30.0],[-13.852336529125783,30.0],[-7.799999999998988,34.48312747844939],[-5.579999999998904,36.06772717007884],[-3.5399999999988268,37.473559102392116],[-3.5399999999988268,44.939999999999685],[-15.170873407450141,44.939999999999685],[-18.95999999999941,42.22651592803268],[-28.786007433076247,34.97999999999989],[-31.739999999999895,32.89200975042882],[-34.50000000000001,31.022534136055466],[-34.5,30.0]]]}},{"type":"Feature","properties":{"magnitude":0.8,"de":0.8,"ate":0.95,"percentagem":80.0},"geometry":{"type":"Polygon","coordinates":[[[-34.5,40.06993136804015],[-34.50000000000001,31.022534136055466],[-32.87999999999994,32.10942584545972],[-29.120046509065702,34.739999999999895],[-26.07014117412758,36.95999999999985],[-18.89999999999941,42.27040079687543],[-15.170873407450141,44.939999999999685],[-27.965069441952384,44.939999999999685],[-34.5,40.06993136804015]]]}},{"type":"Feature","properties":{"magnitude":0.95,"de":0.95,"ate":0.99,"percentagem":95.0},"geometry":{"type":"MultiPolygon","coordinates":[[[[-34.5,40.06993136804015],[-34.5,42.771384013518045],[-31.6146730097369,44.939999999999685],[-27.965069441952384,44.939999999999685],[-34.5,40.06993136804015]]],[[[-34.5,44.939999999999685],[-34.44,44.939999999999685],[-34.38573881928378,44.939999999999685],[-34.5,44.85127651874272],[-34.5,44.939999999999685]]]]}},{"type":"Feature","properties":{"magnitude":0.99,"de":0.99,"ate":2.0,"percentagem":99.0},"geometry":{"type":"Polygon","coordinates":[[[-34.5,44.85127651874272],[-34.5,42.771384013518045],[-31.6146730097369,44.939999999999685],[-34.38573881928378,44.939999999999685],[-34.5,44.85127651874272]]]}}]}