{"type":"FeatureCollection","features":[{"type":"Feature","properties":{"magnitude":0.6,"percentagem":60.0,"territorio":"continente"},"geometry":{"type":"LineString","coordinates":[[-5.540000000000106,39.70148547217801],[-5.580000000000105,39.68184898505392],[-5.5837643362993665,39.67999999999992],[-5.620000000000104,39.66220646638813],[-5.660000000000103,39.642548844366466],[-5.665183544383954,39.63999999999992],[-5.700000000000102,39.62288478655804],[-5.7400000000001015,39.60320601124046],[-5.7465129450062005,39.59999999999992],[-5.780000000000101,39.5835204207597],[-5.8200000000001,39.56382047384639],[-5.827752804793991,39.559999999999924],[-5.860000000000099,39.54411335721605],[-5.900000000000098,39.52439222050724],[-5.908903389725162,39.519999999999925],[-5.940000000000097,39.50466358430417],[-5.980000000000096,39.48492123970155],[-5.989964965130914,39.479999999999926],[-6.0200000000000955,39.46517109055827],[-6.060000000000095,39.44540752006656],[-6.070937795699465,39.43999999999993],[-6.100000000000094,39.42563586467286],[-6.140000000000093,39.40585105040127],[-6.151822145479291,39.39999999999993],[-6.180000000000092,39.38605789550582],[-6.220000000000091,39.3662518196696],[-6.232618277882686,39.35999999999993],[-6.26000000000009,39.346437172081636],[-6.3000000000000895,39.3266098170036],[-6.313326455689081,39.31999999999993],[-6.340000000000089,39.30677368359457],[-6.380000000000088,39.286925031706744],[-6.393946941048654,39.27999999999993],[-6.420000000000087,39.267067419411966],[-6.460000000000086,39.24719745325701],[-6.474479995485371,39.23999999999993],[-6.500000000000085,39.22731836907738],[-6.540000000000084,39.207427071310356],[-6.55492587990067,39.19999999999993],[-6.580000000000084,39.187526522314045],[-6.620000000000083,39.167613875703914],[-6.635284854576599,39.15999999999993],[-6.660000000000082,39.147691869028115],[-6.700000000000081,39.12775785645939],[-6.715557179179113,39.11999999999993],[-6.74000000000008,39.107814399312055],[-6.780000000000079,39.08785900378651],[-6.795743112761652,39.079999999999934],[-6.820000000000078,39.0678941034481],[-6.860000000000078,39.04791730808633],[-6.875842913767977,39.039999999999935],[-6.900000000000077,39.02793097191159],[-6.940000000000076,39.007932759954876],[-6.955856840035966,38.999999999999936],[-6.980000000000075,38.98792499537463],[-7.020000000000074,38.96790535018639],[-7.035785148800288,38.95999999999994],[-7.060000000000073,38.9478761647094],[-7.1000000000000725,38.92783506977709],[-7.115628096696042,38.91999999999994],[-7.140000000000072,38.90778447099181],[-7.180000000000071,38.88772190992865],[-7.195385939761847,38.87999999999994],[-7.22000000000007,38.86764990550516],[-7.260000000000069,38.84756586205182],[-7.275058933442997,38.83999999999994],[-7.300000000000068,38.82747245974363],[-7.340000000000067,38.807366917770054],[-7.354647332594637,38.79999999999994],[-7.3800000000000665,38.787252125416046],[-7.420000000000066,38.76712506892323],[-7.434151391484967,38.75999999999994],[-7.460000000000065,38.746988894449466],[-7.500000000000064,38.726840307571265],[-7.513571363798205,38.71999999999994],[-7.540000000000063,38.70668275899307],[-7.580000000000062,38.686512625998084],[-7.592907502638063,38.67999999999994],[-7.620000000000061,38.66633371142185],[-7.6600000000000605,38.64614201671521],[-7.672160060530395,38.639999999999944],[-7.70000000000006,38.62594174434036],[-7.740000000000059,38.60572847246568],[-7.75132928942658,38.599999999999945],[-7.780000000000058,38.58550685058677],[-7.820000000000057,38.565271986227906],[-7.830415440706481,38.559999999999945],[-7.860000000000057,38.54502902323656],[-7.900000000000055,38.52477255121969],[-7.909418765181589,38.519999999999946],[-7.940000000000055,38.50450825560657],[-7.980000000000054,38.48423016090203],[-7.988339513097821,38.47999999999995],[-8.020000000000053,38.463944541258925],[-8.060000000000052,38.44364480898313],[-8.067177934138654,38.43999999999995],[-8.100000000000051,38.423337874005085],[-8.14000000000005,38.403016489422576],[-8.145934277428205,38.39999999999995],[-8.18000000000005,38.38268824790989],[-8.220000000000049,38.362345196435356],[-8.2246087915342,38.35999999999995],[-8.260000000000048,38.341995657295655],[-8.300000000000047,38.32163092449585],[-8.303201724470602,38.31999999999995],[-8.340000000000046,38.30126009674633],[-8.380000000000045,38.28087366834218],[-8.381713323700994,38.27999999999995],[-8.420000000000044,38.260481561111675],[-8.460000000000043,38.24007342298029],[-8.460143836141132,38.23999999999995],[-8.500000000000043,38.219660045511404],[-8.538493201838213,38.19999999999995],[-8.540000000000042,38.199230610298805],[-8.580000000000041,38.17879554533971],[-8.616761930092713,38.159999999999954],[-8.620000000000038,38.15834486314257],[-8.66000000000004,38.13788805626923],[-8.694950295841524,38.119999999999955],[-8.700000000000038,38.11741613658728],[-8.740000000000038,38.09693757425569],[-8.773058544116271,38.079999999999956],[-8.780000000000037,38.07644442671026],[-8.820000000000036,38.05594409554217],[-8.851086919416186,38.03999999999996],[-8.860000000000035,38.035429729878416],[-8.900000000000034,38.01490761666358],[-8.929035665711133,37.99999999999996],[-8.940000000000033,37.99437204275286],[-8.980000000000032,37.97382813445115],[-9.006905026444203,37.95999999999996],[-9.020000000000032,37.953271362293236],[-9.06000000000003,37.93270564603699],[-9.084695244534718,37.91999999999996],[-9.10000000000003,37.91212768576253],[-9.140000000000029,37.89154014885869],[-9.162406562380786,37.87999999999997],[-9.180000000000028,37.8709410107314],[-9.220000000000027,37.850331640663896],[-9.240039221862265,37.83999999999996],[-9.260000000000026,37.829711335083076],[-9.300000000000026,37.809080119515016],[-9.317593464343322,37.79999999999996],[-9.340000000000025,37.788438657017906],[-9.380000000000024,37.76778558379404],[-9.395069530675384,37.75999999999996],[-9.420000000000023,37.74712297505824],[-9.460000000000022,37.726448032207095],[-9.472467661199452,37.71999999999996],[-9.500000000000021,37.70576428805306],[-9.54000000000002,37.68506746378956],[-9.54978809574932,37.679999999999964],[-9.58000000000002,37.66436259518303],[-9.620000000000019,37.643643877910726],[-9.62703107365381,37.639999999999965],[-9.660000000000018,37.62291789596525],[-9.700000000000017,37.60217727427876],[-9.704196833739552,37.599999999999966],[-9.740000000000016,37.58143019025822],[-9.780000000000015,37.56066765294577],[-9.781285614333697,37.55999999999997],[-9.820000000000014,37.53989947826693],[-9.858297331786035,37.51999999999997],[-9.860000000000014,37.51911549885432],[-9.900000000000013,37.49832576054784],[-9.935232292090063,37.47999999999997],[-9.940000000000012,37.477520716436345],[-9.980000000000011,37.45670903801401],[-10.012090976350784,37.43999999999997],[-10.02000000000001,37.435882940977116],[-10.06000000000001,37.41504931194022],[-10.088873621219783,37.39999999999997],[-10.100000000000007,37.39420217391347],[-10.140000000000008,37.3733465839682],[-10.165580462863304,37.35999999999997],[-10.180000000000007,37.35247841705187],[-10.220000000000006,37.33160085611195],[-10.242211736964947,37.31999999999997],[-10.260000000000005,37.31071167257366],[-10.300000000000004,37.28981213076291],[-10.318767678728154,37.27999999999997],[-10.340000000000003,37.26890194304046],[-10.380000000000003,37.24798041069554],[-10.395248522878731,37.239999999999974],[-10.420000000000002,37.22704923139949],[-10.46,37.206105699072474],[-10.471654503667295,37.199999999999974],[-10.5,37.18515354098914]]}},{"type":"Feature","properties":{"magnitude":0.4,"percentagem":40.0,"territorio":"acores"},"geometry":{"type":"LineString","coordinates":[[-24.04000000000017,39.654690096418435],[-24.064393846013175,39.63999999999992],[-24.080000000000165,39.63060521292549],[-24.120000000000168,39.60651386863442],[-24.130810695227755,39.59999999999992],[-24.160000000000167,39.582418495969556],[-24.197197044326398,39.559999999999924],[-24.200000000000166,39.55831126499851],[-24.240000000000165,39.534204091618086],[-24.26355468536535,39.519999999999925],[-24.280000000000165,39.510086527821315],[-24.320000000000164,39.48596218791472],[-24.329881738492116,39.479999999999926],[-24.360000000000163,39.46183439515437],[-24.39617916006173,39.43999999999993],[-24.400000000000162,39.43769490133121],[-24.44000000000016,39.41355505840082],[-24.4624484061507,39.39999999999993],[-24.48000000000016,39.38940549571342],[-24.52000000000016,39.36524871127989],[-24.528687716070927,39.35999999999993],[-24.56000000000016,39.341089186241604],[-24.594898335737906,39.31999999999993],[-24.600000000000158,39.31691812008063],[-24.640000000000157,39.29274617007873],[-24.661081253706403,39.27999999999993],[-24.680000000000156,39.268565305519196],[-24.720000000000155,39.24437664676166],[-24.72723489294475,39.23999999999993],[-24.760000000000154,39.22018609303608],[-24.793360860267146,39.19999999999994],[-24.800000000000153,39.19598416090678],[-24.840000000000153,39.17178068569778],[-24.85945953722889,39.15999999999993],[-24.88000000000015,39.1475692323094],[-24.92000000000015,39.12334928900359],[-24.925529598901928,39.11999999999993],[-24.96000000000015,39.099128426377014],[-24.991573088334,39.079999999999934],[-25.00000000000015,39.07489635092813],[-25.04000000000015,39.050661952226314],[-25.057589632658157,39.039999999999935],[-25.080000000000148,39.02642063950445],[-25.120000000000147,39.00217002146679],[-25.123578231457703,38.999999999999936],[-25.160000000000146,38.9779195863517],[-25.189541443346968,38.95999999999994],[-25.200000000000145,38.9536581069433],[-25.240000000000144,38.92939340678625],[-25.255477985665443,38.91999999999994],[-25.280000000000143,38.905122981113585],[-25.320000000000142,38.880842318678454],[-25.321387258878136,38.87999999999994],[-25.36000000000014,38.85656306455202],[-25.38727242049592,38.83999999999994],[-25.40000000000014,38.832272937695386],[-25.44000000000014,38.80797857892691],[-25.45313111474836,38.79999999999994],[-25.48000000000014,38.78367980401673],[-25.51896346836973,38.75999999999994],[-25.520000000000138,38.759370268906906],[-25.560000000000137,38.73506244637376],[-25.584772589921272,38.71999999999994],[-25.600000000000136,38.71074444617948],[-25.640000000000136,38.686421092942105],[-25.65055561443971,38.67999999999994],[-25.680000000000135,38.66209475028952],[-25.71631364083803,38.639999999999944],[-25.720000000000134,38.63775782396582],[-25.760000000000133,38.613421413359475],[-25.78204860000026,38.599999999999945],[-25.800000000000132,38.589076331993496],[-25.84000000000013,38.56472467023048],[-25.8477581586354,38.559999999999945],[-25.88000000000013,38.54037155957189],[-25.913444161443337,38.519999999999946],[-25.92000000000013,38.51600804503682],[-25.96000000000013,38.49164374558466],[-25.97910718075621,38.47999999999995],[-26.000000000000128,38.467272393732465],[-26.040000000000127,38.44289313169969],[-26.04474550404785,38.43999999999995],[-26.080000000000126,38.41851407148019],[-26.11036181788784,38.39999999999995],[-26.12000000000013,38.39412479053691],[-26.160000000000124,38.36973332408778],[-26.175955147397282,38.35999999999995],[-26.200000000000124,38.345336531426696],[-26.240000000000123,38.320930400214074],[-26.24152449379077,38.31999999999995],[-26.280000000000122,38.29652622806316],[-26.307073485485144,38.27999999999995],[-26.32000000000012,38.272112021792665],[-26.36000000000012,38.24769413334416],[-26.372599403991522,38.23999999999995],[-26.40000000000012,38.22327274902376],[-26.438102571236456,38.19999999999995],[-26.44000000000012,38.19884145199675],[-26.480000000000118,38.17441207630186],[-26.5035861309275,38.159999999999954],[-26.520000000000117,38.149973805548065],[-26.560000000000116,38.125530263783816],[-26.569046947284754,38.119999999999955],[-26.600000000000115,38.101085156914465],[-26.63448675644968,38.079999999999956],[-26.64000000000011,38.076630329589676],[-26.680000000000113,38.05217577065361],[-26.69990681620195,38.03999999999996],[-26.720000000000113,38.027714316516835],[-26.76000000000011,38.00324591435335],[-26.765304870669183,37.99999999999996],[-26.80000000000011,37.97877797450279],[-26.830683779800598,37.95999999999996],[-26.840000000000106,37.95430051014925],[-26.88000000000011,37.929821575639934],[-26.896042702660985,37.91999999999996],[-26.92000000000011,37.9053378399782],[-26.960000000000107,37.88084539512185],[-26.96138036831051,37.87999999999996],[-27.000000000000107,37.85635553282003],[-27.026700872448547,37.83999999999996],[-27.040000000000106,37.83185634576764],[-27.080000000000105,37.807353868478444],[-27.092001055257676,37.79999999999996],[-27.120000000000104,37.78284877441703],[-27.15728154447123,37.75999999999996],[-27.160000000000107,37.75833448480262],[-27.200000000000102,37.733822277182504],[-27.222545372053307,37.71999999999997],[-27.2400000000001,37.709302303336266],[-27.2800000000001,37.68477714175866],[-27.287789246952908,37.679999999999964],[-27.3200000000001,37.66025163420757],[-27.353015516553242,37.639999999999965],[-27.3600000000001,37.6357171370709],[-27.400000000000098,37.61118276989319],[-27.418224727299595,37.599999999999966],[-27.440000000000097,37.58664296725547],[-27.480000000000096,37.56209600616143],[-27.48341476330411,37.55999999999997],[-27.520000000000095,37.5375510523407],[-27.5485894130991,37.51999999999997],[-27.560000000000095,37.51299731896524],[-27.600000000000094,37.48844169298693],[-27.613746502609132,37.47999999999997],[-27.640000000000093,37.46388304218735],[-27.678885560462476,37.43999999999997],[-27.680000000000092,37.43931574712406],[-27.72000000000009,37.41475178319469],[-27.744010879525643,37.39999999999997],[-27.76000000000009,37.390179807811165],[-27.80000000000009,37.36560385101849],[-27.809118383050286,37.35999999999997],[-27.84000000000009,37.341027355851935],[-27.874210187262303,37.31999999999997],[-27.880000000000088,37.31644243309597],[-27.920000000000087,37.29185870534869],[-27.939287685254307,37.27999999999997],[-27.960000000000086,37.26726950567754],[-28.000000000000085,37.242674173893775],[-28.004348179455974,37.239999999999974],[-28.040000000000084,37.21808086186582],[-28.069395445657495,37.199999999999974],[-28.080000000000084,37.19347934325896],[-28.120000000000083,37.16887682443878],[-28.13442772897043,37.159999999999975],[-28.160000000000082,37.14427144224013],[-28.19944402211596,37.119999999999976],[-28.20000000000008,37.11965799527081],[-28.24000000000008,37.09504864262303],[-28.264449324558306,37.07999999999998],[-28.28000000000008,37.07043158437821],[-28.32000000000008,37.04581127605588],[-28.329439044109296,37.03999999999998],[-28.360000000000078,37.02119077768703],[-28.39441536526542,36.99999999999998],[-28.400000000000077,36.996562442644546],[-28.440000000000076,36.97193591221719],[-28.45937995137351,36.95999999999998],[-28.48000000000007,36.947304395480444],[-28.520000000000074,36.922667328684895],[-28.524329804581505,36.91999999999999],[-28.560000000000073,36.89803280566501],[-28.589268997453914,36.87999999999998],[-28.600000000000072,36.87339067868638],[-28.64000000000007,36.8487480194048],[-28.654195597898163,36.83999999999998],[-28.680000000000074,36.8241031508241],[-28.719108653156546,36.79999999999998],[-28.72000000000007,36.79945082704742],[-28.76000000000007,36.77480295626629],[-28.784013291010506,36.759999999999984],[-28.800000000000068,36.75014815933301],[-28.840000000000067,36.72549045060807],[-28.84890468646217,36.719999999999985],[-28.880000000000067,36.70083336290932],[-28.913785400476463,36.679999999999986],[-28.920000000000062,36.67616906027269],[-28.960000000000065,36.6515067990545],[-28.97865677299622,36.639999999999986],[-29.000000000000064,36.62684048057244],[-29.040000000000063,36.602168832956906],[-29.043515796354622,36.59999999999999],[-29.080000000000062,36.57750068552653],[-29.108367154522917,36.55999999999999],[-29.12000000000006,36.55282556832413],[-29.16000000000006,36.5281500461291],[-29.173208131815027,36.51999999999999],[-29.20000000000006,36.503473381514915],[-29.238038427297855,36.47999999999998],[-29.24000000000006,36.4787899032956],[-29.280000000000058,36.454110916842836],[-29.30286271578248,36.43999999999999],[-29.320000000000057,36.429426176732164],[-29.360000000000056,36.40473855522657],[-29.36767622412579,36.39999999999999],[-29.400000000000055,36.3800527475007],[-29.432482195365417,36.35999999999999],[-29.440000000000055,36.355360379347644],[-29.480000000000054,36.33067000252451],[-29.49728105770974,36.31999999999999],[-29.520000000000053,36.305976859122715],[-29.560000000000052,36.28127833285791],[-29.562070082072523,36.279999999999994],[-29.60000000000005,36.256584613243135],[-29.62685487133679,36.239999999999995],[-29.640000000000047,36.23188459158404],[-29.68000000000005,36.20718403889438],[-29.691631334172463,36.199999999999996],[-29.72000000000005,36.18248374038049],[-29.756400400696744,36.160000000000004],[-29.760000000000048,36.15777730385369],[-29.800000000000047,36.13307516600594],[-29.821165734137423,36.11999999999999],[-29.840000000000046,36.10836875619151],[-29.880000000000045,36.0836592761227],[-29.885922887244693,36.08],[-29.920000000000044,36.05895309984515],[-29.95067607422989,36.04],[-29.960000000000043,36.034241052429024],[-30.000000000000043,36.00953074881241],[-30.015424256207105,36.0]]}},{"type":"Feature","properties":{"magnitude":0.6,"percentagem":60.0,"territorio":"madeira"},"geometry":{"type":"LineString","coordinates":[[-16.751418156006732,33.77999999999991],[-16.760000000000026,33.775151981282384],[-16.800000000000026,33.75254442495448],[-16.822181955720446,33.73999999999991],[-16.840000000000025,33.72992538348847],[-16.880000000000024,33.7072961307196],[-16.89289015328771,33.69999999999991],[-16.920000000000023,33.68465809289538],[-16.960000000000022,33.66200716411025],[-16.963542956217957,33.65999999999991],[-17.00000000000002,33.63935016885284],[-17.034140058101954,33.61999999999991],[-17.04000000000002,33.61667928177093],[-17.08000000000002,33.59400167179924],[-17.104681886571186,33.57999999999991],[-17.12000000000002,33.57131189163316],[-17.160000000000018,33.54861266327394],[-17.17516896458963,33.539999999999914],[-17.200000000000017,33.52590403024213],[-17.240000000000016,33.503183205929766],[-17.24560149913064,33.499999999999915],[-17.280000000000015,33.48045576079369],[-17.315979364446612,33.459999999999916],[-17.320000000000014,33.45771452801805],[-17.360000000000014,33.43496714761624],[-17.386302652201213,33.419999999999916],[-17.400000000000013,33.41220716973394],[-17.440000000000012,33.38943825618331],[-17.456572040665556,33.37999999999992],[-17.48000000000001,33.36665957530451],[-17.52000000000001,33.343869153126604],[-17.5267877363304,33.33999999999992],[-17.56000000000001,33.321071811927006],[-17.59694970867821,33.29999999999992],[-17.60000000000001,33.298260789922516],[-17.640000000000008,33.275443947976434],[-17.667057889133233,33.25999999999992],[-17.680000000000007,33.252614335414854],[-17.720000000000006,33.22977605301873],[-17.737113021175578,33.21999999999992],[-17.760000000000005,33.206927893981515],[-17.800000000000004,33.18406819782415],[-17.80711531086818,33.17999999999992],[-17.840000000000003,33.161201536981444],[-17.877064751402372,33.13999999999992],[-17.880000000000003,33.13832130495699],[-17.92,33.115435336998225],[-17.94696126197644,33.09999999999992],[-17.96,33.09253667581962],[-18.0,33.06962936785365]]}}]}