{"type":"FeatureCollection","properties":{"largura_maxima_km":56.186,"largura_sobre_pt_km":35.758,"linha_central_sobre_pt":true,"desenhavel_como_area":true,"perfil_largura":[{"t":1.00556,"lat":41.3856,"lon":-39.9673,"largura_km":21.858,"eixo_na_terra":true},{"t":1.01111,"lat":41.355,"lon":-39.7353,"largura_km":22.034,"eixo_na_terra":true},{"t":1.01667,"lat":41.3237,"lon":-39.5022,"largura_km":22.211,"eixo_na_terra":true},{"t":1.02222,"lat":41.2917,"lon":-39.268,"largura_km":22.391,"eixo_na_terra":true},{"t":1.02778,"lat":41.2589,"lon":-39.0327,"largura_km":22.572,"eixo_na_terra":true},{"t":1.03333,"lat":41.2254,"lon":-38.7962,"largura_km":22.755,"eixo_na_terra":true},{"t":1.03889,"lat":41.1912,"lon":-38.5585,"largura_km":22.94,"eixo_na_terra":true},{"t":1.04444,"lat":41.1562,"lon":-38.3197,"largura_km":23.127,"eixo_na_terra":true},{"t":1.05,"lat":41.1204,"lon":-38.0797,"largura_km":23.315,"eixo_na_terra":true},{"t":1.05556,"lat":41.0839,"lon":-37.8385,"largura_km":23.506,"eixo_na_terra":true},{"t":1.06111,"lat":41.0465,"lon":-37.596,"largura_km":23.698,"eixo_na_terra":true},{"t":1.06667,"lat":41.0084,"lon":-37.3523,"largura_km":23.893,"eixo_na_terra":true},{"t":1.07222,"lat":40.9695,"lon":-37.1073,"largura_km":24.089,"eixo_na_terra":true},{"t":1.07778,"lat":40.9298,"lon":-36.861,"largura_km":24.288,"eixo_na_terra":true},{"t":1.08333,"lat":40.8892,"lon":-36.6134,"largura_km":24.488,"eixo_na_terra":true},{"t":1.08889,"lat":40.8478,"lon":-36.3644,"largura_km":24.691,"eixo_na_terra":true},{"t":1.09444,"lat":40.8055,"lon":-36.1141,"largura_km":24.896,"eixo_na_terra":true},{"t":1.1,"lat":40.7624,"lon":-35.8623,"largura_km":25.103,"eixo_na_terra":true},{"t":1.10556,"lat":40.7184,"lon":-35.6092,"largura_km":25.312,"eixo_na_terra":true},{"t":1.11111,"lat":40.6736,"lon":-35.3546,"largura_km":25.523,"eixo_na_terra":true},{"t":1.11667,"lat":40.6278,"lon":-35.0986,"largura_km":25.737,"eixo_na_terra":true},{"t":1.12222,"lat":40.5811,"lon":-34.841,"largura_km":25.953,"eixo_na_terra":true},{"t":1.12778,"lat":40.5335,"lon":-34.5819,"largura_km":26.172,"eixo_na_terra":true},{"t":1.13333,"lat":40.4849,"lon":-34.3213,"largura_km":26.393,"eixo_na_terra":true},{"t":1.13889,"lat":40.4354,"lon":-34.0591,"largura_km":26.616,"eixo_na_terra":true},{"t":1.14444,"lat":40.3849,"lon":-33.7952,"largura_km":26.842,"eixo_na_terra":true},{"t":1.15,"lat":40.3334,"lon":-33.5297,"largura_km":27.07,"eixo_na_terra":true},{"t":1.15556,"lat":40.2809,"lon":-33.2625,"largura_km":27.301,"eixo_na_terra":true},{"t":1.16111,"lat":40.2274,"lon":-32.9936,"largura_km":27.534,"eixo_na_terra":true},{"t":1.16667,"lat":40.1728,"lon":-32.723,"largura_km":27.77,"eixo_na_terra":true},{"t":1.17222,"lat":40.1172,"lon":-32.4505,"largura_km":28.009,"eixo_na_terra":true},{"t":1.17778,"lat":40.0605,"lon":-32.1762,"largura_km":28.251,"eixo_na_terra":true},{"t":1.18333,"lat":40.0028,"lon":-31.9,"largura_km":28.495,"eixo_na_terra":true},{"t":1.18889,"lat":39.9438,"lon":-31.6219,"largura_km":28.743,"eixo_na_terra":true},{"t":1.19444,"lat":39.8838,"lon":-31.3418,"largura_km":28.993,"eixo_na_terra":true},{"t":1.2,"lat":39.8226,"lon":-31.0597,"largura_km":29.247,"eixo_na_terra":true},{"t":1.20556,"lat":39.7602,"lon":-30.7755,"largura_km":29.503,"eixo_na_terra":true},{"t":1.21111,"lat":39.6966,"lon":-30.4893,"largura_km":29.763,"eixo_na_terra":true},{"t":1.21667,"lat":39.6317,"lon":-30.2008,"largura_km":30.026,"eixo_na_terra":true},{"t":1.22222,"lat":39.5656,"lon":-29.9102,"largura_km":30.293,"eixo_na_terra":true},{"t":1.22778,"lat":39.4983,"lon":-29.6172,"largura_km":30.562,"eixo_na_terra":true},{"t":1.23333,"lat":39.4296,"lon":-29.3219,"largura_km":30.836,"eixo_na_terra":true},{"t":1.23889,"lat":39.3595,"lon":-29.0242,"largura_km":31.112,"eixo_na_terra":true},{"t":1.24444,"lat":39.2881,"lon":-28.724,"largura_km":31.392,"eixo_na_terra":true},{"t":1.25,"lat":39.2153,"lon":-28.4213,"largura_km":31.676,"eixo_na_terra":true},{"t":1.25556,"lat":39.141,"lon":-28.116,"largura_km":31.964,"eixo_na_terra":true},{"t":1.26111,"lat":39.0653,"lon":-27.8079,"largura_km":32.256,"eixo_na_terra":true},{"t":1.26667,"lat":38.988,"lon":-27.4971,"largura_km":32.551,"eixo_na_terra":true},{"t":1.27222,"lat":38.9093,"lon":-27.1835,"largura_km":32.851,"eixo_na_terra":true},{"t":1.27778,"lat":38.8289,"lon":-26.8669,"largura_km":33.155,"eixo_na_terra":true},{"t":1.28333,"lat":38.7469,"lon":-26.5473,"largura_km":33.464,"eixo_na_terra":true},{"t":1.28889,"lat":38.6632,"lon":-26.2245,"largura_km":33.777,"eixo_na_terra":true},{"t":1.29444,"lat":38.5778,"lon":-25.8985,"largura_km":34.095,"eixo_na_terra":true},{"t":1.3,"lat":38.4906,"lon":-25.5691,"largura_km":34.418,"eixo_na_terra":true},{"t":1.30556,"lat":38.4016,"lon":-25.2363,"largura_km":34.745,"eixo_na_terra":true},{"t":1.31111,"lat":38.3107,"lon":-24.8998,"largura_km":35.077,"eixo_na_terra":true},{"t":1.31667,"lat":38.2179,"lon":-24.5597,"largura_km":35.415,"eixo_na_terra":true},{"t":1.32222,"lat":38.123,"lon":-24.2157,"largura_km":35.758,"eixo_na_terra":true},{"t":1.32778,"lat":38.0262,"lon":-23.8677,"largura_km":36.107,"eixo_na_terra":true},{"t":1.33333,"lat":37.9271,"lon":-23.5155,"largura_km":36.461,"eixo_na_terra":true},{"t":1.33889,"lat":37.8259,"lon":-23.159,"largura_km":36.822,"eixo_na_terra":true},{"t":1.34444,"lat":37.7224,"lon":-22.798,"largura_km":37.188,"eixo_na_terra":true},{"t":1.35,"lat":37.6165,"lon":-22.4323,"largura_km":37.561,"eixo_na_terra":true},{"t":1.35556,"lat":37.5082,"lon":-22.0616,"largura_km":37.94,"eixo_na_terra":true},{"t":1.36111,"lat":37.3973,"lon":-21.6859,"largura_km":38.327,"eixo_na_terra":true},{"t":1.36667,"lat":37.2837,"lon":-21.3048,"largura_km":38.721,"eixo_na_terra":true},{"t":1.37222,"lat":37.1674,"lon":-20.9181,"largura_km":39.122,"eixo_na_terra":true},{"t":1.37778,"lat":37.0481,"lon":-20.5254,"largura_km":39.532,"eixo_na_terra":true},{"t":1.38333,"lat":36.9259,"lon":-20.1266,"largura_km":39.949,"eixo_na_terra":true},{"t":1.38889,"lat":36.8005,"lon":-19.7213,"largura_km":40.376,"eixo_na_terra":true},{"t":1.39444,"lat":36.6718,"lon":-19.3091,"largura_km":40.811,"eixo_na_terra":true},{"t":1.4,"lat":36.5395,"lon":-18.8896,"largura_km":41.256,"eixo_na_terra":true},{"t":1.40556,"lat":36.4037,"lon":-18.4625,"largura_km":41.711,"eixo_na_terra":true},{"t":1.41111,"lat":36.2639,"lon":-18.0272,"largura_km":42.176,"eixo_na_terra":true},{"t":1.41667,"lat":36.1201,"lon":-17.5833,"largura_km":42.653,"eixo_na_terra":true},{"t":1.42222,"lat":35.9719,"lon":-17.1301,"largura_km":43.141,"eixo_na_terra":true},{"t":1.42778,"lat":35.8192,"lon":-16.6671,"largura_km":43.642,"eixo_na_terra":true},{"t":1.43333,"lat":35.6615,"lon":-16.1935,"largura_km":44.156,"eixo_na_terra":true},{"t":1.43889,"lat":35.4986,"lon":-15.7086,"largura_km":44.685,"eixo_na_terra":true},{"t":1.44444,"lat":35.33,"lon":-15.2114,"largura_km":45.229,"eixo_na_terra":true},{"t":1.45,"lat":35.1554,"lon":-14.7009,"largura_km":45.789,"eixo_na_terra":true},{"t":1.45556,"lat":34.9743,"lon":-14.1761,"largura_km":46.367,"eixo_na_terra":true},{"t":1.46111,"lat":34.786,"lon":-13.6354,"largura_km":46.964,"eixo_na_terra":true},{"t":1.46667,"lat":34.5899,"lon":-13.0774,"largura_km":47.582,"eixo_na_terra":true},{"t":1.47222,"lat":34.3853,"lon":-12.5002,"largura_km":48.222,"eixo_na_terra":true},{"t":1.47778,"lat":34.1711,"lon":-11.9016,"largura_km":48.887,"eixo_na_terra":true},{"t":1.48333,"lat":33.9464,"lon":-11.2791,"largura_km":49.579,"eixo_na_terra":true},{"t":1.48889,"lat":33.7098,"lon":-10.6294,"largura_km":50.301,"eixo_na_terra":true},{"t":1.49444,"lat":33.4595,"lon":-9.9486,"largura_km":51.057,"eixo_na_terra":true},{"t":1.5,"lat":33.1936,"lon":-9.2317,"largura_km":51.85,"eixo_na_terra":true},{"t":1.50556,"lat":32.9092,"lon":-8.4721,"largura_km":52.683,"eixo_na_terra":true},{"t":1.51111,"lat":32.6028,"lon":-7.6612,"largura_km":53.558,"eixo_na_terra":true},{"t":1.51667,"lat":32.2692,"lon":-6.7868,"largura_km":54.469,"eixo_na_terra":true},{"t":1.52222,"lat":31.9012,"lon":-5.8314,"largura_km":55.392,"eixo_na_terra":true},{"t":1.52778,"lat":31.487,"lon":-4.767,"largura_km":56.186,"eixo_na_terra":true},{"t":1.53333,"lat":30.8982,"lon":-3.2404,"largura_km":null,"eixo_na_terra":false},{"t":1.53889,"lat":30.1195,"lon":-1.2613,"largura_km":null,"eixo_na_terra":false},{"t":1.54444,"lat":29.4802,"lon":0.2446,"largura_km":null,"eixo_na_terra":false},{"t":1.55,"lat":29.0724,"lon":1.1038,"largura_km":null,"eixo_na_terra":false},{"t":1.55556,"lat":28.5512,"lon":2.2287,"largura_km":null,"eixo_na_terra":false}]},"features":[{"type":"Feature","properties":{},"geometry":{"type":"Polygon","coordinates":[[[3.013966371605063,28.062334524348692],[3.0198013793040843,28.035468887952515],[2.4197144841189697,28.28282268565718],[1.0476902264126977,28.844320209952627],[0.5364304959398396,29.05545862767629],[0.006040864854355732,29.279157905480314],[-0.21278432921525336,29.373920021043034],[-0.4804022939594024,29.49305066639456],[-1.1588895175318896,29.754756788065837],[-1.4600020643129596,29.874217299693164],[-1.72971062006539,29.98399918409115],[-2.043785655216709,30.116684692940623],[-2.1821925186789315,30.177503582694104],[-2.367534700391914,30.26221026181879],[-2.624808567319519,30.356495315762043],[-2.8626725475434114,30.446085374410416],[-3.220041863894693,30.586495791656315],[-3.348844192419193,30.639367564324576],[-3.5264557316137086,30.714957499256997],[-3.684999039255871,30.78589983682165],[-3.7860107675709593,30.83346303077839],[-4.00681724759832,30.911520791487778],[-4.199458395078011,30.98222977541094],[-4.380006335226938,31.051139656984503],[-4.600099883285452,31.13952294942602],[-4.794668355336086,31.223100556548612],[-4.881820360511341,31.26282847081111],[-4.999355770343101,31.3195688814354],[-5.130634491672964,31.389410160231545],[-5.185085513060102,31.42163730602001],[-5.251013391292817,31.465329680191402],[-5.441040001218255,31.4724054145793],[-6.457833310907915,31.8711721124802],[-7.379055131351436,32.228980976135865],[-8.208817172911182,32.54845233288347],[-8.983392117710025,32.84393501376824],[-9.712543489900696,33.11956641233456],[-10.418601755623513,33.38390230634699],[-11.075982169784822,33.62793281440428],[-12.30916731203061,34.07968890413683],[-13.453386638651779,34.49149226047317],[-14.525816951423451,34.8706962097878],[-15.039097689532923,35.049784983560556],[-16.025920118474204,35.38957558511827],[-16.966213858013845,35.70763854867313],[-17.866235482820713,36.006683588471006],[-18.730970395886402,36.288877305629164],[-19.56446594118185,36.55598479614044],[-20.36246324851126,36.80713839659232],[-21.143279543679142,37.04835909554528],[-21.525011615666443,37.164646103063916],[-22.272434147137147,37.389152892878734],[-22.999999540175224,37.603582907595786],[-23.70933016255347,37.80865837424859],[-24.742183369023564,38.10009457287797],[-25.411748425854285,38.28439056383394],[-26.0673360274275,38.46124398125589],[-26.709867282695626,38.631072743184006],[-27.334899342048402,38.792927812246006],[-27.953869767447117,38.94986113278479],[-28.562009354832327,39.1007887658458],[-29.159924890625405,39.24599121835671],[-29.748167971318082,39.38572476250525],[-30.327241629062172,39.520224308577816],[-30.897605973147478,39.64970585383803],[-31.459683020216914,39.77436858156055],[-32.01386085131389,39.89439666948275],[-32.56049720692218,40.00996085541803],[-33.09592067218102,40.120418242824684],[-33.6285420755209,40.227555476998766],[-34.154538454340184,40.330671430127744],[-34.67417398555898,40.42989520936233],[-35.44223425083524,40.571695647982665],[-35.947008133357485,40.6617022404963],[-36.44621295980534,40.74820904542898],[-36.94004288912868,40.8313137558461],[-37.66786224292855,40.949287867709735],[-38.149100619366635,41.02430320291425],[-38.86202950899957,41.13103511042863],[-39.331574344181604,41.198438902643396],[-40.02761694034655,41.29409521505619],[-39.9063557821936,41.477554352258494],[-39.439048810353654,41.416763271604566],[-38.96416492361308,41.352674446242524],[-38.48762874703979,41.28605313716744],[-38.00629733198832,41.21641793839261],[-37.520016845557734,41.14369141035995],[-37.02862391681842,41.06779188141326],[-36.28156563107552,40.9478031887882],[-35.52197601972719,40.82016751087676],[-34.74543741390494,40.683869766032736],[-34.22240042714196,40.588801517561315],[-33.692887161024174,40.48989653964739],[-32.88588135090282,40.334063246397925],[-32.06270058974877,40.16883803452536],[-31.217861968081394,39.99275370554557],[-30.35866005959423,39.80705040789451],[-29.77485399822706,39.67709380117871],[-28.881464262157493,39.4723907734307],[-28.273318409384927,39.329062246547345],[-27.340794561829483,39.10311348167729],[-26.704602625235708,38.944740655202835],[-26.050330443140496,38.778324834287275],[-25.3881398735395,38.60633829305734],[-24.711670059992144,38.42697372222726],[-24.0198606934336,38.239764701681196],[-23.311514212904626,38.0441867030542],[-22.585270044125537,37.83964630186912],[-21.83957228871097,37.62546766399626],[-21.065375329316424,37.39869422310044],[-20.274768610889737,37.162654788257214],[-19.458360234897782,36.91424288386128],[-18.613254645275475,36.65222020413607],[-18.178882493908958,36.51565383465831],[-17.283997876611238,36.230347929962996],[-16.35026397671089,35.927118429311975],[-15.36164641179343,35.60003805258249],[-14.330371219696616,35.25259758735805],[-13.237142255153913,34.87751505893897],[-12.068823478557704,34.469298754373554],[-11.451024150645054,34.250480313737576],[-10.806950661493232,34.020254742301745],[-10.117836199094484,33.771523004596034],[-9.408104247612272,33.513044417793985],[-8.657475952349557,33.23710050443193],[-7.8578959059784665,32.94036347139542],[-6.998288341320489,32.61826501040603],[-6.062688703539976,32.264230797244835],[-5.026561168456368,31.868172811506366],[-3.8485330706853063,31.41310763488541],[-4.075242154534722,31.42154925925197],[-3.9068795019373113,31.37306940216583],[-3.7031081757562276,31.31116970895373],[-3.491242153135687,31.243457697622212],[-3.272868334797181,31.170350638666854],[-3.049768627228417,31.09237080736625],[-2.8239444514603065,31.010158555047013],[-2.597643328516966,30.92448615118652],[-2.4477436977358593,30.865895896428405],[-2.2263952513895333,30.77657469506226],[-2.0824712418408637,30.716583212788457],[-1.942589222989028,30.6566914341601],[-1.7496637922911866,30.571153235100994],[-1.5471030229458052,30.49810011052599],[-1.2465442517172676,30.38653195612419],[-0.9352569976427674,30.26728667818964],[-0.7224015476314491,30.183714278261764],[-0.39620705033797776,30.052606749213787],[-0.17486907462114232,29.96163531688757],[0.1614556149527573,29.820405649591972],[0.46672252618873505,29.689111263800143],[0.9497325204443143,29.504330267855003],[1.5757310636543593,29.258968790911403],[2.1063532742244604,29.047277869438485],[2.889504928280928,28.731019816849667],[2.9661747274225623,28.364869414080054],[3.0535858874260953,28.04529405224309],[3.013966371605063,28.062334524348692]]]}}]}