{"type":"FeatureCollection","features":[{"type":"Feature","properties":{"t_inicio":-1.2500000000000098,"t_fim":-1.1722222222222323},"geometry":{"type":"LineString","coordinates":[[-9.693711594771457,28.05144680946977],[-7.352213343843516,28.08697189931951],[-5.665839191267253,28.084958923758304],[-4.284238621089514,28.065456067023664],[-3.089282263349503,28.035233707492168],[-2.023861581221013,27.99756969481849],[-1.0551814873960552,27.954349004358605],[-0.16234212463990616,27.906774538435435],[0.6689485544438298,27.85566996853383],[1.4489765500173917,27.80162884945866],[2.1854380169896785,27.745095837359393],[2.884270126092872,27.686414369067244],[3.5501676565856997,27.625856325696308],[4.186919451005338,27.56364136459725],[4.797636036310109,27.49995000620609]]}}]}