{"type":"FeatureCollection","features":[{"type":"Feature","properties":{"magnitude":0.6,"percentagem":60.0,"territorio":"continente"},"geometry":{"type":"LineString","coordinates":[[-5.540000000000105,40.87640934668153],[-5.580000000000105,40.87684154788044],[-5.620000000000104,40.87726227263612],[-5.660000000000102,40.87767152781057],[-5.700000000000102,40.878069320253296],[-5.7400000000001015,40.878455656801314],[-5.7800000000001,40.87883054427926],[-5.8200000000001,40.879193989499285],[-5.860000000000099,40.879545999261246],[-5.900000000000098,40.879886580352576],[-5.913783223028339,40.879999999999896],[-5.940000000000097,40.88021576850423],[-5.980000000000096,40.880533555234926],[-6.0200000000000955,40.88083993207658],[-6.060000000000095,40.881134905767155],[-6.100000000000094,40.88141848303243],[-6.140000000000093,40.88169067058598],[-6.180000000000092,40.881951475129185],[-6.220000000000091,40.88220090335134],[-6.26000000000009,40.88243896192957],[-6.3000000000000895,40.88266565752896],[-6.340000000000089,40.88288099680249],[-6.380000000000088,40.88308498639117],[-6.420000000000087,40.883277632923956],[-6.460000000000086,40.883458943017835],[-6.500000000000085,40.88362892327787],[-6.540000000000084,40.883787580297174],[-6.580000000000084,40.88393492065697],[-6.620000000000083,40.88407095092664],[-6.660000000000082,40.88419567766367],[-6.700000000000081,40.884309107413785],[-6.74000000000008,40.88441124671087],[-6.780000000000079,40.88450210207708],[-6.820000000000078,40.88458168002284],[-6.860000000000078,40.88464998704682],[-6.900000000000077,40.88470702963607],[-6.940000000000076,40.88475281426592],[-6.980000000000075,40.88478734740011],[-7.020000000000074,40.884810635490766],[-7.060000000000073,40.88482268497841],[-7.1000000000000725,40.884823502292036],[-7.140000000000072,40.88481309384911],[-7.180000000000071,40.884791466055596],[-7.22000000000007,40.88475862530598],[-7.260000000000069,40.88471457798329],[-7.300000000000068,40.884659330459115],[-7.340000000000067,40.884592889093696],[-7.3800000000000665,40.88451526023586],[-7.420000000000066,40.88442645022309],[-7.460000000000065,40.884326465381555],[-7.500000000000064,40.88421531202614],[-7.540000000000063,40.884092996460424],[-7.580000000000062,40.88395952497678],[-7.620000000000061,40.88381490385633],[-7.6600000000000605,40.883659139369],[-7.70000000000006,40.883492237773574],[-7.740000000000059,40.88331420531766],[-7.780000000000058,40.88312504823777],[-7.820000000000057,40.8829247727593],[-7.860000000000056,40.88271338509658],[-7.900000000000055,40.88249089145288],[-7.940000000000055,40.882257298020505],[-7.980000000000054,40.88201261098069],[-8.020000000000053,40.88175683650375],[-8.060000000000052,40.881489980749016],[-8.100000000000051,40.881212049864914],[-8.14000000000005,40.88092304998899],[-8.18000000000005,40.88062298724787],[-8.220000000000049,40.88031186775738],[-8.258720927184923,40.87999999999989],[-8.260000000000046,40.879989699030496],[-8.300000000000047,40.87965652990166],[-8.340000000000046,40.87931232384637],[-8.380000000000045,40.8789570869381],[-8.420000000000044,40.87859082523957],[-8.460000000000043,40.87821354480285],[-8.500000000000043,40.87782525166928],[-8.540000000000042,40.87742595186958],[-8.580000000000041,40.87701565142387],[-8.62000000000004,40.876594356341606],[-8.66000000000004,40.876162072621725],[-8.700000000000038,40.87571880625259],[-8.740000000000038,40.87526456321199],[-8.780000000000037,40.87479934946729],[-8.820000000000036,40.874323170975295],[-8.860000000000035,40.87383603368239],[-8.900000000000034,40.8733379435245],[-8.940000000000033,40.87282890642716],[-8.980000000000032,40.8723089283055],[-9.020000000000032,40.87177801506429],[-9.06000000000003,40.871236172597925],[-9.10000000000003,40.87068340679052],[-9.140000000000029,40.87011972351588],[-9.180000000000028,40.86954512863749],[-9.220000000000027,40.86895962800868],[-9.260000000000026,40.86836322747244],[-9.300000000000026,40.86775593286163],[-9.340000000000025,40.86713774999889],[-9.380000000000024,40.866508684696704],[-9.420000000000023,40.865868742757414],[-9.460000000000022,40.865217929973255],[-9.500000000000021,40.86455625212637],[-9.54000000000002,40.86388371498882],[-9.58000000000002,40.86320032432262],[-9.620000000000019,40.86250608587975],[-9.660000000000018,40.861801005402214],[-9.700000000000017,40.86108508862199],[-9.740000000000016,40.86035834126113],[-9.780000000000015,40.859620769031736],[-9.820000000000014,40.858872377636],[-9.860000000000014,40.85811317276621],[-9.900000000000013,40.857343160104776],[-9.940000000000012,40.856562345324264],[-9.980000000000011,40.85577073408744],[-10.02000000000001,40.85496833204723],[-10.06000000000001,40.85415514484677],[-10.100000000000009,40.85333117811947],[-10.140000000000008,40.85249643748896],[-10.180000000000007,40.85165092856916],[-10.220000000000006,40.850794656964325],[-10.260000000000005,40.849927628268965],[-10.300000000000004,40.849049848067985],[-10.340000000000003,40.84816132193668],[-10.380000000000003,40.847262055440666],[-10.420000000000002,40.846352054136],[-10.46,40.84543132356919],[-10.5,40.84449986927713]]}}]}