{"type":"FeatureCollection","properties":{"largura_maxima_km":247.075,"largura_sobre_pt_km":235.713,"linha_central_sobre_pt":false,"desenhavel_como_area":true,"perfil_largura":[{"t":-0.55,"lat":49.9309,"lon":-6.2832,"largura_km":228.408,"eixo_na_terra":true},{"t":-0.54444,"lat":49.8514,"lon":-6.1373,"largura_km":228.561,"eixo_na_terra":true},{"t":-0.53889,"lat":49.772,"lon":-5.9918,"largura_km":228.716,"eixo_na_terra":true},{"t":-0.53333,"lat":49.6928,"lon":-5.8468,"largura_km":228.873,"eixo_na_terra":true},{"t":-0.52778,"lat":49.6138,"lon":-5.7021,"largura_km":229.033,"eixo_na_terra":true},{"t":-0.52222,"lat":49.535,"lon":-5.5578,"largura_km":229.195,"eixo_na_terra":true},{"t":-0.51667,"lat":49.4563,"lon":-5.4138,"largura_km":229.359,"eixo_na_terra":true},{"t":-0.51111,"lat":49.3777,"lon":-5.2702,"largura_km":229.525,"eixo_na_terra":true},{"t":-0.50556,"lat":49.2994,"lon":-5.127,"largura_km":229.694,"eixo_na_terra":true},{"t":-0.5,"lat":49.2212,"lon":-4.9841,"largura_km":229.864,"eixo_na_terra":true},{"t":-0.49444,"lat":49.1431,"lon":-4.8416,"largura_km":230.037,"eixo_na_terra":true},{"t":-0.48889,"lat":49.0652,"lon":-4.6993,"largura_km":230.212,"eixo_na_terra":true},{"t":-0.48333,"lat":48.9875,"lon":-4.5574,"largura_km":230.389,"eixo_na_terra":true},{"t":-0.47778,"lat":48.9099,"lon":-4.4158,"largura_km":230.568,"eixo_na_terra":true},{"t":-0.47222,"lat":48.8325,"lon":-4.2745,"largura_km":230.75,"eixo_na_terra":true},{"t":-0.46667,"lat":48.7553,"lon":-4.1335,"largura_km":230.933,"eixo_na_terra":true},{"t":-0.46111,"lat":48.6782,"lon":-3.9928,"largura_km":231.119,"eixo_na_terra":true},{"t":-0.45556,"lat":48.6012,"lon":-3.8524,"largura_km":231.307,"eixo_na_terra":true},{"t":-0.45,"lat":48.5245,"lon":-3.7122,"largura_km":231.497,"eixo_na_terra":true},{"t":-0.44444,"lat":48.4478,"lon":-3.5723,"largura_km":231.689,"eixo_na_terra":true},{"t":-0.43889,"lat":48.3713,"lon":-3.4326,"largura_km":231.883,"eixo_na_terra":true},{"t":-0.43333,"lat":48.295,"lon":-3.2933,"largura_km":232.079,"eixo_na_terra":true},{"t":-0.42778,"lat":48.2188,"lon":-3.1541,"largura_km":232.277,"eixo_na_terra":true},{"t":-0.42222,"lat":48.1428,"lon":-3.0152,"largura_km":232.477,"eixo_na_terra":true},{"t":-0.41667,"lat":48.0669,"lon":-2.8765,"largura_km":232.679,"eixo_na_terra":true},{"t":-0.41111,"lat":47.9912,"lon":-2.738,"largura_km":232.883,"eixo_na_terra":true},{"t":-0.40556,"lat":47.9156,"lon":-2.5997,"largura_km":233.089,"eixo_na_terra":true},{"t":-0.4,"lat":47.8402,"lon":-2.4617,"largura_km":233.297,"eixo_na_terra":true},{"t":-0.39444,"lat":47.7649,"lon":-2.3238,"largura_km":233.507,"eixo_na_terra":true},{"t":-0.38889,"lat":47.6897,"lon":-2.1861,"largura_km":233.719,"eixo_na_terra":true},{"t":-0.38333,"lat":47.6147,"lon":-2.0486,"largura_km":233.933,"eixo_na_terra":true},{"t":-0.37778,"lat":47.5399,"lon":-1.9113,"largura_km":234.149,"eixo_na_terra":true},{"t":-0.37222,"lat":47.4652,"lon":-1.7742,"largura_km":234.367,"eixo_na_terra":true},{"t":-0.36667,"lat":47.3906,"lon":-1.6372,"largura_km":234.586,"eixo_na_terra":true},{"t":-0.36111,"lat":47.3162,"lon":-1.5003,"largura_km":234.808,"eixo_na_terra":true},{"t":-0.35556,"lat":47.2419,"lon":-1.3636,"largura_km":235.031,"eixo_na_terra":true},{"t":-0.35,"lat":47.1677,"lon":-1.2271,"largura_km":235.257,"eixo_na_terra":true},{"t":-0.34444,"lat":47.0937,"lon":-1.0907,"largura_km":235.484,"eixo_na_terra":true},{"t":-0.33889,"lat":47.0198,"lon":-0.9544,"largura_km":235.713,"eixo_na_terra":true},{"t":-0.33333,"lat":46.9461,"lon":-0.8182,"largura_km":235.944,"eixo_na_terra":true},{"t":-0.32778,"lat":46.8725,"lon":-0.6822,"largura_km":236.176,"eixo_na_terra":true},{"t":-0.32222,"lat":46.7991,"lon":-0.5462,"largura_km":236.411,"eixo_na_terra":true},{"t":-0.31667,"lat":46.7257,"lon":-0.4103,"largura_km":236.647,"eixo_na_terra":true},{"t":-0.31111,"lat":46.6526,"lon":-0.2746,"largura_km":236.885,"eixo_na_terra":true},{"t":-0.30556,"lat":46.5795,"lon":-0.1389,"largura_km":237.124,"eixo_na_terra":true},{"t":-0.3,"lat":46.5066,"lon":-0.0033,"largura_km":237.366,"eixo_na_terra":true},{"t":-0.29444,"lat":46.4338,"lon":0.1322,"largura_km":237.609,"eixo_na_terra":true},{"t":-0.28889,"lat":46.3612,"lon":0.2677,"largura_km":237.854,"eixo_na_terra":true},{"t":-0.28333,"lat":46.2886,"lon":0.4031,"largura_km":238.1,"eixo_na_terra":true},{"t":-0.27778,"lat":46.2163,"lon":0.5385,"largura_km":238.348,"eixo_na_terra":true},{"t":-0.27222,"lat":46.144,"lon":0.6738,"largura_km":238.598,"eixo_na_terra":true},{"t":-0.26667,"lat":46.0719,"lon":0.8091,"largura_km":238.85,"eixo_na_terra":true},{"t":-0.26111,"lat":45.9999,"lon":0.9444,"largura_km":239.103,"eixo_na_terra":true},{"t":-0.25556,"lat":45.928,"lon":1.0796,"largura_km":239.358,"eixo_na_terra":true},{"t":-0.25,"lat":45.8563,"lon":1.2148,"largura_km":239.614,"eixo_na_terra":true},{"t":-0.24444,"lat":45.7847,"lon":1.35,"largura_km":239.872,"eixo_na_terra":true},{"t":-0.23889,"lat":45.7132,"lon":1.4852,"largura_km":240.131,"eixo_na_terra":true},{"t":-0.23333,"lat":45.6419,"lon":1.6204,"largura_km":240.392,"eixo_na_terra":true},{"t":-0.22778,"lat":45.5707,"lon":1.7557,"largura_km":240.655,"eixo_na_terra":true},{"t":-0.22222,"lat":45.4996,"lon":1.8909,"largura_km":240.919,"eixo_na_terra":true},{"t":-0.21667,"lat":45.4286,"lon":2.0262,"largura_km":241.184,"eixo_na_terra":true},{"t":-0.21111,"lat":45.3578,"lon":2.1615,"largura_km":241.451,"eixo_na_terra":true},{"t":-0.20556,"lat":45.2871,"lon":2.2969,"largura_km":241.72,"eixo_na_terra":true},{"t":-0.2,"lat":45.2165,"lon":2.4322,"largura_km":241.99,"eixo_na_terra":true},{"t":-0.19444,"lat":45.146,"lon":2.5677,"largura_km":242.261,"eixo_na_terra":true},{"t":-0.18889,"lat":45.0757,"lon":2.7032,"largura_km":242.534,"eixo_na_terra":true},{"t":-0.18333,"lat":45.0055,"lon":2.8388,"largura_km":242.808,"eixo_na_terra":true},{"t":-0.17778,"lat":44.9354,"lon":2.9744,"largura_km":243.083,"eixo_na_terra":true},{"t":-0.17222,"lat":44.8654,"lon":3.1102,"largura_km":243.36,"eixo_na_terra":true},{"t":-0.16667,"lat":44.7956,"lon":3.246,"largura_km":243.638,"eixo_na_terra":true},{"t":-0.16111,"lat":44.7258,"lon":3.3819,"largura_km":243.917,"eixo_na_terra":true},{"t":-0.15556,"lat":44.6562,"lon":3.518,"largura_km":244.198,"eixo_na_terra":true},{"t":-0.15,"lat":44.5867,"lon":3.6541,"largura_km":244.48,"eixo_na_terra":true},{"t":-0.14444,"lat":44.5174,"lon":3.7904,"largura_km":244.763,"eixo_na_terra":true},{"t":-0.13889,"lat":44.4481,"lon":3.9268,"largura_km":245.047,"eixo_na_terra":true},{"t":-0.13333,"lat":44.379,"lon":4.0633,"largura_km":245.333,"eixo_na_terra":true},{"t":-0.12778,"lat":44.31,"lon":4.2,"largura_km":245.62,"eixo_na_terra":true},{"t":-0.12222,"lat":44.2411,"lon":4.3368,"largura_km":245.909,"eixo_na_terra":true},{"t":-0.11667,"lat":44.1724,"lon":4.4737,"largura_km":246.199,"eixo_na_terra":true},{"t":-0.11111,"lat":44.1037,"lon":4.6109,"largura_km":246.49,"eixo_na_terra":true},{"t":-0.10556,"lat":44.0352,"lon":4.7482,"largura_km":246.782,"eixo_na_terra":true},{"t":-0.1,"lat":43.9668,"lon":4.8857,"largura_km":247.075,"eixo_na_terra":true}]},"features":[{"type":"Feature","properties":{},"geometry":{"type":"Polygon","coordinates":[[[5.919381504067275,44.83175439537484],[3.9351463034349763,43.12040119614691],[2.987588028613459,43.60395814548431],[2.0582114156690636,44.08656058724176],[0.9997620739383706,44.64483346571172],[-0.057960182032132934,45.21048986507779],[-1.118255353780711,45.78377114849923],[-2.184413895843477,46.36494511659079],[-5.7307762561137565,48.312052862381464],[-7.003152891944495,49.00843192227436],[-5.511471593690828,50.88459572153105],[-2.4566498082420765,49.216750897649405],[-1.1848424292027744,48.52491217358417],[0.07297036029510195,47.84588573983134],[1.3223209075761417,47.17910953086276],[2.0147507823240858,46.813787063759655],[2.568648594352595,46.52408931656239],[3.1230254405422784,46.2366278083447],[3.678366641358309,45.95136854744647],[4.235164730728002,45.66827984587383],[4.793921675063189,45.387332297145896],[5.355151235140141,45.108498766680626],[5.919381504067275,44.83175439537484]]]}}]}