{"type":"FeatureCollection","features":[{"type":"Feature","properties":{"t_inicio":-0.5500000000000123,"t_fim":-0.10000000000001386},"geometry":{"type":"LineString","coordinates":[[-6.283154114285168,49.9309369988763],[-6.1372877945021855,49.851405588515355],[-5.991823591620346,49.77204342170113],[-5.846752774418519,49.69284945865358],[-5.702066696135375,49.61382267277723],[-5.557756792036429,49.534962050472416],[-5.413814577027978,49.4562665909511],[-5.270231643316123,49.37773530605654],[-5.126999658108872,49.299367220087525],[-4.984110361360052,49.22116136962652],[-4.841555563553243,49.143116803371875],[-4.699327143524215,49.06523258197382],[-4.557417046320268,48.98750777787442],[-4.415817281095201,48.90994147515117],[-4.274519919038198,48.83253276936424],[-4.133517091335534,48.75528076740747],[-3.992800987163406,48.67818458736247],[-3.8523638517107486,48.60124335835669],[-3.712197984230926,48.52445622042433],[-3.5722957361204806,48.4478223243709],[-3.432649509024202,48.37134083164077],[-3.2932517529650625,48.295010914188175],[-3.154094964497915,48.21883175435089],[-3.0151716848857006,48.142802544727424],[-2.8764744982969717,48.066922488056846],[-2.7379960300238793,47.991190797101744],[-2.599728944719061,47.91560669453396],[-2.4616659446508606,47.840169412823215],[-2.3237997679754017,47.76487819412855],[-2.186123187024407,47.68973229019243],[-2.048629006608337,47.61473096223753],[-1.9113100623329728,47.53987348086632],[-1.774159218929043,47.46515912596313],[-1.6371693685935043,47.39058718659882],[-1.5003334293418789,47.31615696093793],[-1.3636443433701402,47.24186775614858],[-1.2270950754256376,47.16771888831443],[-1.0906786111857798,47.09370968234951],[-0.9543879556434831,47.01983947191512],[-0.8182161314988434,46.94610759933927],[-0.6821561775553846,46.87251341553848],[-0.5462011471205983,46.79905627994183],[-0.4103441064091271,46.72573556041733],[-0.2745781329482213,46.65255063320069],[-0.13889631398436109,46.579500882826125],[-0.0032917448895091184,46.50658570205955],[0.13224247243300624,46.433804491834074],[0.2677132311448531,46.361156661187465],[0.40312742107172994,46.288641627201955],[0.5384919303064635,46.2162588149463],[0.6738136468166829,46.144007657419735],[0.8090994600587749,46.07188759549849],[0.9443562625983759,45.999898077884005],[1.0795909517392204,45.92803856105357],[1.214810431160629,45.856308509213115],[1.3500216125653708,45.784707394251924],[1.4852314173386674,45.71323469569967],[1.6204467782194172,45.64188990068542],[1.7556746409848927,45.57067250389903],[1.8909219661500174,45.49958200755423],[2.026195730682474,45.42861792135436],[2.1615029297345814,45.35777976245984],[2.2968505783935598,45.28706705545794],[2.4322457134510955,45.21647933233477],[2.5676953951936525,45.14601613244943],[2.703206709214925,45.075677002510034],[2.8387867682514525,45.00546149655246],[2.974442714043306,44.93536917592087],[3.110181719220776,44.86539960925072],[3.246010989218661,44.7955523724538],[3.3819377642200834,44.7258270487058],[3.5179693211306358,44.65622322843599],[3.6541129755852637,44.58674050931927],[3.79037608398869,44.51737849627063],[3.9267660455920463,44.448136801441876],[4.06329030460671,44.379015044221084],[4.19995635235739,44.31001285123397],[4.336771729476538,44.241129856348316],[4.473744028142107,44.1723657006806],[4.61088089435998,44.10372003260539],[4.748190030294211,44.035192507767206],[4.8856791966464925,43.96678278909516]]}}]}