{"type":"FeatureCollection","properties":{"largura_maxima_km":7.524,"largura_sobre_pt_km":1.392,"linha_central_sobre_pt":true,"desenhavel_como_area":false,"perfil_largura":[{"t":-1.16667,"lat":25.0172,"lon":-23.7639,"largura_km":7.524,"eixo_na_terra":true},{"t":-1.16111,"lat":25.1212,"lon":-23.6626,"largura_km":7.387,"eixo_na_terra":true},{"t":-1.15556,"lat":25.225,"lon":-23.5616,"largura_km":7.252,"eixo_na_terra":true},{"t":-1.15,"lat":25.3288,"lon":-23.4609,"largura_km":7.118,"eixo_na_terra":true},{"t":-1.14444,"lat":25.4325,"lon":-23.3605,"largura_km":6.985,"eixo_na_terra":true},{"t":-1.13889,"lat":25.5361,"lon":-23.2604,"largura_km":6.854,"eixo_na_terra":true},{"t":-1.13333,"lat":25.6396,"lon":-23.1607,"largura_km":6.724,"eixo_na_terra":true},{"t":-1.12778,"lat":25.7431,"lon":-23.0612,"largura_km":6.595,"eixo_na_terra":true},{"t":-1.12222,"lat":25.8464,"lon":-22.962,"largura_km":6.468,"eixo_na_terra":true},{"t":-1.11667,"lat":25.9497,"lon":-22.8632,"largura_km":6.342,"eixo_na_terra":true},{"t":-1.11111,"lat":26.0528,"lon":-22.7646,"largura_km":6.217,"eixo_na_terra":true},{"t":-1.10556,"lat":26.1559,"lon":-22.6662,"largura_km":6.094,"eixo_na_terra":true},{"t":-1.1,"lat":26.2589,"lon":-22.5682,"largura_km":5.971,"eixo_na_terra":true},{"t":-1.09444,"lat":26.3618,"lon":-22.4704,"largura_km":5.85,"eixo_na_terra":true},{"t":-1.08889,"lat":26.4647,"lon":-22.3728,"largura_km":5.731,"eixo_na_terra":true},{"t":-1.08333,"lat":26.5674,"lon":-22.2755,"largura_km":5.612,"eixo_na_terra":true},{"t":-1.07778,"lat":26.6701,"lon":-22.1785,"largura_km":5.495,"eixo_na_terra":true},{"t":-1.07222,"lat":26.7727,"lon":-22.0817,"largura_km":5.379,"eixo_na_terra":true},{"t":-1.06667,"lat":26.8753,"lon":-21.9851,"largura_km":5.264,"eixo_na_terra":true},{"t":-1.06111,"lat":26.9777,"lon":-21.8888,"largura_km":5.15,"eixo_na_terra":true},{"t":-1.05556,"lat":27.0801,"lon":-21.7927,"largura_km":5.037,"eixo_na_terra":true},{"t":-1.05,"lat":27.1824,"lon":-21.6968,"largura_km":4.926,"eixo_na_terra":true},{"t":-1.04444,"lat":27.2846,"lon":-21.6011,"largura_km":4.816,"eixo_na_terra":true},{"t":-1.03889,"lat":27.3868,"lon":-21.5056,"largura_km":4.707,"eixo_na_terra":true},{"t":-1.03333,"lat":27.4889,"lon":-21.4103,"largura_km":4.599,"eixo_na_terra":true},{"t":-1.02778,"lat":27.5909,"lon":-21.3152,"largura_km":4.493,"eixo_na_terra":true},{"t":-1.02222,"lat":27.6929,"lon":-21.2203,"largura_km":4.387,"eixo_na_terra":true},{"t":-1.01667,"lat":27.7948,"lon":-21.1256,"largura_km":4.283,"eixo_na_terra":true},{"t":-1.01111,"lat":27.8966,"lon":-21.0311,"largura_km":4.18,"eixo_na_terra":true},{"t":-1.00556,"lat":27.9983,"lon":-20.9368,"largura_km":4.078,"eixo_na_terra":true},{"t":-1.0,"lat":28.1,"lon":-20.8426,"largura_km":3.977,"eixo_na_terra":true},{"t":-0.99444,"lat":28.2017,"lon":-20.7486,"largura_km":3.877,"eixo_na_terra":true},{"t":-0.98889,"lat":28.3032,"lon":-20.6548,"largura_km":3.778,"eixo_na_terra":true},{"t":-0.98333,"lat":28.4047,"lon":-20.5611,"largura_km":3.681,"eixo_na_terra":true},{"t":-0.97778,"lat":28.5062,"lon":-20.4675,"largura_km":3.584,"eixo_na_terra":true},{"t":-0.97222,"lat":28.6075,"lon":-20.3742,"largura_km":3.489,"eixo_na_terra":true},{"t":-0.96667,"lat":28.7089,"lon":-20.2809,"largura_km":3.395,"eixo_na_terra":true},{"t":-0.96111,"lat":28.8101,"lon":-20.1878,"largura_km":3.301,"eixo_na_terra":true},{"t":-0.95556,"lat":28.9113,"lon":-20.0948,"largura_km":3.209,"eixo_na_terra":true},{"t":-0.95,"lat":29.0125,"lon":-20.002,"largura_km":3.118,"eixo_na_terra":true},{"t":-0.94444,"lat":29.1136,"lon":-19.9093,"largura_km":3.028,"eixo_na_terra":true},{"t":-0.93889,"lat":29.2146,"lon":-19.8167,"largura_km":2.939,"eixo_na_terra":true},{"t":-0.93333,"lat":29.3156,"lon":-19.7242,"largura_km":2.851,"eixo_na_terra":true},{"t":-0.92778,"lat":29.4165,"lon":-19.6319,"largura_km":2.765,"eixo_na_terra":true},{"t":-0.92222,"lat":29.5174,"lon":-19.5396,"largura_km":2.679,"eixo_na_terra":true},{"t":-0.91667,"lat":29.6182,"lon":-19.4474,"largura_km":2.594,"eixo_na_terra":true},{"t":-0.91111,"lat":29.7189,"lon":-19.3554,"largura_km":2.51,"eixo_na_terra":true},{"t":-0.90556,"lat":29.8196,"lon":-19.2634,"largura_km":2.427,"eixo_na_terra":true},{"t":-0.9,"lat":29.9203,"lon":-19.1715,"largura_km":2.346,"eixo_na_terra":true},{"t":-0.89444,"lat":30.0209,"lon":-19.0798,"largura_km":2.265,"eixo_na_terra":true},{"t":-0.88889,"lat":30.1215,"lon":-18.988,"largura_km":2.185,"eixo_na_terra":true},{"t":-0.88333,"lat":30.222,"lon":-18.8964,"largura_km":2.107,"eixo_na_terra":true},{"t":-0.87778,"lat":30.3225,"lon":-18.8048,"largura_km":2.029,"eixo_na_terra":true},{"t":-0.87222,"lat":30.4229,"lon":-18.7134,"largura_km":1.952,"eixo_na_terra":true},{"t":-0.86667,"lat":30.5233,"lon":-18.6219,"largura_km":1.877,"eixo_na_terra":true},{"t":-0.86111,"lat":30.6236,"lon":-18.5306,"largura_km":1.802,"eixo_na_terra":true},{"t":-0.85556,"lat":30.7239,"lon":-18.4392,"largura_km":1.728,"eixo_na_terra":true},{"t":-0.85,"lat":30.8241,"lon":-18.348,"largura_km":1.655,"eixo_na_terra":true},{"t":-0.84444,"lat":30.9243,"lon":-18.2568,"largura_km":1.584,"eixo_na_terra":true},{"t":-0.83889,"lat":31.0244,"lon":-18.1656,"largura_km":1.513,"eixo_na_terra":true},{"t":-0.83333,"lat":31.1245,"lon":-18.0745,"largura_km":1.443,"eixo_na_terra":true},{"t":-0.82778,"lat":31.2246,"lon":-17.9834,"largura_km":1.374,"eixo_na_terra":true},{"t":-0.82222,"lat":31.3246,"lon":-17.8923,"largura_km":1.306,"eixo_na_terra":true},{"t":-0.81667,"lat":31.4246,"lon":-17.8013,"largura_km":1.239,"eixo_na_terra":true},{"t":-0.81111,"lat":31.5245,"lon":-17.7102,"largura_km":1.173,"eixo_na_terra":true},{"t":-0.80556,"lat":31.6244,"lon":-17.6192,"largura_km":1.107,"eixo_na_terra":true},{"t":-0.8,"lat":31.7243,"lon":-17.5283,"largura_km":1.043,"eixo_na_terra":true},{"t":-0.79444,"lat":31.8241,"lon":-17.4373,"largura_km":0.98,"eixo_na_terra":true},{"t":-0.78889,"lat":31.9239,"lon":-17.3463,"largura_km":0.917,"eixo_na_terra":true},{"t":-0.78333,"lat":32.0236,"lon":-17.2554,"largura_km":0.856,"eixo_na_terra":true},{"t":-0.77778,"lat":32.1233,"lon":-17.1644,"largura_km":0.795,"eixo_na_terra":true},{"t":-0.77222,"lat":32.223,"lon":-17.0734,"largura_km":0.736,"eixo_na_terra":true},{"t":-0.76667,"lat":32.3226,"lon":-16.9825,"largura_km":0.677,"eixo_na_terra":true},{"t":-0.76111,"lat":32.4222,"lon":-16.8915,"largura_km":0.619,"eixo_na_terra":true},{"t":-0.75556,"lat":32.5218,"lon":-16.8005,"largura_km":0.562,"eixo_na_terra":true},{"t":-0.75,"lat":32.6213,"lon":-16.7094,"largura_km":0.506,"eixo_na_terra":true},{"t":-0.74444,"lat":32.7208,"lon":-16.6184,"largura_km":0.451,"eixo_na_terra":true},{"t":-0.73889,"lat":32.8203,"lon":-16.5273,"largura_km":0.396,"eixo_na_terra":true},{"t":-0.73333,"lat":32.9197,"lon":-16.4362,"largura_km":0.343,"eixo_na_terra":true},{"t":-0.72778,"lat":33.0191,"lon":-16.345,"largura_km":0.29,"eixo_na_terra":true},{"t":-0.72222,"lat":33.1185,"lon":-16.2538,"largura_km":0.239,"eixo_na_terra":true},{"t":-0.71667,"lat":33.2178,"lon":-16.1626,"largura_km":0.188,"eixo_na_terra":true},{"t":-0.71111,"lat":33.3171,"lon":-16.0713,"largura_km":0.138,"eixo_na_terra":true},{"t":-0.70556,"lat":33.4164,"lon":-15.98,"largura_km":0.089,"eixo_na_terra":true},{"t":-0.7,"lat":33.5156,"lon":-15.8886,"largura_km":0.04,"eixo_na_terra":true},{"t":-0.69444,"lat":33.6148,"lon":-15.7972,"largura_km":0.007,"eixo_na_terra":true},{"t":-0.68889,"lat":33.714,"lon":-15.7056,"largura_km":0.053,"eixo_na_terra":true},{"t":-0.68333,"lat":33.8132,"lon":-15.6141,"largura_km":0.099,"eixo_na_terra":true},{"t":-0.67778,"lat":33.9123,"lon":-15.5224,"largura_km":0.144,"eixo_na_terra":true},{"t":-0.67222,"lat":34.0114,"lon":-15.4307,"largura_km":0.188,"eixo_na_terra":true},{"t":-0.66667,"lat":34.1105,"lon":-15.3389,"largura_km":0.231,"eixo_na_terra":true},{"t":-0.66111,"lat":34.2095,"lon":-15.247,"largura_km":0.274,"eixo_na_terra":true},{"t":-0.65556,"lat":34.3085,"lon":-15.155,"largura_km":0.315,"eixo_na_terra":true},{"t":-0.65,"lat":34.4075,"lon":-15.063,"largura_km":0.356,"eixo_na_terra":true},{"t":-0.64444,"lat":34.5065,"lon":-14.9708,"largura_km":0.396,"eixo_na_terra":true},{"t":-0.63889,"lat":34.6054,"lon":-14.8785,"largura_km":0.435,"eixo_na_terra":true},{"t":-0.63333,"lat":34.7043,"lon":-14.7862,"largura_km":0.473,"eixo_na_terra":true},{"t":-0.62778,"lat":34.8032,"lon":-14.6937,"largura_km":0.51,"eixo_na_terra":true},{"t":-0.62222,"lat":34.9021,"lon":-14.6011,"largura_km":0.547,"eixo_na_terra":true},{"t":-0.61667,"lat":35.001,"lon":-14.5084,"largura_km":0.583,"eixo_na_terra":true},{"t":-0.61111,"lat":35.0998,"lon":-14.4156,"largura_km":0.618,"eixo_na_terra":true},{"t":-0.60556,"lat":35.1986,"lon":-14.3227,"largura_km":0.652,"eixo_na_terra":true},{"t":-0.6,"lat":35.2973,"lon":-14.2296,"largura_km":0.685,"eixo_na_terra":true},{"t":-0.59444,"lat":35.3961,"lon":-14.1364,"largura_km":0.718,"eixo_na_terra":true},{"t":-0.58889,"lat":35.4948,"lon":-14.0431,"largura_km":0.75,"eixo_na_terra":true},{"t":-0.58333,"lat":35.5935,"lon":-13.9497,"largura_km":0.781,"eixo_na_terra":true},{"t":-0.57778,"lat":35.6922,"lon":-13.8561,"largura_km":0.811,"eixo_na_terra":true},{"t":-0.57222,"lat":35.7909,"lon":-13.7623,"largura_km":0.84,"eixo_na_terra":true},{"t":-0.56667,"lat":35.8896,"lon":-13.6684,"largura_km":0.869,"eixo_na_terra":true},{"t":-0.56111,"lat":35.9882,"lon":-13.5744,"largura_km":0.897,"eixo_na_terra":true},{"t":-0.55556,"lat":36.0868,"lon":-13.4802,"largura_km":0.924,"eixo_na_terra":true},{"t":-0.55,"lat":36.1854,"lon":-13.3858,"largura_km":0.95,"eixo_na_terra":true},{"t":-0.54444,"lat":36.284,"lon":-13.2913,"largura_km":0.976,"eixo_na_terra":true},{"t":-0.53889,"lat":36.3825,"lon":-13.1966,"largura_km":1.0,"eixo_na_terra":true},{"t":-0.53333,"lat":36.4811,"lon":-13.1017,"largura_km":1.024,"eixo_na_terra":true},{"t":-0.52778,"lat":36.5796,"lon":-13.0066,"largura_km":1.047,"eixo_na_terra":true},{"t":-0.52222,"lat":36.6781,"lon":-12.9114,"largura_km":1.07,"eixo_na_terra":true},{"t":-0.51667,"lat":36.7766,"lon":-12.816,"largura_km":1.091,"eixo_na_terra":true},{"t":-0.51111,"lat":36.875,"lon":-12.7204,"largura_km":1.112,"eixo_na_terra":true},{"t":-0.50556,"lat":36.9735,"lon":-12.6246,"largura_km":1.132,"eixo_na_terra":true},{"t":-0.5,"lat":37.0719,"lon":-12.5286,"largura_km":1.152,"eixo_na_terra":true},{"t":-0.49444,"lat":37.1703,"lon":-12.4324,"largura_km":1.17,"eixo_na_terra":true},{"t":-0.48889,"lat":37.2687,"lon":-12.3359,"largura_km":1.188,"eixo_na_terra":true},{"t":-0.48333,"lat":37.3671,"lon":-12.2393,"largura_km":1.205,"eixo_na_terra":true},{"t":-0.47778,"lat":37.4655,"lon":-12.1425,"largura_km":1.221,"eixo_na_terra":true},{"t":-0.47222,"lat":37.5638,"lon":-12.0454,"largura_km":1.237,"eixo_na_terra":true},{"t":-0.46667,"lat":37.6622,"lon":-11.9481,"largura_km":1.252,"eixo_na_terra":true},{"t":-0.46111,"lat":37.7605,"lon":-11.8506,"largura_km":1.266,"eixo_na_terra":true},{"t":-0.45556,"lat":37.8588,"lon":-11.7529,"largura_km":1.279,"eixo_na_terra":true},{"t":-0.45,"lat":37.9571,"lon":-11.6549,"largura_km":1.292,"eixo_na_terra":true},{"t":-0.44444,"lat":38.0554,"lon":-11.5567,"largura_km":1.304,"eixo_na_terra":true},{"t":-0.43889,"lat":38.1537,"lon":-11.4582,"largura_km":1.315,"eixo_na_terra":true},{"t":-0.43333,"lat":38.252,"lon":-11.3595,"largura_km":1.325,"eixo_na_terra":true},{"t":-0.42778,"lat":38.3502,"lon":-11.2606,"largura_km":1.335,"eixo_na_terra":true},{"t":-0.42222,"lat":38.4485,"lon":-11.1613,"largura_km":1.343,"eixo_na_terra":true},{"t":-0.41667,"lat":38.5467,"lon":-11.0619,"largura_km":1.352,"eixo_na_terra":true},{"t":-0.41111,"lat":38.6449,"lon":-10.9621,"largura_km":1.359,"eixo_na_terra":true},{"t":-0.40556,"lat":38.7431,"lon":-10.8621,"largura_km":1.366,"eixo_na_terra":true},{"t":-0.4,"lat":38.8413,"lon":-10.7618,"largura_km":1.371,"eixo_na_terra":true},{"t":-0.39444,"lat":38.9395,"lon":-10.6612,"largura_km":1.377,"eixo_na_terra":true},{"t":-0.38889,"lat":39.0376,"lon":-10.5604,"largura_km":1.381,"eixo_na_terra":true},{"t":-0.38333,"lat":39.1358,"lon":-10.4592,"largura_km":1.385,"eixo_na_terra":true},{"t":-0.37778,"lat":39.2339,"lon":-10.3578,"largura_km":1.388,"eixo_na_terra":true},{"t":-0.37222,"lat":39.3321,"lon":-10.256,"largura_km":1.39,"eixo_na_terra":true},{"t":-0.36667,"lat":39.4302,"lon":-10.154,"largura_km":1.391,"eixo_na_terra":true},{"t":-0.36111,"lat":39.5283,"lon":-10.0516,"largura_km":1.392,"eixo_na_terra":true},{"t":-0.35556,"lat":39.6264,"lon":-9.9489,"largura_km":1.392,"eixo_na_terra":true},{"t":-0.35,"lat":39.7245,"lon":-9.846,"largura_km":1.392,"eixo_na_terra":true},{"t":-0.34444,"lat":39.8226,"lon":-9.7426,"largura_km":1.39,"eixo_na_terra":true},{"t":-0.33889,"lat":39.9207,"lon":-9.639,"largura_km":1.388,"eixo_na_terra":true},{"t":-0.33333,"lat":40.0187,"lon":-9.535,"largura_km":1.385,"eixo_na_terra":true},{"t":-0.32778,"lat":40.1168,"lon":-9.4307,"largura_km":1.382,"eixo_na_terra":true},{"t":-0.32222,"lat":40.2149,"lon":-9.3261,"largura_km":1.377,"eixo_na_terra":true},{"t":-0.31667,"lat":40.3129,"lon":-9.2211,"largura_km":1.372,"eixo_na_terra":true},{"t":-0.31111,"lat":40.4109,"lon":-9.1158,"largura_km":1.366,"eixo_na_terra":true},{"t":-0.30556,"lat":40.509,"lon":-9.0101,"largura_km":1.36,"eixo_na_terra":true},{"t":-0.3,"lat":40.607,"lon":-8.904,"largura_km":1.353,"eixo_na_terra":true},{"t":-0.29444,"lat":40.705,"lon":-8.7976,"largura_km":1.345,"eixo_na_terra":true},{"t":-0.28889,"lat":40.803,"lon":-8.6908,"largura_km":1.336,"eixo_na_terra":true},{"t":-0.28333,"lat":40.901,"lon":-8.5836,"largura_km":1.327,"eixo_na_terra":true},{"t":-0.27778,"lat":40.9989,"lon":-8.476,"largura_km":1.317,"eixo_na_terra":true},{"t":-0.27222,"lat":41.0969,"lon":-8.3681,"largura_km":1.306,"eixo_na_terra":true},{"t":-0.26667,"lat":41.1949,"lon":-8.2597,"largura_km":1.294,"eixo_na_terra":true},{"t":-0.26111,"lat":41.2928,"lon":-8.151,"largura_km":1.282,"eixo_na_terra":true},{"t":-0.25556,"lat":41.3908,"lon":-8.0419,"largura_km":1.269,"eixo_na_terra":true},{"t":-0.25,"lat":41.4887,"lon":-7.9323,"largura_km":1.255,"eixo_na_terra":true},{"t":-0.24444,"lat":41.5867,"lon":-7.8223,"largura_km":1.241,"eixo_na_terra":true},{"t":-0.23889,"lat":41.6846,"lon":-7.712,"largura_km":1.226,"eixo_na_terra":true},{"t":-0.23333,"lat":41.7825,"lon":-7.6011,"largura_km":1.21,"eixo_na_terra":true},{"t":-0.22778,"lat":41.8804,"lon":-7.4899,"largura_km":1.193,"eixo_na_terra":true},{"t":-0.22222,"lat":41.9784,"lon":-7.3782,"largura_km":1.176,"eixo_na_terra":true},{"t":-0.21667,"lat":42.0763,"lon":-7.2661,"largura_km":1.158,"eixo_na_terra":true},{"t":-0.21111,"lat":42.1741,"lon":-7.1535,"largura_km":1.139,"eixo_na_terra":true},{"t":-0.20556,"lat":42.272,"lon":-7.0405,"largura_km":1.119,"eixo_na_terra":true},{"t":-0.2,"lat":42.3699,"lon":-6.927,"largura_km":1.099,"eixo_na_terra":true},{"t":-0.19444,"lat":42.4678,"lon":-6.8131,"largura_km":1.078,"eixo_na_terra":true},{"t":-0.18889,"lat":42.5656,"lon":-6.6987,"largura_km":1.056,"eixo_na_terra":true},{"t":-0.18333,"lat":42.6635,"lon":-6.5838,"largura_km":1.034,"eixo_na_terra":true},{"t":-0.17778,"lat":42.7613,"lon":-6.4684,"largura_km":1.011,"eixo_na_terra":true},{"t":-0.17222,"lat":42.8592,"lon":-6.3525,"largura_km":0.987,"eixo_na_terra":true},{"t":-0.16667,"lat":42.957,"lon":-6.2361,"largura_km":0.962,"eixo_na_terra":true},{"t":-0.16111,"lat":43.0549,"lon":-6.1193,"largura_km":0.937,"eixo_na_terra":true},{"t":-0.15556,"lat":43.1527,"lon":-6.0019,"largura_km":0.911,"eixo_na_terra":true},{"t":-0.15,"lat":43.2505,"lon":-5.884,"largura_km":0.884,"eixo_na_terra":true},{"t":-0.14444,"lat":43.3483,"lon":-5.7656,"largura_km":0.856,"eixo_na_terra":true},{"t":-0.13889,"lat":43.4461,"lon":-5.6466,"largura_km":0.828,"eixo_na_terra":true},{"t":-0.13333,"lat":43.5439,"lon":-5.5271,"largura_km":0.799,"eixo_na_terra":true},{"t":-0.12778,"lat":43.6417,"lon":-5.4071,"largura_km":0.769,"eixo_na_terra":true},{"t":-0.12222,"lat":43.7394,"lon":-5.2865,"largura_km":0.739,"eixo_na_terra":true},{"t":-0.11667,"lat":43.8372,"lon":-5.1654,"largura_km":0.707,"eixo_na_terra":true},{"t":-0.11111,"lat":43.935,"lon":-5.0437,"largura_km":0.675,"eixo_na_terra":true},{"t":-0.10556,"lat":44.0327,"lon":-4.9215,"largura_km":0.643,"eixo_na_terra":true},{"t":-0.1,"lat":44.1304,"lon":-4.7987,"largura_km":0.609,"eixo_na_terra":true},{"t":-0.09444,"lat":44.2282,"lon":-4.6752,"largura_km":0.575,"eixo_na_terra":true},{"t":-0.08889,"lat":44.3259,"lon":-4.5512,"largura_km":0.54,"eixo_na_terra":true},{"t":-0.08333,"lat":44.4236,"lon":-4.4267,"largura_km":0.504,"eixo_na_terra":true},{"t":-0.07778,"lat":44.5213,"lon":-4.3015,"largura_km":0.468,"eixo_na_terra":true},{"t":-0.07222,"lat":44.619,"lon":-4.1756,"largura_km":0.43,"eixo_na_terra":true},{"t":-0.06667,"lat":44.7167,"lon":-4.0492,"largura_km":0.392,"eixo_na_terra":true},{"t":-0.06111,"lat":44.8144,"lon":-3.9222,"largura_km":0.354,"eixo_na_terra":true},{"t":-0.05556,"lat":44.912,"lon":-3.7945,"largura_km":0.314,"eixo_na_terra":true},{"t":-0.05,"lat":45.0097,"lon":-3.6661,"largura_km":0.274,"eixo_na_terra":true},{"t":-0.04444,"lat":45.1073,"lon":-3.5372,"largura_km":0.233,"eixo_na_terra":true},{"t":-0.03889,"lat":45.205,"lon":-3.4075,"largura_km":0.191,"eixo_na_terra":true},{"t":-0.03333,"lat":45.3026,"lon":-3.2772,"largura_km":0.148,"eixo_na_terra":true},{"t":-0.02778,"lat":45.4002,"lon":-3.1463,"largura_km":0.105,"eixo_na_terra":true},{"t":-0.02222,"lat":45.4978,"lon":-3.0146,"largura_km":0.061,"eixo_na_terra":true},{"t":-0.01667,"lat":45.5954,"lon":-2.8823,"largura_km":0.016,"eixo_na_terra":true},{"t":-0.01111,"lat":45.693,"lon":-2.7492,"largura_km":0.03,"eixo_na_terra":true},{"t":-0.00556,"lat":45.7905,"lon":-2.6155,"largura_km":0.076,"eixo_na_terra":true},{"t":-0.0,"lat":45.8881,"lon":-2.481,"largura_km":0.123,"eixo_na_terra":true},{"t":0.00556,"lat":45.9856,"lon":-2.3459,"largura_km":0.171,"eixo_na_terra":true},{"t":0.01111,"lat":46.0832,"lon":-2.21,"largura_km":0.22,"eixo_na_terra":true},{"t":0.01667,"lat":46.1807,"lon":-2.0733,"largura_km":0.27,"eixo_na_terra":true},{"t":0.02222,"lat":46.2782,"lon":-1.9359,"largura_km":0.32,"eixo_na_terra":true},{"t":0.02778,"lat":46.3757,"lon":-1.7978,"largura_km":0.371,"eixo_na_terra":true},{"t":0.03333,"lat":46.4731,"lon":-1.6588,"largura_km":0.423,"eixo_na_terra":true},{"t":0.03889,"lat":46.5706,"lon":-1.5192,"largura_km":0.476,"eixo_na_terra":true},{"t":0.04444,"lat":46.668,"lon":-1.3787,"largura_km":0.53,"eixo_na_terra":true},{"t":0.05,"lat":46.7654,"lon":-1.2374,"largura_km":0.584,"eixo_na_terra":true},{"t":0.05556,"lat":46.8628,"lon":-1.0953,"largura_km":0.639,"eixo_na_terra":true},{"t":0.06111,"lat":46.9602,"lon":-0.9524,"largura_km":0.695,"eixo_na_terra":true},{"t":0.06667,"lat":47.0576,"lon":-0.8087,"largura_km":0.752,"eixo_na_terra":true},{"t":0.07222,"lat":47.1549,"lon":-0.6642,"largura_km":0.81,"eixo_na_terra":true},{"t":0.07778,"lat":47.2523,"lon":-0.5188,"largura_km":0.868,"eixo_na_terra":true},{"t":0.08333,"lat":47.3496,"lon":-0.3726,"largura_km":0.927,"eixo_na_terra":true},{"t":0.08889,"lat":47.4468,"lon":-0.2255,"largura_km":0.987,"eixo_na_terra":true},{"t":0.09444,"lat":47.5441,"lon":-0.0775,"largura_km":1.048,"eixo_na_terra":true},{"t":0.1,"lat":47.6414,"lon":0.0714,"largura_km":1.11,"eixo_na_terra":true},{"t":0.10556,"lat":47.7386,"lon":0.2211,"largura_km":1.173,"eixo_na_terra":true},{"t":0.11111,"lat":47.8358,"lon":0.3718,"largura_km":1.236,"eixo_na_terra":true},{"t":0.11667,"lat":47.933,"lon":0.5234,"largura_km":1.3,"eixo_na_terra":true},{"t":0.12222,"lat":48.0301,"lon":0.6759,"largura_km":1.366,"eixo_na_terra":true},{"t":0.12778,"lat":48.1272,"lon":0.8293,"largura_km":1.432,"eixo_na_terra":true},{"t":0.13333,"lat":48.2243,"lon":0.9837,"largura_km":1.498,"eixo_na_terra":true},{"t":0.13889,"lat":48.3214,"lon":1.139,"largura_km":1.566,"eixo_na_terra":true},{"t":0.14444,"lat":48.4184,"lon":1.2954,"largura_km":1.635,"eixo_na_terra":true},{"t":0.15,"lat":48.5155,"lon":1.4527,"largura_km":1.704,"eixo_na_terra":true},{"t":0.15556,"lat":48.6125,"lon":1.611,"largura_km":1.775,"eixo_na_terra":true},{"t":0.16111,"lat":48.7094,"lon":1.7703,"largura_km":1.846,"eixo_na_terra":true},{"t":0.16667,"lat":48.8063,"lon":1.9306,"largura_km":1.918,"eixo_na_terra":true},{"t":0.17222,"lat":48.9032,"lon":2.092,"largura_km":1.991,"eixo_na_terra":true},{"t":0.17778,"lat":49.0001,"lon":2.2544,"largura_km":2.065,"eixo_na_terra":true},{"t":0.18333,"lat":49.0969,"lon":2.4178,"largura_km":2.14,"eixo_na_terra":true},{"t":0.18889,"lat":49.1937,"lon":2.5824,"largura_km":2.216,"eixo_na_terra":true},{"t":0.19444,"lat":49.2905,"lon":2.748,"largura_km":2.292,"eixo_na_terra":true},{"t":0.2,"lat":49.3872,"lon":2.9147,"largura_km":2.37,"eixo_na_terra":true},{"t":0.20556,"lat":49.4839,"lon":3.0825,"largura_km":2.448,"eixo_na_terra":true},{"t":0.21111,"lat":49.5805,"lon":3.2515,"largura_km":2.528,"eixo_na_terra":true},{"t":0.21667,"lat":49.6771,"lon":3.4216,"largura_km":2.608,"eixo_na_terra":true},{"t":0.22222,"lat":49.7737,"lon":3.5928,"largura_km":2.689,"eixo_na_terra":true},{"t":0.22778,"lat":49.8702,"lon":3.7653,"largura_km":2.772,"eixo_na_terra":true},{"t":0.23333,"lat":49.9667,"lon":3.9388,"largura_km":2.855,"eixo_na_terra":true}]},"features":[{"type":"Feature","properties":{},"geometry":{"type":"Polygon","coordinates":[[[-23.593510251445565,25.24170982544112],[-22.990401143552788,25.861479391252747],[-22.3000266094499,26.580728780920364],[-21.62199632550596,27.296225860010228],[-20.954429071686434,28.00831191734967],[-20.295567647875885,28.71729858029577],[-19.55112498379617,29.52413925832163],[-16.80286274758268,32.5233276714332],[-16.254867746929847,33.119135666392246],[-15.248154572203646,34.210278499679916],[-14.695865033898599,34.80468132909848],[-14.13948392501004,35.398156409318084],[-13.578166400288694,35.99078636808655],[-13.106014009635885,36.484054455295656],[-12.437284791282565,37.17381081865231],[-11.85596166204067,37.76434009952126],[-11.46376892589214,38.15770317337291],[-11.16691805365707,38.45263892584125],[-10.566069508428228,39.04198876587083],[-9.95468931071423,39.6308661904417],[-9.644735808731895,39.92513982233006],[-9.331767645912691,40.21930897168933],[-9.015652190541374,40.51337725259704],[-8.696253946771606,40.80734781121577],[-8.15625075806912,41.29708858803244],[-7.716960978354507,41.68869726161574],[-7.3830132997345,41.98229846225528],[-7.044986273594645,42.27587058292411],[-6.702866586705369,42.56928925728654],[-6.239949254365001,42.96037291019026],[-5.887477970032336,43.25357789524367],[-5.530288227174395,43.54668814628918],[-5.168203701862893,43.83970075767103],[-4.801042815820381,44.13261207452293],[-4.428618459391117,44.42541765377923],[-4.050737700217525,44.71811222213914],[-3.6672014766028553,45.01068963075833],[-3.2777935634764503,45.30315083917326],[-3.014841058610642,45.49804194229593],[-2.615782451231496,45.790834685047],[-2.2107814957930145,46.0839991576472],[-1.799144970252911,46.37707151890269],[-1.3806308682564463,46.67004128912874],[-0.9549330848276156,46.96293439665092],[-0.6670734034863983,47.15810777918364],[-0.22895188933122768,47.450752972590315],[0.06747005835634923,47.64576655991196],[0.5188260419310495,47.938149835610794],[0.8243395652865786,48.13297286607776],[1.2897499537406816,48.42504434534322],[1.6049197495927672,48.61964094419054],[2.0854378426736844,48.911449029926466],[2.4108828080400997,49.105785641389865],[2.907113962628017,49.39706292498859],[3.243466627385857,49.59108402529818],[3.5843737047600257,49.78496390214141],[3.92994927733551,49.97869323694789],[3.9476854101311574,49.95467583129402],[3.6012545886878513,49.7624267160071],[3.090321652594156,49.473693889659444],[2.7555543669634517,49.28110155871815],[2.2612659563721422,48.99170535531915],[1.9370554430688287,48.79857823692567],[1.4584604851122265,48.50861351427544],[0.9888392781987534,48.21834268557874],[0.5278759145724905,47.927789475400544],[0.22522643143312848,47.73394130217118],[-0.22197652184715366,47.44296503309473],[-0.515650835481722,47.248899549585865],[-0.9498998679439694,46.957543398343084],[-1.2352596318960138,46.763194029939804],[-1.657282282569554,46.471513212878065],[-2.072307899351273,46.179656518813324],[-2.4805797188813017,45.88763652260943],[-2.882212364519944,45.595345178249715],[-3.145864403410542,45.399821410775985],[-3.53627734306869,45.10647647010196],[-3.920803399919947,44.81306646168694],[-4.173986983004511,44.617426631982866],[-4.549124764477597,44.323950349416535],[-4.918948567253267,44.03039919206522],[-5.283619909254128,43.73680030742004],[-5.6433247185453865,43.44315665525428],[-5.9982434246996945,43.14947046775084],[-6.348551238138214,42.85574328577127],[-6.69441841590708,42.56197599242348],[-7.036010514801859,42.26816884410973],[-7.3734886326913625,41.9743214992201],[-7.706934467606175,41.680499547551634],[-8.145734908167498,41.28858456233661],[-8.685260311367443,40.798575795448784],[-9.004443858332138,40.50450426001985],[-9.320398972572434,40.210378909939244],[-9.633261449653617,39.9161958541607],[-9.943164218626833,39.62195076396525],[-10.554609003607652,39.03325505362203],[-11.155745582642538,38.44424885641604],[-11.452754702551573,38.14961418118309],[-11.84527674933733,37.75668419469879],[-12.523676927129884,37.068466962475185],[-13.19232230512992,36.37956995110152],[-13.758752148833992,35.7884625500834],[-14.412997118504109,35.098002814384685],[-15.061438650482359,34.40652027917813],[-15.797131435747161,33.61482074444897],[-16.343806885474635,33.01832754899655],[-16.979582997424842,32.32083210095389],[-19.253052397457395,29.813501346916322],[-20.17367519540386,28.80194453526561],[-20.731958071192395,28.192183831680104],[-21.20146977705724,27.68227603251383],[-21.67551734734633,27.170639784333456],[-22.058448013303888,26.760008561889713],[-22.5422852451959,26.244963361256307],[-22.933928357032357,25.83144067055144],[-23.330041067485155,25.416519701371588],[-23.73101570831463,25.000125025412274],[-23.79712867431624,25.034402041802323],[-23.593510251445565,25.24170982544112]]]}}]}