{"type":"FeatureCollection","features":[{"type":"Feature","properties":{"t_inicio":-1.1666666666666767,"t_fim":0.2333333333333183},"geometry":{"type":"LineString","coordinates":[[-23.7639312427836,25.01719960580873],[-23.66258466963683,25.12117145097649],[-23.561568565890383,25.225049064730893],[-23.460876350773333,25.328833707778884],[-23.36050152813121,25.432526622141943],[-23.260437684210586,25.536129031571317],[-23.160678485505542,25.63964214195101],[-23.06121767666434,25.743067141688925],[-22.9620490784541,25.846405202096467],[-22.863166585780846,25.949657477757142],[-22.764564165763545,26.05282510688445],[-22.66623585585981,26.155909211669467],[-22.568175762041818,26.258910898618442],[-22.470378057020014,26.361831258880787],[-22.372836978513618,26.464671368567753],[-22.275546827566075,26.567432289062065],[-22.17850196690341,26.670115067318903],[-22.08169681933481,26.772720736158476],[-21.985125866193272,26.875250314550367],[-21.888783645815266,26.977704807890092],[-21.792664752058187,27.080085208267942],[-21.69676383285389,27.18239249473056],[-21.601075588797528,27.284627633535194],[-21.505594771770063,27.38679157839718],[-21.41031618359395,27.48888527073063],[-21.31523467471996,27.590909639882625],[-21.22034514294498,27.69286560336107],[-21.12564253215922,27.79475406705656],[-21.03112183112208,27.89657592545815],[-20.93677807226564,27.998332061863504],[-20.84260633052469,28.100023348583314],[-20.748601722192944,28.20165064714052],[-20.65475940380395,28.303214808464105],[-20.561074571036187,28.4047166730778],[-20.467542457641628,28.506157071283887],[-20.374158334396895,28.6075368233422],[-20.280917508076186,28.708856739644364],[-20.18781532044534,28.81011762088356],[-20.094847147276482,28.91132025821985],[-20.002008397382212,29.01246543344118],[-19.90929451166926,29.113553919120278],[-19.816700962210348,29.21458647876738],[-19.72422325133411,29.315563866979087],[-19.63185691073221,29.416486829583377],[-19.53959750058351,29.517356103780703],[-19.447440608694052,29.6181724182818],[-19.355381849652986,29.718936493441486],[-19.263416864003602,29.81964904138938],[-19.17154131742899,29.920310766157023],[-19.079750899951932,30.020922363801866],[-18.98804132514846,30.121484522527837],[-18.896408329374708,30.221997922803055],[-18.804847671006684,30.322463237474267],[-18.713355129692246,30.422881131878484],[-18.62192650561525,30.523252263951523],[-18.53055761877104,30.623577284333905],[-18.439244308253564,30.72385683647385],[-18.347982431552737,30.824091556727666],[-18.256767863862706,30.92428207445744],[-18.16559649740003,31.02442901212611],[-18.0744642407316,31.12453298539012],[-17.983367018111863,31.224594603189495],[-17.89230076882933,31.32461446783563],[-17.801261446561654,31.424593175096554],[-17.710245018739272,31.524531314280047],[-17.619247465917027,31.624429468314343],[-17.52826478115375,31.72428821382674],[-17.437292969399408,31.824108121219968],[-17.34632804688934,31.923889754746465],[-17.25536604054568,32.0236336725805],[-17.164402987385415,32.12334042688839],[-17.073434933934806,32.223010563896466],[-16.982457935650274,32.32264462395738],[-16.891468056344934,32.4222431416142],[-16.800461367620983,32.521806645662814],[-16.709433948307606,32.62133565921228],[-16.61838188390405,32.720830699743516],[-16.52730126602762,32.82029227916604],[-16.436188191866677,32.91972090387311],[-16.345038763637888,33.0191170747949],[-16.253849088048156,33.11848128745014],[-16.162615275760515,33.21781403199596],[-16.071333440863782,33.31711579327611],[-15.979999700346411,33.41638705086763],[-15.888610173573255,33.51562827912566],[-15.797160981766211,33.61483994722688],[-15.705648247487687,33.714022519211305],[-15.614068094127134,33.81317645402248],[-15.522416645390194,33.91230220554618],[-15.430690024790664,34.01140022264764],[-15.338884355144728,34.110470949207134],[-15.246995758067243,34.209514824154326],[-15.155020353470462,34.308532281500796],[-15.062954259064242,34.40752375037153],[-14.970793589858147,34.5064896550346],[-14.878534457665069,34.60543041492964],[-14.78617297060623,34.70434644469493],[-14.69370523261719,34.80323815419282],[-14.601127342955209,34.9021059485341],[-14.508435395707295,35.00095022810082],[-14.41562547929891,35.09977138856768],[-14.322693676003325,35.19856982092218],[-14.229636061451515,35.29734591148342],[-14.13644870414194,35.396100041919425],[-14.043127664950845,35.4948325892633],[-13.949668996642032,35.593543925927946],[-13.856068743376937,35.69223441971937],[-13.762322940223811,35.790904433848965],[-13.668427612666846,35.889554326944115],[-13.574378776114315,35.988184453057784],[-13.480172435405933,36.0867951616765],[-13.385804584319544,36.18538679772735],[-13.291271205076299,36.2839597015834],[-13.196568267844697,36.38251420906794],[-13.101691730243402,36.4810506514574],[-13.006637536842305,36.5795693554829],[-12.911401618661841,36.67807064333058],[-12.815979892670669,36.77655483264052],[-12.720368261281067,36.87502223650442],[-12.624562611842407,36.97347316346197],[-12.52855881613229,37.07190791749574],[-12.432352729845036,37.17032679802501],[-12.3359401920778,37.268730099897944],[-12.239317024813857,37.3671181133828],[-12.142479032403031,37.46549112415738],[-12.045422001038844,37.56384941329749],[-11.948141698232916,37.66219325726377],[-11.85063387228547,37.7605229278874],[-11.752894251752764,37.85883869235411],[-11.654918544910657,37.957140813187195],[-11.556702439214348,38.055429548228695],[-11.45824160075415,38.15370515061961],[-11.359531673707238,38.251967868778266],[-11.260568279784962,38.35021794637759],[-11.16134701767578,38.448455622320715],[-11.06186346248353,38.54668113071519],[-10.962113165160929,38.64489470084581],[-10.862091651938186,38.743096557145684],[-10.761794423746409,38.841286919166166],[-10.661216955635751,38.93946600154489],[-10.56035469618817,39.03763401397251],[-10.459203066924431,39.13579116115775],[-10.35775746170549,39.23393764279091],[-10.256013246127566,39.33207365350584],[-10.153965756911532,39.43019938284003],[-10.051610301285422,39.528315015193435],[-9.948942156360971,39.62642072978529],[-9.845956568502828,39.72451670060936],[-9.742648752691395,39.822603096387546],[-9.639013891878278,39.92068008052163],[-9.53504713633447,40.01874781104328],[-9.430743602991129,40.11680644056223],[-9.326098374772556,40.21485611621274],[-9.221106499921348,40.31289697959809],[-9.115762991315421,40.41092916673312],[-9.010062825776629,40.508952807985054],[-8.904000943370903,40.60696802801229],[-8.79757224669973,40.704974945701],[-8.690771600182444,40.802973674100066],[-8.583593829329516,40.90096432035367],[-8.476033720006114,40.9989469856319],[-8.368086017686409,41.09692176505928],[-8.259745426697492,41.19488874764096],[-8.15100660945356,41.2928480161869],[-8.041864185679344,41.390799647233635],[-7.932312731623028,41.488743710963796],[-7.822346779258311,41.58668027112334],[-7.71196081547518,41.68460938493629],[-7.601149281259126,41.78253110301716],[-7.4899065708589205,41.88044546928074],[-7.378227030942099,41.97835252084951],[-7.2661049597383,42.07625228795835],[-7.153534606169956,42.17414479385665],[-7.040510168970002,42.27203005470773],[-6.927025795786761,42.36990807948548],[-6.81307558227482,42.46777886986823],[-6.698653571172372,42.565642420129755],[-6.583753751364469,42.66349871702718],[-6.468370056931633,42.76134773968618],[-6.352496366183772,42.85918945948289],[-6.236126500678807,42.957023839922705],[-6.11925422422587,43.054850836516025],[-6.001873241872744,43.152670396650514],[-5.883977198876778,43.25048245946028],[-5.765559679659447,43.348286955691286],[-5.646614206743692,43.44608380756358],[-5.527134239674012,43.54387292862978],[-5.407113173918702,43.64165422362991],[-5.286544339753675,43.73942758834249],[-5.165421001128038,43.837192909431806],[-5.043736354510116,43.93495006429125],[-4.921483527714258,44.03269892088264],[-4.798655578707553,44.13043933757129],[-4.675245494396108,44.22817116295708],[-4.55124618939027,44.32589423570109],[-4.426650504748636,44.42360838434772],[-4.301451206700023,44.52131342714247],[-4.175640985342824,44.61900917184482],[-4.049212453321815,44.71669541553665],[-3.9221581444809033,44.814371944425496],[-3.7944705124923246,44.912038533642935],[-3.6661419294608777,45.009694947037865],[-3.5371646845029545,45.10734093696442],[-3.40753098229996,45.20497624406459],[-3.277232941625016,45.302600597045284],[-3.146262593842806,45.400213712449585],[-3.014611881381569,45.49781529442244],[-2.8822726561768377,45.59540503447011],[-2.749236678085964,45.69298261121375],[-2.6154956132730263,45.79054769013636],[-2.4810410325631267,45.888099923323686],[-2.3458644097655963,45.98563894919811],[-2.209957119965054,46.083164392246076],[-2.0733104377797815,46.18067586273824],[-1.9359155355866449,46.27817295644261],[-1.7977634817114563,46.37565525433031],[-1.6588452385841492,46.473122322273724],[-1.5191516608578297,46.570573710736966],[-1.3786734934909646,46.668008954458124],[-1.237401369791428,46.76542757212364],[-1.095325809421837,46.86282906603409],[-0.9524372163649844,46.96021292176112],[-0.8087258768483991,47.057578607795875],[-0.6641819572271004,47.15492557518792],[-0.5187955018233197,47.252253257174885],[-0.3725564307222271,47.349561068802494],[-0.22545453752255185,47.44684840653455],[-0.0774794870407618,47.54411464785265],[0.07137918703216428,47.64135915084552],[0.22113208452276467,47.738581253787316],[0.3717899412171448,47.835780274705066],[0.5233636313543002,47.932955510934285],[0.6758641701721615,48.03010623866301],[0.8293027165076978,48.12723171246369],[0.9836905754523286,48.224331164812476],[1.1390392010646906,48.32140380559579],[1.2953601991414985,48.41844882160323],[1.4526653300486316,48.51546537600752],[1.610966511613924,48.61245260782961],[1.770275822083363,48.70940963138993],[1.930605503142118,48.806335535744196],[2.091967963002844,48.90322938410438],[2.254375779562281,49.00009021324325],[2.4178417036287954,49.096917032883006],[2.5823786622224247,49.19370882506688],[2.747999761949387,49.29046454351343],[2.914718292453614,49.38718311295285],[3.082547729946981,49.48386342844484],[3.251501740820771,49.580504354677544],[3.421594185340581,49.67710472524667],[3.5928391214272892,49.77366334191448],[3.7652508085261616,49.870178973847544],[3.938843711567216,49.96665035683334]]}}]}