{"type":"FeatureCollection","features":[{"type":"Feature","properties":{"magnitude":0.9,"percentagem":90.0,"territorio":"continente"},"geometry":{"type":"LineString","coordinates":[[-7.848451511766906,36.0],[-7.820000000000057,36.02776370256709],[-7.8074529920593,36.04],[-7.780000000000058,36.06675757947282],[-7.766405163042545,36.08],[-7.740000000000059,36.105705665690465],[-7.725307716988297,36.12],[-7.70000000000006,36.14460784585121],[-7.6841603452196034,36.16],[-7.6600000000000605,36.183464006042016],[-7.642962738104911,36.199999999999996],[-7.620000000000061,36.222274033801085],[-7.6017145850520675,36.239999999999995],[-7.580000000000062,36.261037818113294],[-7.560415574502249,36.279999999999994],[-7.540000000000063,36.29975524940552],[-7.519065393923903,36.31999999999999],[-7.500000000000064,36.338426219541844],[-7.4776637298067445,36.35999999999999],[-7.460000000000065,36.37705062181876],[-7.436210267655649,36.39999999999999],[-7.4200000000000665,36.41562835096016],[-7.394704691984547,36.43999999999999],[-7.3800000000000665,36.45415930311232],[-7.353146686310352,36.47999999999999],[-7.340000000000067,36.4926433758388],[-7.3115359331468905,36.51999999999999],[-7.300000000000068,36.53108046811528],[-7.269872113998634,36.55999999999999],[-7.260000000000069,36.56947048032411],[-7.228154909354821,36.59999999999999],[-7.22000000000007,36.60781331424918],[-7.186383998682996,36.639999999999986],[-7.180000000000072,36.64610887307026],[-7.144559060423086,36.679999999999986],[-7.140000000000072,36.684357061357574],[-7.1026797719811094,36.719999999999985],[-7.100000000000072,36.72255778506615],[-7.060745809723083,36.759999999999984],[-7.060000000000073,36.76071095153023],[-7.020000000000074,36.798816556821016],[-7.018756899866656,36.79999999999998],[-6.980000000000075,36.83687447830621],[-6.97671269238117,36.83999999999998],[-6.940000000000076,36.87488457462073],[-6.934612828229726,36.87999999999998],[-6.900000000000077,36.91284675854876],[-6.892456979249765,36.91999999999998],[-6.860000000000078,36.95076094422601],[-6.850244816204999,36.95999999999998],[-6.820000000000078,36.98862704713364],[-6.807976008779175,36.99999999999998],[-6.780000000000079,37.02644498409205],[-6.765650225569768,37.03999999999998],[-6.74000000000008,37.06421467325466],[-6.723267134081688,37.07999999999998],[-6.700000000000081,37.101936034101506],[-6.680826400720942,37.119999999999976],[-6.660000000000082,37.139608987432965],[-6.638327690788335,37.159999999999975],[-6.620000000000083,37.177233455363194],[-6.595770668473115,37.199999999999974],[-6.580000000000084,37.214809361313705],[-6.553154996846653,37.239999999999974],[-6.540000000000084,37.25233663000675],[-6.510480337856033,37.27999999999997],[-6.500000000000085,37.2898151874587],[-6.4677463523176755,37.31999999999997],[-6.460000000000086,37.327244960973324],[-6.424952699911007,37.35999999999997],[-6.420000000000087,37.36462587913509],[-6.382099039171949,37.39999999999997],[-6.380000000000088,37.401957871802324],[-6.340000000000089,37.4392409211202],[-6.339185035129447,37.43999999999997],[-6.3000000000000895,37.4764750422659],[-6.296210349449592,37.47999999999997],[-6.26000000000009,37.51366003670607],[-6.2531746131954185,37.51999999999997],[-6.220000000000091,37.55079583935085],[-6.210077479916533,37.55999999999997],[-6.180000000000092,37.58788238635137],[-6.166918601984141,37.599999999999966],[-6.140000000000093,37.62491961509271],[-6.123697630584626,37.639999999999965],[-6.100000000000094,37.66190746418676],[-6.080414215713101,37.679999999999964],[-6.060000000000095,37.69884587346498],[-6.037068006166811,37.71999999999996],[-6.0200000000000955,37.735734783971154],[-5.993658649538604,37.75999999999996],[-5.980000000000096,37.772574137954],[-5.950185792210329,37.79999999999996],[-5.940000000000097,37.80936387885996],[-5.906649079346429,37.83999999999996],[-5.900000000000097,37.84610395132578],[-5.863048154887198,37.87999999999996],[-5.860000000000099,37.88279430117101],[-5.8200000000001,37.91943491126118],[-5.819382652460525,37.91999999999996],[-5.780000000000101,37.956025873586924],[-5.775652168573833,37.95999999999996],[-5.7400000000001015,37.992566959552],[-5.731856382135263,37.99999999999996],[-5.700000000000102,38.029058119683896],[-5.68799493174131,38.03999999999996],[-5.660000000000103,38.0654993056572],[-5.644067454728512,38.079999999999956],[-5.620000000000104,38.10189047028604],[-5.600073587166756,38.119999999999955],[-5.580000000000105,38.13823156751636],[-5.556012963852725,38.159999999999954],[-5.540000000000106,38.174522552418246]]}},{"type":"Feature","properties":{"magnitude":0.95,"percentagem":95.0,"territorio":"continente"},"geometry":{"type":"LineString","coordinates":[[-10.5,36.187698085532126],[-10.487807950576922,36.199999999999996],[-10.46,36.22804410134383],[-10.44813895471407,36.239999999999995],[-10.420000000000002,36.26834933852574],[-10.40843007712008,36.279999999999994],[-10.380000000000003,36.30861363439081],[-10.368681039215847,36.31999999999999],[-10.340000000000003,36.3488368277769],[-10.328891561685332,36.35999999999999],[-10.300000000000004,36.38901875904565],[-10.28906136447002,36.39999999999999],[-10.260000000000005,36.429159270081364],[-10.249190166763405,36.43999999999999],[-10.220000000000006,36.46925820428969],[-10.20927768700544,36.47999999999999],[-10.180000000000007,36.50931540659629],[-10.169323642877059,36.51999999999999],[-10.140000000000008,36.54933072344521],[-10.12932775129449,36.55999999999999],[-10.100000000000009,36.589304002797256],[-10.089289728403825,36.59999999999999],[-10.06000000000001,36.629235094128255],[-10.0492092895753,36.639999999999986],[-10.02000000000001,36.66912384842713],[-10.009086149397856,36.679999999999986],[-9.980000000000011,36.70897011819385],[-9.968920021673323,36.719999999999985],[-9.940000000000012,36.748773757437384],[-9.928710619411078,36.759999999999984],[-9.900000000000013,36.78853462167338],[-9.888457654822156,36.79999999999998],[-9.860000000000014,36.82825256792184],[-9.848160839313778,36.83999999999998],[-9.820000000000014,36.86792745470461],[-9.807819883483667,36.87999999999998],[-9.780000000000015,36.907559142042814],[-9.767434497114307,36.91999999999998],[-9.740000000000016,36.947147491454146],[-9.727004389167375,36.95999999999998],[-9.700000000000017,36.98669236595004],[-9.686529267778003,36.99999999999998],[-9.660000000000018,37.02619363003274],[-9.64600884024909,37.03999999999998],[-9.620000000000019,37.065651149692336],[-9.605442813045622,37.07999999999998],[-9.58000000000002,37.105064792403475],[-9.564830891788866,37.119999999999976],[-9.54000000000002,37.144434427122285],[-9.524172781250767,37.159999999999975],[-9.500000000000021,37.18375992428287],[-9.483468185348087,37.199999999999974],[-9.460000000000022,37.223041155793965],[-9.442716807136758,37.239999999999974],[-9.420000000000023,37.26227799503526],[-9.401918348806003,37.27999999999997],[-9.380000000000024,37.30147031685388],[-9.36107251167261,37.31999999999997],[-9.340000000000025,37.34061799756044],[-9.320178996175226,37.35999999999997],[-9.300000000000026,37.37972091492537],[-9.279237501868398,37.39999999999998],[-9.260000000000026,37.418778948174754],[-9.23824772741684,37.43999999999997],[-9.220000000000027,37.457791977986446],[-9.197209370589658,37.47999999999997],[-9.180000000000028,37.496759886485776],[-9.156122128254378,37.51999999999997],[-9.140000000000029,37.53568255724137],[-9.114985696371257,37.55999999999997],[-9.10000000000003,37.57455987526082],[-9.073799769987286,37.599999999999966],[-9.06000000000003,37.61339172698611],[-9.032564043230328,37.639999999999965],[-9.020000000000032,37.652178000289254],[-8.99127820930337,37.679999999999964],[-8.980000000000032,37.690918584467596],[-8.949941960478489,37.71999999999996],[-8.940000000000033,37.729613370239065],[-8.908554988090938,37.75999999999996],[-8.900000000000034,37.76826224973744],[-8.867116982533219,37.79999999999996],[-8.860000000000035,37.806865116507346],[-8.825627633249344,37.839999999999954],[-8.820000000000036,37.84542186549952],[-8.784086628728584,37.87999999999996],[-8.780000000000037,37.88393239306549],[-8.742493656499672,37.91999999999996],[-8.740000000000038,37.922396596952524],[-8.70084840312488,37.95999999999996],[-8.700000000000038,37.96081437629854],[-8.66000000000004,37.99918572229207],[-8.659150619814541,37.99999999999996],[-8.62000000000004,38.03751054088669],[-8.617399990427911,38.03999999999996],[-8.580000000000041,38.07578864429919],[-8.575596131230208,38.079999999999956],[-8.540000000000042,38.11401993716268],[-8.533738724586321,38.119999999999955],[-8.500000000000043,38.15220432547546],[-8.491827451862347,38.159999999999954],[-8.460000000000043,38.19034171659511],[-8.44986199341929,38.19999999999995],[-8.420000000000044,38.228432019232905],[-8.407842028607213,38.23999999999995],[-8.380000000000045,38.266475143448034],[-8.365767235759137,38.27999999999995],[-8.340000000000046,38.304471000641485],[-8.323637292184731,38.31999999999995],[-8.300000000000047,38.342419503550296],[-8.281451874164507,38.35999999999995],[-8.260000000000048,38.380320566241444],[-8.239210656943456,38.39999999999995],[-8.220000000000049,38.41817410410573],[-8.196913314725084,38.43999999999995],[-8.18000000000005,38.45598003385164],[-8.154559520665115,38.47999999999995],[-8.14000000000005,38.49373827349908],[-8.112148946865432,38.519999999999946],[-8.100000000000051,38.53144874237314],[-8.069681264367905,38.559999999999945],[-8.060000000000052,38.56911136109771],[-8.027156143148153,38.599999999999945],[-8.020000000000053,38.60672605158907],[-7.98457325210931,38.639999999999944],[-7.980000000000054,38.64429273704931],[-7.941932259075935,38.67999999999994],[-7.9400000000000555,38.681811341960035],[-7.900000000000055,38.71928186647049],[-7.89923286375852,38.71999999999994],[-7.860000000000056,38.756704354783196],[-7.856474777932578,38.75999999999994],[-7.820000000000057,38.794078546984046],[-7.813657579247631,38.79999999999994],[-7.780000000000058,38.83140437262783],[-7.770780930836835,38.83999999999994],[-7.740000000000059,38.868681762517106],[-7.727844494720985,38.87999999999994],[-7.70000000000006,38.90591064869542],[-7.684847931802295,38.91999999999994],[-7.6600000000000605,38.943090964440245],[-7.641790901857933,38.95999999999994],[-7.620000000000061,38.98022264425623],[-7.5986730635338775,38.999999999999936],[-7.580000000000062,39.01730562386798],[-7.555494074338373,39.039999999999935],[-7.540000000000063,39.05433984021316],[-7.512253590635767,39.07999999999993],[-7.500000000000064,39.091325231435334],[-7.468951267639958,39.11999999999993],[-7.460000000000065,39.128261736876816],[-7.425586759408148,39.15999999999993],[-7.420000000000066,39.16514929707152],[-7.38215971883431,39.19999999999993],[-7.380000000000067,39.201987853737684],[-7.340000000000067,39.23877747134078],[-7.338669821323508,39.23999999999993],[-7.300000000000068,39.275518173950715],[-7.295116724340597,39.27999999999993],[-7.260000000000069,39.31220970874398],[-7.251500034489436,39.31999999999993],[-7.22000000000007,39.34885202215217],[-7.207819399600029,39.35999999999993],[-7.180000000000071,39.385445061756464],[-7.1640744663044815,39.39999999999993],[-7.140000000000072,39.42198877628011],[-7.120264880030565,39.43999999999993],[-7.1000000000000725,39.45848311558102],[-7.076390284995153,39.47999999999993],[-7.060000000000073,39.494928030644104],[-7.03245032419771,39.519999999999925],[-7.020000000000074,39.53132347357391],[-6.988444639413762,39.559999999999924],[-6.980000000000075,39.56766939758688],[-6.9443728711882855,39.59999999999992],[-6.940000000000076,39.60396575700377],[-6.900234658829195,39.63999999999992],[-6.900000000000077,39.64021250724206],[-6.860000000000078,39.676409952697796],[-6.8560296255864746,39.67999999999992],[-6.820000000000078,39.71255772750971],[-6.811757406800904,39.71999999999992],[-6.780000000000079,39.74865576978914],[-6.7674176381002695,39.75999999999992],[-6.74000000000008,39.78470403933511],[-6.723009953402444,39.79999999999992],[-6.700000000000081,39.820702497006614],[-6.678533985352523,39.83999999999992],[-6.660000000000082,39.85665110471481],[-6.633989365316248,39.87999999999992],[-6.620000000000083,39.892549825415195],[-6.589375723373218,39.919999999999916],[-6.580000000000084,39.92839862309977],[-6.544692688310311,39.959999999999916],[-6.540000000000084,39.96419746278923],[-6.500000000000085,39.99994631565302],[-6.499939886426851,39.999999999999915],[-6.460000000000086,40.03564554900657],[-6.455116841976177,40.03999999999992],[-6.420000000000087,40.0712947297758],[-6.410223263542756,40.07999999999991],[-6.380000000000088,40.106893827105544],[-6.36525877427753,40.11999999999991],[-6.340000000000089,40.14244281113159],[-6.3202229960023075,40.15999999999991],[-6.3000000000000895,40.17794165297277],[-6.275115549203013,40.19999999999992],[-6.26000000000009,40.21339032472288],[-6.2299360530227395,40.23999999999991],[-6.220000000000091,40.24878879944282],[-6.184684125254966,40.27999999999991],[-6.180000000000092,40.2841370511525],[-6.140000000000093,40.31943510829582],[-6.139359359398964,40.31999999999991],[-6.100000000000094,40.354683289615394],[-6.093961212017293,40.35999999999991],[-6.060000000000095,40.389881180428404],[-6.048489455496409,40.399999999999906],[-6.0200000000000955,40.42502875861564],[-6.002943701743123,40.439999999999905],[-5.980000000000096,40.46012600297863],[-5.957323561277558,40.479999999999905],[-5.940000000000097,40.495172893231576],[-5.9116286432261,40.519999999999904],[-5.900000000000098,40.53016940999337],[-5.865858555314542,40.5599999999999],[-5.860000000000099,40.565115534779494],[-5.820012903861071,40.5999999999999],[-5.8200000000001,40.60001124999405],[-5.780000000000101,40.634857023978576],[-5.774090987389739,40.6399999999999],[-5.7400000000001015,40.669652362203074],[-5.728092689235936,40.6799999999999],[-5.700000000000102,40.70439724874721],[-5.682017611658971,40.7199999999999],[-5.660000000000103,40.73909166960907],[-5.6358653548342375,40.7599999999999],[-5.620000000000104,40.77373561163676],[-5.589635517491794,40.7999999999999],[-5.580000000000105,40.80832906252035],[-5.543327696908917,40.8399999999999],[-5.540000000000106,40.84287201078378]]}},{"type":"Feature","properties":{"magnitude":0.95,"percentagem":95.0,"territorio":"continente"},"geometry":{"type":"LineString","coordinates":[[-9.467970825980412,42.95999999999985],[-9.500000000000021,42.93135353451747],[-9.512683347495912,42.91999999999985],[-9.54000000000002,42.89553213920109],[-9.557325763776493,42.87999999999985],[-9.58000000000002,42.859660387464515],[-9.601898442529292,42.839999999999854],[-9.620000000000019,42.823738309202504],[-9.646401750174558,42.799999999999855],[-9.660000000000018,42.787765935295155],[-9.690836051852722,42.75999999999985],[-9.700000000000017,42.751743297616],[-9.735201711430973,42.71999999999986],[-9.740000000000016,42.71567042904003],[-9.779499091510155,42.67999999999986],[-9.780000000000015,42.679547363451604],[-9.820000000000014,42.64337467980317],[-9.82372868452006,42.63999999999986],[-9.860000000000014,42.60715193550582],[-9.867890748353611,42.599999999999866],[-9.900000000000013,42.57087909464802],[-9.91198562477481,42.55999999999986],[-9.940000000000012,42.534556195304866],[-9.95601367105461,42.51999999999986],[-9.980000000000011,42.498183276598915],[-9.99997524323343,42.47999999999986],[-10.02000000000001,42.46176037870813],[-10.04387069612789,42.43999999999986],[-10.06000000000001,42.4252875428738],[-10.087700383337467,42.399999999999864],[-10.100000000000009,42.388764811408365],[-10.13146465725106,42.35999999999987],[-10.140000000000008,42.35219222770331],[-10.175163869053684,42.319999999999865],[-10.180000000000007,42.315569836237],[-10.21879836873295,42.279999999999866],[-10.220000000000006,42.2788976825824],[-10.260000000000005,42.242176168288964],[-10.26236863225131,42.23999999999987],[-10.300000000000004,42.20540515884735],[-10.305874951310294,42.19999999999987],[-10.340000000000003,42.168584523602604],[-10.34931760959916,42.15999999999987],[-10.380000000000003,42.13171431263699],[-10.392696952072782,42.11999999999987],[-10.420000000000002,42.09479457716419],[-10.436013322523578,42.07999999999987],[-10.46,42.0578253695371],[-10.479267063588061,42.03999999999987],[-10.5,42.02080674325528]]}},{"type":"Feature","properties":{"magnitude":0.99,"percentagem":99.0,"territorio":"continente"},"geometry":{"type":"LineString","coordinates":[[-10.5,38.504335373635605],[-10.483981396627414,38.519999999999946],[-10.46,38.5434384599401],[-10.443044728518059,38.559999999999945],[-10.420000000000002,38.58249707810289],[-10.40206025680196,38.599999999999945],[-10.380000000000003,38.621511108538854],[-10.361027682234395,38.639999999999944],[-10.340000000000003,38.6604804330978],[-10.31994670469609,38.67999999999994],[-10.300000000000004,38.699404935060315],[-10.278817023187386,38.71999999999994],[-10.260000000000005,38.738284499133286],[-10.237638335822535,38.75999999999995],[-10.220000000000006,38.777119011445535],[-10.196410339823775,38.79999999999994],[-10.180000000000007,38.815908359543194],[-10.155132731515673,38.83999999999994],[-10.140000000000008,38.85465243238514],[-10.11380520631917,38.87999999999994],[-10.100000000000009,38.893351120338224],[-10.072427458745903,38.91999999999994],[-10.06000000000001,38.932004315172534],[-10.03099918239217,38.95999999999994],[-10.02000000000001,38.97061191005641],[-9.989520069933256,38.999999999999936],[-9.980000000000011,39.00917379955156],[-9.947989813117454,39.039999999999935],[-9.940000000000012,39.047689879607944],[-9.906408102760246,39.079999999999934],[-9.900000000000013,39.086160047558664],[-9.864774628738353,39.11999999999993],[-9.860000000000014,39.12458420211477],[-9.823089079983859,39.15999999999993],[-9.820000000000013,39.16296224335986],[-9.78135114447827,39.19999999999993],[-9.780000000000015,39.201294072744815],[-9.740000000000016,39.23957965214841],[-9.739560550562942,39.23999999999993],[-9.700000000000017,39.27781901406702],[-9.697717070901707,39.27999999999993],[-9.660000000000018,39.3160118816325],[-9.655820260893321,39.31999999999993],[-9.620000000000019,39.354158161704504],[-9.613869804398252,39.35999999999993],[-9.58000000000002,39.39225776248386],[-9.571865384294583,39.39999999999993],[-9.54000000000002,39.43031059350652],[-9.529806682471754,39.43999999999993],[-9.500000000000021,39.468316565637814],[-9.487693379824714,39.479999999999926],[-9.460000000000022,39.50627559106651],[-9.445525156247882,39.519999999999925],[-9.420000000000023,39.54418758329872],[-9.403301690628986,39.559999999999924],[-9.380000000000024,39.58205245715191],[-9.361022660843155,39.59999999999992],[-9.340000000000025,39.619870128748744],[-9.31868774374679,39.63999999999992],[-9.300000000000026,39.657640515510835],[-9.276296615171429,39.67999999999992],[-9.260000000000026,39.69536353615254],[-9.233848949917764,39.71999999999992],[-9.220000000000027,39.73303911067458],[-9.191344421749431,39.75999999999992],[-9.180000000000028,39.770667160357746],[-9.148782703386928,39.79999999999992],[-9.140000000000029,39.80824760775631],[-9.106163466501481,39.83999999999992],[-9.10000000000003,39.84578037669168],[-9.063486381708923,39.87999999999992],[-9.06000000000003,39.883265392245754],[-9.02075111856348,39.919999999999916],[-9.020000000000032,39.92070258075435],[-8.980000000000032,39.95809212399845],[-8.977957469165547,39.959999999999916],[-8.940000000000033,39.99543379526145],[-8.935105017553974,39.999999999999915],[-8.900000000000034,40.032727430821595],[-8.892193382961798,40.039999999999914],[-8.860000000000035,40.06997296199239],[-8.849222230334842,40.07999999999991],[-8.820000000000036,40.10717032130929],[-8.806191223524024,40.11999999999991],[-8.780000000000037,40.14431944252274],[-8.763100025279106,40.15999999999991],[-8.740000000000038,40.1814202605913],[-8.719948297242505,40.19999999999992],[-8.700000000000038,40.21847271167459],[-8.676735699942842,40.23999999999991],[-8.66000000000004,40.255476733126244],[-8.633461892788816,40.27999999999991],[-8.62000000000004,40.29243226348681],[-8.590126534062744,40.31999999999991],[-8.580000000000041,40.329339242476664],[-8.546729280914343,40.35999999999991],[-8.540000000000042,40.36619761098876],[-8.5032697893544,40.399999999999906],[-8.500000000000043,40.403007311081616],[-8.460000000000043,40.4397683159978],[-8.459747723769143,40.439999999999905],[-8.420000000000044,40.47648093539863],[-8.41616284724176,40.479999999999905],[-8.380000000000045,40.513144724534136],[-8.372514682739833,40.519999999999904],[-8.340000000000046,40.549759630104745],[-8.328802881325881,40.5599999999999],[-8.300000000000047,40.586325599941475],[-8.28502709288911,40.5999999999999],[-8.260000000000048,40.62284258299863],[-8.24118696613913,40.6399999999999],[-8.220000000000049,40.65931052934626],[-8.19728214859926,40.6799999999999],[-8.18000000000005,40.695729390162725],[-8.153312286600364,40.7199999999999],[-8.14000000000005,40.732099117727174],[-8.109277025274011,40.7599999999999],[-8.100000000000051,40.76841966541195],[-8.06517600854637,40.7999999999999],[-8.060000000000052,40.80469098767513],[-8.021008879131355,40.8399999999999],[-8.020000000000053,40.84091304005278],[-7.980000000000054,40.87708614988765],[-7.976775332510245,40.879999999999896],[-7.940000000000055,40.91321002577553],[-7.932474959481654,40.9199999999999],[-7.900000000000055,40.949284510250294],[-7.888107380031513,40.959999999999894],[-7.860000000000056,40.985309563158864],[-7.843672231604339,40.99999999999989],[-7.820000000000057,41.0212851453896],[-7.799169150397281,41.03999999999989],[-7.780000000000058,41.05721121886462],[-7.754597771353431,41.07999999999989],[-7.740000000000059,41.09308774653209],[-7.709957728155417,41.11999999999989],[-7.700000000000061,41.128914692358386],[-7.665248653218504,41.15999999999989],[-7.660000000000061,41.164692021320306],[-7.620470177684059,41.19999999999989],[-7.620000000000061,41.20041969939728],[-7.580000000000062,41.23609818484193],[-7.575621928466778,41.23999999999989],[-7.540000000000063,41.27172701306313],[-7.530703520059142,41.27999999999989],[-7.500000000000064,41.30730610023271],[-7.485714578838344,41.31999999999989],[-7.460000000000065,41.34283541635501],[-7.440654730404782,41.359999999999886],[-7.420000000000066,41.378314932399576],[-7.3955235990489285,41.39999999999989],[-7.3800000000000665,41.41374462029309],[-7.350320807744491,41.439999999999884],[-7.340000000000067,41.449124452911576],[-7.305045978141617,41.47999999999988],[-7.300000000000068,41.484454404072466],[-7.260000000000069,41.51973448177195],[-7.259698726191109,41.51999999999988],[-7.22000000000007,41.55496519239646],[-7.214278590762327,41.55999999999988],[-7.180000000000071,41.59014595498878],[-7.16878525323501,41.59999999999988],[-7.140000000000072,41.6252767471593],[-7.123218329500277,41.63999999999988],[-7.1000000000000725,41.66035754742194],[-7.077577434089086,41.67999999999988],[-7.060000000000073,41.69538833518601],[-7.031862180165133,41.719999999999885],[-7.020000000000075,41.73036909074841],[-6.986072179518027,41.75999999999988],[-6.980000000000075,41.765299795285536],[-6.940207042556279,41.799999999999876],[-6.940000000000077,41.8001804308454],[-6.900000000000077,41.8350116037096],[-6.894266205607606,41.839999999999876],[-6.860000000000078,41.86979270376977],[-6.848249419435964,41.879999999999875],[-6.820000000000078,41.90452369322744],[-6.802156295715077,41.919999999999874],[-6.780000000000079,41.93920455765918],[-6.755986438841882,41.95999999999987],[-6.74000000000008,41.973835283474976],[-6.709739451794681,41.99999999999987],[-6.700000000000081,42.008415857910315],[-6.663414936126024,42.03999999999987],[-6.660000000000083,42.04294626901818],[-6.620000000000083,42.07742682727166],[-6.617012366028213,42.07999999999987],[-6.580000000000084,42.111857576103546],[-6.570531301928914,42.11999999999986],[-6.540000000000084,42.146238138216646],[-6.523971478465294,42.15999999999987],[-6.500000000000085,42.18056850498759],[-6.477332490982316,42.199999999999875],[-6.460000000000086,42.214848668572486],[-6.430613933361046,42.23999999999987],[-6.420000000000087,42.24907862189891],[-6.383815398011547,42.27999999999987],[-6.380000000000087,42.28325835865806],[-6.340000000000089,42.31738820053918],[-6.336936309886763,42.319999999999865],[-6.3000000000000895,42.35146823131461],[-6.2899761954106355,42.359999999999864],[-6.26000000000009,42.38549803934496],[-6.242934841984605,42.399999999999864],[-6.220000000000091,42.41947762144065],[-6.195811835611628,42.439999999999856],[-6.180000000000092,42.4534069751378],[-6.148606760784733,42.47999999999986],[-6.140000000000093,42.4872860986904],[-6.101319200479781,42.519999999999854],[-6.100000000000094,42.52111499106255],[-6.060000000000095,42.5548942946387],[-6.053948335552442,42.55999999999986],[-6.0200000000000955,42.588623515978995],[-6.006494029567639,42.59999999999986],[-5.980000000000096,42.62230251615689],[-5.958955945416952,42.63999999999986],[-5.940000000000097,42.655931297052575],[-5.9113336594662265,42.67999999999985],[-5.900000000000098,42.68950986121874],[-5.863626746524484,42.71999999999986],[-5.860000000000099,42.72303821187295],[-5.8200000000001,42.75651679355833],[-5.815834461487203,42.75999999999985],[-5.780000000000101,42.78994556315329],[-5.767956389179453,42.799999999999855],[-5.7400000000001015,42.82332414235221],[-5.719992369941541,42.839999999999854],[-5.700000000000102,42.856652537117085],[-5.671941971798589,42.87999999999985],[-5.660000000000103,42.88993075403767],[-5.623804761178755,42.91999999999985],[-5.620000000000104,42.92315880032389],[-5.580000000000105,42.95633715020984],[-5.575579919917813,42.95999999999985]]}},{"type":"Feature","properties":{"magnitude":0.99,"percentagem":99.0,"territorio":"continente"},"geometry":{"type":"LineString","coordinates":[[-6.886426877941952,42.95999999999985],[-6.900000000000077,42.94847512549272],[-6.9335033274548685,42.91999999999985],[-6.940000000000076,42.914474785076976],[-6.980000000000075,42.88042348046067],[-6.980497044333487,42.87999999999985],[-7.020000000000074,42.846321850481274],[-7.027408122200171,42.839999999999854],[-7.060000000000073,42.81216919173769],[-7.074237356581428,42.799999999999855],[-7.1000000000000725,42.777965504263406],[-7.120985160765565,42.759999999999856],[-7.140000000000072,42.74371078882293],[-7.167651946519404,42.71999999999986],[-7.180000000000071,42.70940504692008],[-7.214238124095801,42.67999999999986],[-7.22000000000007,42.6750482808058],[-7.260000000000069,42.64064057454206],[-7.260744068810333,42.63999999999986],[-7.300000000000068,42.60618247024585],[-7.307169978757177,42.59999999999986],[-7.340000000000067,42.57167334527408],[-7.353516528324983,42.55999999999986],[-7.3800000000000665,42.537113205078626],[-7.399784121353021,42.51999999999986],[-7.420000000000066,42.50250205589755],[-7.445973160205964,42.47999999999986],[-7.460000000000065,42.46783990476304],[-7.492084045781062,42.43999999999986],[-7.500000000000064,42.433126759509726],[-7.538117177515568,42.399999999999864],[-7.540000000000064,42.39836262878271],[-7.580000000000062,42.363547970099525],[-7.584072826128363,42.359999999999864],[-7.620000000000061,42.328682545394926],[-7.629951476636512,42.319999999999865],[-7.6600000000000605,42.29376615897645],[-7.675753585893828,42.279999999999866],[-7.70000000000006,42.25879882293073],[-7.721479547157028,42.23999999999987],[-7.740000000000059,42.22378055019412],[-7.7671297522614475,42.19999999999987],[-7.780000000000058,42.18871135456077],[-7.8127045916278774,42.15999999999987],[-7.820000000000057,42.1535912506907],[-7.858204454270027,42.11999999999987],[-7.860000000000056,42.118420254118256],[-7.900000000000055,42.08319878565043],[-7.9036296640598405,42.07999999999987],[-7.940000000000055,42.04792665131638],[-7.9489806566604955,42.03999999999987],[-7.980000000000054,42.01260366964142],[-7.994257851225917,41.99999999999987],[-8.020000000000053,41.97722985984248],[-8.039461630817591,41.95999999999987],[-8.060000000000052,41.94180524204981],[-8.084592377127539,41.919999999999874],[-8.100000000000051,41.90632983731515],[-8.12965047048537,41.87999999999988],[-8.14000000000005,41.87080366761982],[-8.174636289865088,41.839999999999876],[-8.18000000000005,41.83522675588296],[-8.219550212892212,41.799999999999876],[-8.220000000000049,41.79959912596966],[-8.260000000000048,41.76392130061975],[-8.264392606630112,41.75999999999988],[-8.300000000000047,41.72819285246247],[-8.309163870717484,41.71999999999988],[-8.340000000000046,41.692413757442424],[-8.353864380142417,41.67999999999988],[-8.380000000000045,41.6565840433782],[-8.398494506832144,41.63999999999988],[-8.420000000000044,41.62070373907321],[-8.443054621402307,41.59999999999988],[-8.460000000000043,41.58477287432376],[-8.487545093163714,41.55999999999988],[-8.500000000000043,41.5487914799272],[-8.53196629012929,41.51999999999988],[-8.540000000000042,41.51275958768994],[-8.576318579020748,41.47999999999989],[-8.580000000000041,41.476677230435534],[-8.62000000000004,41.44054451173923],[-8.620602333324078,41.439999999999884],[-8.66000000000004,41.40436181627268],[-8.664817965985735,41.399999999999885],[-8.700000000000038,41.3681287547862],[-8.708965796880971,41.359999999999886],[-8.740000000000038,41.33184536432405],[-8.75304618728152,41.31999999999989],[-8.780000000000037,41.29551168298589],[-8.797059497204057,41.27999999999989],[-8.820000000000036,41.25912774993462],[-8.841006085416831,41.23999999999989],[-8.860000000000035,41.222693605404515],[-8.884886309446554,41.19999999999989],[-8.900000000000034,41.18620929070899],[-8.92870052558488,41.15999999999989],[-8.940000000000033,41.14967484824862],[-8.972449088895022,41.11999999999989],[-8.980000000000032,41.11309032151888],[-9.016132353218516,41.07999999999989],[-9.020000000000032,41.076455755118104],[-9.059750671181675,41.03999999999989],[-9.06000000000003,41.03977119475522],[-9.10000000000003,41.003037082547145],[-9.103304507033656,40.99999999999989],[-9.140000000000029,40.9662530955846],[-9.146794116540706,40.959999999999894],[-9.180000000000028,40.92941925326223],[-9.190219840323607,40.919999999999895],[-9.220000000000027,40.89253560585835],[-9.233582025887431,40.879999999999896],[-9.260000000000026,40.85560220479874],[-9.276881019557223,40.8399999999999],[-9.300000000000026,40.81861910266419],[-9.320117166484376,40.7999999999999],[-9.340000000000025,40.781586353198236],[-9.363290810653261,40.7599999999999],[-9.380000000000024,40.74450401131462],[-9.406402294887593,40.7199999999999],[-9.420000000000023,40.707372133104926],[-9.449451960856878,40.6799999999999],[-9.460000000000022,40.67019077584601],[-9.492440149082972,40.6399999999999],[-9.500000000000021,40.63295999800759],[-9.535367198946268,40.5999999999999],[-9.54000000000002,40.59567985925947],[-9.578233448692368,40.559999999999896],[-9.58000000000002,40.558350420479165],[-9.620000000000019,40.52097187350746],[-9.621039294354237,40.519999999999904],[-9.660000000000018,40.48354436657558],[-9.663785116467334,40.479999999999905],[-9.700000000000017,40.446067744442466],[-9.706471152596585,40.439999999999905],[-9.740000000000016,40.40854207291336],[-9.749097736213315,40.399999999999906],[-9.780000000000015,40.37096741903557],[-9.791665199688044,40.35999999999991],[-9.820000000000014,40.333343851105504],[-9.834173874296628,40.31999999999991],[-9.860000000000014,40.295671438675726],[-9.87662409022666,40.27999999999991],[-9.900000000000013,40.25795025256205],[-9.919016176583611,40.23999999999991],[-9.940000000000012,40.22018036485045],[-9.961350461397213,40.1999999999999],[-9.980000000000011,40.18236184890404],[-10.003627271627604,40.15999999999991],[-10.02000000000001,40.14449477936991],[-10.045846933171603,40.11999999999991],[-10.06000000000001,40.10657923218594],[-10.088009770868943,40.07999999999991],[-10.100000000000009,40.068615284587636],[-10.13011610850838,40.039999999999914],[-10.140000000000008,40.03060301511471],[-10.172166268833973,39.999999999999915],[-10.180000000000005,39.99254250361781],[-10.214160573551215,39.959999999999916],[-10.220000000000006,39.95443383126515],[-10.256099343333167,39.919999999999916],[-10.260000000000005,39.91627708054891],[-10.297982897826572,39.87999999999992],[-10.300000000000004,39.87807233529179],[-10.33981155565804,39.83999999999992],[-10.340000000000003,39.83981968065339],[-10.380000000000003,39.801519416408574],[-10.381585776902451,39.79999999999992],[-10.420000000000002,39.76317143707046],[-10.42330575361414,39.75999999999992],[-10.46,39.72477580659771],[-10.46497178453897,39.71999999999992],[-10.5,39.68633261554932]]}},{"type":"Feature","properties":{"magnitude":0.8,"percentagem":80.0,"territorio":"acores"},"geometry":{"type":"LineString","coordinates":[[-24.04000000000017,37.81349495503029],[-24.052209852748913,37.79999999999996],[-24.08000000000017,37.769283505168566],[-24.088398955426943,37.75999999999996],[-24.120000000000168,37.725069369889155],[-24.124586111235285,37.71999999999996],[-24.160000000000167,37.68085288424121],[-24.160771544549398,37.679999999999964],[-24.19695699908311,37.639999999999965],[-24.200000000000166,37.636636139513456],[-24.233141576546082,37.599999999999966],[-24.240000000000165,37.5924181725528],[-24.269325117662184,37.55999999999997],[-24.280000000000165,37.548198875384884],[-24.305507847048638,37.51999999999997],[-24.320000000000164,37.50397858397775],[-24.34168998942129,37.47999999999997],[-24.360000000000163,37.45975763451952],[-24.37787176959904,37.43999999999997],[-24.400000000000162,37.41553636340087],[-24.41405341250841,37.39999999999997],[-24.44000000000016,37.371315107197276],[-24.450235143187896,37.35999999999997],[-24.48000000000016,37.32709420265154],[-24.48641718679255,37.31999999999997],[-24.52000000000016,37.28287398665589],[-24.5225997685983,37.27999999999997],[-24.558783739124447,37.239999999999974],[-24.56000000000016,37.238655516345446],[-24.594970041663533,37.199999999999974],[-24.600000000000158,37.194439954901576],[-24.631157570316034,37.159999999999975],[-24.640000000000157,37.15022610522162],[-24.66734655075737,37.119999999999976],[-24.680000000000156,37.106014304444024],[-24.703537208804658,37.07999999999998],[-24.720000000000155,37.061804889764716],[-24.73972977042115,37.03999999999998],[-24.760000000000154,37.017598198419314],[-24.775924461720784,36.99999999999998],[-24.800000000000153,36.97339456766516],[-24.812121508972453,36.95999999999998],[-24.840000000000153,36.92919433476351],[-24.84832113860467,36.91999999999998],[-24.88000000000015,36.884997836961425],[-24.88452357720979,36.87999999999998],[-24.92000000000015,36.84080541147416],[-24.920729051548694,36.83999999999998],[-24.956939411246466,36.79999999999998],[-24.96000000000015,36.79661925775626],[-24.99315365588962,36.759999999999984],[-25.00000000000015,36.75243830291435],[-25.02937162743435,36.719999999999985],[-25.04000000000015,36.70826244156562],[-25.065593553214374,36.67999999999999],[-25.080000000000148,36.6640920104162],[-25.101819660752465,36.639999999999986],[-25.120000000000147,36.61992734604762],[-25.13805017776508,36.59999999999999],[-25.160000000000146,36.57576878489886],[-25.174285332166605,36.55999999999999],[-25.200000000000145,36.53161666324854],[-25.210525352074047,36.51999999999999],[-25.240000000000144,36.48747131719684],[-25.24677046581119,36.47999999999999],[-25.280000000000143,36.443333082647676],[-25.283020901913282,36.43999999999999],[-25.31927728286589,36.39999999999999],[-25.320000000000142,36.39920274547393],[-25.355541092578306,36.35999999999999],[-25.36000000000014,36.3550820750765],[-25.39181091990261,36.31999999999999],[-25.40000000000014,36.31096953050084],[-25.42808699410361,36.279999999999994],[-25.44000000000014,36.266865446461395],[-25.464369544678227,36.239999999999995],[-25.48000000000014,36.22277015738431],[-25.500658801359926,36.2],[-25.520000000000138,36.17868399738957],[-25.536954994123143,36.16],[-25.560000000000137,36.13460730027329],[-25.57325835318777,36.12],[-25.600000000000136,36.09054039948995],[-25.60956910902362,36.08],[-25.640000000000136,36.04648362813476],[-25.64588749235486,36.04],[-25.680000000000135,36.002437318925885],[-25.68221373416442,36.0]]}},{"type":"Feature","properties":{"magnitude":0.95,"percentagem":95.0,"territorio":"madeira"},"geometry":{"type":"LineString","coordinates":[[-16.773642409666156,29.5],[-16.760000000000026,29.51493874851485],[-16.737115291986655,29.54],[-16.720000000000027,29.558742092261443],[-16.700588729376403,29.58],[-16.680000000000028,29.602546077287176],[-16.664062497581327,29.619999999999997],[-16.64000000000003,29.646350380735647],[-16.627536372392395,29.659999999999997],[-16.60000000000003,29.69015467976734],[-16.591010129641262,29.699999999999996],[-16.56000000000003,29.733958651576128],[-16.55448354519612,29.739999999999995],[-16.52000000000003,29.777761973406136],[-16.517956394957466,29.779999999999994],[-16.48142906464964,29.81999999999999],[-16.480000000000032,29.8215648393587],[-16.44490158424407,29.85999999999999],[-16.440000000000033,29.86536714064178],[-16.408372853815013,29.89999999999999],[-16.400000000000034,29.909167811835616],[-16.37184264924924,29.93999999999999],[-16.360000000000035,29.95296653047066],[-16.335310746446247,29.97999999999999],[-16.320000000000036,29.996762974213823],[-16.29877692131402,30.01999999999999],[-16.280000000000037,30.04055682088498],[-16.262240949764763,30.059999999999988],[-16.240000000000038,30.084347748473647],[-16.225702607710677,30.099999999999987],[-16.20000000000004,30.128135435155585],[-16.18916167105973,30.139999999999986],[-16.16000000000004,30.171919559309224],[-16.1526179157113,30.179999999999986],[-16.12000000000004,30.215699799532327],[-16.11607111755202,30.219999999999985],[-16.08000000000004,30.259475834658417],[-16.079521052451483,30.259999999999984],[-16.042968706859025,30.299999999999983],[-16.040000000000042,30.30324836040377],[-16.006412829118553,30.339999999999982],[-16.000000000000043,30.347016191324453],[-15.969852998747434,30.37999999999998],[-15.960000000000043,30.39077884210272],[-15.93328899142148,30.41999999999998],[-15.920000000000044,30.43453599262722],[-15.896720582779562,30.45999999999998],[-15.880000000000045,30.478287323107047],[-15.860147548419295,30.49999999999998],[-15.840000000000046,30.522032514088004],[-15.823569663892727,30.539999999999978],[-15.800000000000047,30.565771246468795],[-15.786986704702045,30.579999999999977],[-15.760000000000048,30.6095032015172],[-15.750398446295218,30.619999999999976],[-15.720000000000049,30.653228060886192],[-15.713804664061728,30.659999999999975],[-15.68000000000005,30.696945506629955],[-15.677205133328162,30.699999999999974],[-15.6405998635419,30.739999999999974],[-15.640000000000049,30.74065541617291],[-15.603989478093931,30.779999999999973],[-15.600000000000051,30.78435817732438],[-15.56737265576379,30.819999999999972],[-15.560000000000052,30.82805255996606],[-15.530749171517447,30.85999999999997],[-15.520000000000053,30.871738247890345],[-15.494118800237771,30.89999999999997],[-15.480000000000052,30.915414925372914],[-15.457481316720294,30.93999999999997],[-15.440000000000055,30.959082277188585],[-15.420836495668784,30.97999999999997],[-15.400000000000055,31.00273998862685],[-15.38418411169085,31.019999999999968],[-15.360000000000056,31.046387745507502],[-15.347523939293605,31.059999999999967],[-15.320000000000057,31.090025234196077],[-15.310855752879238,31.099999999999966],[-15.280000000000058,31.133652141619372],[-15.274179326740688,31.139999999999965],[-15.240000000000059,31.177268155280682],[-15.237494435057148,31.179999999999964],[-15.200801149272001,31.219999999999963],[-15.20000000000006,31.22087320840928],[-15.164099866052773,31.259999999999962],[-15.16000000000006,31.264467501865145],[-15.127389424503006,31.29999999999996],[-15.120000000000061,31.30804995380711],[-15.090669598255731,31.33999999999996],[-15.080000000000062,31.351620254197236],[-15.053940160809706,31.37999999999996],[-15.040000000000063,31.39517809365217]]}},{"type":"Feature","properties":{"magnitude":0.99,"percentagem":99.0,"territorio":"madeira"},"geometry":{"type":"LineString","coordinates":[[-18.0,30.598161786390154],[-17.98002390308463,30.619999999999976],[-17.96,30.641889640644038],[-17.943434590461525,30.659999999999975],[-17.92,30.685619118993188],[-17.90684638480706,30.699999999999974],[-17.880000000000003,30.72934989905938],[-17.870259060589003,30.739999999999974],[-17.840000000000003,30.77308165845385],[-17.83367239234453,30.779999999999973],[-17.800000000000004,30.816814074793847],[-17.797086154675977,30.819999999999972],[-17.760500345726424,30.85999999999997],[-17.760000000000005,30.860547023615915],[-17.72391581233493,30.89999999999997],[-17.720000000000006,30.904281131092976],[-17.687331022316197,30.93999999999997],[-17.680000000000007,30.948014916952868],[-17.65074575038167,30.97999999999997],[-17.640000000000008,30.99174805890526],[-17.6141597712882,31.019999999999968],[-17.60000000000001,31.035480234752058],[-17.577572859833953,31.059999999999967],[-17.56000000000001,31.07921112240421],[-17.540984790854093,31.099999999999966],[-17.52000000000001,31.122940399898276],[-17.504395339216565,31.139999999999965],[-17.48000000000001,31.166667745413065],[-17.467804279817734,31.179999999999964],[-17.440000000000012,31.210392837286115],[-17.431211387578163,31.219999999999963],[-17.400000000000013,31.254115354030418],[-17.394616437438415,31.259999999999962],[-17.360000000000014,31.29783497435083],[-17.358019204354633,31.29999999999996],[-17.321420070976547,31.339999999999964],[-17.320000000000014,31.341551911957843],[-17.284819043429454,31.37999999999996],[-17.280000000000015,31.38526604828199],[-17.24821504532221,31.41999999999996],[-17.240000000000016,31.42897631298803],[-17.211607851539412,31.459999999999958],[-17.200000000000017,31.472682385643147],[-17.174997236961502,31.499999999999957],[-17.160000000000018,31.516383946091523],[-17.13838297646025,31.539999999999957],[-17.12000000000002,31.560080674470505],[-17.101764844894625,31.579999999999956],[-17.08000000000002,31.603772251226918],[-17.06514261710635,31.619999999999955],[-17.04000000000002,31.647458357133306],[-17.028516067915646,31.659999999999954],[-17.00000000000002,31.691138673304206],[-16.991884972116928,31.699999999999953],[-16.960000000000022,31.73481288121214],[-16.955249104474408,31.739999999999952],[-16.920000000000023,31.778480662703846],[-16.918608239717805,31.77999999999995],[-16.88196295550765,31.81999999999995],[-16.880000000000024,31.822142402049614],[-16.845312781970225,31.85999999999995],[-16.840000000000025,31.8657975668779],[-16.808656921759212,31.89999999999995],[-16.800000000000026,31.909445339899488],[-16.771995149349877,31.939999999999948],[-16.760000000000026,31.953085404576072],[-16.735327239162817,31.979999999999944],[-16.720000000000027,31.99671744482587],[-16.69865296555961,32.019999999999946],[-16.680000000000028,32.04034114503944],[-16.66197210283842,32.059999999999945],[-16.64000000000003,32.08395619009519],[-16.625284425229626,32.099999999999945],[-16.60000000000003,32.127562265375126],[-16.588589706891383,32.139999999999944],[-16.56000000000003,32.17115905678034],[-16.55188772190543,32.17999999999994],[-16.52000000000003,32.214746250746515],[-16.515178244272427,32.21999999999994],[-16.480000000000032,32.258323534259326],[-16.47846104790782,32.25999999999994],[-16.441736584022948,32.29999999999994],[-16.440000000000033,32.301891183194975],[-16.40500453789138,32.33999999999994],[-16.400000000000034,32.34544880777395],[-16.368264079973287,32.37999999999994],[-16.360000000000035,32.388995572548396],[-16.33151498374409,32.41999999999994],[-16.320000000000036,32.43253116684191],[-16.294757022573418,32.45999999999994],[-16.280000000000037,32.47605528060653],[-16.25798996972077,32.499999999999936],[-16.240000000000038,32.51956760443769],[-16.22121359833086,32.539999999999935],[-16.20000000000004,32.56306782958889],[-16.184427681429394,32.579999999999934],[-16.16000000000004,32.60655564798664],[-16.147631991918495,32.61999999999993],[-16.12000000000004,32.65003075224499],[-16.110826302572338,32.65999999999993],[-16.08000000000004,32.69349283568016],[-16.07401038603264,32.69999999999993],[-16.040000000000042,32.73694159232506],[-16.03718401480424,32.73999999999993],[-16.000347090002663,32.77999999999993],[-16.000000000000043,32.780376828067546],[-15.963500290090852,32.81999999999993],[-15.960000000000043,32.82379901991911],[-15.926642337364548,32.85999999999993],[-15.920000000000044,32.867206957602704],[-15.88977300370028,32.89999999999993],[-15.880000000000045,32.91060033817111],[-15.852892060816881,32.93999999999993],[-15.840000000000046,32.95397885946703],[-15.815999280271043,32.979999999999926],[-15.800000000000047,32.99734222013709],[-15.77909443345278,33.019999999999925],[-15.760000000000048,33.04069011964543],[-15.742177291580866,33.059999999999924],[-15.720000000000049,33.08402225828748],[-15.705247625698357,33.09999999999992],[-15.68000000000005,33.12733833720357],[-15.66830520666823,33.13999999999992],[-15.64000000000005,33.170638058392306],[-15.631349805168528,33.17999999999992],[-15.600000000000051,33.21392112472397],[-15.594381191688157,33.21999999999992],[-15.560000000000052,33.257187239953765],[-15.557399136522152,33.25999999999992],[-15.520403551010949,33.29999999999992],[-15.520000000000053,33.30043622991496],[-15.48339496377914,33.33999999999992],[-15.480000000000054,33.343668450623454],[-15.44637222943864,33.37999999999992],[-15.440000000000055,33.38688282313126],[-15.409335117448261,33.419999999999916],[-15.400000000000055,33.430079054898016],[-15.372283397051817,33.459999999999916],[-15.360000000000056,33.473256854334764],[-15.335216837273535,33.499999999999915],[-15.320000000000055,33.51641593081648],[-15.298135206913594,33.539999999999914],[-15.280000000000058,33.55955599469458],[-15.26103827454336,33.57999999999991],[-15.240000000000059,33.60267675730906],[-15.223925808500935,33.61999999999991],[-15.20000000000006,33.64577793100081],[-15.186797576886505,33.65999999999991],[-15.16000000000006,33.68885922912354],[-15.149653347557695,33.69999999999991],[-15.120000000000061,33.73192036605582],[-15.112492888125042,33.73999999999991],[-15.080000000000062,33.77496105721273],[-15.075315965947276,33.77999999999991]]}},{"type":"Feature","properties":{"magnitude":0.99,"percentagem":99.0,"territorio":"madeira"},"geometry":{"type":"LineString","coordinates":[[-16.211962448867233,33.77999999999991],[-16.240000000000038,33.749451220920115],[-16.248672995931933,33.73999999999991],[-16.280000000000037,33.70585312319261],[-16.28536898329085,33.69999999999991],[-16.320000000000036,33.662236446695275],[-16.322050637792824,33.65999999999991],[-16.358718637544357,33.61999999999991],[-16.360000000000035,33.61860188511285],[-16.395373492423158,33.57999999999991],[-16.400000000000034,33.57494998675872],[-16.432014709810247,33.539999999999914],[-16.440000000000033,33.53128042240315],[-16.4686425156996,33.499999999999915],[-16.480000000000032,33.48759349310577],[-16.505257135886605,33.459999999999916],[-16.52000000000003,33.4438895008498],[-16.541858795972466,33.419999999999916],[-16.56000000000003,33.40016874852843],[-16.578447721368747,33.37999999999992],[-16.60000000000003,33.356431539931435],[-16.615024137301866,33.33999999999992],[-16.64000000000003,33.31267817973122],[-16.65158826881744,33.29999999999992],[-16.680000000000028,33.2689089734692],[-16.68814034078492,33.25999999999992],[-16.720000000000027,33.22512422754172],[-16.724680577901893,33.21999999999992],[-16.760000000000026,33.181324249186154],[-16.76120920469864,33.17999999999992],[-16.7977272895261,33.13999999999992],[-16.800000000000026,33.137510090562145],[-16.834234675258223,33.09999999999992],[-16.840000000000025,33.09368172562624],[-16.870731139052804,33.059999999999924],[-16.880000000000024,33.049839070357315],[-16.907216904775108,33.019999999999925],[-16.920000000000023,33.005982435222556],[-16.94369219614368,32.979999999999926],[-16.960000000000022,32.962112131455854],[-16.980157236734687,32.93999999999993],[-17.00000000000002,32.91822847104306],[-17.016612249986377,32.89999999999993],[-17.04000000000002,32.874331766707165],[-17.053057459203433,32.85999999999993],[-17.08000000000002,32.83042233189357],[-17.08949308756145,32.81999999999993],[-17.12000000000002,32.78650048075498],[-17.1259193581112,32.77999999999993],[-17.160000000000018,32.742566528136464],[-17.162336493783158,32.73999999999993],[-17.19874520499285,32.69999999999993],[-17.200000000000017,32.69862122220689],[-17.235146145858803,32.65999999999993],[-17.240000000000016,32.65466526313984],[-17.271538635214192,32.61999999999993],[-17.280000000000015,32.61069816646543],[-17.307922895495146,32.57999999999993],[-17.320000000000014,32.5667202496297],[-17.344299149037735,32.539999999999935],[-17.360000000000014,32.52273183069164],[-17.380667618082278,32.499999999999936],[-17.400000000000013,32.47873322830766],[-17.417028524777688,32.45999999999994],[-17.440000000000012,32.43472476171587],[-17.45338209118586,32.41999999999994],[-17.48000000000001,32.39070675072031],[-17.48972853928586,32.37999999999994],[-17.52000000000001,32.346679515675255],[-17.526068090978434,32.33999999999994],[-17.56000000000001,32.302643377469174],[-17.562400968090238,32.29999999999994],[-17.59872790849049,32.25999999999994],[-17.600000000000012,32.258599118510894],[-17.635049602173748,32.21999999999994],[-17.640000000000008,32.214547480296886],[-17.67136530093452,32.17999999999994],[-17.680000000000007,32.17048791959068],[-17.70767522627323,32.139999999999944],[-17.720000000000006,32.12642075921537],[-17.743979599636333,32.099999999999945],[-17.760000000000005,32.08234632244502],[-17.780278642420363,32.059999999999945],[-17.800000000000004,32.038264932988255],[-17.816572575976423,32.019999999999946],[-17.840000000000003,31.99417691497189],[-17.852861621614327,31.979999999999947],[-17.880000000000003,31.950082592924545],[-17.88914600060687,31.939999999999948],[-17.92,31.905982291760164],[-17.925425934194205,31.89999999999995],[-17.96,31.861876336761437],[-17.961701643587958,31.85999999999995],[-17.997974206360052,31.81999999999995],[-18.0,31.81776582358343]]}}]}