{"type":"FeatureCollection","properties":{"largura_maxima_km":149.993,"largura_sobre_pt_km":147.892,"linha_central_sobre_pt":true,"desenhavel_como_area":true,"perfil_largura":[{"t":0.74444,"lat":25.0446,"lon":-38.8855,"largura_km":112.554,"eixo_na_terra":true},{"t":0.75,"lat":25.1489,"lon":-38.7544,"largura_km":112.707,"eixo_na_terra":true},{"t":0.75556,"lat":25.2535,"lon":-38.6224,"largura_km":112.862,"eixo_na_terra":true},{"t":0.76111,"lat":25.3582,"lon":-38.4894,"largura_km":113.017,"eixo_na_terra":true},{"t":0.76667,"lat":25.4632,"lon":-38.3554,"largura_km":113.174,"eixo_na_terra":true},{"t":0.77222,"lat":25.5683,"lon":-38.2204,"largura_km":113.332,"eixo_na_terra":true},{"t":0.77778,"lat":25.6737,"lon":-38.0843,"largura_km":113.491,"eixo_na_terra":true},{"t":0.78333,"lat":25.7793,"lon":-37.9472,"largura_km":113.651,"eixo_na_terra":true},{"t":0.78889,"lat":25.8851,"lon":-37.809,"largura_km":113.812,"eixo_na_terra":true},{"t":0.79444,"lat":25.9911,"lon":-37.6698,"largura_km":113.976,"eixo_na_terra":true},{"t":0.8,"lat":26.0973,"lon":-37.5294,"largura_km":114.141,"eixo_na_terra":true},{"t":0.80556,"lat":26.2038,"lon":-37.388,"largura_km":114.306,"eixo_na_terra":true},{"t":0.81111,"lat":26.3105,"lon":-37.2453,"largura_km":114.474,"eixo_na_terra":true},{"t":0.81667,"lat":26.4174,"lon":-37.1016,"largura_km":114.642,"eixo_na_terra":true},{"t":0.82222,"lat":26.5246,"lon":-36.9566,"largura_km":114.811,"eixo_na_terra":true},{"t":0.82778,"lat":26.632,"lon":-36.8105,"largura_km":114.982,"eixo_na_terra":true},{"t":0.83333,"lat":26.7396,"lon":-36.6632,"largura_km":115.155,"eixo_na_terra":true},{"t":0.83889,"lat":26.8475,"lon":-36.5146,"largura_km":115.33,"eixo_na_terra":true},{"t":0.84444,"lat":26.9556,"lon":-36.3648,"largura_km":115.505,"eixo_na_terra":true},{"t":0.85,"lat":27.0639,"lon":-36.2137,"largura_km":115.683,"eixo_na_terra":true},{"t":0.85556,"lat":27.1725,"lon":-36.0613,"largura_km":115.861,"eixo_na_terra":true},{"t":0.86111,"lat":27.2814,"lon":-35.9075,"largura_km":116.041,"eixo_na_terra":true},{"t":0.86667,"lat":27.3905,"lon":-35.7525,"largura_km":116.222,"eixo_na_terra":true},{"t":0.87222,"lat":27.4998,"lon":-35.596,"largura_km":116.404,"eixo_na_terra":true},{"t":0.87778,"lat":27.6095,"lon":-35.4382,"largura_km":116.589,"eixo_na_terra":true},{"t":0.88333,"lat":27.7194,"lon":-35.279,"largura_km":116.776,"eixo_na_terra":true},{"t":0.88889,"lat":27.8295,"lon":-35.1183,"largura_km":116.963,"eixo_na_terra":true},{"t":0.89444,"lat":27.9399,"lon":-34.9562,"largura_km":117.153,"eixo_na_terra":true},{"t":0.9,"lat":28.0506,"lon":-34.7925,"largura_km":117.344,"eixo_na_terra":true},{"t":0.90556,"lat":28.1616,"lon":-34.6274,"largura_km":117.536,"eixo_na_terra":true},{"t":0.91111,"lat":28.2729,"lon":-34.4607,"largura_km":117.731,"eixo_na_terra":true},{"t":0.91667,"lat":28.3844,"lon":-34.2924,"largura_km":117.928,"eixo_na_terra":true},{"t":0.92222,"lat":28.4962,"lon":-34.1225,"largura_km":118.126,"eixo_na_terra":true},{"t":0.92778,"lat":28.6083,"lon":-33.951,"largura_km":118.326,"eixo_na_terra":true},{"t":0.93333,"lat":28.7207,"lon":-33.7778,"largura_km":118.527,"eixo_na_terra":true},{"t":0.93889,"lat":28.8334,"lon":-33.6029,"largura_km":118.73,"eixo_na_terra":true},{"t":0.94444,"lat":28.9465,"lon":-33.4263,"largura_km":118.935,"eixo_na_terra":true},{"t":0.95,"lat":29.0598,"lon":-33.2479,"largura_km":119.141,"eixo_na_terra":true},{"t":0.95556,"lat":29.1734,"lon":-33.0677,"largura_km":119.35,"eixo_na_terra":true},{"t":0.96111,"lat":29.2873,"lon":-32.8856,"largura_km":119.561,"eixo_na_terra":true},{"t":0.96667,"lat":29.4016,"lon":-32.7017,"largura_km":119.774,"eixo_na_terra":true},{"t":0.97222,"lat":29.5162,"lon":-32.5158,"largura_km":119.989,"eixo_na_terra":true},{"t":0.97778,"lat":29.6311,"lon":-32.328,"largura_km":120.206,"eixo_na_terra":true},{"t":0.98333,"lat":29.7464,"lon":-32.1382,"largura_km":120.426,"eixo_na_terra":true},{"t":0.98889,"lat":29.862,"lon":-31.9463,"largura_km":120.647,"eixo_na_terra":true},{"t":0.99444,"lat":29.9779,"lon":-31.7524,"largura_km":120.871,"eixo_na_terra":true},{"t":1.0,"lat":30.0942,"lon":-31.5563,"largura_km":121.097,"eixo_na_terra":true},{"t":1.00556,"lat":30.2109,"lon":-31.358,"largura_km":121.324,"eixo_na_terra":true},{"t":1.01111,"lat":30.3279,"lon":-31.1575,"largura_km":121.554,"eixo_na_terra":true},{"t":1.01667,"lat":30.4453,"lon":-30.9548,"largura_km":121.786,"eixo_na_terra":true},{"t":1.02222,"lat":30.5631,"lon":-30.7496,"largura_km":122.02,"eixo_na_terra":true},{"t":1.02778,"lat":30.6812,"lon":-30.5421,"largura_km":122.257,"eixo_na_terra":true},{"t":1.03333,"lat":30.7997,"lon":-30.3322,"largura_km":122.497,"eixo_na_terra":true},{"t":1.03889,"lat":30.9186,"lon":-30.1198,"largura_km":122.739,"eixo_na_terra":true},{"t":1.04444,"lat":31.038,"lon":-29.9048,"largura_km":122.984,"eixo_na_terra":true},{"t":1.05,"lat":31.1577,"lon":-29.6871,"largura_km":123.233,"eixo_na_terra":true},{"t":1.05556,"lat":31.2778,"lon":-29.4668,"largura_km":123.484,"eixo_na_terra":true},{"t":1.06111,"lat":31.3984,"lon":-29.2437,"largura_km":123.737,"eixo_na_terra":true},{"t":1.06667,"lat":31.5194,"lon":-29.0178,"largura_km":123.993,"eixo_na_terra":true},{"t":1.07222,"lat":31.6409,"lon":-28.789,"largura_km":124.251,"eixo_na_terra":true},{"t":1.07778,"lat":31.7628,"lon":-28.5572,"largura_km":124.512,"eixo_na_terra":true},{"t":1.08333,"lat":31.8851,"lon":-28.3224,"largura_km":124.776,"eixo_na_terra":true},{"t":1.08889,"lat":32.0079,"lon":-28.0844,"largura_km":125.043,"eixo_na_terra":true},{"t":1.09444,"lat":32.1312,"lon":-27.8431,"largura_km":125.314,"eixo_na_terra":true},{"t":1.1,"lat":32.255,"lon":-27.5986,"largura_km":125.588,"eixo_na_terra":true},{"t":1.10556,"lat":32.3793,"lon":-27.3506,"largura_km":125.867,"eixo_na_terra":true},{"t":1.11111,"lat":32.5041,"lon":-27.0992,"largura_km":126.149,"eixo_na_terra":true},{"t":1.11667,"lat":32.6294,"lon":-26.8441,"largura_km":126.435,"eixo_na_terra":true},{"t":1.12222,"lat":32.7552,"lon":-26.5853,"largura_km":126.723,"eixo_na_terra":true},{"t":1.12778,"lat":32.8816,"lon":-26.3226,"largura_km":127.015,"eixo_na_terra":true},{"t":1.13333,"lat":33.0085,"lon":-26.056,"largura_km":127.31,"eixo_na_terra":true},{"t":1.13889,"lat":33.136,"lon":-25.7854,"largura_km":127.609,"eixo_na_terra":true},{"t":1.14444,"lat":33.2641,"lon":-25.5105,"largura_km":127.912,"eixo_na_terra":true},{"t":1.15,"lat":33.3928,"lon":-25.2312,"largura_km":128.219,"eixo_na_terra":true},{"t":1.15556,"lat":33.5221,"lon":-24.9475,"largura_km":128.532,"eixo_na_terra":true},{"t":1.16111,"lat":33.6521,"lon":-24.6591,"largura_km":128.851,"eixo_na_terra":true},{"t":1.16667,"lat":33.7827,"lon":-24.3659,"largura_km":129.173,"eixo_na_terra":true},{"t":1.17222,"lat":33.9139,"lon":-24.0677,"largura_km":129.5,"eixo_na_terra":true},{"t":1.17778,"lat":34.0459,"lon":-23.7643,"largura_km":129.832,"eixo_na_terra":true},{"t":1.18333,"lat":34.1785,"lon":-23.4556,"largura_km":130.168,"eixo_na_terra":true},{"t":1.18889,"lat":34.3119,"lon":-23.1413,"largura_km":130.509,"eixo_na_terra":true},{"t":1.19444,"lat":34.446,"lon":-22.8212,"largura_km":130.854,"eixo_na_terra":true},{"t":1.2,"lat":34.5809,"lon":-22.4951,"largura_km":131.206,"eixo_na_terra":true},{"t":1.20556,"lat":34.7166,"lon":-22.1627,"largura_km":131.566,"eixo_na_terra":true},{"t":1.21111,"lat":34.8532,"lon":-21.8238,"largura_km":131.933,"eixo_na_terra":true},{"t":1.21667,"lat":34.9906,"lon":-21.4781,"largura_km":132.305,"eixo_na_terra":true},{"t":1.22222,"lat":35.1289,"lon":-21.1253,"largura_km":132.684,"eixo_na_terra":true},{"t":1.22778,"lat":35.2681,"lon":-20.765,"largura_km":133.07,"eixo_na_terra":true},{"t":1.23333,"lat":35.4082,"lon":-20.3969,"largura_km":133.462,"eixo_na_terra":true},{"t":1.23889,"lat":35.5494,"lon":-20.0207,"largura_km":133.861,"eixo_na_terra":true},{"t":1.24444,"lat":35.6916,"lon":-19.6359,"largura_km":134.269,"eixo_na_terra":true},{"t":1.25,"lat":35.8349,"lon":-19.242,"largura_km":134.686,"eixo_na_terra":true},{"t":1.25556,"lat":35.9793,"lon":-18.8386,"largura_km":135.113,"eixo_na_terra":true},{"t":1.26111,"lat":36.125,"lon":-18.4252,"largura_km":135.55,"eixo_na_terra":true},{"t":1.26667,"lat":36.2718,"lon":-18.0011,"largura_km":135.995,"eixo_na_terra":true},{"t":1.27222,"lat":36.42,"lon":-17.5658,"largura_km":136.451,"eixo_na_terra":true},{"t":1.27778,"lat":36.5695,"lon":-17.1185,"largura_km":136.917,"eixo_na_terra":true},{"t":1.28333,"lat":36.7205,"lon":-16.6585,"largura_km":137.397,"eixo_na_terra":true},{"t":1.28889,"lat":36.8731,"lon":-16.1849,"largura_km":137.889,"eixo_na_terra":true},{"t":1.29444,"lat":37.0273,"lon":-15.6967,"largura_km":138.394,"eixo_na_terra":true},{"t":1.3,"lat":37.1832,"lon":-15.1929,"largura_km":138.913,"eixo_na_terra":true},{"t":1.30556,"lat":37.341,"lon":-14.6721,"largura_km":139.449,"eixo_na_terra":true},{"t":1.31111,"lat":37.5008,"lon":-14.1331,"largura_km":140.002,"eixo_na_terra":true},{"t":1.31667,"lat":37.6628,"lon":-13.5743,"largura_km":140.575,"eixo_na_terra":true},{"t":1.32222,"lat":37.827,"lon":-12.9937,"largura_km":141.167,"eixo_na_terra":true},{"t":1.32778,"lat":37.9939,"lon":-12.3894,"largura_km":141.78,"eixo_na_terra":true},{"t":1.33333,"lat":38.1635,"lon":-11.7586,"largura_km":142.416,"eixo_na_terra":true},{"t":1.33889,"lat":38.3362,"lon":-11.0986,"largura_km":143.08,"eixo_na_terra":true},{"t":1.34444,"lat":38.5123,"lon":-10.4057,"largura_km":143.777,"eixo_na_terra":true},{"t":1.35,"lat":38.6923,"lon":-9.6754,"largura_km":144.509,"eixo_na_terra":true},{"t":1.35556,"lat":38.8766,"lon":-8.9024,"largura_km":145.277,"eixo_na_terra":true},{"t":1.36111,"lat":39.066,"lon":-8.0797,"largura_km":146.094,"eixo_na_terra":true},{"t":1.36667,"lat":39.2613,"lon":-7.1983,"largura_km":146.963,"eixo_na_terra":true},{"t":1.37222,"lat":39.4636,"lon":-6.246,"largura_km":147.892,"eixo_na_terra":true},{"t":1.37778,"lat":39.6746,"lon":-5.2058,"largura_km":148.902,"eixo_na_terra":true},{"t":1.38333,"lat":39.8967,"lon":-4.0523,"largura_km":149.993,"eixo_na_terra":true},{"t":1.38889,"lat":40.4643,"lon":-0.5693,"largura_km":null,"eixo_na_terra":false},{"t":1.39444,"lat":40.5412,"lon":-0.0399,"largura_km":null,"eixo_na_terra":false},{"t":1.4,"lat":40.7036,"lon":1.1856,"largura_km":null,"eixo_na_terra":false},{"t":1.40556,"lat":40.7599,"lon":1.6513,"largura_km":null,"eixo_na_terra":false},{"t":1.41111,"lat":40.7962,"lon":1.9885,"largura_km":null,"eixo_na_terra":false},{"t":1.41667,"lat":40.865,"lon":2.6117,"largura_km":null,"eixo_na_terra":false},{"t":1.42222,"lat":40.9928,"lon":3.541,"largura_km":null,"eixo_na_terra":false},{"t":1.42778,"lat":41.0849,"lon":4.676,"largura_km":null,"eixo_na_terra":false}]},"features":[{"type":"Feature","properties":{},"geometry":{"type":"Polygon","coordinates":[[[-38.83733018342039,25.758226198688025],[-38.433179744787765,26.076278335162744],[-38.1585298761737,26.289423755911173],[-37.59610476573695,26.718464801229562],[-37.30804296488134,26.9344000801381],[-37.004167421484226,27.159373042036556],[-36.70623306303213,27.377327866795447],[-36.40319448157567,27.596299689369445],[-36.09487421260988,27.81631239420896],[-35.781085715542986,28.037390925980965],[-35.4616327065749,28.259561361922326],[-35.13630842742674,28.482850990922056],[-34.79236862132501,28.71564441417771],[-34.45440833520405,28.94132496746387],[-33.935065273234784,29.282126645968557],[-33.58018617992104,29.510897335432663],[-33.21806040958916,29.740965231839446],[-32.64647445450754,30.097221832889726],[-32.264588243456245,30.330779205737464],[-31.87430718564599,30.565778139176064],[-31.272317652616465,30.921081416936545],[-30.649210046685,31.279901520451652],[-29.987025074912196,31.65145979015413],[-29.31629307638272,32.01803024322847],[-28.854633988368136,32.26469688543983],[-28.61922106740758,32.388743379752334],[-28.13880842916882,32.638311727870416],[-27.875117562321293,32.773186251329555],[-27.37382321647462,33.02595306770036],[-27.117747868525612,33.153147774217906],[-26.594190213616884,33.4092226777566],[-26.326471368217994,33.538129749453255],[-25.778516879334575,33.79775509072993],[-25.498006494443104,33.92850424298681],[-24.90128960149866,34.20179639838096],[-24.30621980290573,34.46811954216342],[-23.69014746694998,34.73733882540923],[-23.05144162039241,35.00963314307467],[-22.36294245480275,35.295482558251166],[-22.0210266259557,35.43465224018975],[-21.31602113989041,35.71575370527796],[-20.580574574568914,36.000774442951375],[-20.200508703164076,36.144853284868944],[-19.78222002875887,36.30081068011271],[-19.383425142770477,36.44725743387267],[-18.974843066996954,36.59491499295147],[-18.55592127480432,36.743841323796744],[-18.126054115670087,36.894099765547786],[-17.68457535803691,37.04575977516245],[-17.230749327738152,37.198897812075906],[-16.728344543529488,37.365076428509155],[-16.24620639215388,37.52158672807045],[-15.748899022697259,37.679867303226864],[-15.235267677708492,37.84003676924091],[-14.704004588358913,38.0022290689726],[-14.111778667637878,38.178756780104955],[-13.538943442438807,38.34568577511353],[-12.943131212239223,38.5151829811455],[-12.32199769239918,38.68748590409112],[-11.672772366567841,38.86287448352376],[-10.94015134188112,39.0549200578778],[-10.22128958815702,39.23789050514098],[-9.461629704592838,39.42522533280034],[-8.654826073719278,39.61755942179925],[-7.726240615493566,39.830425144010924],[-6.7924874939101585,40.03608279947125],[-5.776228108113969,40.25026298360806],[-4.567185533284174,40.49203306739084],[-3.2943559259443873,40.73241374993678],[-3.305389279413833,40.71547408876989],[-2.9400788706564356,40.789337741928854],[-2.7260441713941646,40.830749255719184],[-2.2820761865926613,40.9127243208101],[-1.8163781406085775,40.993451082105096],[-1.5751229785807368,41.03331108326324],[-1.1222409504465203,41.104683663878205],[-0.5909217243688829,41.19474771795158],[-0.005501654918333543,41.28773516499226],[0.30461802723763753,41.334611738937646],[0.99646124494081,41.43380822531815],[1.63788291121719,41.5300598116476],[2.0556199643086472,41.58957037400195],[2.509013456130077,41.65172441517414],[3.008468321488067,41.717524395448315],[3.5712305749606514,41.788648042789085],[4.8764771403390625,41.945060420192895],[6.141220369058942,42.088801319447484],[6.146312035169855,42.08102809770363],[6.431212741077502,42.111761770805074],[7.463699297311393,40.87419156176944],[6.971196020186104,40.821714154328156],[7.011363798931086,40.76039178079828],[6.317942974147952,40.68717985315893],[6.330003789561658,40.66423341798918],[5.131346604152014,40.53872447835685],[4.347704335476067,40.45168326345272],[3.0252968367641055,40.298140110128],[2.3663075820770416,40.21097615488927],[0.5547182754448202,39.96594945224872],[-0.5030860926007392,39.803626596566176],[-1.2259936161953089,39.69539915418611],[-2.1166075305100094,39.545222985117306],[-2.6800782752782433,39.45433776621119],[-3.090929111587201,39.37868873110935],[-3.4725234427241958,39.31048264198373],[-3.8365638370598276,39.24767676829909],[-4.312111700884089,39.169839141421676],[-4.3215873417059925,39.15529105816605],[-5.4185614793468915,38.94437128803371],[-6.414642807698783,38.74294791653137],[-7.3310614772272515,38.54908660374549],[-8.182499706420145,38.361446758009805],[-8.979614021113946,38.17905323432216],[-9.730430594404652,38.001169935967],[-10.441174084420993,37.827224674858996],[-11.067652279496514,37.669542529142824],[-11.714326194412507,37.501937331353126],[-12.332946950075154,37.33716191365452],[-12.926304657591118,37.17495720041837],[-13.496756358474329,37.01510376792839],[-14.046314803563916,36.857413753983074],[-14.576715105635685,36.701724779017255],[-15.089465655853559,36.54789529867504],[-15.549461418534179,36.40721856306608],[-16.031802291280144,36.25660514850451],[-16.4999401605576,36.10752689249711],[-16.954804795598506,35.959895528137785],[-17.397229526908006,35.813631712613926],[-17.827964723307787,35.66866379039438],[-18.247688937823398,35.524926769492986],[-19.027078450693182,35.25154470863357],[-19.41792203649655,35.111064677327974],[-19.799882013250425,34.97161083747251],[-20.53885940553957,34.69561537775756],[-21.247109075366865,34.42325542578228],[-21.590556982733148,34.28835558716434],[-22.23318929058871,34.03098954349314],[-22.87636426891723,33.766497246354696],[-23.496632660429015,33.504866624197774],[-23.79870641831647,33.37507112300958],[-24.387685806311566,33.11742322842378],[-24.67494065566254,32.98953527436964],[-25.215200120059848,32.74506947170436],[-25.75940105911579,32.49325349007435],[-26.287383630573316,32.24361795931844],[-26.54559957795746,32.11958588848722],[-27.051043848518816,31.873034038920768],[-27.29848199199239,31.750492118936386],[-27.783280155767073,31.50682431877316],[-28.003231269595602,31.39477362497281],[-28.46947325656987,31.15371976224216],[-29.146772725030985,30.795344427920806],[-29.79933253927001,30.440626511783965],[-30.413550133407455,30.098136497236585],[-31.02220186686452,29.750055268055412],[-31.610814161716036,29.40511080387878],[-31.99272382231763,29.1768184293139],[-32.36664328423274,28.94981571764282],[-32.899895423037094,28.620076396798684],[-33.25547138800033,28.39607129848956],[-33.60410441248479,28.17323445024639],[-33.94605848842565,27.951534592778646],[-34.281582854347505,27.730942008311487],[-34.61091312882229,27.51142840872918],[-34.93427233449404,27.29296683424875],[-35.24017515716383,27.083660498230106],[-35.55240615206381,26.86717056317505],[-35.85926167023075,26.65166015885148],[-36.16092314840492,26.43710674830881],[-36.45756327201474,26.22348874020064],[-36.74934655915072,26.010785430008976],[-37.036429895541005,25.798976946047702],[-37.31896302546818,25.5880441997722],[-37.86084861572843,25.176520804612935],[-38.13070502270409,24.968061061321748],[-38.5279926630559,24.65688016841349],[-39.242200135535995,25.43433822852442],[-38.83733018342039,25.758226198688025]]]}}]}