{"type":"FeatureCollection","features":[{"type":"Feature","properties":{"t_inicio":0.7444444444444276,"t_fim":1.4055555555555364},"geometry":{"type":"LineString","coordinates":[[-38.88547456305756,25.04462445305649],[-38.754428242016076,25.1489492242965],[-38.62241004063111,25.253478686840484],[-38.489405098724205,25.35821487314556],[-38.35539824038614,25.463159852762125],[-38.220373964364626,25.568315733363896],[-38.08431643407582,25.673684661816637],[-37.94720946722083,25.77926882528746],[-37.80903652498873,25.885070452396693],[-37.66978070082473,25.991091814414272],[-37.52942470874291,26.097335226502803],[-37.38795087116026,26.20380304900974],[-37.24534110622716,26.3104976888109],[-37.1015769146299,26.417421600708177],[-36.95663936583696,26.524577288883613],[-36.81050908376028,26.631967308413607],[-36.663166231801284,26.739594266845444],[-36.51459049724838,26.84746082583992],[-36.36476107499169,26.95556970288334],[-36.213656650517635,27.063923673072754],[-36.061255382144225,27.17252557097806],[-35.90753488245548,27.28137829258541],[-35.75247219888945,27.3904847973262],[-35.59604379343318,27.49984811019642],[-35.43822552137294,27.609471323971633],[-35.278992609045815,27.719357601522344],[-35.11831963053467,27.829510178236507],[-34.956180483243855,27.939932364554284],[-34.79254836228998,28.050627548622337],[-34.62739573363575,28.161599199074526],[-34.460694305891366,28.27285086794641],[-34.29241500070083,28.384386193731746],[-34.12252792162616,28.496208904589693],[-33.95100232143437,28.608322821712065],[-33.7778065676863,28.720731862860426],[-33.602908106517845,28.833440046084057],[-33.426273424496,28.946451493630356],[-33.247868008423154,29.059770436059683],[-33.067656302952685,29.17340121657903],[-32.88560166586839,29.287348295607984],[-32.70166632086793,29.40161625559339],[-32.515811307678064,29.516209806089478],[-32.32799642931437,29.631133789121584],[-32.138180196282974,29.746393184853577],[-31.94631976750432,29.861993117580532],[-31.752370887720446,29.977938862069927],[-31.556287821125892,30.09423585027668],[-31.35802328093942,30.210889678460116],[-31.157528354609042,30.32790611473232],[-30.95475242431371,30.44529110707141],[-30.749643082394897,30.56305079183498],[-30.54214604131684,30.68119150281321],[-30.332205037714914,30.799719780864596],[-30.119761730051437,30.918642384180743],[-29.904755589348383,31.03796629923262],[-29.687123782415767,31.157698752454063],[-29.466801046935757,31.277847222725413],[-29.243719557694362,31.39841945472578],[-29.01780878318317,31.51942347322956],[-28.78899533170633,31.64086759843128],[-28.557202786039284,31.76276046239121],[-28.32235152557783,31.88511102670479],[-28.084358534800316,32.007928601509754],[-27.843137196730538,32.13122286595855],[-27.59859706993953,32.25500389029707],[-27.350643647449715,32.37928215970843],[-27.099178095713313,32.50406860009864],[-26.844096971609304,32.62937460602242],[-26.585291915152254,32.755212070972505],[-26.32264931531128,32.88159342028348],[-26.056049946002275,33.00853164693335],[-25.785368568930295,33.1360403505637],[-25.51047349951034,33.26413378008152],[-25.231226131578126,33.39282688025641],[-24.947480415998882,33.522135342783656],[-24.659082287582407,33.65207566235152],[-24.365869033890107,33.7826651983296],[-24.0676685985583,33.9139222427873],[-23.764298810627565,34.045866095659825],[-23.45556653002953,34.178517148007636],[-23.141266697791934,34.3118969744667],[-22.82118127763181,34.44602843616874],[-22.495078073341972,34.58093579562568],[-22.16270940365851,34.71664484533375],[-21.82381061301379,34.85318305216423],[-21.478098392602533,34.99057971998937],[-21.125268881336467,35.12886617345312],[-20.764995510319977,35.26807596636425],[-20.39692654715236,35.40824511888694],[-20.020682287278134,35.5494123885699],[-19.63585182826992,35.6916195813342],[-19.24198934868383,35.83491190989613],[-18.83860979510186,35.979338408816645],[-18.425183857985672,36.12495241755472],[-18.001132087407,36.27181214571256],[-17.56581796137479,36.419981338303856],[-17.11853966926816,36.56953006364562],[-16.65852030646502,36.720535652779766],[-16.184896087425273,36.873083827760645],[-15.696702064274149,37.027270067548436],[-15.192854673135969,37.18320127587355],[-14.672130201371516,37.34099783715117],[-14.133137945465137,37.50079617716384],[-13.574286365000262,37.662751989199236],[-12.993739859056177,37.82704435061365],[-12.389362777341034,37.993881050735546],[-11.75864572894153,38.16350559756712],[-11.098606821746955,38.336206600452066],[-10.405656541416192,38.51233059670801],[-9.67540842429608,38.692300009342816],[-8.902406296960635,38.87663899761894],[-8.079718170978737,39.06601191434946],[-7.198307206001232,39.261282826708765],[-6.246008912204445,39.463612218241785],[-5.205763397424818,39.67462399037876],[-4.052307517873032,39.896717708194686],[-2.745278237490595,40.13371908585258],[-1.212377489137424,40.39246655746574],[0.7038516992277835,40.68782288125342],[3.5407780696102975,41.07040216605335]]}}]}