{"type":"FeatureCollection","features":[{"type":"Feature","properties":{"magnitude":0.5,"de":0.5,"ate":0.8,"percentagem":50.0},"geometry":{"type":"MultiPolygon","coordinates":[[[[-17.519999999999357,30.00158764541832],[-14.219999999999231,31.158825348343875],[-10.799999999999102,32.19504672825188],[-7.259999999998968,33.11216714982823],[-3.5399999999988268,33.92360570226265],[-3.5399999999988268,30.0],[-17.519999999999357,30.00158764541832]]],[[[-34.5,35.65271500854453],[-34.5,44.939999999999685],[-9.740334895408186,44.939999999999685],[-13.13999999999919,44.12579234313661],[-16.439999999999316,43.22188932745326],[-19.619999999999436,42.23415320441298],[-22.739999999999554,41.14174786202118],[-25.55999999999966,40.0377777690715],[-28.319999999999766,38.838145542039236],[-29.939999999999827,38.073843688474646],[-31.499999999999886,37.29233663499367],[-32.99999999999994,36.495987164382264],[-34.5,35.65271500854453]]]]}},{"type":"Feature","properties":{"magnitude":0.8,"de":0.8,"ate":0.95,"percentagem":80.0},"geometry":{"type":"MultiPolygon","coordinates":[[[[-29.45999999999981,30.007557791896147],[-26.639999999999702,31.50250969417354],[-23.69999999999959,32.890432766777046],[-20.639999999999475,34.17135513145524],[-17.476519161609676,35.33999999999989],[-14.15999999999923,36.41412210509346],[-10.739999999999098,37.37709162810859],[-7.1999999999989654,38.23499749511579],[-3.5399999999988268,38.98794814767658],[-3.5399999999988268,33.92360570226265],[-7.259999999998968,33.11216714982823],[-10.799999999999102,32.19504672825188],[-14.219999999999231,31.15882534834388],[-17.524217762719246,30.0],[-29.45999999999981,30.007557791896147]]],[[[-34.5,30.0],[-34.5,35.65271500854453],[-32.09999999999991,36.9792387976282],[-29.639999999999816,38.218922057292865],[-27.779999999999745,39.082735164852224],[-25.859999999999673,39.91331633622062],[-23.879999999999598,40.70947563576236],[-21.83999999999952,41.47016952470126],[-19.73999999999944,42.194479088022504],[-17.63999999999936,42.863247561883234],[-15.47999999999928,43.49702937637199],[-13.259999999999195,44.094947463421754],[-9.740334895408186,44.939999999999685],[-3.5399999999988268,44.939999999999685],[-3.5399999999988268,40.99581745989612],[-5.639999999998906,40.60423244268054],[-7.739999999998986,40.17172227516443],[-9.779999999999063,39.71018932390359],[-11.81999999999914,39.20549598373148],[-13.799999999999216,38.67188101885546],[-15.719999999999288,38.1107065452083],[-17.57999999999936,37.52341712960271],[-19.43999999999943,36.890386065552484],[-21.419999999999504,36.16280687924222],[-23.339999999999577,35.400550555846166],[-25.199999999999648,34.60483166566637],[-26.999999999999716,33.77702167280654],[-28.79999999999978,32.88801660325325],[-30.53999999999985,31.96594853907301],[-32.219999999999914,31.012631431447623],[-33.88815541779935,30.0],[-34.5,30.0]]]]}},{"type":"Feature","properties":{"magnitude":0.95,"de":0.95,"ate":0.99,"percentagem":95.0},"geometry":{"type":"Polygon","coordinates":[[[-33.88815541779935,30.0],[-29.473462720169152,30.0],[-26.699999999999704,31.472442036341544],[-23.759999999999593,32.86371317781685],[-20.699999999999477,34.147719844843735],[-17.519999999999357,35.324933010095016],[-14.219999999999231,36.39596404680239],[-10.799999999999102,37.361375388357466],[-7.1999999999989654,38.234997495115785],[-3.5399999999988268,38.98794814767658],[-3.5399999999988268,40.99581745989612],[-5.759999999998911,40.580641027707216],[-7.919999999998993,40.132672000505224],[-10.079999999999075,39.638736934351],[-12.179999999999154,39.1117577782249],[-14.219999999999231,38.552895636035466],[-16.199999999999307,37.96336890079215],[-18.17999999999938,37.324351798600674],[-20.099999999999454,36.654199306575336],[-21.959999999999525,35.954245165544435],[-23.774180554418678,35.219999999999885],[-25.55999999999966,34.443950360410874],[-27.299999999999727,33.63322780794793],[-28.97999999999979,32.79556907346132],[-30.659999999999854,31.899964160735685],[-32.279999999999916,30.977379190964488],[-33.88815541779935,30.0]]]}}]}