{"type":"FeatureCollection","features":[{"type":"Feature","properties":{"magnitude":0.2,"de":0.2,"ate":0.5,"percentagem":20.0},"geometry":{"type":"Polygon","coordinates":[[[-34.5,30.0],[-3.5399999999988268,30.0],[-3.5399999999988263,30.359913038479913],[-5.4599999999988995,30.266881689221332],[-7.31999999999897,30.248080738032797],[-9.119999999999038,30.30116044172962],[-10.919999999999106,30.428064904930913],[-12.719999999999175,30.63169419799455],[-14.45999999999924,30.90326256785156],[-16.25999999999931,31.262231601901583],[-18.059999999999377,31.69993421444061],[-19.799999999999443,32.19591064012107],[-21.59999999999951,32.78090033892265],[-23.45999999999958,33.45699519406024],[-25.379999999999654,34.224067638949464],[-27.405582162869067,35.099999999999895],[-29.51999999999981,36.07563396568088],[-31.833813616311943,37.19999999999985],[-34.5,38.548481879865626],[-34.5,30.0]]]}},{"type":"Feature","properties":{"magnitude":0.5,"de":0.5,"ate":0.8,"percentagem":50.0},"geometry":{"type":"Polygon","coordinates":[[[-9.09633726841489,30.299999999999994],[-7.739999999998986,30.254049755139345],[-6.359999999998934,30.248710773383365],[-3.5399999999988263,30.359913038479913],[-3.5399999999988268,44.939999999999685],[-34.5,44.939999999999685],[-34.5,38.548481879865626],[-30.359999999999843,36.47778350160813],[-26.87999999999971,34.866727415518646],[-23.69999999999959,33.54919598465153],[-22.199999999999534,32.991335783881205],[-20.699999999999477,32.47953637421908],[-19.19999999999942,32.01696944003426],[-17.75999999999937,31.621580731080865],[-16.31999999999931,31.275566792216644],[-14.879999999999256,30.979931256766942],[-13.439999999999202,30.735091432471638],[-11.999999999999147,30.540881022871762],[-10.559999999999093,30.39663193424657],[-9.09633726841489,30.299999999999994]]]}}]}