{"type":"FeatureCollection","features":[{"type":"Feature","properties":{"t_inicio":-1.4111111111111203,"t_fim":-1.3500000000000094},"geometry":{"type":"LineString","coordinates":[[-3.8180284523130013,49.749432699067896],[-2.72482414938861,49.24860780733574],[-1.7430823829268434,48.78698663393164],[-0.8481378317287067,48.35616870605987],[-0.02318309450106426,47.95040655359256],[0.7438387917364935,47.565560633143846],[1.4619213424213626,47.19853093331255],[2.137982121513403,46.84692365217161],[2.7774755012315495,46.50884398899043],[3.3847910303707636,46.18276119013817],[3.963522492418633,45.867417236791546],[4.51665550489048,45.561763063512814]]}}]}