{"type":"FeatureCollection","features":[{"type":"Feature","properties":{"magnitude":0.6,"percentagem":60.0,"territorio":"continente"},"geometry":{"type":"LineString","coordinates":[[-10.5,36.91398231107337],[-10.46,36.89638072040985],[-10.422816628276655,36.87999999999998],[-10.420000000000002,36.87875910291237],[-10.380000000000003,36.86112033747392],[-10.340000000000005,36.843461266979986],[-10.332167284332561,36.83999999999998],[-10.300000000000004,36.82578458305327],[-10.260000000000005,36.80808821408227],[-10.241736406242499,36.79999999999998],[-10.220000000000006,36.790373309537074],[-10.180000000000007,36.77263955889747],[-10.151521165772383,36.759999999999984],[-10.140000000000008,36.754886368820145],[-10.100000000000009,36.737115153110594],[-10.061520615328673,36.719999999999985],[-10.06000000000001,36.71932361230339],[-10.02000000000001,36.701514847913],[-9.980000000000011,36.6836855888198],[-9.97173926880126,36.67999999999999],[-9.940000000000012,36.66583849400266],[-9.900000000000013,36.64797156110033],[-9.88217157490192,36.639999999999986],[-9.860000000000014,36.63008594158467],[-9.820000000000014,36.612181250738864],[-9.79281559512329,36.59999999999999],[-9.780000000000015,36.59425704037162],[-9.740000000000016,36.57631450723946],[-9.703670400796582,36.55999999999999],[-9.700000000000017,36.55835163958424],[-9.660000000000018,36.54037117961444],[-9.620000000000019,36.522370033080406],[-9.614738517527831,36.51999999999999],[-9.58000000000002,36.50435111638514],[-9.54000000000002,36.48631191646547],[-9.526017828700107,36.47999999999999],[-9.500000000000021,36.46825416558223],[-9.460000000000022,36.450176827205354],[-9.437505010889565,36.43999999999999],[-9.420000000000023,36.432080174746545],[-9.380000000000024,36.413964612633684],[-9.34919915393258,36.39999999999999],[-9.340000000000025,36.395828990929644],[-9.300000000000026,36.37767511959515],[-9.261099351920883,36.35999999999999],[-9.260000000000026,36.359500460694406],[-9.220000000000027,36.34130819444623],[-9.180000000000028,36.32309500529726],[-9.173209115252424,36.31999999999999],[-9.140000000000029,36.304863683055935],[-9.10000000000003,36.286611970723854],[-9.085523700090398,36.279999999999994],[-9.06000000000003,36.26834143080643],[-9.020000000000032,36.250051109083664],[-8.998041499407336,36.239999999999995],[-8.980000000000032,36.23174128259404],[-8.940000000000033,36.21341226506794],[-8.910761625302179,36.199999999999996],[-8.900000000000034,36.195063082829876],[-8.860000000000035,36.17669528288323],[-8.823683194015155,36.16],[-8.820000000000036,36.158306675440755],[-8.780000000000037,36.139900006252326],[-8.740000000000038,36.121472174572624],[-8.736807380963661,36.12],[-8.700000000000038,36.103026278415115],[-8.66000000000004,36.0845594475192],[-8.65013348581015,36.08],[-8.62000000000004,36.066073942129606],[-8.580000000000041,36.04756802468658],[-8.56365826501369,36.04],[-8.540000000000042,36.0290428396728],[-8.500000000000043,36.01049774814949],[-8.477380852345334,36.0]]}},{"type":"Feature","properties":{"magnitude":0.8,"percentagem":80.0,"territorio":"continente"},"geometry":{"type":"LineString","coordinates":[[-7.757258564075437,42.95999999999985],[-7.740000000000059,42.9523422293717],[-7.70000000000006,42.93457597240754],[-7.66721969806494,42.919999999999845],[-7.6600000000000605,42.91678983438655],[-7.620000000000061,42.89898762502155],[-7.580000000000061,42.88116441066628],[-7.577389102309955,42.87999999999985],[-7.540000000000063,42.86332577521065],[-7.500000000000064,42.84546648355413],[-7.487768427309701,42.839999999999854],[-7.460000000000065,42.82759028690414],[-7.420000000000066,42.809694835489836],[-7.398352606953948,42.799999999999855],[-7.3800000000000665,42.79178102354368],[-7.340000000000067,42.77384932969821],[-7.309140765757175,42.759999999999856],[-7.300000000000068,42.755897848083215],[-7.260000000000069,42.73792982891632],[-7.220132032336882,42.71999999999986],[-7.22000000000007,42.71994062298929],[-7.180000000000071,42.70193619539394],[-7.140000000000072,42.683910517825936],[-7.131330510855336,42.67999999999986],[-7.1000000000000725,42.665868290893535],[-7.060000000000073,42.647806078128745],[-7.042730309228273,42.63999999999986],[-7.020000000000074,42.62972597669037],[-6.980000000000075,42.61162714506989],[-6.9543304935296035,42.59999999999986],[-6.940000000000076,42.59350911357296],[-6.900000000000077,42.575373579221235],[-6.8661302096513355,42.55999999999986],[-6.860000000000078,42.55721756184303],[-6.820000000000078,42.539045240668116],[-6.780000000000079,42.52085146477874],[-6.77812967111804,42.51999999999986],[-6.74000000000008,42.50264198900952],[-6.700000000000081,42.48441129799666],[-6.690330329997716,42.47999999999986],[-6.660000000000082,42.46616368335858],[-6.620000000000083,42.44789599257915],[-6.602727854664936,42.43999999999986],[-6.580000000000084,42.429610182342536],[-6.540000000000084,42.41130540693756],[-6.515321407915618,42.399999999999864],[-6.500000000000085,42.392981344103426],[-6.460000000000086,42.37463939899802],[-6.428110156453154,42.35999999999986],[-6.420000000000087,42.356277026298194],[-6.380000000000088,42.33789782620191],[-6.341093270868399,42.319999999999865],[-6.340000000000089,42.31949708609929],[-6.3000000000000895,42.30108054550622],[-6.26000000000009,42.28264225371599],[-6.25427314327534,42.27999999999986],[-6.220000000000091,42.264187413383986],[-6.180000000000092,42.24571165059896],[-6.167646227254218,42.23999999999987],[-6.140000000000093,42.22721828582478],[-6.100000000000094,42.20870496599043],[-6.08121109093092,42.19999999999987],[-6.060000000000095,42.190173018335216],[-6.0200000000000955,42.17162205518224],[-5.994966921277938,42.15999999999987],[-5.980000000000096,42.15305146593947],[-5.940000000000097,42.13446277298418],[-5.9089129090541626,42.11999999999987],[-5.900000000000098,42.115853483179855],[-5.860000000000099,42.09722697372435],[-5.8230482487863995,42.07999999999987],[-5.8200000000001,42.078578924117394],[-5.780000000000101,42.05991451124994],[-5.7400000000001015,42.04122804549547],[-5.737373596319581,42.03999999999987],[-5.700000000000102,42.02252523892773],[-5.660000000000103,42.0038007370759],[-5.651888274246081,41.99999999999987],[-5.620000000000104,41.98505900964485],[-5.580000000000105,41.966296384239094],[-5.566589795378606,41.95999999999987],[-5.540000000000106,41.947515675809385]]}},{"type":"Feature","properties":{"magnitude":0.2,"percentagem":20.0,"territorio":"acores"},"geometry":{"type":"LineString","coordinates":[[-24.04000000000017,39.02442488009768],[-24.064424880097917,38.999999999999936],[-24.064388471733864,38.95999999999994],[-24.08000000000017,38.94434045309018],[-24.104340453090412,38.91999999999994],[-24.104303629628866,38.87999999999994],[-24.120000000000168,38.864255066839576],[-24.144255066839804,38.83999999999994],[-24.144217821302515,38.79999999999994],[-24.144180392513867,38.75999999999994],[-24.160000000000167,38.74413103047779],[-24.184131030478014,38.71999999999994],[-24.184093169348444,38.67999999999994],[-24.200000000000166,38.664043240509805],[-24.224043240510028,38.639999999999944],[-24.22400493967031,38.599999999999945],[-24.240000000000165,38.58395443437399],[-24.263954434374213,38.559999999999945],[-24.26391568628648,38.519999999999946],[-24.263876743919745,38.47999999999995],[-24.280000000000165,38.463825391609035],[-24.30382539160925,38.43999999999995],[-24.30378599089969,38.39999999999995],[-24.320000000000164,38.38373403764462],[-24.34373403764484,38.35999999999995],[-24.34369417062374,38.31999999999995],[-24.34365410097285,38.279999999999944],[-24.360000000000163,38.263601264494],[-24.38360126449421,38.23999999999995],[-24.383560716797923,38.19999999999995],[-24.400000000000162,38.18350725347768],[-24.423507253477887,38.159999999999954],[-24.423466219305425,38.119999999999955],[-24.423424973666933,38.079999999999956],[-24.44000000000016,38.063370588813974],[-24.46337058881418,38.03999999999996],[-24.46332884427994,37.99999999999996],[-24.48000000000016,37.983273805175216],[-24.50327380517541,37.959999999999965],[-24.503231552818626,37.91999999999996],[-24.52000000000016,37.90317584775862],[-24.543175847758818,37.87999999999996],[-24.543133078438245,37.83999999999996],[-24.54309008427933,37.79999999999996],[-24.56000000000016,37.78303339979139],[-24.583033399791592,37.75999999999996],[-24.58298987519416,37.71999999999996],[-24.600000000000158,37.70293249501353],[-24.62293249501373,37.679999999999964],[-24.622888430287322,37.639999999999965],[-24.622844130562278,37.599999999999966],[-24.640000000000157,37.58278572692254],[-24.662785726922728,37.55999999999997],[-24.66274087277784,37.51999999999997],[-24.680000000000156,37.50268174190691],[-24.702681741907092,37.47999999999997],[-24.702636323060815,37.43999999999997],[-24.702590658434328,37.39999999999997],[-24.720000000000155,37.38253045738732],[-24.742530457387502,37.35999999999997],[-24.7424842128899,37.31999999999997],[-24.760000000000154,37.3024232511337],[-24.782423251133885,37.27999999999997],[-24.782376415846755,37.239999999999974],[-24.800000000000153,37.22231467905655],[-24.82231467905673,37.199999999999974],[-24.822267241785667,37.159999999999975],[-24.82221954236065,37.119999999999976],[-24.840000000000153,37.10215666453966],[-24.862156664539842,37.07999999999997],[-24.86210834660279,37.03999999999998],[-24.88000000000015,37.022044657274094],[-24.902044657274274,36.99999999999998],[-24.901995708921906,36.95999999999998],[-24.901946485928743,36.91999999999998],[-24.92000000000015,36.901881601485556],[-24.941881601485733,36.87999999999998],[-24.94183173049366,36.83999999999998],[-24.96000000000015,36.82176599573987],[-24.981765995740034,36.79999999999998],[-24.981715464079898,36.759999999999984],[-24.981664644486816,36.719999999999985],[-25.00000000000015,36.701597657054954],[-25.021597657055118,36.679999999999986],[-25.02154615806928,36.639999999999986],[-25.04000000000015,36.62147827900583],[-25.061478279005986,36.59999999999999],[-25.061426087129764,36.55999999999999],[-25.06137359315723,36.51999999999999],[-25.080000000000148,36.50130440008781],[-25.10130440008797,36.47999999999999],[-25.10125119326521,36.43999999999999],[-25.120000000000147,36.421181064517555],[-25.141181064517706,36.39999999999999],[-25.141127130449775,36.35999999999999],[-25.160000000000146,36.3410560471182],[-25.181056047118354,36.31999999999999],[-25.18100137101997,36.279999999999994],[-25.18094637120494,36.239999999999995],[-25.200000000000145,36.22087388036732],[-25.220873880367467,36.199999999999996],[-25.220818116640665,36.16],[-25.240000000000144,36.14074462293493],[-25.260744622935082,36.12],[-25.26068807950474,36.08],[-25.260631195780782,36.040000000000006],[-25.280000000000143,36.02055622281986],[-25.300556222820013,36.0]]}},{"type":"Feature","properties":{"magnitude":0.4,"percentagem":40.0,"territorio":"acores"},"geometry":{"type":"LineString","coordinates":[[-24.04000000000017,39.00884976019543],[-24.048849760195665,38.999999999999936],[-24.04877694346756,38.95999999999994],[-24.08000000000017,38.928680906180425],[-24.088680906180656,38.91999999999994],[-24.08860725925757,38.87999999999994],[-24.120000000000168,38.84851013367921],[-24.128510133679438,38.83999999999994],[-24.128435642604863,38.79999999999994],[-24.128360785027567,38.75999999999994],[-24.160000000000167,38.728262060955636],[-24.16826206095586,38.71999999999994],[-24.168186338696728,38.67999999999994],[-24.200000000000166,38.648086481019675],[-24.208086481019897,38.639999999999944],[-24.20800987934045,38.599999999999945],[-24.240000000000165,38.56790886874805],[-24.24790886874827,38.559999999999945],[-24.247831372572794,38.519999999999946],[-24.247753487839326,38.47999999999995],[-24.280000000000165,38.44765078321814],[-24.287650783218346,38.43999999999995],[-24.28757198179922,38.39999999999995],[-24.320000000000164,38.3674680752893],[-24.327468075289516,38.35999999999995],[-24.327388341247318,38.31999999999995],[-24.327308201945538,38.27999999999995],[-24.360000000000163,38.247202528988055],[-24.367202528988262,38.23999999999995],[-24.36712143359568,38.19999999999995],[-24.400000000000162,38.167014506955404],[-24.407014506955612,38.159999999999954],[-24.406932438610692,38.119999999999955],[-24.406849947333708,38.079999999999956],[-24.44000000000016,38.04674117762799],[-24.446741177628194,38.03999999999996],[-24.446657688559718,37.99999999999996],[-24.48000000000016,37.96654761035046],[-24.486547610350662,37.95999999999996],[-24.486463105637085,37.91999999999996],[-24.52000000000016,37.88635169551728],[-24.526351695517477,37.87999999999996],[-24.526266156876336,37.83999999999996],[-24.5261801685585,37.79999999999996],[-24.56000000000016,37.76606679958283],[-24.566066799583027,37.75999999999996],[-24.56597975038816,37.71999999999997],[-24.600000000000158,37.6858649900271],[-24.605864990027296,37.679999999999964],[-24.605776860574487,37.639999999999965],[-24.6056882611244,37.599999999999966],[-24.640000000000157,37.56557145384511],[-24.645571453845296,37.55999999999997],[-24.64548174555552,37.51999999999997],[-24.680000000000156,37.48536348381385],[-24.685363483814033,37.47999999999997],[-24.68527264612147,37.43999999999997],[-24.6851813168685,37.39999999999997],[-24.720000000000155,37.365060914774666],[-24.72506091477485,37.35999999999997],[-24.724968425779643,37.31999999999997],[-24.760000000000154,37.284846502267435],[-24.76484650226762,37.27999999999997],[-24.76475283169336,37.239999999999974],[-24.800000000000153,37.20462935811314],[-24.804629358113313,37.199999999999974],[-24.804534483571185,37.159999999999975],[-24.804439084721146,37.119999999999976],[-24.840000000000153,37.084313329079365],[-24.844313329079537,37.07999999999998],[-24.84421669320543,37.03999999999998],[-24.88000000000015,37.00408931454822],[-24.884089314548394,36.99999999999998],[-24.883991417843657,36.95999999999998],[-24.883892971857335,36.91999999999998],[-24.92000000000015,36.88376320297114],[-24.923763202971312,36.87999999999998],[-24.923663460987168,36.83999999999998],[-24.96000000000015,36.80353199147975],[-24.96353199147992,36.79999999999998],[-24.963430928159642,36.759999999999984],[-24.963329288973483,36.719999999999985],[-25.00000000000015,36.68319531410992],[-25.003195314110087,36.679999999999986],[-25.003092316138414,36.639999999999986],[-25.04000000000015,36.60295655801166],[-25.042956558011824,36.59999999999999],[-25.04285217425938,36.55999999999999],[-25.042747186314315,36.51999999999999],[-25.080000000000148,36.48260880017564],[-25.082608800175798,36.47999999999999],[-25.082502386530273,36.43999999999999],[-25.120000000000147,36.40236212903512],[-25.122362129035267,36.39999999999999],[-25.1222542608994,36.35999999999999],[-25.160000000000146,36.32211209423641],[-25.162112094236566,36.31999999999999],[-25.1620027420398,36.279999999999994],[-25.161892742409727,36.239999999999995],[-25.200000000000145,36.20174776073465],[-25.201747760734794,36.199999999999996],[-25.20163623328119,36.16],[-25.240000000000144,36.121489245869874],[-25.24148924587002,36.12],[-25.241376159009334,36.08],[-25.24126239156142,36.04],[-25.280000000000143,36.00111244563974],[-25.281112445639888,36.0]]}},{"type":"Feature","properties":{"magnitude":0.4,"percentagem":40.0,"territorio":"madeira"},"geometry":{"type":"LineString","coordinates":[[-18.0,33.11749120686347],[-17.96,33.102239350274566],[-17.95413294901994,33.09999999999992],[-17.92,33.08697103921149],[-17.880000000000003,33.07168522361061],[-17.84945623316603,33.059999999999924],[-17.840000000000003,33.056382014891994],[-17.800000000000004,33.04106216766914],[-17.760000000000005,33.02572454779985],[-17.74508623396175,33.019999999999925],[-17.720000000000006,33.01037005208203],[-17.680000000000007,32.99499829368379],[-17.6410168545902,32.979999999999926],[-17.640000000000008,32.97960874597938],[-17.60000000000001,32.964202775931355],[-17.56000000000001,32.94877894528901],[-17.537257412260484,32.93999999999993],[-17.52000000000001,32.933337862962254],[-17.48000000000001,32.91787971300987],[-17.440000000000012,32.902403648375554],[-17.433793708164885,32.89999999999993],[-17.400000000000013,32.88691087979781],[-17.360000000000014,32.87140038774267],[-17.330632185384495,32.85999999999993],[-17.320000000000014,32.85587231285728],[-17.280000000000015,32.84032731944404],[-17.240000000000016,32.824764322406814],[-17.22776739935647,32.81999999999993],[-17.200000000000017,32.809184309971165],[-17.160000000000018,32.79358670270905],[-17.12519644459515,32.77999999999993],[-17.12000000000002,32.77797122531035],[-17.08000000000002,32.762338933372455],[-17.04000000000002,32.74668854824796],[-17.022923102613092,32.73999999999993],[-17.00000000000002,32.73102087966881],[-16.960000000000022,32.715335700244175],[-16.920936268106594,32.69999999999993],[-16.920000000000023,32.699632406363556],[-16.880000000000024,32.68391235767342],[-16.840000000000025,32.668174125611976],[-16.819246999236107,32.65999999999993],[-16.800000000000026,32.65241838458519],[-16.760000000000026,32.636645172875],[-16.720000000000027,32.62085372234149],[-16.7178396361187,32.61999999999993],[-16.680000000000028,32.605045377682],[-16.64000000000003,32.58921883666271],[-16.616725453165255,32.579999999999934],[-16.60000000000003,32.573374602857875],[-16.56000000000003,32.55751289556588],[-16.52000000000003,32.54163285826203],[-16.515891094377977,32.539999999999935],[-16.480000000000032,32.52573576115792],[-16.440000000000033,32.50982044598359],[-16.41534500829044,32.499999999999936],[-16.400000000000034,32.49388729503694],[-16.360000000000035,32.47793662568889],[-16.320000000000036,32.461967534514585],[-16.31507653941892,32.45999999999994],[-16.280000000000037,32.44598125825721],[-16.240000000000038,32.42997670054969],[-16.215092385820032,32.41999999999994],[-16.20000000000004,32.41395420405814],[-16.16000000000004,32.397914102997404],[-16.12000000000004,32.38185548766896],[-16.115382790224054,32.37999999999994],[-16.08000000000004,32.3657796015075],[-16.040000000000042,32.34968532970386],[-16.01595448170506,32.33999999999994],[-16.000000000000043,32.333573055219475],[-15.960000000000043,32.317443049603604],[-15.920000000000044,32.30129443665051],[-15.916796839098184,32.29999999999994],[-15.880000000000045,32.28512850578709],[-15.840000000000046,32.26894404513668],[-15.817918364116771,32.25999999999994],[-15.800000000000047,32.25274155616236],[-15.760000000000048,32.23652116996031],[-15.720000000000049,32.22028208272241],[-15.719305849177168,32.21999999999994],[-15.68000000000005,32.20402566830833],[-15.64000000000005,32.18775054087029],[-15.620971270978817,32.17999999999994],[-15.600000000000051,32.171457396856425],[-15.560000000000052,32.155146150846484],[-15.522899405631902,32.139999999999944],[-15.520000000000053,32.13881621176876],[-15.480000000000054,32.12246876860512],[-15.440000000000055,32.10610249324693],[-15.425100607550622,32.099999999999945],[-15.400000000000055,32.08971824958876],[-15.360000000000054,32.07331566135745],[-15.32756410279244,32.059999999999945],[-15.320000000000057,32.05689444872815],[-15.280000000000058,32.04045546852474],[-15.240000000000057,32.023997560921565],[-15.230293944062268,32.019999999999946],[-15.20000000000006,32.00752176895779],[-15.16000000000006,31.991027352899557],[-15.133287041177159,31.979999999999947],[-15.120000000000061,31.974514416353735],[-15.080000000000062,31.95798341222447],[-15.040000000000063,31.941433384859295]]}}]}