{"type":"FeatureCollection","features":[{"type":"Feature","properties":{"magnitude":0.6,"percentagem":60.0,"territorio":"continente"},"geometry":{"type":"LineString","coordinates":[[-5.540000000000106,37.55424810859211],[-5.553929205206378,37.55999999999997],[-5.580000000000105,37.57076498857839],[-5.620000000000104,37.58726270266662],[-5.650919193979224,37.599999999999966],[-5.660000000000103,37.60374066567147],[-5.700000000000102,37.62020153443861],[-5.740000000000102,37.63664155201122],[-5.748179485035853,37.639999999999965],[-5.780000000000101,37.6530645886252],[-5.8200000000001,37.66946777271745],[-5.845712820835117,37.679999999999964],[-5.860000000000099,37.68585185128475],[-5.900000000000098,37.702218209826654],[-5.940000000000097,37.71856373580678],[-5.94351811879903,37.71999999999996],[-5.980000000000096,37.73489285145883],[-6.0200000000000955,37.75120156647405],[-6.041603821354105,37.75999999999996],[-6.060000000000095,37.76749168703163],[-6.100000000000094,37.78376360083466],[-6.139963798159078,37.79999999999996],[-6.140000000000093,37.80001470724333],[-6.180000000000092,37.816249830303605],[-6.220000000000091,37.83246414838152],[-6.238611022612359,37.83999999999996],[-6.26000000000009,37.84866024755072],[-6.3000000000000895,37.86483779319331],[-6.337536945820401,37.87999999999996],[-6.340000000000089,37.88099484648385],[-6.380000000000088,37.89713563191004],[-6.420000000000087,37.91325563609585],[-6.436753609820543,37.91999999999996],[-6.460000000000086,37.92935766034793],[-6.500000000000085,37.94544092518658],[-6.536254885907345,37.95999999999996],[-6.540000000000084,37.96150387551923],[-6.580000000000084,37.97755041492784],[-6.620000000000083,37.99357619886019],[-6.636051132723958,37.99999999999996],[-6.660000000000082,38.00958410417787],[-6.700000000000081,38.02557318603661],[-6.736137331509361,38.039999999999964],[-6.74000000000008,38.041541992949504],[-6.780000000000079,38.057494388299304],[-6.820000000000078,38.07342605590176],[-6.836523512129536,38.079999999999956],[-6.860000000000078,38.089339807445675],[-6.900000000000077,38.10523481430903],[-6.937204369663296,38.119999999999955],[-6.940000000000076,38.12110944638696],[-6.980000000000075,38.13696780967336],[-7.020000000000074,38.152805474849444],[-7.0381910465648065,38.159999999999954],[-7.060000000000073,38.16862504662997],[-7.100000000000073,38.18442609633958],[-7.139476468069609,38.19999999999995],[-7.140000000000072,38.200206530887954],[-7.180000000000071,38.215970983841174],[-7.22000000000007,38.231714770173156],[-7.241074419071808,38.23999999999995],[-7.260000000000069,38.247440144727676],[-7.300000000000068,38.26314736468251],[-7.340000000000068,38.27883393981004],[-7.3429763777995865,38.27999999999995],[-7.3800000000000665,38.29450426119392],[-7.420000000000066,38.310154301645376],[-7.445194704141547,38.31999999999995],[-7.460000000000065,38.32578546972083],[-7.500000000000064,38.34139899658156],[-7.540000000000064,38.35699191293754],[-7.547724649807866,38.35999999999995],[-7.580000000000062,38.37256803620295],[-7.620000000000061,38.38812447282539],[-7.650573374792383,38.39999999999995],[-7.6600000000000605,38.40366143306654],[-7.70000000000006,38.41918141246374],[-7.740000000000059,38.434680817388475],[-7.753742653663399,38.439999999999955],[-7.780000000000058,38.45016274592339],[-7.820000000000057,38.465625729566824],[-7.8572323097972765,38.47999999999995],[-7.860000000000056,38.48106848821005],[-7.900000000000055,38.49649507445656],[-7.9400000000000555,38.5119011239189],[-7.9610524978749115,38.519999999999946],[-7.980000000000054,38.527288868521026],[-8.020000000000053,38.5426585585488],[-8.060000000000052,38.55800773716084],[-8.06519727717939,38.559999999999945],[-8.100000000000051,38.57334048492901],[-8.14000000000005,38.588653343243685],[-8.169676708326865,38.599999999999945],[-8.18000000000005,38.60394692182339],[-8.220000000000049,38.61922348583115],[-8.260000000000048,38.634479578638306],[-8.27449038066749,38.639999999999944],[-8.300000000000047,38.649718185056955],[-8.340000000000046,38.66493802460598],[-8.379638235911838,38.67999999999994],[-8.380000000000045,38.68013746189499],[-8.420000000000044,38.69532107543404],[-8.460000000000043,38.710484259507965],[-8.485132984062414,38.71999999999994],[-8.500000000000043,38.72562875341273],[-8.540000000000042,38.74075575437142],[-8.580000000000041,38.755862353563046],[-8.590968051765024,38.75999999999994],[-8.62000000000004,38.77095192794237],[-8.66000000000004,38.786022387987074],[-8.697148716341122,38.79999999999994],[-8.700000000000038,38.801072804579846],[-8.740000000000038,38.81610715464711],[-8.780000000000037,38.83112114699754],[-8.803683810275277,38.83999999999994],[-8.820000000000036,38.846116679134944],[-8.860000000000035,38.8610946072198],[-8.900000000000034,38.876052206616244],[-8.91056911231559,38.87999999999994],[-8.940000000000033,38.89099288192568],[-8.980000000000032,38.90591446378191],[-9.017809591034531,38.91999999999994],[-9.020000000000032,38.92081599863907],[-9.06000000000003,38.93570159393623],[-9.10000000000003,38.9505669067838],[-9.125414481149631,38.95999999999994],[-9.140000000000029,38.96541362575476],[-9.180000000000028,38.98024300041254],[-9.220000000000029,38.9950521229058],[-9.233379812081369,38.999999999999936],[-9.260000000000026,39.009844057136775],[-9.300000000000026,39.024617290764496],[-9.340000000000025,39.03937030296056],[-9.34170911858162,39.039999999999935],[-9.380000000000024,39.05410748488036],[-9.420000000000023,39.06882465846882],[-9.450412989586667,39.079999999999934],[-9.460000000000022,39.08352273680214],[-9.500000000000021,39.0982041050828],[-9.54000000000002,39.11286530097319],[-9.55948912826257,39.11999999999993],[-9.58000000000002,39.127508675395966],[-9.620000000000019,39.14213411774816],[-9.660000000000018,39.15673941960148],[-9.668939958729986,39.15999999999993],[-9.700000000000017,39.171328125731065],[-9.740000000000016,39.185897726693234],[-9.778770107861078,39.19999999999993],[-9.780000000000015,39.20044735914028],[-9.820000000000014,39.214981294075145],[-9.860000000000014,39.22949513945464],[-9.888988847225153,39.23999999999993],[-9.900000000000013,39.243990156935546],[-9.940000000000012,39.25846839035354],[-9.980000000000011,39.27292656719683],[-9.999593364057052,39.27999999999993],[-10.02000000000001,39.28736700828756],[-10.06000000000001,39.30178962805814],[-10.100000000000009,39.316192224621396],[-10.110587503156511,39.31999999999993],[-10.140000000000008,39.330578128974906],[-10.180000000000007,39.344945224157286],[-10.220000000000004,39.35929232987724],[-10.221975158105964,39.35999999999993],[-10.260000000000005,39.373623738192535],[-10.300000000000004,39.38793539900685],[-10.333765071303093,39.39999999999993],[-10.340000000000003,39.40222780518799],[-10.380000000000003,39.4165040584637],[-10.420000000000002,39.43076037626239],[-10.445957720727991,39.43999999999993],[-10.46,39.44499834755405],[-10.5,39.45921931555269]]}},{"type":"Feature","properties":{"magnitude":0.8,"percentagem":80.0,"territorio":"acores"},"geometry":{"type":"LineString","coordinates":[[-24.04000000000017,36.65886891674678],[-24.08000000000017,36.66815169129057],[-24.120000000000168,36.6774173797779],[-24.13116847427939,36.679999999999986],[-24.160000000000167,36.68666760312843],[-24.200000000000166,36.69590139076753],[-24.240000000000165,36.7051181380442],[-24.280000000000165,36.714317861865275],[-24.304749959995583,36.719999999999985],[-24.320000000000164,36.723501423031884],[-24.360000000000163,36.73266935957439],[-24.400000000000162,36.741820318232655],[-24.44000000000016,36.75095431586718],[-24.479686827066555,36.759999999999984],[-24.48000000000016,36.76007138656269],[-24.52000000000016,36.769173710155755],[-24.56000000000016,36.77825911817014],[-24.600000000000158,36.787327627418854],[-24.640000000000157,36.79637925470088],[-24.65602880762865,36.79999999999998],[-24.680000000000156,36.805415326631426],[-24.720000000000155,36.81443542128332],[-24.760000000000154,36.82343867924916],[-24.800000000000153,36.832425117279016],[-24.833779316880065,36.83999999999998],[-24.840000000000153,36.841395090179375],[-24.88000000000015,36.85035010803871],[-24.92000000000015,36.85928835110867],[-24.96000000000015,36.86820983608936],[-25.00000000000015,36.87711457966621],[-25.01298434528826,36.87999999999998],[-25.04000000000015,36.886004055872725],[-25.080000000000148,36.89487751970043],[-25.120000000000147,36.90373428709728],[-25.160000000000146,36.91257437469743],[-25.193662442657157,36.91999999999998],[-25.200000000000145,36.921398139124335],[-25.240000000000144,36.93020705861317],[-25.280000000000143,36.938999343137134],[-25.320000000000142,36.947775009278146],[-25.36000000000014,36.95653407360294],[-25.37585646201862,36.95999999999998],[-25.40000000000014,36.965277838257165],[-25.44000000000014,36.97400587384883],[-25.48000000000014,36.98271735227392],[-25.520000000000135,36.99141229004575],[-25.559581874356027,36.99999999999998],[-25.560000000000137,37.00009072580254],[-25.600000000000136,37.00875474561664],[-25.640000000000136,37.01740226927942],[-25.680000000000135,37.02603331324985],[-25.720000000000137,37.0346478939712],[-25.744897574288746,37.03999999999998],[-25.760000000000133,37.04324682151051],[-25.800000000000132,37.051830622560274],[-25.84000000000013,37.06039800467295],[-25.88000000000013,37.06894898423636],[-25.92000000000013,37.07748357762242],[-25.931815478602473,37.07999999999998],[-25.96000000000013,37.086003270997296],[-26.000000000000128,37.09450722237395],[-26.040000000000127,37.10299483169126],[-26.080000000000126,37.11146611526464],[-26.120000000000125,37.11992108939337],[-26.12037399082019,37.119999999999976],[-26.160000000000124,37.128361820960016],[-26.200000000000124,37.13678629010444],[-26.240000000000123,37.14519449372436],[-26.280000000000122,37.15358644806162],[-26.31062826468363,37.159999999999975],[-26.32000000000012,37.161962651535696],[-26.36000000000012,37.170324209729166],[-26.40000000000012,37.1786695624004],[-26.44000000000012,37.18699872573306],[-26.480000000000118,37.195311715894185],[-26.502601430903983,37.199999999999974],[-26.520000000000117,37.20360943725527],[-26.560000000000116,37.21189216711613],[-26.600000000000115,37.22015876736165],[-26.640000000000114,37.228409254099816],[-26.680000000000113,37.236643643421814],[-26.696334705934074,37.23999999999998],[-26.720000000000113,37.24486315007391],[-26.76000000000011,37.25306741426889],[-26.80000000000011,37.261255624396355],[-26.84000000000011,37.26942779648756],[-26.88000000000011,37.27758394655678],[-26.891871188353942,37.27999999999997],[-26.92000000000011,37.28572550410086],[-26.960000000000107,37.29385166353542],[-27.000000000000107,37.30196184408597],[-27.040000000000106,37.31005606170609],[-27.080000000000105,37.31813433233219],[-27.08925528610974,37.31999999999997],[-27.120000000000104,37.32619820454184],[-27.160000000000103,37.33424661833463],[-27.200000000000102,37.34227912805774],[-27.2400000000001,37.35029574958615],[-27.2800000000001,37.35829649877747],[-27.288532762327712,37.35999999999997],[-27.3200000000001,37.36628294757587],[-27.3600000000001,37.374253973034726],[-27.400000000000098,37.38220916886445],[-27.440000000000097,37.390148550860474],[-27.480000000000096,37.39807213480079],[-27.48975078314223,37.39999999999997],[-27.520000000000095,37.4059814202392],[-27.560000000000095,37.41387541283852],[-27.600000000000094,37.42175364987108],[-27.640000000000096,37.42961614705204],[-27.68000000000009,37.43746292007884],[-27.692957967638776,37.43999999999997],[-27.72000000000009,37.44529530031625],[-27.76000000000009,37.45311261367577],[-27.80000000000009,37.46091424514867],[-27.84000000000009,37.46870021036902],[-27.880000000000088,37.47647052495308],[-27.898204440023445,37.47999999999997],[-27.920000000000087,37.48422625623726],[-27.960000000000086,37.491967242102056],[-28.000000000000085,37.49969261937434],[-28.040000000000084,37.50740240360637],[-28.080000000000084,37.515096610332506],[-28.10554188413446,37.51999999999997],[-28.120000000000083,37.522775946982236],[-28.160000000000082,37.530440955204156],[-28.20000000000008,37.53809042773804],[-28.24000000000008,37.54572438005373],[-28.28000000000008,37.55334282760294],[-28.31502360041751,37.55999999999997],[-28.32000000000008,37.56094602199146],[-28.360000000000078,37.56853540051166],[-28.400000000000077,37.576109315855405],[-28.440000000000076,37.58366778340943],[-28.480000000000075,37.591210818542294],[-28.520000000000074,37.59873843660431],[-28.526716746785006,37.599999999999966],[-28.560000000000073,37.606252215914566],[-28.600000000000072,37.6137509196865],[-28.64000000000007,37.62123424770063],[-28.68000000000007,37.628702215241724],[-28.72000000000007,37.63615483757628],[-28.74067929975322,37.639999999999965],[-28.76000000000007,37.6435930295868],[-28.800000000000068,37.65101686546052],[-28.840000000000067,37.65842539720897],[-28.880000000000067,37.66581864003266],[-28.920000000000066,37.673196609113674],[-28.956961022475177,37.679999999999964],[-28.960000000000065,37.68055945991531],[-29.000000000000064,37.68790876960602],[-29.040000000000063,37.69524284640207],[-29.080000000000062,37.70256170541914],[-29.120000000000058,37.70986536175454],[-29.160000000000057,37.71715383048701],[-29.175651656480476,37.71999999999996],[-29.20000000000006,37.7244282386865],[-29.24000000000006,37.73168819987005],[-29.280000000000058,37.73893301401569],[-29.320000000000057,37.74616269613545],[-29.36000000000006,37.753377261222724],[-29.396795417476053,37.75999999999996],[-29.400000000000055,37.76057686934126],[-29.440000000000055,37.76776305226756],[-29.480000000000054,37.774934158490154],[-29.520000000000056,37.782090202935386],[-29.56000000000005,37.78923120051092],[-29.60000000000005,37.796357166105835],[-29.620490346393947,37.79999999999996],[-29.64000000000005,37.803468988260626],[-29.68000000000005,37.81056672151165],[-29.72000000000005,37.817649462824704],[-29.760000000000048,37.824717227021395],[-29.800000000000043,37.83177002890466],[-29.840000000000046,37.83880788325873],[-29.846789274872027,37.83999999999996],[-29.880000000000045,37.84583227570328],[-29.920000000000044,37.852842046418765],[-29.960000000000043,37.859836909360084],[-30.000000000000043,37.86681687924379],[-30.04000000000004,37.873781970767624],[-30.075785659368282,37.87999999999996],[-30.08000000000004,37.88073238359938],[-30.12000000000004,37.88766951423614],[-30.16000000000004,37.89459180602836],[-30.20000000000004,37.9014992736059],[-30.240000000000034,37.90839193157979],[-30.280000000000033,37.915269794542326],[-30.307568125896786,37.91999999999996],[-30.320000000000036,37.922133416661296],[-30.360000000000035,37.928983465386466],[-30.400000000000034,37.935818758325794],[-30.440000000000033,37.94263931000343],[-30.480000000000032,37.949445134924645],[-30.520000000000028,37.95623624757589],[-30.542215807695783,37.95999999999996],[-30.56000000000003,37.96301342562137],[-30.60000000000003,37.96977686955909],[-30.64000000000003,37.976525640161675],[-30.680000000000028,37.983259751847285],[-30.720000000000027,37.989979219015204],[-30.76000000000003,37.996684056045844],[-30.77982465603946,37.99999999999996],[-30.800000000000026,38.00337513325475],[-30.840000000000025,38.010052445966146],[-30.880000000000024,38.01671516718362],[-30.920000000000023,38.023363311219185],[-30.960000000000022,38.029996892365936],[-31.00000000000002,38.03661592489807],[-31.020494638938153,38.03999999999996],[-31.04000000000002,38.04322124109419],[-31.08000000000002,38.049812892568795],[-31.12000000000002,38.05639003378006],[-31.160000000000018,38.062952678933684],[-31.200000000000017,38.06950084221649],[-31.240000000000016,38.07603453779634],[-31.264329942305544,38.079999999999956],[-31.280000000000015,38.08255442938142],[-31.320000000000014,38.08906088603044],[-31.360000000000014,38.095552913035256],[-31.400000000000016,38.10203052449518],[-31.440000000000012,38.10849373449062],[-31.48000000000001,38.1149425570831],[-31.511439183603674,38.119999999999955],[-31.52000000000001,38.121377357029345],[-31.56000000000001,38.1277990816809],[-31.60000000000001,38.134206456695374],[-31.640000000000008,38.14059949606566],[-31.680000000000007,38.146978213765784],[-31.720000000000006,38.15334262375083],[-31.76,38.159692739957],[-31.761939661884618,38.15999999999995],[-31.800000000000004,38.16603011349103],[-31.840000000000003,38.17235329514478],[-31.880000000000003,38.17866222044286],[-31.92,38.18495690325286],[-31.96,38.19123735742352],[-32.0,38.19750359678468]]}},{"type":"Feature","properties":{"magnitude":0.9,"percentagem":90.0,"territorio":"madeira"},"geometry":{"type":"LineString","coordinates":[[-15.040000000000063,30.802847775795712],[-15.080000000000062,30.816837444096382],[-15.089054855863637,30.819999999999972],[-15.120000000000061,30.830807123413326],[-15.16000000000006,30.84475562452528],[-15.200000000000061,30.85868246579172],[-15.203789205858206,30.85999999999997],[-15.240000000000059,30.872589641489526],[-15.280000000000058,30.886475388679983],[-15.319020216910342,30.89999999999997],[-15.320000000000057,30.900339568350894],[-15.360000000000056,30.91418427114313],[-15.400000000000055,30.92800737719719],[-15.43475627611971,30.93999999999997],[-15.440000000000055,30.941809187549953],[-15.480000000000054,30.955591323821523],[-15.520000000000055,30.969351902852196],[-15.550999308318595,30.97999999999997],[-15.560000000000052,30.983091430001544],[-15.600000000000051,30.996811114736758],[-15.64000000000005,31.010509282149854],[-15.667755352064443,31.019999999999968],[-15.68000000000005,31.02418661330595],[-15.720000000000049,31.037843962758174],[-15.760000000000048,31.05147983521756],[-15.785030532313197,31.059999999999967],[-15.800000000000047,31.065095058649156],[-15.840000000000046,31.07869019030647],[-15.880000000000045,31.09226388569987],[-15.902831061617624,31.099999999999966],[-15.920000000000044,31.105817090698054],[-15.960000000000043,31.119350123249287],[-16.000000000000043,31.132861760654517],[-16.021163241347637,31.139999999999965],[-16.040000000000042,31.146353037496944],[-16.08000000000004,31.159824090798217],[-16.12000000000004,31.173273790449755],[-16.140033462932614,31.179999999999964],[-16.16000000000004,31.18670323036551],[-16.20000000000004,31.20011242540715],[-16.240000000000038,31.21350030866329],[-16.25944820912602,31.21999999999996],[-16.280000000000037,31.22686800379831],[-16.320000000000036,31.240215462672307],[-16.360000000000035,31.25354165198265],[-16.379414055292933,31.259999999999962],[-16.400000000000034,31.26684769536569],[-16.440000000000033,31.28013354123347],[-16.480000000000032,31.29339816010689],[-16.49993767072184,31.29999999999996],[-16.52000000000003,31.306642645616023],[-16.56000000000003,31.319867002676748],[-16.60000000000003,31.333070175649823],[-16.621025819959527,31.33999999999996],[-16.64000000000003,31.346253197979568],[-16.680000000000028,31.35941619143886],[-16.720000000000027,31.372558044044688],[-16.74268536417142,31.37999999999996],[-16.760000000000026,31.385679698673574],[-16.800000000000026,31.39878145471266],[-16.840000000000025,31.411862113450162],[-16.86492326252675,31.41999999999996],[-16.880000000000024,31.424922496608932],[-16.920000000000023,31.43796314235422],[-16.960000000000022,31.450982734657835],[-16.987746573609627,31.459999999999958],[-17.00000000000002,31.463981943298172],[-17.04000000000002,31.476961606791296],[-17.08000000000002,31.489920261001185],[-17.11116245685629,31.499999999999957],[-17.12000000000002,31.502858392764928],[-17.160000000000018,31.515777202933158],[-17.200000000000017,31.528675048265725],[-17.235178174019907,31.539999999999957],[-17.240000000000016,31.54155220145468],[-17.280000000000015,31.55441028808189],[-17.320000000000014,31.56724745460089],[-17.359801090662014,31.579999999999956],[-17.360000000000014,31.580063728147135],[-17.400000000000013,31.592861221845048],[-17.440000000000012,31.605637840432934],[-17.480000000000008,31.618393600580067],[-17.48504466837419,31.619999999999955],[-17.52000000000001,31.631130366049643],[-17.56000000000001,31.643846568379516],[-17.60000000000001,31.656541957608187],[-17.610911542511094,31.659999999999954],[-17.640000000000008,31.66921808465759],[-17.680000000000007,31.681874003165504],[-17.720000000000006,31.694509154161842],[-17.737409185789197,31.699999999999953],[-17.760000000000005,31.707124743682506],[-17.800000000000004,31.719720511540167],[-17.840000000000003,31.732295557717286],[-17.864545416533836,31.739999999999952],[-17.880000000000003,31.744850711107837],[-17.92,31.75738646219577],[-17.96,31.76990153766703],[-17.992328165147576,31.77999999999995],[-18.0,31.78239635680631]]}},{"type":"Feature","properties":{"magnitude":0.95,"percentagem":95.0,"territorio":"madeira"},"geometry":{"type":"LineString","coordinates":[[-16.006039884651724,29.5],[-16.040000000000042,29.511713100272587],[-16.08000000000004,29.525487969569976],[-16.12000000000004,29.53924093027102],[-16.122210758149347,29.54],[-16.16000000000004,29.55297375102009],[-16.20000000000004,29.566684791187285],[-16.238907024793964,29.58],[-16.240000000000038,29.5803740139068],[-16.280000000000037,29.594043186454137],[-16.320000000000036,29.607690516465134],[-16.35613578878139,29.619999999999997],[-16.360000000000035,29.62131619828199],[-16.400000000000034,29.63492173982832],[-16.440000000000033,29.648505479981285],[-16.473901057725193,29.659999999999997],[-16.480000000000032,29.662067716423824],[-16.52000000000003,29.675609748134022],[-16.56000000000003,29.689130020015277],[-16.592209417867323,29.699999999999996],[-16.60000000000003,29.702628907687682],[-16.64000000000003,29.71610755199053],[-16.680000000000028,29.729564478439098],[-16.711067551644014,29.739999999999995],[-16.720000000000027,29.74300011498374],[-16.760000000000026,29.756415495536753],[-16.800000000000026,29.76980920060931],[-16.830482239071955,29.779999999999994],[-16.840000000000025,29.783181684669643],[-16.880000000000024,29.796533926324408],[-16.920000000000023,29.80986453526071],[-16.950460359160097,29.819999999999993],[-16.960000000000022,29.82317396644485],[-17.00000000000002,29.836463195212755],[-17.04000000000002,29.84973083440154],[-17.071008891348022,29.859999999999992],[-17.08000000000002,29.862977313246372],[-17.12000000000002,29.87620365626481],[-17.160000000000018,29.889408453210173],[-17.192134916971785,29.89999999999999],[-17.200000000000017,29.902592081146004],[-17.240000000000016,29.915755666645083],[-17.280000000000015,29.928897749933256],[-17.31384562075669,29.93999999999999],[-17.320000000000014,29.94201862924922],[-17.360000000000014,29.955119586518876],[-17.400000000000013,29.96819908578555],[-17.43614829233927,29.97999999999999],[-17.440000000000012,29.981257319595365],[-17.48000000000001,29.99429577895299],[-17.52000000000001,30.007312824851017],[-17.55905032781776,30.01999999999999],[-17.56000000000001,30.0203085170595],[-17.60000000000001,30.033284609817986],[-17.640000000000008,30.046239333985618],[-17.680000000000007,30.05917270603386],[-17.682562335636426,30.05999999999999],[-17.720000000000006,30.072086447691934],[-17.760000000000005,30.08497898272143],[-17.800000000000004,30.09785021091238],[-17.8066907681498,30.099999999999987],[-17.840000000000003,30.110701663765603],[-17.880000000000003,30.123532143172373],[-17.92,30.13634136132389],[-17.93144222710147,30.139999999999986],[-17.96,30.149130631749166],[-18.0,30.161899189941344]]}}]}