{"type":"FeatureCollection","features":[{"type":"Feature","properties":{"magnitude":0.8,"percentagem":80.0,"territorio":"continente"},"geometry":{"type":"LineString","coordinates":[[-10.5,41.22161948745048],[-10.46,41.21210331804429],[-10.420000000000002,41.202626446294865],[-10.408866774724245,41.19999999999989],[-10.380000000000003,41.19319784537391],[-10.340000000000003,41.183812083167325],[-10.300000000000004,41.17446580699638],[-10.260000000000005,41.165159092769876],[-10.237730027097763,41.15999999999989],[-10.220000000000006,41.155897380113764],[-10.180000000000007,41.146682070970485],[-10.140000000000008,41.137506505373125],[-10.100000000000009,41.12837075715538],[-10.063188279371502,41.11999999999989],[-10.06000000000001,41.11927584629493],[-10.02000000000001,41.1102317794799],[-9.980000000000011,41.10122770478458],[-9.940000000000012,41.092263693935074],[-9.900000000000015,41.08333981817228],[-9.884960694413417,41.07999999999989],[-9.860000000000014,41.07446338657179],[-9.820000000000014,41.06563154571034],[-9.780000000000015,41.056840006081615],[-9.740000000000016,41.048088836779485],[-9.70285540880448,41.03999999999989],[-9.700000000000017,41.039378918163905],[-9.660000000000018,41.03072001631123],[-9.620000000000019,41.022101643895226],[-9.58000000000002,41.01352386783369],[-9.54000000000002,41.004986754540646],[-9.51652172614519,40.99999999999989],[-9.500000000000021,40.99649495135379],[-9.460000000000022,40.98805040395583],[-9.420000000000023,40.979646669632615],[-9.380000000000024,40.971283812587075],[-9.340000000000025,40.96296189650875],[-9.325691820154626,40.959999999999894],[-9.300000000000026,40.95468792818883],[-9.260000000000026,40.9464588455281],[-9.220000000000027,40.93827084523242],[-9.180000000000028,40.93012398874773],[-9.140000000000029,40.922018336997546],[-9.129988063724884,40.9199999999999],[-9.10000000000003,40.91396184313616],[-9.06000000000003,40.90594926117598],[-9.020000000000032,40.89797801634517],[-8.980000000000032,40.89004816729372],[-8.940000000000033,40.88215977214082],[-8.92898960397414,40.879999999999896],[-8.900000000000034,40.87432031248144],[-8.860000000000035,40.866525192149226],[-8.820000000000036,40.85877164902309],[-8.780000000000037,40.851059738921265],[-8.740000000000038,40.84338951712357],[-8.722226096866876,40.83999999999989],[-8.700000000000038,40.83576657165626],[-8.66000000000004,40.82818979821282],[-8.62000000000004,40.82065482721954],[-8.580000000000041,40.81316171163053],[-8.540000000000042,40.80571050385431],[-8.509170320696068,40.7999999999999],[-8.500000000000043,40.79830347300767],[-8.460000000000043,40.7909458555031],[-8.420000000000044,40.783630250732344],[-8.380000000000045,40.776356708756296],[-8.340000000000046,40.76912527908374],[-8.300000000000047,40.76193601067015],[-8.289164090865103,40.7599999999999],[-8.260000000000048,40.754795754830795],[-8.220000000000049,40.747700233595104],[-8.18000000000005,40.74064696744779],[-8.14000000000005,40.73363600297279],[-8.100000000000051,40.72666738619503],[-8.061494722793913,40.7199999999999],[-8.060000000000052,40.71974150043518],[-8.020000000000053,40.712866702919854],[-7.980000000000054,40.706034337600116],[-7.940000000000055,40.69924444811335],[-7.900000000000055,40.69249707753292],[-7.860000000000056,40.68579226836698],[-7.825222834625453,40.6799999999999],[-7.820000000000057,40.67913119819296],[-7.780000000000058,40.67252028123997],[-7.740000000000059,40.66595199900366],[-7.70000000000006,40.65942639158831],[-7.660000000000061,40.652943498528685],[-7.620000000000061,40.646503358789225],[-7.580000000000063,40.64010601076306],[-7.579332655957599,40.6399999999999],[-7.540000000000063,40.63375965197843],[-7.500000000000064,40.62745624698438],[-7.460000000000065,40.62119569393175],[-7.420000000000065,40.6149780287948],[-7.3800000000000665,40.60880328697313],[-7.340000000000067,40.60267150329102],[-7.322449264067615,40.5999999999999],[-7.300000000000068,40.59658717453774],[-7.260000000000069,40.59054930762719],[-7.22000000000007,40.58455444783647],[-7.180000000000071,40.57860262756314],[-7.140000000000072,40.57269387862695],[-7.1000000000000725,40.56682823226912],[-7.060000000000073,40.56100571915185],[-7.053039027800075,40.5599999999999],[-7.020000000000074,40.55523260447439],[-6.980000000000075,40.54950394340011],[-6.940000000000076,40.54381845145429],[-6.900000000000077,40.5381761568675],[-6.8600000000000785,40.532577087289766],[-6.820000000000078,40.527021269789984],[-6.780000000000079,40.52150873085573],[-6.768965497753589,40.51999999999991],[-6.74000000000008,40.516044670227885],[-6.700000000000081,40.510625856799464],[-6.660000000000082,40.505250344761556],[-6.620000000000083,40.499918158170516],[-6.580000000000084,40.494629320500685],[-6.540000000000084,40.489383854644124],[-6.500000000000085,40.48418178291039],[-6.46757454591264,40.479999999999905],[-6.460000000000086,40.479024403281635],[-6.420000000000087,40.473915869184076],[-6.380000000000088,40.468850739029534],[-6.340000000000089,40.46382903270217],[-6.3000000000000895,40.45885076950398],[-6.26000000000009,40.453915968154746],[-6.220000000000091,40.449024646791955],[-6.180000000000092,40.44417682297069],[-6.14522435004292,40.439999999999905],[-6.140000000000093,40.43937333365961],[-6.100000000000094,40.434618778229286],[-6.060000000000095,40.42990771541027],[-6.0200000000000955,40.425240160344636],[-5.980000000000096,40.42061612759353],[-5.940000000000097,40.416035631137326],[-5.900000000000098,40.4114986843758],[-5.860000000000099,40.40700530012816],[-5.8200000000001,40.40255549063336],[-5.796801173234883,40.399999999999906],[-5.780000000000101,40.39815168698635],[-5.7400000000001015,40.39379476634709],[-5.700000000000102,40.38948139911116],[-5.660000000000103,40.38521159512575],[-5.620000000000104,40.38098536366039],[-5.580000000000105,40.376802713407145],[-5.540000000000106,40.37266365248108]]}},{"type":"Feature","properties":{"magnitude":0.6,"percentagem":60.0,"territorio":"acores"},"geometry":{"type":"LineString","coordinates":[[-32.0,37.60227187416821],[-31.99565101978824,37.599999999999966],[-31.96,37.581383263215656],[-31.919999999999998,37.56049044968693],[-31.919060892518587,37.55999999999997],[-31.880000000000003,37.539608178052575],[-31.842449476385156,37.51999999999997],[-31.840000000000003,37.51872141568027],[-31.800000000000008,37.497844667162],[-31.765816857611256,37.47999999999997],[-31.760000000000005,37.476964573547036],[-31.720000000000006,37.45609318272244],[-31.689162796369654,37.43999999999997],[-31.680000000000007,37.43521997971449],[-31.64000000000001,37.414354180167855],[-31.612486507120316,37.39999999999997],[-31.60000000000001,37.393488091072754],[-31.56000000000001,37.37262811819525],[-31.535787196666575,37.35999999999997],[-31.52000000000001,37.35176936777779],[-31.48000000000001,37.33091545877262],[-31.4590640640278,37.31999999999997],[-31.440000000000012,37.31006427325904],[-31.400000000000013,37.28921666714602],[-31.38231630031043,37.27999999999997],[-31.360000000000014,37.2683732742265],[-31.320000000000018,37.247532211846604],[-31.30554308857655,37.239999999999974],[-31.280000000000015,37.22669684067747],[-31.240000000000016,37.205862564697455],[-31.228743603709546,37.199999999999974],[-31.200000000000017,37.18503544590318],[-31.160000000000018,37.1642082008197],[-31.151917012277984,37.159999999999975],[-31.12000000000002,37.14338956649498],[-31.080000000000016,37.122569598638805],[-31.075062472396244,37.11999999999997],[-31.04000000000002,37.101759682350185],[-31.00000000000002,37.080947239890136],[-30.99817913358307,37.07999999999997],[-30.960000000000022,37.060146276677614],[-30.9212653315224,37.03999999999998],[-30.920000000000023,37.03934214009229],[-30.880000000000024,37.01854983600276],[-30.84431984202624,36.99999999999998],[-30.840000000000025,36.99775500588665],[-30.800000000000026,36.97697085017266],[-30.767342936983887,36.95999999999998],[-30.760000000000026,36.956185565152545],[-30.720000000000027,36.93540981236042],[-30.69033373081554,36.91999999999998],[-30.680000000000028,36.91463431254009],[-30.64000000000003,36.8938672190692],[-30.61329132862511,36.87999999999998],[-30.60000000000003,36.87310174603037],[-30.56000000000003,36.85234357013605],[-30.536214826042595,36.83999999999998],[-30.52000000000003,36.831588366938824],[-30.480000000000032,36.810839368735316],[-30.459103309063323,36.79999999999998],[-30.440000000000033,36.7900946799185],[-30.400000000000034,36.76935512138149],[-30.381955853884293,36.759999999999984],[-30.360000000000035,36.74862119296278],[-30.32000000000004,36.727891337931794],[-30.304771526737433,36.719999999999985],[-30.280000000000037,36.707168417407765],[-30.240000000000038,36.686448531588574],[-30.227549383719264,36.679999999999986],[-30.20000000000004,36.66573686793422],[-30.16000000000004,36.64502721890074],[-30.150288470617912,36.639999999999986],[-30.12000000000004,36.62432706256924],[-30.080000000000044,36.60362791976538],[-30.072987822736238,36.59999999999999],[-30.040000000000042,36.582939522687205],[-30.000000000000043,36.56225115742844],[-29.995646464712163,36.55999999999999],[-29.960000000000043,36.541574773010566],[-29.920000000000044,36.520897458485564],[-29.918263410334408,36.51999999999999],[-29.880000000000045,36.50023334161018],[-29.840837067710286,36.47999999999999],[-29.840000000000046,36.47956769970776],[-29.800000000000047,36.45891575990493],[-29.763365801829455,36.43999999999999],[-29.760000000000048,36.43826276725583],[-29.720000000000045,36.41762256266127],[-29.685849816828544,36.39999999999999],[-29.68000000000005,36.39698247772123],[-29.64000000000005,36.376354287992065],[-29.608288082427183,36.35999999999999],[-29.60000000000005,36.355727370685905],[-29.560000000000052,36.335111477355],[-29.530679556564298,36.31999999999999],[-29.520000000000053,36.314497989074326],[-29.480000000000054,36.29389467555054],[-29.453023185192656,36.279999999999994],[-29.440000000000055,36.27329487915138],[-29.400000000000055,36.252704430719405],[-29.375317902070165,36.239999999999995],[-29.360000000000056,36.232118590519455],[-29.320000000000057,36.211541294339604],[-29.2975626285463,36.199999999999996],[-29.280000000000058,36.190969676115245],[-29.24000000000006,36.170405821222765],[-29.219756273344927,36.16],[-29.20000000000006,36.149848692205964],[-29.16000000000006,36.12929856951021],[-29.14189773234251,36.11999999999999],[-29.12000000000006,36.10875619838497],[-29.080000000000062,36.08822010066841],[-29.06398588834192,36.08],[-29.040000000000063,36.06769275756699],[-29.000000000000064,36.04717097948386],[-28.986019610841684,36.04],[-28.960000000000065,36.02665893598285],[-28.920000000000066,36.006151774057415],[-28.907997755801013,36.0]]}},{"type":"Feature","properties":{"magnitude":0.6,"percentagem":60.0,"territorio":"madeira"},"geometry":{"type":"LineString","coordinates":[[-18.0,30.976498226335327],[-17.96,30.961313737085185],[-17.92,30.946156959537426],[-17.903719239269076,30.93999999999997],[-17.880000000000003,30.931035184414732],[-17.840000000000003,30.915946261516833],[-17.800000000000004,30.900885378550345],[-17.79764364408361,30.89999999999997],[-17.760000000000005,30.88586397437808],[-17.720000000000006,30.87087153458583],[-17.69093790791887,30.85999999999997],[-17.680000000000007,30.855910738126752],[-17.640000000000008,30.84098711100691],[-17.60000000000001,30.82609206531312],[-17.583606369487434,30.819999999999972],[-17.56000000000001,30.8112327408785],[-17.52000000000001,30.796407089028197],[-17.48000000000001,30.781610342411142],[-17.475637389263046,30.779999999999973],[-17.440000000000012,30.76685315848136],[-17.400000000000013,30.75212638236892],[-17.36699632634805,30.739999999999974],[-17.360000000000014,30.737430894555395],[-17.320000000000014,30.722774449755335],[-17.280000000000015,30.70814744341245],[-17.257672309170033,30.699999999999974],[-17.240000000000016,30.69355515795493],[-17.200000000000017,30.678999051488162],[-17.160000000000018,30.66447270225637],[-17.14765677589363,30.659999999999975],[-17.12000000000002,30.64998426344392],[-17.08000000000002,30.635529377695235],[-17.04000000000002,30.621104565972956],[-17.036930046209626,30.619999999999976],[-17.00000000000002,30.60672060863827],[-16.960000000000022,30.592367818882284],[-16.925457872906122,30.579999999999977],[-16.920000000000023,30.57804698732952],[-16.880000000000024,30.56376656716194],[-16.840000000000025,30.549516741311294],[-16.813226597350386,30.539999999999978],[-16.800000000000026,30.535301394806055],[-16.760000000000026,30.521124487915607],[-16.720000000000027,30.506978486269993],[-16.70022196831237,30.49999999999998],[-16.680000000000028,30.492869233227577],[-16.64000000000003,30.4787966943494],[-16.60000000000003,30.464755369345703],[-16.586421227178985,30.45999999999998],[-16.56000000000003,30.450752807897988],[-16.52000000000003,30.43678548374021],[-16.480000000000032,30.422849679703674],[-16.471800726752356,30.41999999999998],[-16.440000000000033,30.408954397478034],[-16.400000000000034,30.39509312647392],[-16.360000000000035,30.38126367937075],[-16.35633588918907,30.37999999999998],[-16.320000000000036,30.367476253271544],[-16.280000000000037,30.353721865333334],[-16.240001158417684,30.339999999999982],[-16.240000000000038,30.339999602844845],[-16.20000000000004,30.32632059851786],[-16.16000000000004,30.312673914792054],[-16.122762363659557,30.299999999999983],[-16.12000000000004,30.299060412310823],[-16.08000000000004,30.285489627690446],[-16.040000000000042,30.271951460314938],[-16.004601832801818,30.259999999999984],[-16.000000000000043,30.258447265055953],[-15.960000000000043,30.244985505802518],[-15.920000000000044,30.231556657665593],[-15.885490969846872,30.219999999999985],[-15.880000000000045,30.2181623053525],[-15.840000000000046,30.204810367719965],[-15.800000000000047,30.19149163222165],[-15.765400009654488,30.179999999999986],[-15.760000000000048,30.178207646883532],[-15.720000000000049,30.164966317482406],[-15.68000000000005,30.151758478297808],[-15.64429795974414,30.139999999999986],[-15.64000000000005,30.138585372069905],[-15.600000000000051,30.125455427632446],[-15.560000000000052,30.11235925847774],[-15.522152538631415,30.099999999999987],[-15.520000000000053,30.099297531405888],[-15.480000000000054,30.08627973855397],[-15.440000000000055,30.073296002955015],[-15.400000000000057,30.060346422716684],[-15.398926928742233,30.059999999999988],[-15.360000000000056,30.047441257819955],[-15.320000000000057,30.034570708883507],[-15.280000000000058,30.02173459317138],[-15.274579332536552,30.01999999999999],[-15.240000000000059,30.008941959550043],[-15.20000000000006,29.996185339738183],[-15.16000000000006,29.9834634277341],[-15.149079260781587,29.979999999999986],[-15.120000000000061,29.970783783778717],[-15.080000000000064,29.958141824686237],[-15.040000000000063,29.945534844627517]]}}]}