{"type":"FeatureCollection","features":[{"type":"Feature","properties":{"magnitude":0.5,"de":0.5,"ate":0.8,"percentagem":50.0},"geometry":{"type":"Polygon","coordinates":[[[-34.5,30.0],[-3.5399999999988268,30.0],[-3.5399999999988268,35.42304749341623],[-7.8599999999989905,35.52137147149666],[-11.999999999999147,35.765760840570856],[-14.039999999999225,35.9455102526345],[-16.0199999999993,36.160209880978826],[-17.999999999999375,36.41661912984026],[-19.919999999999447,36.7071108088777],[-21.779999999999518,37.02963951955197],[-23.63999999999959,37.39437550408975],[-25.487290539043926,37.799999999999834],[-27.299999999999727,38.241498134128335],[-29.099999999999795,38.723678362666085],[-30.899999999999864,39.25040258303635],[-32.69999999999993,39.82225985420601],[-34.5,40.43937681205405],[-34.5,30.0]]]}},{"type":"Feature","properties":{"magnitude":0.8,"de":0.8,"ate":0.95,"percentagem":80.0},"geometry":{"type":"Polygon","coordinates":[[[-5.981549039863374,35.45999999999988],[-3.5399999999988268,35.42304749341623],[-3.5399999999988268,43.826523255946896],[-6.659999999998945,43.97261136717625],[-9.659999999999059,44.20509757263837],[-12.59999999999917,44.52760486921838],[-15.471536531535454,44.939999999999685],[-34.5,44.939999999999685],[-34.5,40.43937681205405],[-32.87999999999994,39.88193716341533],[-29.75999999999982,38.91160130615314],[-26.5799999999997,38.060903974136565],[-23.339999999999577,37.33262302620129],[-20.099999999999454,36.73652752180705],[-16.739999999999327,36.24850995887961],[-13.259999999999195,35.871935298390945],[-9.659999999999059,35.60857869674068],[-5.981549039863374,35.45999999999988]]]}},{"type":"Feature","properties":{"magnitude":0.95,"de":0.95,"ate":0.99,"percentagem":95.0},"geometry":{"type":"Polygon","coordinates":[[[-7.31999999999897,44.0157679024533],[-3.5399999999988268,43.826523255946896],[-3.5399999999988268,44.939999999999685],[-15.471536531535454,44.939999999999685],[-12.779999999999177,44.550564934171724],[-10.079999999999075,44.245267624014545],[-7.31999999999897,44.0157679024533]]]}}]}