{"type":"FeatureCollection","properties":{"largura_maxima_km":208.839,"largura_sobre_pt_km":206.655,"linha_central_sobre_pt":false,"desenhavel_como_area":true,"perfil_largura":[{"t":1.26111,"lat":36.2494,"lon":-39.8951,"largura_km":208.839,"eixo_na_terra":true},{"t":1.26667,"lat":36.1826,"lon":-39.7275,"largura_km":208.794,"eixo_na_terra":true},{"t":1.27222,"lat":36.1153,"lon":-39.5597,"largura_km":208.749,"eixo_na_terra":true},{"t":1.27778,"lat":36.0475,"lon":-39.3915,"largura_km":208.703,"eixo_na_terra":true},{"t":1.28333,"lat":35.9794,"lon":-39.2231,"largura_km":208.656,"eixo_na_terra":true},{"t":1.28889,"lat":35.9108,"lon":-39.0543,"largura_km":208.608,"eixo_na_terra":true},{"t":1.29444,"lat":35.8417,"lon":-38.8853,"largura_km":208.559,"eixo_na_terra":true},{"t":1.3,"lat":35.7722,"lon":-38.7159,"largura_km":208.509,"eixo_na_terra":true},{"t":1.30556,"lat":35.7023,"lon":-38.5463,"largura_km":208.459,"eixo_na_terra":true},{"t":1.31111,"lat":35.6319,"lon":-38.3763,"largura_km":208.407,"eixo_na_terra":true},{"t":1.31667,"lat":35.5611,"lon":-38.2059,"largura_km":208.355,"eixo_na_terra":true},{"t":1.32222,"lat":35.4898,"lon":-38.0353,"largura_km":208.301,"eixo_na_terra":true},{"t":1.32778,"lat":35.4181,"lon":-37.8643,"largura_km":208.247,"eixo_na_terra":true},{"t":1.33333,"lat":35.3459,"lon":-37.6929,"largura_km":208.192,"eixo_na_terra":true},{"t":1.33889,"lat":35.2732,"lon":-37.5212,"largura_km":208.136,"eixo_na_terra":true},{"t":1.34444,"lat":35.2001,"lon":-37.3491,"largura_km":208.079,"eixo_na_terra":true},{"t":1.35,"lat":35.1265,"lon":-37.1766,"largura_km":208.022,"eixo_na_terra":true},{"t":1.35556,"lat":35.0524,"lon":-37.0038,"largura_km":207.963,"eixo_na_terra":true},{"t":1.36111,"lat":34.9779,"lon":-36.8305,"largura_km":207.904,"eixo_na_terra":true},{"t":1.36667,"lat":34.9028,"lon":-36.6569,"largura_km":207.844,"eixo_na_terra":true},{"t":1.37222,"lat":34.8273,"lon":-36.4828,"largura_km":207.784,"eixo_na_terra":true},{"t":1.37778,"lat":34.7513,"lon":-36.3084,"largura_km":207.722,"eixo_na_terra":true},{"t":1.38333,"lat":34.6748,"lon":-36.1335,"largura_km":207.659,"eixo_na_terra":true},{"t":1.38889,"lat":34.5978,"lon":-35.9581,"largura_km":207.595,"eixo_na_terra":true},{"t":1.39444,"lat":34.5203,"lon":-35.7824,"largura_km":207.53,"eixo_na_terra":true},{"t":1.4,"lat":34.4424,"lon":-35.6061,"largura_km":207.464,"eixo_na_terra":true},{"t":1.40556,"lat":34.3639,"lon":-35.4294,"largura_km":207.397,"eixo_na_terra":true},{"t":1.41111,"lat":34.2848,"lon":-35.2523,"largura_km":207.328,"eixo_na_terra":true},{"t":1.41667,"lat":34.2053,"lon":-35.0746,"largura_km":207.259,"eixo_na_terra":true},{"t":1.42222,"lat":34.1253,"lon":-34.8965,"largura_km":207.188,"eixo_na_terra":true},{"t":1.42778,"lat":34.0447,"lon":-34.7178,"largura_km":207.116,"eixo_na_terra":true},{"t":1.43333,"lat":33.9636,"lon":-34.5386,"largura_km":207.042,"eixo_na_terra":true},{"t":1.43889,"lat":33.882,"lon":-34.3589,"largura_km":206.967,"eixo_na_terra":true},{"t":1.44444,"lat":33.7998,"lon":-34.1787,"largura_km":206.891,"eixo_na_terra":true},{"t":1.45,"lat":33.7171,"lon":-33.9979,"largura_km":206.814,"eixo_na_terra":true},{"t":1.45556,"lat":33.6338,"lon":-33.8166,"largura_km":206.736,"eixo_na_terra":true},{"t":1.46111,"lat":33.55,"lon":-33.6347,"largura_km":206.655,"eixo_na_terra":true},{"t":1.46667,"lat":33.4656,"lon":-33.4522,"largura_km":206.574,"eixo_na_terra":true},{"t":1.47222,"lat":33.3806,"lon":-33.2691,"largura_km":206.491,"eixo_na_terra":true},{"t":1.47778,"lat":33.2951,"lon":-33.0853,"largura_km":206.407,"eixo_na_terra":true},{"t":1.48333,"lat":33.209,"lon":-32.901,"largura_km":206.321,"eixo_na_terra":true},{"t":1.48889,"lat":33.1223,"lon":-32.716,"largura_km":206.234,"eixo_na_terra":true},{"t":1.49444,"lat":33.035,"lon":-32.5304,"largura_km":206.146,"eixo_na_terra":true},{"t":1.5,"lat":32.9471,"lon":-32.3441,"largura_km":206.055,"eixo_na_terra":true},{"t":1.50556,"lat":32.8586,"lon":-32.1571,"largura_km":205.964,"eixo_na_terra":true},{"t":1.51111,"lat":32.7696,"lon":-31.9694,"largura_km":205.87,"eixo_na_terra":true},{"t":1.51667,"lat":32.6799,"lon":-31.781,"largura_km":205.776,"eixo_na_terra":true},{"t":1.52222,"lat":32.5895,"lon":-31.5919,"largura_km":205.679,"eixo_na_terra":true},{"t":1.52778,"lat":32.4986,"lon":-31.4021,"largura_km":205.581,"eixo_na_terra":true},{"t":1.53333,"lat":32.407,"lon":-31.2114,"largura_km":205.481,"eixo_na_terra":true},{"t":1.53889,"lat":32.3147,"lon":-31.02,"largura_km":205.379,"eixo_na_terra":true},{"t":1.54444,"lat":32.2218,"lon":-30.8278,"largura_km":205.276,"eixo_na_terra":true},{"t":1.55,"lat":32.1283,"lon":-30.6348,"largura_km":205.171,"eixo_na_terra":true},{"t":1.55556,"lat":32.034,"lon":-30.441,"largura_km":205.064,"eixo_na_terra":true},{"t":1.56111,"lat":31.9391,"lon":-30.2463,"largura_km":204.955,"eixo_na_terra":true},{"t":1.56667,"lat":31.8435,"lon":-30.0508,"largura_km":204.844,"eixo_na_terra":true},{"t":1.57222,"lat":31.7472,"lon":-29.8543,"largura_km":204.732,"eixo_na_terra":true},{"t":1.57778,"lat":31.6502,"lon":-29.6569,"largura_km":204.617,"eixo_na_terra":true},{"t":1.58333,"lat":31.5525,"lon":-29.4586,"largura_km":204.501,"eixo_na_terra":true},{"t":1.58889,"lat":31.4541,"lon":-29.2594,"largura_km":204.383,"eixo_na_terra":true},{"t":1.59444,"lat":31.3549,"lon":-29.0592,"largura_km":204.263,"eixo_na_terra":true},{"t":1.6,"lat":31.2549,"lon":-28.858,"largura_km":204.142,"eixo_na_terra":true},{"t":1.60556,"lat":31.1543,"lon":-28.6557,"largura_km":204.018,"eixo_na_terra":true},{"t":1.61111,"lat":31.0528,"lon":-28.4524,"largura_km":203.892,"eixo_na_terra":true},{"t":1.61667,"lat":30.9506,"lon":-28.248,"largura_km":203.763,"eixo_na_terra":true},{"t":1.62222,"lat":30.8476,"lon":-28.0426,"largura_km":203.633,"eixo_na_terra":true},{"t":1.62778,"lat":30.7437,"lon":-27.836,"largura_km":203.5,"eixo_na_terra":true},{"t":1.63333,"lat":30.6391,"lon":-27.6282,"largura_km":203.365,"eixo_na_terra":true},{"t":1.63889,"lat":30.5336,"lon":-27.4193,"largura_km":203.227,"eixo_na_terra":true},{"t":1.64444,"lat":30.4273,"lon":-27.2091,"largura_km":203.086,"eixo_na_terra":true},{"t":1.65,"lat":30.3201,"lon":-26.9977,"largura_km":202.943,"eixo_na_terra":true},{"t":1.65556,"lat":30.2121,"lon":-26.785,"largura_km":202.798,"eixo_na_terra":true},{"t":1.66111,"lat":30.1031,"lon":-26.5711,"largura_km":202.65,"eixo_na_terra":true},{"t":1.66667,"lat":29.9933,"lon":-26.3557,"largura_km":202.499,"eixo_na_terra":true},{"t":1.67222,"lat":29.8825,"lon":-26.139,"largura_km":202.345,"eixo_na_terra":true},{"t":1.67778,"lat":29.7708,"lon":-25.9209,"largura_km":202.188,"eixo_na_terra":true},{"t":1.68333,"lat":29.6582,"lon":-25.7013,"largura_km":202.029,"eixo_na_terra":true},{"t":1.68889,"lat":29.5446,"lon":-25.4802,"largura_km":201.866,"eixo_na_terra":true},{"t":1.69444,"lat":29.43,"lon":-25.2576,"largura_km":201.701,"eixo_na_terra":true},{"t":1.7,"lat":29.3143,"lon":-25.0334,"largura_km":201.532,"eixo_na_terra":true},{"t":1.70556,"lat":29.1977,"lon":-24.8076,"largura_km":201.36,"eixo_na_terra":true},{"t":1.71111,"lat":29.08,"lon":-24.5801,"largura_km":201.185,"eixo_na_terra":true},{"t":1.71667,"lat":28.9612,"lon":-24.3509,"largura_km":201.006,"eixo_na_terra":true},{"t":1.72222,"lat":28.8413,"lon":-24.1199,"largura_km":200.824,"eixo_na_terra":true},{"t":1.72778,"lat":28.7204,"lon":-23.8872,"largura_km":200.639,"eixo_na_terra":true},{"t":1.73333,"lat":28.5982,"lon":-23.6525,"largura_km":200.45,"eixo_na_terra":true},{"t":1.73889,"lat":28.4749,"lon":-23.4159,"largura_km":200.257,"eixo_na_terra":true},{"t":1.74444,"lat":28.3504,"lon":-23.1773,"largura_km":200.06,"eixo_na_terra":true},{"t":1.75,"lat":28.2247,"lon":-22.9367,"largura_km":199.859,"eixo_na_terra":true},{"t":1.75556,"lat":28.0977,"lon":-22.694,"largura_km":199.654,"eixo_na_terra":true},{"t":1.76111,"lat":27.9695,"lon":-22.449,"largura_km":199.445,"eixo_na_terra":true},{"t":1.76667,"lat":27.8399,"lon":-22.2019,"largura_km":199.232,"eixo_na_terra":true},{"t":1.77222,"lat":27.709,"lon":-21.9524,"largura_km":199.015,"eixo_na_terra":true},{"t":1.77778,"lat":27.5767,"lon":-21.7005,"largura_km":198.793,"eixo_na_terra":true},{"t":1.78333,"lat":27.4429,"lon":-21.4461,"largura_km":198.566,"eixo_na_terra":true},{"t":1.78889,"lat":27.3077,"lon":-21.1891,"largura_km":198.334,"eixo_na_terra":true},{"t":1.79444,"lat":27.171,"lon":-20.9295,"largura_km":198.098,"eixo_na_terra":true},{"t":1.8,"lat":27.0328,"lon":-20.6671,"largura_km":197.856,"eixo_na_terra":true},{"t":1.80556,"lat":26.8929,"lon":-20.4019,"largura_km":197.609,"eixo_na_terra":true},{"t":1.81111,"lat":26.7514,"lon":-20.1337,"largura_km":197.357,"eixo_na_terra":true},{"t":1.81667,"lat":26.6083,"lon":-19.8624,"largura_km":197.099,"eixo_na_terra":true},{"t":1.82222,"lat":26.4634,"lon":-19.588,"largura_km":196.835,"eixo_na_terra":true},{"t":1.82778,"lat":26.3166,"lon":-19.3102,"largura_km":196.566,"eixo_na_terra":true},{"t":1.83333,"lat":26.1681,"lon":-19.029,"largura_km":196.29,"eixo_na_terra":true},{"t":1.83889,"lat":26.0176,"lon":-18.7442,"largura_km":196.007,"eixo_na_terra":true},{"t":1.84444,"lat":25.8651,"lon":-18.4557,"largura_km":195.718,"eixo_na_terra":true},{"t":1.85,"lat":25.7105,"lon":-18.1632,"largura_km":195.422,"eixo_na_terra":true},{"t":1.85556,"lat":25.5538,"lon":-17.8667,"largura_km":195.119,"eixo_na_terra":true},{"t":1.86111,"lat":25.3949,"lon":-17.566,"largura_km":194.808,"eixo_na_terra":true},{"t":1.86667,"lat":25.2337,"lon":-17.2608,"largura_km":194.489,"eixo_na_terra":true},{"t":1.87222,"lat":25.07,"lon":-16.9509,"largura_km":194.162,"eixo_na_terra":true}]},"features":[{"type":"Feature","properties":{},"geometry":{"type":"Polygon","coordinates":[[[-23.570520297702757,29.608118603187194],[-22.141694753575678,28.854862657127388],[-20.634930643063058,28.054855420388552],[-19.03295704503529,27.200130785235466],[-15.763356964368882,25.451742671109137],[-18.093981821994163,24.663390174950095],[-20.93195012030833,26.144627241757703],[-22.731062868688923,27.08037636357081],[-24.414024006888553,27.950039785878626],[-26.003517498760942,28.763838906227218],[-26.876479895576892,29.20678154192752],[-27.51634549913507,29.529349737900255],[-28.76185930377906,30.15149499135551],[-29.96698024696144,30.745337050453863],[-30.556093429371913,31.032407108877813],[-31.30946032644755,31.396144088526313],[-32.06917471205006,31.75893586620379],[-32.63090238360559,32.02443953137008],[-33.18620393747233,32.28450746715877],[-33.73547774127377,32.53931548922106],[-34.45910204761648,32.87115689031762],[-34.99570594369678,33.11430408869758],[-35.52741973184243,33.35268934263276],[-36.054536760977896,33.586439778727026],[-36.750681216264724,33.891100843298176],[-37.26811136902478,34.11448359568801],[-37.78179641762057,34.33359644898821],[-38.44242217409135,34.61137404345252],[-38.94824342018245,34.82096518159626],[-39.451010879378515,35.02657692782105],[-39.95090863929215,35.22828528726408],[-40.613274678782005,35.49128048301403],[-39.15201039634712,37.00171397181073],[-38.298831567741644,36.65379495091965],[-37.43812056481144,36.294594662668516],[-36.56898642404411,35.9237400145082],[-35.67136863590247,35.53244972052938],[-34.78226668823518,35.136829770260235],[-33.88145400227799,34.728143430587366],[-32.967586086853146,34.30580047888087],[-32.03915739842927,33.869133942859875],[-31.094473370288398,33.417386990714],[-30.13161579150713,32.94969675042593],[-29.148399504423622,32.465074127942636],[-28.122377409196787,31.952364754135104],[-27.090265569302403,31.43004203889927],[-26.028963713338214,30.886751656042392],[-24.93447797622366,30.320656484919372],[-23.570520297702757,29.608118603187194]]]}}]}