{"type":"FeatureCollection","features":[{"type":"Feature","properties":{"t_inicio":1.2611111111110924,"t_fim":1.8722222222222014},"geometry":{"type":"LineString","coordinates":[[-39.895109563640005,36.24943231605495],[-39.727520276173095,36.18256062974957],[-39.55965283156203,36.11525982741552],[-39.39150105787755,36.04752738962244],[-39.223058670112465,35.97936074306267],[-39.054319267394305,35.91075725923946],[-38.88527633010631,35.841714253112855],[-38.71592321691361,35.77222898170136],[-38.54625316169006,35.702298642638205],[-38.376259270342416,35.631920372679666],[-38.20593451752697,35.561091246164075],[-38.035271743254384,35.4898082734191],[-37.86426364937839,35.41806839911539],[-37.69290279596285,35.34586850056426],[-37.52118159752246,35.27320538595706],[-37.349092319131614,35.20007579254377],[-37.17662707239546,35.12647638474829],[-37.00377781127756,35.05240375221752],[-36.83053632777771,34.97785440780169],[-36.65689424745295,34.902824785462585],[-36.48284302477575,34.827311238106624],[-36.30837393832064,34.75131003533965],[-36.13347808577316,34.674817361139645],[-35.958146378751394,34.59782931144366],[-35.782369537433084,34.5203418916455],[-35.606138084977886,34.442351013999364],[-35.429442341736205,34.36385249492583],[-35.25227241923409,34.28484205221498],[-35.07461821392366,34.2053153021223],[-34.896469400687835,34.12526775635199],[-34.71781542608761,34.04469481892243],[-34.538645501338976,33.96359178290811],[-34.35894859500672,33.88195382705176],[-34.178713425400645,33.79977601224083],[-33.99792845265938,33.71705327784081],[-33.81658187050638,33.63378043787915],[-33.63466159766077,33.54995217707134],[-33.45215526888592,33.465563046681766],[-33.269050225656486,33.380607460210385],[-33.08533350642426,33.29507968889654],[-32.90099183646146,33.20897385702995],[-32.716011617258516,33.12228393705895],[-32.53037891545358,33.03500374448499],[-32.34407945126648,32.947126932531866],[-32.157098586411394,32.85864698657739],[-31.969421311458433,32.76955721833445],[-31.781032232613853,32.67985075976744],[-31.59191555788513,32.58952055672919],[-31.402055082596604,32.49855936230255],[-31.211434174217487,32.406959729829616],[-31.020035756462164,32.31471400561042],[-30.82784229262026,32.22181432125194],[-30.634835768069763,32.1282525856463],[-30.440997671924208,32.034020476556165],[-30.246308977761828,31.93910943178378],[-30.050750123378094,31.8435106398973],[-29.854300989503344,31.747215030487997],[-29.65694087741764,31.65021326392828],[-29.458648485394463,31.552495720598895],[-29.259401883896203,31.454052489551568],[-29.059178489440853,31.354873356570074],[-28.857955037051426,31.254947791590457],[-28.65570755119373,31.154264935437688],[-28.452411315099567,31.052813585832624],[-28.24804083836537,30.95058218261971],[-28.0425698227057,30.847558792161617],[-27.83597112573267,30.74373109084226],[-27.62821672262001,30.639086347615653],[-27.419277665499607,30.5336114055315],[-27.209124040424598,30.42729266216359],[-26.997724921718856,30.32011604886],[-26.785048323516264,30.212067008727026],[-26.5710611482763,30.103130473251188],[-26.35572913204237,29.993290837454595],[-26.139016786188023,29.882531933469433],[-25.92088733537173,29.770837002406925],[-25.70130265139568,29.658188664383793],[-25.4802231826327,29.544568886556576],[-25.257607878654653,29.429958948999218],[-25.033414109657116,29.31433940824322],[-24.807597580235836,29.19769005828134],[-24.580112237023855,29.079989888815387],[-24.350910169647676,28.961217040506323],[-24.119941504402703,28.841348756958567],[-23.887154289984267,28.720361333142367],[-23.65249437453781,28.598230059925502],[-23.41590527320909,28.474929164348715],[-23.177328025283515,28.350431745238804],[-22.93670103989757,28.224709703705663],[-22.69395992918686,28.097733668017298],[-22.449037327599257,27.969472912286058],[-22.201862695945835,27.83989526833052],[-21.952362108587266,27.708967029999073],[-21.700458021948208,27.576652849151003],[-21.44606902232087,27.44291562238749],[-21.189109550649874,27.307716367505716],[-20.929489601679848,27.171014088511797],[-20.6671143944902,27.032765627869086],[-20.401884011021224,26.89292550447331],[-20.133692998713173,26.751445735630476],[-19.862429932808936,26.608275641062004],[-19.587976933206733,26.463361626666153],[-19.310209129964136,26.316646945417606],[-19.02899407062887,26.16807143237699],[-18.744191061474908,26.017571210296158],[-18.45565043341358,25.8650783617268],[-18.163212721789932,25.71052056284862],[-17.8667077473975,25.55382067340429],[-17.565953583785415,25.39489627612856],[-17.260755393189868,25.23365915784736],[-16.950904110086896,25.07001472294843]]}}]}