{"type":"FeatureCollection","features":[{"type":"Feature","properties":{"magnitude":0.2,"percentagem":20.0,"territorio":"continente"},"geometry":{"type":"LineString","coordinates":[[-5.540000000000106,41.128336861155674],[-5.580000000000105,41.12454884309292],[-5.620000000000104,41.12074837341224],[-5.627851638013954,41.11999999999989],[-5.660000000000102,41.11693597478357],[-5.700000000000102,41.11311126426284],[-5.7400000000001015,41.10927412099803],[-5.780000000000101,41.10542455039165],[-5.8200000000001,41.10156255783832],[-5.860000000000099,41.09768814872474],[-5.900000000000098,41.09380132842983],[-5.940000000000097,41.089902102324615],[-5.980000000000096,41.08599047577234],[-6.0200000000000955,41.08206645412854],[-6.040999492297834,41.07999999999989],[-6.060000000000095,41.078130358845556],[-6.100000000000094,41.0741822309857],[-6.140000000000093,41.07022172670979],[-6.180000000000092,41.06624885134623],[-6.220000000000091,41.062263610215766],[-6.26000000000009,41.05826600863152],[-6.3000000000000895,41.05425605189896],[-6.340000000000089,41.05023374531605],[-6.380000000000088,41.046199094173126],[-6.420000000000087,41.04215210375301],[-6.44120767468001,41.03999999999989],[-6.460000000000086,41.038093102270565],[-6.500000000000086,41.03402213898107],[-6.540000000000084,41.02993885490075],[-6.580000000000084,41.02584325528644],[-6.620000000000083,41.02173534538756],[-6.660000000000082,41.017615130446146],[-6.700000000000081,41.01348261569684],[-6.74000000000008,41.00933780636696],[-6.780000000000079,41.005180707676466],[-6.820000000000078,41.001011324838046],[-6.829674765445503,40.99999999999989],[-6.860000000000078,40.99683020083256],[-6.900000000000077,40.99263697726323],[-6.940000000000076,40.98843148785214],[-6.980000000000075,40.98421373778704],[-7.020000000000074,40.9799837322485],[-7.060000000000073,40.97574147640992],[-7.1000000000000725,40.971486975437585],[-7.140000000000072,40.96722023449058],[-7.180000000000071,40.962941258720996],[-7.207417646343663,40.959999999999894],[-7.220000000000069,40.95865028259591],[-7.260000000000069,40.95434758408652],[-7.300000000000068,40.95003266890617],[-7.340000000000067,40.9457055421829],[-7.3800000000000665,40.94136620903775],[-7.420000000000066,40.93701467458487],[-7.460000000000065,40.93265094393144],[-7.500000000000064,40.92827502217765],[-7.540000000000063,40.92388691441688],[-7.575333764116056,40.919999999999895],[-7.580000000000063,40.91948671308144],[-7.620000000000061,40.91507499968475],[-7.6600000000000605,40.910651118285166],[-7.70000000000006,40.90621507395292],[-7.740000000000059,40.90176687175157],[-7.780000000000058,40.897306516737785],[-7.820000000000057,40.892834013961576],[-7.860000000000056,40.88834936846618],[-7.900000000000055,40.88385258528812],[-7.934178093558128,40.879999999999896],[-7.9400000000000555,40.87934378131207],[-7.980000000000054,40.87482350876267],[-8.020000000000053,40.870291116393965],[-8.060000000000052,40.865746609220366],[-8.100000000000051,40.86118999224964],[-8.14000000000005,40.856621270482975],[-8.18000000000005,40.85204044891503],[-8.220000000000049,40.847447532533884],[-8.260000000000048,40.84284252632115],[-8.284627290884668,40.8399999999999],[-8.300000000000047,40.838225738216636],[-8.340000000000046,40.8335973581047],[-8.380000000000045,40.828956905890465],[-8.420000000000044,40.824304386534216],[-8.460000000000043,40.81963980498982],[-8.500000000000043,40.8149631662048],[-8.540000000000042,40.810274475120224],[-8.580000000000041,40.80557373667087],[-8.62000000000004,40.800860955785154],[-8.627289538544465,40.7999999999999],[-8.66000000000004,40.79613679828353],[-8.700000000000038,40.79140075822424],[-8.740000000000038,40.78665269333035],[-8.780000000000037,40.781892608509814],[-8.820000000000036,40.77712050866437],[-8.860000000000035,40.77233639868955],[-8.900000000000034,40.76754028347471],[-8.940000000000033,40.76273216790293],[-8.962674307593003,40.7599999999999],[-8.980000000000032,40.75791241451293],[-9.020000000000032,40.75308114117449],[-9.06000000000003,40.748237884973264],[-9.10000000000003,40.74338265077266],[-9.140000000000029,40.738515443430046],[-9.180000000000028,40.733636267796825],[-9.220000000000027,40.7287451287182],[-9.260000000000026,40.72384203103345],[-9.291268341635472,40.7199999999999],[-9.300000000000026,40.71892716366932],[-9.340000000000025,40.71400100909175],[-9.380000000000024,40.709062913299434],[-9.420000000000023,40.70411288111269],[-9.460000000000022,40.69915091734585],[-9.500000000000021,40.69417702680737],[-9.54000000000002,40.68919121429981],[-9.58000000000002,40.68419348461988],[-9.61348400741282,40.67999999999991],[-9.62000000000002,40.67918398281296],[-9.660000000000016,40.67416329661195],[-9.700000000000017,40.66913071053216],[-9.740000000000016,40.66408622935198],[-9.780000000000015,40.65902985784406],[-9.820000000000014,40.653961600775325],[-9.860000000000014,40.648881462906886],[-9.900000000000013,40.64378944899421],[-9.929699534371787,40.6399999999999],[-9.940000000000012,40.63868579005886],[-9.980000000000011,40.63357091952504],[-10.02000000000001,40.628444190147476],[-10.06000000000001,40.623305606664005],[-10.100000000000009,40.61815517380686],[-10.140000000000008,40.61299289630265],[-10.180000000000007,40.607818778872385],[-10.220000000000006,40.602632826231485],[-10.240262452936316,40.599999999999895],[-10.260000000000005,40.59743548542815],[-10.300000000000004,40.592226775623864],[-10.340000000000003,40.587006247721014],[-10.380000000000003,40.581773906418135],[-10.420000000000002,40.57652975640829],[-10.46,40.57127380237905],[-10.5,40.56600604901248]]}},{"type":"Feature","properties":{"magnitude":0.2,"percentagem":20.0,"territorio":"acores"},"geometry":{"type":"LineString","coordinates":[[-24.04000000000017,38.148236751090344],[-24.08000000000017,38.13932764183059],[-24.120000000000168,38.13040839843461],[-24.160000000000167,38.12147902485245],[-24.166618803199356,38.119999999999955],[-24.200000000000166,38.11254096108544],[-24.240000000000165,38.103593064256884],[-24.280000000000165,38.09463505385665],[-24.320000000000164,38.08566693383438],[-24.34524892642621,38.079999999999956],[-24.36000000000016,38.07668934640333],[-24.400000000000162,38.06770275346341],[-24.44000000000016,38.05870606753673],[-24.48000000000016,38.04969929257261],[-24.52000000000016,38.040682432518274],[-24.52302442324705,38.03999999999996],[-24.56000000000016,38.0316571033291],[-24.600000000000158,38.02262183348408],[-24.640000000000157,38.0135764952069],[-24.680000000000156,38.00452109244455],[-24.69995022564417,37.99999999999996],[-24.720000000000155,37.99545650827125],[-24.760000000000154,37.98638274624775],[-24.800000000000153,37.977298936418435],[-24.840000000000153,37.968205082730144],[-24.876051435948696,37.95999999999996],[-24.88000000000015,37.95910136325403],[-24.92000000000015,37.9499892009253],[-24.96000000000015,37.940867011438456],[-25.00000000000015,37.931734798740216],[-25.04000000000015,37.922592566775215],[-25.051332128684212,37.91999999999996],[-25.080000000000148,37.9134415931712],[-25.120000000000147,37.904281116056545],[-25.160000000000146,37.89511063639976],[-25.200000000000145,37.88593015814546],[-25.225811474736638,37.87999999999996],[-25.24000000000014,37.87674031920497],[-25.280000000000143,37.86754164662869],[-25.320000000000142,37.85833299220156],[-25.36000000000014,37.849114359868224],[-25.3995048936295,37.83999999999996],[-25.40000000000014,37.839885775819056],[-25.44000000000014,37.830649000085224],[-25.48000000000014,37.82140226321408],[-25.520000000000138,37.812145569150346],[-25.560000000000137,37.802878921836786],[-25.572415056583853,37.79999999999996],[-25.600000000000136,37.793603573938256],[-25.640000000000136,37.78431884708884],[-25.680000000000135,37.77502418378302],[-25.720000000000134,37.765719587963716],[-25.7445635225352,37.75999999999996],[-25.760000000000133,37.75640576628905],[-25.800000000000132,37.74708314206772],[-25.84000000000013,37.737750602149006],[-25.88000000000013,37.72840815047606],[-25.91596219852661,37.71999999999997],[-25.92000000000013,37.719055975834934],[-25.96000000000013,37.70969554698994],[-26.000000000000128,37.70032522322964],[-26.040000000000127,37.69094500849744],[-26.080000000000126,37.68155490673481],[-26.086617512205798,37.679999999999964],[-26.120000000000125,37.67215646129884],[-26.160000000000124,37.66274844661143],[-26.200000000000124,37.65333056175779],[-26.240000000000123,37.64390281067973],[-26.25654305670828,37.639999999999965],[-26.280000000000122,37.63446628504834],[-26.320000000000125,37.62502067249255],[-26.36000000000012,37.61556521059977],[-26.40000000000012,37.60609990331219],[-26.425752624166652,37.599999999999966],[-26.44000000000012,37.596625418909085],[-26.480000000000118,37.58714230168898],[-26.520000000000117,37.57764935598487],[-26.560000000000116,37.56814658573937],[-26.59425679421655,37.55999999999997],[-26.600000000000115,37.55863426417456],[-26.640000000000114,37.54911373564048],[-26.680000000000113,37.539583399499335],[-26.720000000000113,37.5300432596942],[-26.76000000000011,37.520493320166366],[-26.762064469617417,37.51999999999997],[-26.80000000000011,37.51093537641633],[-26.84000000000011,37.50136774335979],[-26.88000000000011,37.49179032754092],[-26.92000000000011,37.482203132901475],[-26.929183744497756,37.47999999999997],[-26.960000000000107,37.472607626720695],[-27.000000000000107,37.46300279041871],[-27.040000000000106,37.45338819228037],[-27.080000000000105,37.443763836248024],[-27.09562864077955,37.43999999999997],[-27.120000000000104,37.43413088989786],[-27.160000000000103,37.424488944169475],[-27.200000000000102,37.41483725755522],[-27.2400000000001,37.405175833998086],[-27.261408884266167,37.39999999999997],[-27.2800000000001,37.3955055699373],[-27.3200000000001,37.38582660875139],[-27.3600000000001,37.3761379276548],[-27.400000000000098,37.36643953059118],[-27.426534005881223,37.35999999999997],[-27.440000000000097,37.35673207147833],[-27.480000000000096,37.347016188954356],[-27.520000000000095,37.33729060751974],[-27.560000000000095,37.32755533111886],[-27.591013346481958,37.31999999999997],[-27.600000000000094,37.31781079981461],[-27.640000000000093,37.30805809022337],[-27.680000000000092,37.29829570274649],[-27.72000000000009,37.28852364132906],[-27.754856061532244,37.27999999999997],[-27.76000000000009,37.27874216089853],[-27.80000000000009,37.268952718662675],[-27.84000000000009,37.25915361959133],[-27.880000000000088,37.24934486763034],[-27.91807112563896,37.239999999999974],[-27.920000000000087,37.23952656134511],[-27.960000000000086,37.2297004810399],[-28.000000000000085,37.21986476497452],[-28.040000000000084,37.210019417095666],[-28.080000000000084,37.20016444134824],[-28.080666898208793,37.199999999999974],[-28.120000000000083,37.190301784789696],[-28.160000000000082,37.18042954648392],[-28.20000000000008,37.17054769746623],[-28.24000000000008,37.16065624168237],[-28.242651592235898,37.159999999999975],[-28.28000000000008,37.15075703801739],[-28.32000000000008,37.140848372378564],[-28.360000000000078,37.13093011715486],[-28.400000000000077,37.12100227629286],[-28.40403492872625,37.119999999999976],[-28.440000000000072,37.11106664950235],[-28.480000000000075,37.10112165159193],[-28.520000000000074,37.09116708524925],[-28.560000000000073,37.081202954421826],[-28.564825185873147,37.07999999999998],[-28.600000000000072,37.07123102870098],[-28.64000000000007,37.06124979373502],[-28.68000000000007,37.051259011515086],[-28.72000000000007,37.041258685989625],[-28.7250304823035,37.03999999999998],[-28.76000000000007,37.03125058574976],[-28.800000000000068,37.021233209099236],[-28.840000000000067,37.01120630639877],[-28.880000000000067,37.00116988159778],[-28.88465878087451,36.99999999999998],[-28.920000000000066,36.991125731467875],[-28.960000000000065,36.98107230865902],[-29.000000000000064,36.971009381030115],[-29.040000000000063,36.96093695253152],[-29.043717892363095,36.95999999999998],[-29.080000000000066,36.95085687735968],[-29.12000000000006,36.9407675040743],[-29.16000000000006,36.93066864722465],[-29.20000000000006,36.92056031076209],[-29.20221547905203,36.91999999999998],[-29.24000000000006,36.910444435617045],[-29.280000000000058,36.90031920769279],[-29.320000000000057,36.890184517485935],[-29.360000000000056,36.88004036894893],[-29.360159058216485,36.87999999999998],[-29.400000000000055,36.86988881912133],[-29.440000000000055,36.85972783255181],[-29.480000000000054,36.84955740500744],[-29.51755451920172,36.83999999999998],[-29.52000000000005,36.83937766691277],[-29.560000000000052,36.82919044144525],[-29.60000000000005,36.81899379238034],[-29.64000000000005,36.80878772367434],[-29.67441019031407,36.79999999999998],[-29.68000000000005,36.79857252987016],[-29.72000000000005,36.78834971685465],[-29.760000000000048,36.77811750160051],[-29.800000000000047,36.767875888065134],[-29.830733283648843,36.759999999999984],[-29.840000000000046,36.75762536443681],[-29.880000000000045,36.74736706030981],[-29.920000000000044,36.737099375329066],[-29.960000000000043,36.726822313453034],[-29.98653078134957,36.719999999999985],[-30.00000000000004,36.71653658611231],[-30.040000000000042,36.70624288746682],[-30.08000000000004,36.69593982937855],[-30.12000000000004,36.685627415807076],[-30.141809536229605,36.679999999999986],[-30.160000000000036,36.67530661109307],[-30.20000000000004,36.664977614678556],[-30.240000000000038,36.654639280258365],[-30.280000000000037,36.6442916117932],[-30.296576274734306,36.639999999999986],[-30.320000000000036,36.63393585627327],[-30.360000000000035,36.62357165899565],[-30.400000000000034,36.613198145175616],[-30.440000000000033,36.60281531877499],[-30.450837599822705,36.59999999999999],[-30.480000000000032,36.59242473924541],[-30.52000000000003,36.58202543816709],[-30.56000000000003,36.57161684203572],[-30.60000000000003,36.5611989548143],[-30.60459999377222,36.55999999999999],[-30.64000000000003,36.55077367830105],[-30.680000000000028,36.54033937064075],[-30.720000000000027,36.529895789442925],[-30.757868609858257,36.51999999999999],[-30.760000000000026,36.519443053335515],[-30.800000000000026,36.50898309243099],[-30.840000000000025,36.49851387556366],[-30.880000000000024,36.488035406700476],[-30.910648062271406,36.47999999999999],[-30.920000000000023,36.477548195472615],[-30.960000000000022,36.46705340132555],[-31.00000000000002,36.45654937278223],[-31.04000000000002,36.44603611381083],[-31.062947134863116,36.43999999999999],[-31.08000000000002,36.435514555103225],[-31.12000000000002,36.42498502537442],[-31.160000000000018,36.41444628284205],[-31.200000000000017,36.403898331475425],[-31.214771863068847,36.39999999999999],[-31.240000000000016,36.39334255316053],[-31.280000000000015,36.38277838566658],[-31.320000000000014,36.37220502698776],[-31.360000000000014,36.361622481094614],[-31.366128174299078,36.35999999999999],[-31.400000000000013,36.35103261127693],[-31.440000000000012,36.340433903989826],[-31.48000000000001,36.32982602716262],[-31.517020265558955,36.31999999999999],[-31.520000000000014,36.31920914889242],[-31.56000000000001,36.30858515178337],[-31.60000000000001,36.2979520028303],[-31.640000000000008,36.28730970600782],[-31.667451946302965,36.279999999999994],[-31.680000000000007,36.27665895989709],[-31.720000000000006,36.26600059770867],[-31.760000000000005,36.255333105371705],[-31.800000000000004,36.244656486861935],[-31.817432214583672,36.239999999999995],[-31.840000000000003,36.23397200163579],[-31.880000000000003,36.22327937277871],[-31.92,36.21257763549439],[-31.96,36.20186679375978],[-31.966966597024054,36.199999999999996],[-32.0,36.191148698376196]]}},{"type":"Feature","properties":{"magnitude":0.4,"percentagem":40.0,"territorio":"madeira"},"geometry":{"type":"LineString","coordinates":[[-15.040000000000063,33.62399767160952],[-15.06204385110407,33.61999999999991],[-15.08000000000006,33.6167436126261],[-15.120000000000061,33.6094785864947],[-15.16000000000006,33.60220213136332],[-15.20000000000006,33.59491425378238],[-15.240000000000059,33.58761496029711],[-15.280000000000058,33.58030425744769],[-15.281662330204007,33.57999999999991],[-15.320000000000057,33.572982978091815],[-15.360000000000056,33.56565034157446],[-15.400000000000055,33.5583063186439],[-15.440000000000055,33.55095091582664],[-15.480000000000054,33.543584139644096],[-15.499432373566584,33.539999999999914],[-15.520000000000053,33.53620644450711],[-15.560000000000052,33.52881781503724],[-15.600000000000051,33.52141783512252],[-15.64000000000005,33.514006511270935],[-15.68000000000005,33.506583849985496],[-15.715426158286347,33.499999999999915],[-15.72000000000005,33.49914995839122],[-15.760000000000048,33.49170552414349],[-15.800000000000047,33.484249775352765],[-15.840000000000046,33.476782718508815],[-15.880000000000045,33.46930436009642],[-15.920000000000044,33.46181470659544],[-15.929678144488285,33.459999999999916],[-15.960000000000043,33.45431444012282],[-16.000000000000043,33.44680311031531],[-16.040000000000042,33.439280508273406],[-16.08000000000004,33.43174664046402],[-16.12000000000004,33.42420151334912],[-16.142242126844874,33.419999999999916],[-16.16000000000004,33.41664553309026],[-16.20000000000004,33.409078809884264],[-16.240000000000038,33.401500850199405],[-16.280000000000037,33.39391166048493],[-16.320000000000036,33.3863112471852],[-16.35316705270981,33.37999999999992],[-16.360000000000035,33.37869977209261],[-16.400000000000034,33.37107784287349],[-16.440000000000033,33.36344471286904],[-16.480000000000032,33.355800388511156],[-16.52000000000003,33.348144876226826],[-16.56000000000003,33.34047818243831],[-16.562491521433834,33.33999999999992],[-16.60000000000003,33.332801177081535],[-16.64000000000003,33.325113063856946],[-16.680000000000028,33.31741379189472],[-16.720000000000027,33.30970336760479],[-16.760000000000026,33.30198179739232],[-16.770252472778058,33.29999999999992],[-16.800000000000026,33.294249779335615],[-16.840000000000025,33.286506869773774],[-16.880000000000024,33.27875283703108],[-16.920000000000023,33.270987687500565],[-16.960000000000022,33.263211427570646],[-16.97649681781525,33.25999999999992],[-17.00000000000002,33.255424615534224],[-17.04000000000002,33.24762709630871],[-17.08000000000002,33.23981848940138],[-17.12000000000002,33.23199880118865],[-17.160000000000018,33.224168038042315],[-17.181261804941414,33.21999999999992],[-17.200000000000017,33.21632665068878],[-17.240000000000016,33.20847470827096],[-17.280000000000015,33.20061171361382],[-17.320000000000014,33.19273767307739],[-17.360000000000014,33.184852593017105],[-17.384583397770566,33.17999999999992],[-17.400000000000013,33.176956848964124],[-17.440000000000012,33.169050669629875],[-17.48000000000001,33.16113347344351],[-17.52000000000001,33.153205266748905],[-17.56000000000001,33.145266055885365],[-17.586496329598404,33.13999999999992],[-17.60000000000001,33.1373161737177],[-17.640000000000008,33.129355943554174],[-17.680000000000007,33.12138473187159],[-17.720000000000006,33.113402544997925],[-17.760000000000005,33.105409389256494],[-17.78703415513288,33.09999999999992],[-17.800000000000004,33.09740558753802],[-17.840000000000003,33.089391492450005],[-17.880000000000003,33.08136645112307],[-17.92,33.07333046986938],[-17.96,33.06528355499661],[-17.986229299649295,33.059999999999924],[-18.0,33.05722605228171]]}}]}