{"type":"FeatureCollection","features":[{"type":"Feature","properties":{"t_inicio":-0.433333333333346,"t_fim":0.16111111111109633},"geometry":{"type":"LineString","coordinates":[[-11.961026914142195,49.93858411418906],[-11.77314668684815,49.84062673792149],[-11.58636760942315,49.74312851007948],[-11.400667084850198,49.6460843225901],[-11.216023019483771,49.54948918183816],[-11.032413806033276,49.453338205341694],[-10.849818307231345,49.35762661855645],[-10.668215840153664,49.26234975180332],[-10.487586161157566,49.16750303731325],[-10.307909451410296,49.073082006383984],[-10.129166302977836,48.97908228664355],[-9.951337705447798,48.88549959941637],[-9.7744050330611,48.792329757186195],[-9.598350032328113,48.699568661152675],[-9.42315481010715,48.607212298877165],[-9.248801822123369,48.51525674201333],[-9.075273861907988,48.423698144119975],[-8.902554050138576,48.33253273855148],[-8.730625824362363,48.24175683642339],[-8.55947292908462,48.1513668246495],[-8.389079406206776,48.06135916404795],[-8.219429585797513,47.971730387512835],[-8.050508077183252,47.88247709824928],[-7.882299760342903,47.79359596806917],[-7.714789777594319,47.70508373574491],[-7.547963525559396,47.61693720541938],[-7.38180664739599,47.52915324506933],[-7.2163050252847825,47.44172878502051],[-7.0514447731607675,47.354660816512464],[-6.887212229678312,47.26794639031094],[-6.723593951400318,47.18158261536623],[-6.560576706202028,47.09556665751575],[-6.398147466879976,47.009895738229076],[-6.2362934049583885,46.92456713339396],[-6.075001884683701,46.83957817214172],[-5.914260457200442,46.75492623571082],[-5.754056854900199,46.67060875634702],[-5.594378985937055,46.58662321623869],[-5.435214928902241,46.50296714648669],[-5.27655292765175,46.41963812610662],[-5.118381386280703,46.33663378106314],[-4.960688864238108,46.253951783335054],[-4.803464071576684,46.171589850009866],[-4.646695864332003,46.089545742406905],[-4.4903732400258605,46.00781726522851],[-4.334485333288711,45.92640226573758],[-4.179021411596182,45.84529863296136],[-4.023970871115495,45.7645042969202],[-3.869323232656626,45.68401722788052],[-3.7150681377246997,45.60383543563149],[-3.561195344668704,45.523956968784404],[-3.407694724923232,45.44437991409408],[-3.2545562593389263,45.36510239580192],[-3.101770034598303,45.28612257499961],[-2.9493262397130877,45.20743864901279],[-2.7972151626000823,45.12904885080499],[-2.6454271867316663,45.05095144839986],[-2.493952787858433,44.973144744322255],[-2.342782530800207,44.89562707505745],[-2.191907066303145,44.81839681052752],[-2.041317127959445,44.741452353584926],[-1.8910035291871736,44.66479213952277],[-1.7409571602676976,44.588414635601055],[-1.591168985437747,44.51231834058866],[-1.4416300400336866,44.43650178432094],[-1.292331427685781,44.360963527271856],[-1.1432643175596695,44.28570216014115],[-0.9944199416431445,44.21071630345554],[-0.8457895920755618,44.136004607184084],[-0.6973646185181224,44.06156575036681],[-0.5491364255624376,43.987398440757254],[-0.401096470175645,43.91350141447743],[-0.2532362591797721,43.839873435686144],[-0.10554734676358635,43.766513296259554],[0.0419786679752292,43.69341981548418],[0.18935014345942136,43.620591839761886],[0.3365753980348245,43.54802824232667],[0.4836627123484334,43.47572792297348],[0.6306203317033123,43.403689807798074],[0.7774564683924154,43.33191284894832],[0.9241793040131938,43.26039602438668],[1.0707969917643254,43.18913833766376],[1.2173176587266141,43.11813881770236],[1.3637494081296495,43.04739651859238],[1.5101003216059894,42.97691051939656],[1.6563784614343433,42.90667992396607],[1.802591872773604,42.83670386076697],[1.9487485858894047,42.76698148271671],[2.094856618374763,42.6975119670307],[2.2409239773662932,42.62829451507916],[2.386958661758058,42.55932835225382],[2.532968664414227,42.49061272784469],[2.6789619743826165,42.422146914926685],[2.8249465791104456,42.35393021025614],[2.9709304666641003,42.28596193417732],[3.116921627954582,42.21824143053846],[3.262928058970374,42.150768066617985],[3.408957763019231,42.083541233060295],[3.555018752980999,42.016560343821574],[3.7011190535725973,41.94982483612539],[3.847266703627696,41.88333417042822],[3.9934697583921377,41.81708783039488],[4.139736291837465,41.75108532288408],[4.286074398994202,41.68532617794384],[4.432492198306619,41.61980994881727],[4.578997834011204,41.55453621195844],[4.725599478540801,41.48950456705862],[4.8723053349558825,41.42471463708293]]}}]}