{"type":"FeatureCollection","features":[{"type":"Feature","properties":{"magnitude":0.8,"percentagem":80.0,"territorio":"continente"},"geometry":{"type":"LineString","coordinates":[[-10.5,37.393093632805574],[-10.46,37.37127528441125],[-10.439329490007772,37.35999999999997],[-10.420000000000002,37.349458695591274],[-10.380000000000003,37.327644402206424],[-10.36598223987558,37.31999999999997],[-10.340000000000003,37.30583428462219],[-10.300000000000006,37.284024348833924],[-10.292618443784416,37.27999999999997],[-10.260000000000005,37.26222100083068],[-10.220000000000006,37.24041572645366],[-10.219237248580553,37.23999999999997],[-10.180000000000007,37.218619447256565],[-10.145834443652827,37.199999999999974],[-10.140000000000008,37.196821126628755],[-10.100000000000009,37.17503022901078],[-10.072412036035804,37.159999999999975],[-10.06000000000001,37.153239422134824],[-10.02000000000001,37.131453953238086],[-9.998969592358113,37.119999999999976],[-9.980000000000011,37.10967096133036],[-9.940000000000012,37.08789122907926],[-9.925506239321452,37.07999999999998],[-9.900000000000013,37.06611635416573],[-9.860000000000014,37.04434266763277],[-9.852021098262533,37.03999999999998],[-9.820000000000014,37.02257621252831],[-9.780000000000015,37.00080888191577],[-9.778513285066223,36.999999999999986],[-9.740000000000016,36.97905115020319],[-9.70497892594433,36.95999999999998],[-9.700000000000017,36.957292182888864],[-9.660000000000018,36.9355417828334],[-9.631419182474774,36.91999999999998],[-9.620000000000019,36.91379198947286],[-9.58000000000002,36.892048727879484],[-9.557834038163339,36.87999999999998],[-9.54000000000002,36.87030841375819],[-9.500000000000021,36.848572604578564],[-9.484222586862309,36.83999999999998],[-9.460000000000022,36.826842075673845],[-9.420000000000023,36.80511403390285],[-9.410583916542958,36.79999999999998],[-9.380000000000024,36.783393596861636],[-9.340000000000023,36.76167363851747],[-9.336917109202588,36.759999999999984],[-9.300000000000026,36.73996360063374],[-9.26321923035402,36.719999999999985],[-9.260000000000026,36.71825313922421],[-9.220000000000027,36.696552711929876],[-9.189489411472076,36.679999999999986],[-9.180000000000028,36.67485310486498],[-9.140000000000029,36.65316155727376],[-9.115728626868453,36.639999999999986],[-9.10000000000003,36.63147311324004],[-9.06000000000003,36.6097907647292],[-9.041935934488178,36.599999999999994],[-9.020000000000032,36.58811379297884],[-8.980000000000032,36.56644096385544],[-8.96811038584284,36.55999999999999],[-8.940000000000033,36.544775774182504],[-8.900000000000034,36.52311278566228],[-8.894251025910657,36.51999999999999],[-8.860000000000035,36.50145968837854],[-8.82035666119162,36.47999999999999],[-8.820000000000036,36.479806984000504],[-8.780000000000037,36.45816616847498],[-8.746422813932714,36.43999999999999],[-8.740000000000038,36.43652601523897],[-8.700000000000038,36.41489584871405],[-8.672452217879513,36.39999999999999],[-8.66000000000004,36.39326855799396],[-8.62000000000004,36.371649364625235],[-8.598443891796212,36.35999999999999],[-8.580000000000041,36.35003524822632],[-8.540000000000042,36.32842735297786],[-8.524396847421581,36.31999999999999],[-8.500000000000043,36.306826723111556],[-8.460000000000043,36.285230451733355],[-8.45031008936184,36.279999999999994],[-8.420000000000044,36.26364362099175],[-8.380000000000045,36.24205929999672],[-8.376182614982373,36.239999999999995],[-8.340000000000046,36.220486581326924],[-8.302012044740891,36.199999999999996],[-8.300000000000047,36.198915222589896],[-8.260000000000048,36.17735624464602],[-8.227796126381921,36.16],[-8.220000000000049,36.155799459533355],[-8.18000000000005,36.13425325249726],[-8.15353641467291,36.12],[-8.14000000000005,36.11271135460339],[-8.100000000000051,36.09117824739812],[-8.079231878030392,36.08],[-8.060000000000052,36.06965155058067],[-8.020000000000053,36.048131872784985],[-8.004881477095772,36.04],[-7.980000000000054,36.02662069113794],[-7.940000000000055,36.00511477296198],[-7.930484164619342,36.0]]}},{"type":"Feature","properties":{"magnitude":0.9,"percentagem":90.0,"territorio":"continente"},"geometry":{"type":"LineString","coordinates":[[-10.5,42.49802014921031],[-10.466545856883645,42.47999999999986],[-10.46,42.47647508641932],[-10.420000000000002,42.454934605579005],[-10.392274507481979,42.43999999999986],[-10.380000000000003,42.433390149925515],[-10.340000000000003,42.41184807596933],[-10.31800456970084,42.399999999999864],[-10.300000000000004,42.390304488974465],[-10.260000000000005,42.36876108336841],[-10.24373527501796,42.359999999999864],[-10.220000000000006,42.34721862768854],[-10.180000000000009,42.32567415338407],[-10.169465851316694,42.319999999999865],[-10.140000000000008,42.30413309279966],[-10.100000000000009,42.28258781422448],[-10.095195522821168,42.279999999999866],[-10.06000000000001,42.261048413628586],[-10.020923020213123,42.23999999999987],[-10.02000000000001,42.239502972223576],[-9.980000000000011,42.21796512206377],[-9.946645476483292,42.19999999999987],[-9.940000000000012,42.19642173795146],[-9.900000000000013,42.17488375253962],[-9.87236463379217,42.15999999999987],[-9.860000000000014,42.153342693211506],[-9.820000000000014,42.13180484201412],[-9.798079701330506,42.11999999999987],[-9.780000000000015,42.11026637603191],[-9.740000000000016,42.088728929946015],[-9.72378988430891,42.07999999999987],[-9.700000000000017,42.06719332692866],[-9.66000000000002,42.04565655827135],[-9.649494383888081,42.03999999999987],[-9.620000000000019,42.024124088882274],[-9.58000000000002,42.002588271379544],[-9.575192397108768,41.99999999999988],[-9.54000000000002,41.98105920731318],[-9.50088262509849,41.95999999999987],[-9.500000000000021,41.95952497493461],[-9.460000000000022,41.937999230057],[-9.426562048999163,41.919999999999874],[-9.420000000000023,41.91646880945676],[-9.380000000000024,41.894944707339235],[-9.352232510751122,41.879999999999875],[-9.340000000000025,41.873418372596696],[-9.300000000000026,41.851896191749155],[-9.277893190572314,41.839999999999876],[-9.260000000000026,41.830374217925694],[-9.220000000000027,41.80885423821337],[-9.203543264213481,41.799999999999876],[-9.180000000000028,41.787336901337866],[-9.140000000000029,41.765819403968756],[-9.129181902883321,41.75999999999988],[-9.10000000000003,41.74430698102259],[-9.06000000000003,41.72279224853473],[-9.054808273172466,41.71999999999988],[-9.020000000000032,41.701285017436724],[-8.980421290908149,41.67999999999988],[-8.980000000000032,41.67977350479373],[-8.940000000000033,41.658271573276046],[-8.906017311757704,41.63999999999988],[-8.900000000000034,41.63676566719178],[-8.860000000000035,41.615267213446195],[-8.831598497560252,41.59999999999988],[-8.820000000000036,41.593767193980646],[-8.780000000000037,41.57227250503302],[-8.75716399614927,41.55999999999988],[-8.740000000000038,41.55077865312809],[-8.700000000000038,41.529288017272464],[-8.682712950364543,41.51999999999988],[-8.66000000000004,41.50780061473546],[-8.62000000000004,41.48631432151975],[-8.608244497970782,41.47999999999988],[-8.580000000000041,41.46483365100666],[-8.540000000000042,41.44335199121811],[-8.533757771575411,41.439999999999884],[-8.500000000000043,41.421878336216565],[-8.460000000000043,41.40040160186692],[-8.459251898545102,41.399999999999885],[-8.420000000000044,41.37893524667896],[-8.384723092327024,41.359999999999886],[-8.380000000000045,41.35746564653427],[-8.340000000000046,41.336004960713666],[-8.310172887324514,41.31999999999989],[-8.300000000000047,41.314543083387925],[-8.260000000000048,41.293088058613435],[-8.235600852539545,41.27999999999989],[-8.220000000000049,41.2716341902315],[-8.18000000000005,41.250185122610034],[-8.161006094165547,41.239999999999895],[-8.14000000000005,41.22873955004826],[-8.100000000000051,41.2072967368399],[-8.086387712743676,41.19999999999989],[-8.060000000000052,41.18585974770742],[-8.020000000000053,41.16442348730929],[-8.011744803072974,41.15999999999989],[-7.980000000000054,41.14299536992937],[-7.940000000000055,41.12156596185873],[-7.937076454120633,41.11999999999989],[-7.900000000000055,41.10014700524949],[-7.862380216215771,41.07999999999989],[-7.860000000000056,41.078725713844946],[-7.820000000000056,41.05731524398219],[-7.7876548020959175,41.03999999999989],[-7.780000000000058,41.03590354228342],[-7.740000000000059,41.014500678183914],[-7.712901152188581,40.99999999999989],[-7.70000000000006,40.993098856724544],[-7.6600000000000605,40.971703901615875],[-7.638118331994235,40.959999999999894],[-7.620000000000061,40.95031225155519],[-7.580000000000062,40.92892550970606],[-7.563305400734452,40.9199999999999],[-7.540000000000063,40.907544322808874],[-7.500000000000064,40.886166099510895],[-7.488461411255043,40.879999999999896],[-7.460000000000065,40.8647956681269],[-7.420000000000066,40.84342626967625],[-7.413585409927947,40.8399999999999],[-7.3800000000000665,40.82206688671917],[-7.340000000000067,40.80070662039795],[-7.3386764365518244,40.7999999999999],[-7.300000000000068,40.77935857932447],[-7.263730998298328,40.7599999999999],[-7.260000000000069,40.758009260592104],[-7.22000000000007,40.736671348170155],[-7.188749736859852,40.7199999999999],[-7.180000000000071,40.715333805566495],[-7.140000000000072,40.69400579693146],[-7.113732562282145,40.6799999999999],[-7.1000000000000725,40.672680325039025],[-7.060000000000073,40.651362530690136],[-7.038678488024639,40.6399999999999],[-7.020000000000074,40.6300494245584],[-6.980000000000075,40.60874215589268],[-6.963586520482625,40.5999999999999],[-6.940000000000076,40.5874417110159],[-6.900000000000077,40.56614528030814],[-6.888455658880284,40.5599999999999],[-6.860000000000078,40.54485779260282],[-6.820000000000078,40.523572512985155],[-6.8132848951631955,40.519999999999904],[-6.780000000000079,40.50229827876731],[-6.74000000000008,40.481024464208836],[-6.738073213888353,40.479999999999905],[-6.700000000000081,40.45976378017109],[-6.662817589294529,40.439999999999905],[-6.660000000000082,40.43850288053503],[-6.620000000000083,40.41725490864531],[-6.587517621506721,40.399999999999906],[-6.580000000000084,40.39600799691035],[-6.540000000000084,40.37477227714611],[-6.512173633347238,40.35999999999991],[-6.500000000000085,40.35353965070627],[-6.460000000000086,40.33231649970963],[-6.436784579876591,40.31999999999991],[-6.420000000000087,40.311098456253276],[-6.380000000000088,40.28988819140677],[-6.36134940822647,40.2799999999999],[-6.340000000000089,40.26868502889259],[-6.3000000000000895,40.247487968297065],[-6.2858670574824345,40.23999999999991],[-6.26000000000009,40.226299984929895],[-6.22000000000009,40.205116447382636],[-6.210336458564424,40.19999999999991],[-6.180000000000092,40.18394394158902],[-6.140000000000093,40.162774246561234],[-6.134756534106474,40.159999999999904],[-6.100000000000094,40.14161751696476],[-6.0600000000000955,40.12046198457912],[-6.059126198334333,40.11999999999991],[-6.0200000000000955,40.09932132997563],[-5.983441775593445,40.07999999999991],[-5.980000000000096,40.07818166240922],[-5.940000000000097,40.05705600031591],[-5.907704093111038,40.039999999999914],[-5.900000000000098,40.0359328470309],[-5.860000000000099,40.01482214840751],[-5.831912691376375,39.999999999999915],[-5.8200000000001,39.9937158083822],[-5.780000000000101,39.972620395351186],[-5.756066451169834,39.959999999999916],[-5.7400000000001015,39.951531167647595],[-5.700000000000102,39.930451362877555],[-5.680164244260263,39.919999999999916],[-5.660000000000103,39.90937954661564],[-5.620000000000104,39.888315673297505],[-5.6042049332736905,39.87999999999992],[-5.580000000000105,39.867261567629306],[-5.540000000000106,39.8462139494525]]}},{"type":"Feature","properties":{"magnitude":0.95,"percentagem":95.0,"territorio":"continente"},"geometry":{"type":"LineString","coordinates":[[-6.225401387036902,42.95999999999985],[-6.220000000000091,42.957138800605144],[-6.180000000000092,42.93595442518655],[-6.149877183799295,42.91999999999985],[-6.140000000000093,42.91477067072446],[-6.100000000000094,42.89359659643953],[-6.074314976126849,42.87999999999985],[-6.060000000000095,42.872425264913666],[-6.0200000000000955,42.85126179820129],[-5.9987137606400065,42.839999999999854],[-5.980000000000096,42.83010317764976],[-5.940000000000097,42.808950625837014],[-5.923072526649265,42.799999999999855],[-5.900000000000098,42.78780500469534],[-5.8600000000001,42.76666367597816],[-5.847390256045267,42.75999999999985],[-5.8200000000001,42.74553134305769],[-5.7800000000001015,42.724401546481026],[-5.771665923188326,42.71999999999986],[-5.7400000000001015,42.70328279094694],[-5.700000000000102,42.68216483638503],[-5.6958984947956885,42.67999999999986],[-5.660000000000103,42.66105994773417],[-5.620086866078591,42.63999999999986],[-5.620000000000104,42.63995418427514],[-5.580000000000105,42.618863413908805],[-5.544227058405379,42.59999999999986],[-5.540000000000106,42.597771944206215]]}},{"type":"Feature","properties":{"magnitude":0.6,"percentagem":60.0,"territorio":"acores"},"geometry":{"type":"LineString","coordinates":[[-32.0,39.599005609323136],[-31.96,39.58087062170175],[-31.92,39.562716982051775],[-31.91401766349623,39.559999999999924],[-31.880000000000003,39.544551701187416],[-31.840000000000003,39.52636899820912],[-31.82599994907479,39.519999999999925],[-31.800000000000004,39.508172999618836],[-31.760000000000005,39.48996123116617],[-31.7381401317741,39.479999999999926],[-31.720000000000006,39.47173454302187],[-31.680000000000007,39.45349370758744],[-31.650437342516025,39.43999999999993],[-31.640000000000008,39.43523635860174],[-31.60000000000001,39.416966455324356],[-31.562890715039384,39.39999999999993],[-31.56000000000001,39.39867847475811],[-31.52000000000001,39.38037950343042],[-31.48000000000001,39.362061853824024],[-31.475500688542837,39.35999999999993],[-31.440000000000012,39.34373288217646],[-31.400000000000013,39.32538616291396],[-31.38826586476931,39.31999999999992],[-31.360000000000014,39.307026623065966],[-31.320000000000014,39.28865083559688],[-31.301184543654994,39.27999999999993],[-31.280000000000015,39.2702607588505],[-31.240000000000016,39.25185590530532],[-31.214255871182914,39.23999999999993],[-31.200000000000017,39.23343532354535],[-31.160000000000018,39.21500140674327],[-31.127478996073386,39.19999999999993],[-31.12000000000002,39.196550352445136],[-31.08000000000002,39.178087375902024],[-31.040853069768467,39.15999999999993],[-31.04000000000002,39.1596058821395],[-31.00000000000002,39.14111385007594],[-30.960000000000022,39.12260312284023],[-30.954378788680184,39.11999999999994],[-30.920000000000023,39.104080867878395],[-30.880000000000024,39.08554109016979],[-30.86805393242481,39.07999999999993],[-30.840000000000025,39.06698846925784],[-30.80000000000003,39.04841964708158],[-30.781877425659424,39.039999999999935],[-30.760000000000026,39.02983669551383],[-30.720000000000027,39.011238835608054],[-30.69584843168054,38.999999999999936],[-30.680000000000028,38.99262558931343],[-30.64000000000003,38.97399869915734],[-30.609966116428147,38.95999999999994],[-30.60000000000003,38.955355194707465],[-30.56000000000003,38.936699282529574],[-30.524229648470662,38.91999999999994],[-30.52000000000003,38.918025557146976],[-30.480000000000032,38.89934063193341],[-30.440000000000037,38.88063700913442],[-30.43863855143834,38.87999999999994],[-30.400000000000034,38.8619227950027],[-30.360000000000035,38.84319017137437],[-30.3531926877066,38.83999999999993],[-30.320000000000036,38.82444582081307],[-30.280000000000037,38.80568420725928],[-30.267890129970333,38.79999999999994],[-30.240000000000038,38.78690975989883],[-30.200000000000042,38.76811916811042],[-30.18273005826846,38.75999999999994],[-30.16000000000004,38.74931466426988],[-30.12000000000004,38.730495106733095],[-30.097711655190977,38.71999999999994],[-30.08000000000004,38.71166058742865],[-30.040000000000042,38.6928120774338],[-30.012834105863828,38.67999999999994],[-30.000000000000043,38.6739475843873],[-29.960000000000043,38.655070136037295],[-29.928096597934125,38.639999999999944],[-29.920000000000044,38.6361757116848],[-29.880000000000045,38.61726933990394],[-29.843498321554932,38.599999999999945],[-29.840000000000046,38.598345027404406],[-29.800000000000047,38.579409747946926],[-29.760000000000048,38.560455794397484],[-29.759038698299108,38.559999999999945],[-29.72000000000005,38.54149142064981],[-29.68000000000005,38.52250858179613],[-29.674717481466928,38.519999999999946],[-29.64000000000005,38.50351442008409],[-29.60000000000005,38.48450271377974],[-29.590533028228556,38.47999999999995],[-29.560000000000052,38.46547880992671],[-29.520000000000053,38.446438254886004],[-29.506484539704815,38.43999999999995],[-29.480000000000054,38.42738465547789],[-29.440000000000055,38.40831527128479],[-29.42257121944605,38.39999999999995],[-29.400000000000055,38.389232023678964],[-29.360000000000056,38.370133830795965],[-29.33879227341722,38.35999999999995],[-29.320000000000057,38.351020983130255],[-29.280000000000054,38.3318940029074],[-29.255146909983146,38.31999999999995],[-29.24000000000006,38.312751604109025],[-29.20000000000006,38.29359585879297],[-29.171634339893455,38.27999999999995],[-29.16000000000006,38.27442395858764],[-29.12000000000006,38.25523947133074],[-29.088253776267795,38.23999999999995],[-29.080000000000062,38.23603812025175],[-29.040000000000063,38.21682491512114],[-29.00500443458086,38.19999999999995],[-29.000000000000064,38.19759416451853],[-28.960000000000065,38.1783522665053],[-28.921885532647572,38.159999999999954],[-28.920000000000066,38.15909216855502],[-28.880000000000067,38.1398216035834],[-28.840000000000067,38.120532446867315],[-28.83889652141816,38.119999999999955],[-28.800000000000068,38.10123300623323],[-28.76000000000007,38.08191522020159],[-28.75603674971649,38.079999999999956],[-28.72000000000007,38.06258655612862],[-28.68000000000007,38.04324016906336],[-28.67330504423512,38.03999999999996],[-28.64000000000007,38.02388233675818],[-28.600000000000072,38.00450737790677],[-28.5907006330727,37.99999999999996],[-28.560000000000073,37.98512043344395],[-28.520000000000074,37.96571693302879],[-28.50822274659155,37.95999999999996],[-28.480000000000075,37.94630093336029],[-28.440000000000076,37.92686892258794],[-28.42587061740295,37.91999999999996],[-28.400000000000077,37.907423925552564],[-28.360000000000078,37.88796343662342],[-28.3436434803518,37.87999999999996],[-28.32000000000008,37.86848950095623],[-28.28000000000008,37.849000567073865],[-28.26154057250189,37.83999999999996],[-28.24000000000008,37.829497752415854],[-28.20000000000008,37.8099804077965],[-28.179561133120885,37.79999999999996],[-28.160000000000082,37.790448774704046],[-28.120000000000083,37.77090305458626],[-28.09770440366514,37.75999999999996],[-28.080000000000084,37.75134266454081],[-28.040000000000084,37.73176860519489],[-28.01596962776486,37.71999999999996],[-28.000000000000085,37.71217952061258],[-27.960000000000086,37.69257715935028],[-27.93435605120888,37.679999999999964],[-27.920000000000087,37.67295944359161],[-27.880000000000088,37.65332881877572],[-27.852862921929564,37.639999999999965],[-27.84000000000009,37.63368253615532],[-27.80000000000009,37.61402368720935],[-27.771489489987772,37.599999999999966],[-27.76000000000009,37.5943489030056],[-27.72000000000009,37.57466187042342],[-27.690235007557717,37.55999999999997],[-27.680000000000092,37.55495865088837],[-27.640000000000093,37.53524347624399],[-27.609098728911608,37.51999999999997],[-27.600000000000094,37.51551188861306],[-27.560000000000095,37.49576861457032],[-27.528079910404468,37.47999999999997],[-27.520000000000095,37.47600872707224],[-27.480000000000096,37.456237397394574],[-27.447177810459078,37.43999999999997],[-27.440000000000097,37.43644927926111],[-27.400000000000098,37.41664993882135],[-27.36639168955043,37.39999999999997],[-27.3600000000001,37.39683366029729],[-27.3200000000001,37.3770063550875],[-27.28572081019041,37.35999999999997],[-27.2800000000001,37.35716198744058],[-27.2400000000001,37.33730676458181],[-27.205164436912597,37.31999999999997],[-27.200000000000102,37.31743438011256],[-27.160000000000103,37.29755128786476],[-27.12472183625659,37.27999999999997],[-27.120000000000104,37.27765095991658],[-27.080000000000105,37.257740047688436],[-27.04439227675275,37.239999999999974],[-27.040000000000106,37.23781185065748],[-27.000000000000107,37.21787316901629],[-26.96417502890653,37.199999999999974],[-26.960000000000107,37.19791717836152],[-26.92000000000011,37.17795077904316],[-26.884069365182924,37.159999999999975],[-26.88000000000011,37.15796707129637],[-26.84000000000011,37.13797300721509],[-26.80407455999091,37.119999999999976],[-26.80000000000011,37.11796165999093],[-26.76000000000011,37.0979399852494],[-26.724189889667734,37.07999999999998],[-26.720000000000113,37.077901077255405],[-26.680000000000113,37.057851847154595],[-26.64441463246311,37.03999999999998],[-26.640000000000114,37.03778545820131],[-26.600000000000115,37.01770872925047],[-26.56474806852347,36.99999999999998],[-26.560000000000116,36.997614940261506],[-26.520000000000117,36.97751077018807],[-26.48518947987622,36.95999999999998],[-26.480000000000118,36.957389663210165],[-26.44000000000012,36.93725811096979],[-26.405738150413583,36.91999999999998],[-26.40000000000012,36.91710976918299],[-26.36000000000012,36.896950894969464],[-26.326393365876893,36.87999999999998],[-26.32000000000012,36.876775402697156],[-26.280000000000122,36.85658926795247],[-26.247154413840267,36.83999999999998],[-26.240000000000123,36.83638671067153],[-26.200000000000124,36.81617337809574],[-26.16802058369474,36.79999999999998],[-26.160000000000124,36.79594384244668],[-26.120000000000125,36.775703376007996],[-26.088991166631896,36.759999999999984],[-26.080000000000126,36.75544694980507],[-26.040000000000127,36.73517941474973],[-26.010065455627778,36.719999999999985],[-26.000000000000128,36.71489618699105],[-25.96000000000013,36.69460164985346],[-25.931242745426328,36.679999999999986],[-25.92000000000013,36.674291710731126],[-25.88000000000013,36.6539702393437],[-25.852522332523193,36.639999999999986],[-25.84000000000013,36.63363368025394],[-25.800000000000132,36.61328534375714],[-25.773903515149055,36.59999999999999],[-25.760000000000133,36.59292225731048],[-25.720000000000134,36.57254712616271],[-25.69538559325329,36.55999999999999],[-25.680000000000135,36.55215760619397],[-25.640000000000136,36.53175575218172],[-25.616967868486938,36.51999999999999],[-25.600000000000136,36.51133989376024],[-25.560000000000137,36.49091139000778],[-25.538649644186428,36.47999999999999],[-25.520000000000138,36.470469289447465],[-25.48000000000014,36.45001421042703],[-25.46043022535629,36.43999999999998],[-25.44000000000014,36.4295459652964],[-25.40000000000014,36.409064386837905],[-25.382308918652683,36.39999999999999],[-25.36000000000014,36.388570095970294],[-25.320000000000142,36.36806209527139],[-25.304285032365954,36.35999999999999],[-25.280000000000143,36.347541858774875],[-25.240000000000144,36.32700751441081],[-25.22635787640376,36.31999999999999],[-25.200000000000145,36.30646143367834],[-25.160000000000146,36.285900825611755],[-25.148526762273896,36.279999999999994],[-25.120000000000147,36.26532900333112],[-25.080000000000148,36.24474221292201],[-25.07079100306688,36.239999999999995],[-25.04000000000015,36.22414475308584],[-25.00000000000015,36.203531863101354],[-24.993149913438575,36.199999999999996],[-24.96000000000015,36.18290887101711],[-24.920000000000154,36.16226996564134],[-24.91560280959262,36.16],[-24.88000000000015,36.1416215479413],[-24.840000000000153,36.12095671278498],[-24.838149009263113,36.12],[-24.800000000000153,36.10028297743612],[-24.76078788395795,36.08],[-24.760000000000154,36.07959247469585],[-24.720000000000155,36.058893355860434],[-24.683518820292292,36.04],[-24.680000000000156,36.03817770662264],[-24.640000000000157,36.017452882373675],[-24.60634101109251,36.0]]}},{"type":"Feature","properties":{"magnitude":0.6,"percentagem":60.0,"territorio":"madeira"},"geometry":{"type":"LineString","coordinates":[[-18.0,32.4272934549296],[-17.986934419791936,32.41999999999994],[-17.96,32.404965703245495],[-17.92,32.382630274072206],[-17.915290278941093,32.37999999999994],[-17.880000000000003,32.36029250511647],[-17.843676759542515,32.33999999999994],[-17.840000000000003,32.337946065058205],[-17.800000000000004,32.315597655803515],[-17.772092907566133,32.29999999999994],[-17.760000000000005,32.29324157552944],[-17.720000000000006,32.27088164917278],[-17.700539179992887,32.25999999999994],[-17.680000000000007,32.24851618250569],[-17.640000000000008,32.226144982696425],[-17.629014923607112,32.21999999999994],[-17.60000000000001,32.20377038519527],[-17.56000000000001,32.181388157443145],[-17.557519484120487,32.17999999999994],[-17.52000000000001,32.15900468639733],[-17.486050645394652,32.139999999999944],[-17.48000000000001,32.13661312221754],[-17.440000000000012,32.11421959249119],[-17.41460860516596,32.099999999999945],[-17.400000000000013,32.0918195429819],[-17.360000000000014,32.06941561342541],[-17.343193334786516,32.059999999999945],[-17.320000000000014,32.04700734009141],[-17.280000000000015,32.02459326270599],[-17.271804174802483,32.019999999999946],[-17.240000000000016,32.002177028759824],[-17.200440344518437,31.979999999999947],[-17.200000000000017,31.97975316277123],[-17.160000000000018,31.95732912773882],[-17.129099025355902,31.939999999999948],[-17.12000000000002,31.934897697858034],[-17.08000000000002,31.912464159304637],[-17.05778175193486,31.89999999999995],[-17.04000000000002,31.890025432896948],[-17.00000000000002,31.86758264924425],[-16.98648785900828,31.85999999999995],[-16.960000000000022,31.845136895355836],[-16.920000000000023,31.82268512684073],[-16.915216679880203,31.819999999999954],[-16.880000000000024,31.800232616190318],[-16.843966391189287,31.77999999999995],[-16.840000000000025,31.777773077676688],[-16.800000000000026,31.755313129828068],[-16.772736026215533,31.739999999999952],[-16.760000000000026,31.73284724203978],[-16.720000000000027,31.710378974152754],[-16.70152628601604,31.699999999999953],[-16.680000000000028,31.687907011865427],[-16.64000000000003,31.66543069048704],[-16.63033649727163,31.659999999999958],[-16.60000000000003,31.642952930116586],[-16.56000000000003,31.62046882357505],[-16.559165984989058,31.619999999999955],[-16.52000000000003,31.597985543167734],[-16.488011586463394,31.579999999999956],[-16.480000000000032,31.575495853333287],[-16.440000000000033,31.55300540078641],[-16.416874773462528,31.539999999999957],[-16.400000000000034,31.530510608884114],[-16.360000000000035,31.50801305611391],[-16.34575512055079,31.499999999999957],[-16.320000000000036,31.48551344413339],[-16.280000000000037,31.46300906564546],[-16.27465194523903,31.459999999999958],[-16.240000000000038,31.44050491716881],[-16.203563403842306,31.41999999999996],[-16.20000000000004,31.41799485078761],[-16.16000000000004,31.395485589399925],[-16.132488171636844,31.37999999999996],[-16.12000000000004,31.372971412377673],[-16.08000000000004,31.350456025536463],[-16.06142727648747,31.33999999999996],[-16.040000000000042,31.327938025297694],[-16.000000000000043,31.305416793566074],[-15.990380027687975,31.299999999999965],[-15.960000000000043,31.282895259085617],[-15.920000000000044,31.26036846473142],[-15.919345732424611,31.259999999999962],[-15.880000000000045,31.23784368652155],[-15.848320826393794,31.219999999999963],[-15.840000000000046,31.215313632868096],[-15.800000000000047,31.192783883603845],[-15.777307177256173,31.179999999999964],[-15.760000000000048,31.170251021929094],[-15.720000000000049,31.147716429524284],[-15.706304308051006,31.139999999999965],[-15.68000000000005,31.125181054036958],[-15.64000000000005,31.102641906642788],[-15.63531151679273,31.099999999999966],[-15.600000000000051,31.08010431304116],[-15.564326540625816,31.059999999999967],[-15.560000000000052,31.057561953331245],[-15.520000000000055,31.035021385918796],[-15.4933484815071,31.019999999999968],[-15.480000000000054,31.01247725113819],[-15.440000000000053,30.98993286274738],[-15.422378297845801,30.97999999999997],[-15.400000000000055,30.9673872521643],[-15.360000000000056,30.944839336677216],[-15.351415277695253,30.93999999999997],[-15.320000000000057,30.922292550996904],[-15.280458534229876,30.89999999999997],[-15.280000000000058,30.89974151579137],[-15.240000000000059,30.8771937452518],[-15.209504253914503,30.85999999999997],[-15.20000000000006,30.854641985048424],[-15.16000000000006,30.832091435543667],[-15.138554903517505,30.819999999999972],[-15.120000000000061,30.809539254479848],[-15.080000000000062,30.78698622545586],[-15.06760976030968,30.779999999999973],[-15.040000000000063,30.76443392904907]]}}]}