{"type":"FeatureCollection","features":[{"type":"Feature","properties":{"t_inicio":-1.7277777777777859,"t_fim":-1.1944444444444544},"geometry":{"type":"LineString","coordinates":[[-17.14319282161216,25.106747727176987],[-16.77849245189634,25.245882444696598],[-16.420785057408636,25.381648081307507],[-16.06969083540349,25.51421298588468],[-15.724862517023382,25.643731275003393],[-15.385981610904082,25.770344467247728],[-15.052755186092895,25.894182883610142],[-14.72491310260017,26.01536685366458],[-14.402205615771095,26.13400775947415],[-14.084401294626502,26.250208943156977],[-13.771285205324546,26.364066499275605],[-13.462657319628647,26.475669969436947],[-13.158331115245517,26.585102953469693],[-12.858132340513123,26.69244364911525],[-12.561897920464617,26.79776533020046],[-12.269474984992769,26.90113677165715],[-11.980720002871522,27.002622628441618],[-11.695498007881497,27.102283774326352],[-11.413681905351666,27.2001776056425],[-11.13515184913922,27.296358314308918],[-10.859794680502375,27.390877133863185],[-10.587503421517795,27.48378256169018],[-10.31817681670384,27.575120560205814],[-10.051718917362848,27.6649347393836],[-9.788038703878556,27.753266522698116],[-9.527049741820235,27.84015529829164],[-9.268669868229438,27.92563855694281],[-9.012820904916737,28.009752018220002],[-8.75942839598099,28.09252974603407],[-8.508421367098094,28.174004254660446],[-8.259732104414638,28.25420660617479],[-8.013295951130203,28.33316650013808],[-7.7690511200712535,28.410912356272238],[-7.526938520747308,28.487471390785046],[-7.286901599545672,28.562869686931304],[-7.048886191866529,28.637132260333946],[-6.812840385126208,28.710283119533354],[-6.578714391669223,28.782345322184803],[-6.346460430727689,28.85334102728048],[-6.116032618653435,28.92329154373493],[-5.8873868667265015,28.99221737563914],[-5.6604807859096695,29.0601382644584],[-5.435273597982928,29.127073228422848],[-5.21172605254219,29.193040599335863],[-4.989800349397115,29.25805805700443],[-4.769460065945395,29.322142661476775],[-4.5506700891389755,29.385310883255876],[-4.333396551692431,29.447578631642017],[-4.117606772215936,29.508961281344384],[-3.903269198980695,29.56947369748922],[-3.690353357051663,29.629130259141338],[-3.4788297985452914,29.68794488144546],[-3.2686700557882773,29.74593103648549],[-3.05984659717501,29.803101772951127],[-2.8523327855346565,29.859469734694436],[-2.6461028388369527,29.915047178251985],[-2.4411317930775454,29.969845989402163],[-2.2373954671977003,30.023877698822062],[-2.03487042990281,30.077153496902977],[-1.8335339682572567,30.12968424777925],[-1.6333640579389908,30.18148050262103],[-1.4343393350496285,30.2325525122375],[-1.2364390693804808,30.282910239033924],[-1.0396431390448697,30.332563368362667],[-0.843932006391583,30.38152131930516],[-0.6492866951217025,30.42979325491954],[-0.4556887685362767,30.477388091985752],[-0.263120308846851,30.524314510278213],[-0.07156389748638503,30.570580961393517],[0.11899740363747924,30.61619567715923],[0.3085800700021082,30.66116667764758],[0.4972001314928889,30.705501778816835],[0.6848731886366863,30.749208599800973],[0.8716144280904814,30.792294569867597],[1.0574386374264577,30.834766935061925],[1.242360219251566,30.87663276455456],[1.426393204698968,30.91789895670852],[1.6095512663238765,30.9585722448808],[1.7918477304366434,30.998659202972583],[1.9732955889025448,31.0381662507412],[2.1539075104352605,31.077099658886233],[2.33369585141196,31.115465553921215],[2.512672666233243,31.1532699228424],[2.690849717251808,31.19051861760418],[2.8682384842912825,31.227217359411238],[3.044850173775444,31.263371742836576],[3.2206957274881916,31.29898723977365],[3.3957858309809126,31.334069203230992],[3.5701309216457275,31.36862287097689],[3.743741196470012,31.402653369040987],[3.9166266194873742,31.436165715080193],[4.0887969289400985,31.469164821614648],[4.260261644165837,31.501655499140213],[4.431030072221972,31.533642459123097],[4.601111314259867,31.565130316881934],[4.770514271659749,31.59612359436258],[4.939247651937592,31.62662672281022]]}}]}