{"type":"FeatureCollection","features":[{"type":"Feature","properties":{"magnitude":0.2,"de":0.2,"ate":0.5,"percentagem":20.0},"geometry":{"type":"Polygon","coordinates":[[[-34.5,37.319999999999844],[-28.259999999999764,39.80949663272338],[-22.979999999999563,41.76672670371416],[-20.399999999999466,42.65754608719051],[-17.87999999999937,43.48126167618488],[-15.419999999999277,44.23824794265478],[-12.982476222915354,44.939999999999685],[-34.5,44.939999999999685],[-34.5,37.319999999999844]]]}},{"type":"Feature","properties":{"magnitude":0.5,"de":0.5,"ate":0.8,"percentagem":50.0},"geometry":{"type":"Polygon","coordinates":[[[-34.5,30.0],[-22.23859487737291,30.0],[-17.09999999999934,31.952315630318658],[-12.359999999999161,33.602746366515724],[-10.079999999999075,34.33540483182743],[-7.8599999999989905,35.006178807352256],[-5.699999999998909,35.615663156825136],[-3.5399999999988268,36.180003840248624],[-3.5399999999988268,44.939999999999685],[-12.982476222915354,44.939999999999685],[-15.419999999999277,44.23824794265478],[-17.939999999999372,43.46220647228189],[-20.459999999999468,42.63736456204292],[-23.099999999999568,41.7241836975359],[-25.79999999999967,40.742343225234464],[-28.559999999999775,39.69342624020055],[-34.5,37.3062801643554],[-34.5,30.0]]]}},{"type":"Feature","properties":{"magnitude":0.8,"de":0.8,"ate":0.95,"percentagem":80.0},"geometry":{"type":"Polygon","coordinates":[[[-22.23859487737291,30.0],[-6.518232668423225,30.0],[-3.5399999999988268,30.867269666564113],[-3.5399999999988268,36.180003840248624],[-5.699999999998909,35.61566315682514],[-7.8599999999989905,35.006178807352256],[-10.079999999999075,34.33540483182743],[-12.359999999999161,33.602746366515724],[-17.09999999999934,31.952315630318658],[-22.23859487737291,30.0]]]}},{"type":"Feature","properties":{"magnitude":0.95,"de":0.95,"ate":0.99,"percentagem":95.0},"geometry":{"type":"Polygon","coordinates":[[[-6.518232668423225,30.0],[-3.5399999999988268,30.0],[-3.5399999999988268,30.867269666564113],[-5.039999999998884,30.441281693095327],[-6.518232668423225,30.0]]]}}]}