{"type":"FeatureCollection","features":[{"type":"Feature","properties":{"magnitude":0.2,"de":0.2,"ate":0.5,"percentagem":20.0},"geometry":{"type":"Polygon","coordinates":[[[-27.58903446108241,32.57999999999994],[-25.23086278966096,30.0],[-9.107838136363032,30.0],[-13.499999999999204,35.496025971001295],[-15.020812972661068,37.319999999999844],[-16.48106202616697,38.99999999999981],[-17.961354770158817,40.61999999999978],[-19.43999999999943,42.14837605148695],[-20.939999999999486,43.60500401042863],[-22.407809380982453,44.939999999999685],[-34.5,44.939999999999685],[-34.50000000000001,38.70224412109955],[-33.299999999999955,37.78525694581309],[-32.135578651129705,36.839999999999854],[-30.959999999999862,35.82744484910201],[-29.833544822592266,34.7999999999999],[-28.712252782834813,33.71999999999992],[-27.58903446108241,32.57999999999994]]]}},{"type":"Feature","properties":{"magnitude":0.5,"de":0.5,"ate":0.8,"percentagem":50.0},"geometry":{"type":"Polygon","coordinates":[[[-13.519644980951576,35.51999999999988],[-9.107838136363032,30.0],[-3.5399999999988268,30.0],[-3.5399999999988268,44.939999999999685],[-22.407809380982453,44.939999999999685],[-20.939999999999486,43.60500401042862],[-19.47156255719343,42.17999999999974],[-17.999999999999375,40.66110390126525],[-16.499999999999318,39.0212707626056],[-15.059999999999263,37.366059786727575],[-13.519644980951576,35.51999999999988]]]}}]}