{"type":"FeatureCollection","properties":{"largura_maxima_km":null,"largura_sobre_pt_km":null,"linha_central_sobre_pt":false,"desenhavel_como_area":true,"perfil_largura":[{"t":1.60556,"lat":49.2631,"lon":2.4984,"largura_km":null,"eixo_na_terra":false},{"t":1.61111,"lat":48.7926,"lon":3.6992,"largura_km":null,"eixo_na_terra":false},{"t":1.61667,"lat":48.5649,"lon":4.0986,"largura_km":null,"eixo_na_terra":false},{"t":1.62222,"lat":48.1578,"lon":5.0629,"largura_km":null,"eixo_na_terra":false},{"t":1.62778,"lat":47.9157,"lon":5.4045,"largura_km":null,"eixo_na_terra":false},{"t":1.63333,"lat":47.5327,"lon":6.1798,"largura_km":null,"eixo_na_terra":false},{"t":1.63889,"lat":47.2967,"lon":6.6145,"largura_km":null,"eixo_na_terra":false},{"t":1.64444,"lat":46.992,"lon":7.1409,"largura_km":null,"eixo_na_terra":false}]},"features":[{"type":"Feature","properties":{},"geometry":{"type":"Polygon","coordinates":[[[9.375776186612029,45.51498413752006],[6.475925735169511,46.63275730184714],[5.938936400658365,46.84233201794393],[5.187371147793726,47.11696831839765],[4.56741319627065,47.34585655382702],[4.027186933302886,47.54886337746406],[3.6943996613642787,47.676709870084444],[3.137250773692756,47.87266092111508],[2.653301972845469,48.04627854743041],[2.218229729199095,48.2064846529795],[1.9692734454819816,48.300744089145056],[1.5003065214535525,48.46054717815153],[1.0852549998928112,48.605822580763395],[0.7073676494881909,48.74247705932187],[0.507422674119909,48.81711368511929],[0.09111026089323104,48.955029597512954],[-0.28067234020531373,49.08227947192871],[-0.6214473278463402,49.20346058859965],[-0.7880769957605648,49.264787413961756],[-0.9877692905553772,49.32868756432564],[-1.3427845222332735,49.44541745513479],[-1.6706849119294702,49.55763307795877],[-1.9655131447677965,49.66331810832348],[-2.3208284336801626,49.77521142540772],[-2.63961423981533,49.87996432807284],[-2.789816243330648,49.9310861040969],[-3.053805364090152,50.02442706122426],[-3.3908510142973114,50.12808944955751],[-3.6918655268858345,50.225135231140854],[-3.833908296162491,50.27271783090035],[-4.100701209313399,50.36594584488003],[-4.343981347278401,50.456502306715],[-4.563237988805838,50.544264874614385],[-4.663709747965612,50.58705520520136],[-4.846069405344281,50.67035747848376],[-4.927857821916064,50.71082743228314],[-5.003324028584359,50.75048007592969],[-5.072425963052979,50.789291642973005],[-5.135124753163723,50.827237287971485],[-5.191384781751083,50.864291107543686],[-5.241173750561529,50.90042616432044],[-5.284462743057674,50.93561451379898],[-5.321226285920716,50.96982723409419],[-5.351442409049156,51.003034458574966],[-5.375092703842256,51.035205411366746],[-5.392162379545539,51.06630844569477],[-5.40264031742376,51.096311085033946],[-5.406519122521331,51.12518006702569],[-5.403795172756105,51.15288139011201],[-5.39446866509104,51.17938036283166],[-5.378543658516236,51.204641655713175],[-5.356028113573444,51.22862935569298],[-5.326933928147241,51.25130702297749],[-5.291276969247974,51.272637750260586],[-5.249077100508856,51.29258422419897],[-5.20035820512004,51.3111087890399],[-5.145148203927221,51.328173512287265],[-5.0834790684240545,51.343740252283816],[-5.015386828374858,51.35777072757893],[-4.940911573813224,51.37022658794368],[-4.860097451170503,51.38106948688649],[-4.772992653300776,51.39026115551559],[-4.679649403184413,51.3977634775868],[-4.5801239311059305,51.40353856556791],[-4.362771094658683,51.40975709478883],[-4.1214628371494655,51.408621154598606],[-3.8567893521452845,51.39984378977851],[-3.7158914269237755,51.392502876780675],[-3.4174062906230915,51.37175037647974],[-3.2600027077277787,51.35827513394017],[-2.929357399013071,51.3249755025273],[-2.7563186984893377,51.305094146900615],[-2.395339019715209,51.25873553191161],[-2.207618327729108,51.23220926489561],[-1.8182852011948683,51.17235137034304],[-1.616907835402543,51.138979851843516],[-1.2013350286419495,51.06526433554721],[-0.9873866653462358,51.02489057661534],[-0.5477958686946067,50.93705014935289],[-0.09346845663986869,50.83969305259211],[0.13889669923980819,50.78743065941142],[0.6133735973052978,50.67572519951114],[0.8552213757332652,50.616282943570035],[1.3474742922963117,50.49023659488071],[1.5976151285477442,50.423645496848486],[2.1052675535279946,50.28337522179473],[2.6218780094635576,50.13374149900695],[2.883219953886737,50.05545359647977],[3.411343064665573,49.892033383331096],[3.677875154985884,49.80694586950869],[4.215271469078004,49.63014180548855],[4.485898426250316,49.53848084762398],[5.030434980610266,49.348792437313456],[5.578614277349658,49.15083480252922],[5.85380663844677,49.04884232976847],[6.405902432649071,48.839014425033],[6.959671964372404,48.62165079424648],[7.3867185741992225,48.44916446381591],[7.791481600549133,48.295918752381084],[8.17402332319756,48.14871413841941],[8.572839650962408,47.99305233373408],[8.992298409482004,47.82712108083124],[9.924003549744242,47.451661701746566],[10.467217662618282,47.229302838721964],[10.996592555506023,47.010778301370664],[11.09562292810537,46.97135430749678],[11.094868312655764,46.970210332144084],[12.027409218693435,46.58316868341824],[11.99671393968586,46.54384493868015],[12.449027333781544,46.36253857076461],[12.151272569084865,46.28564506067081],[12.500771265745385,46.12391053625861],[12.292927316431104,45.97641687968938],[11.837270194344569,46.129206093203116],[11.70518505233321,46.17036706453524],[11.392143313816632,45.76932906078375],[10.929517988347317,45.93646157611808],[10.881446754907302,45.09290279621541],[9.676728522091704,45.55396271505449],[9.564243789549266,45.497841196003996],[9.428962526005135,45.54908914935536],[9.375776186612029,45.51498413752006]]]}}]}