{"type":"FeatureCollection","features":[{"type":"Feature","properties":{"magnitude":0.2,"de":0.2,"ate":0.5,"percentagem":20.0},"geometry":{"type":"Polygon","coordinates":[[[-34.5,30.589953032842327],[-31.941109002706277,29.999999999999996],[-3.5399999999988268,30.0],[-3.5399999999988268,30.93980401262062],[-8.039999999998997,32.61264212988064],[-12.239999999999156,34.09415285188357],[-16.25999999999931,35.4261511553158],[-20.099999999999454,36.608337323617704],[-23.819999999999595,37.65973513436272],[-27.479999999999734,38.59549078189117],[-31.019999999999868,39.40014873019808],[-34.5,40.08852844983263],[-34.5,30.589953032842327]]]}},{"type":"Feature","properties":{"magnitude":0.5,"de":0.5,"ate":0.8,"percentagem":50.0},"geometry":{"type":"Polygon","coordinates":[[[-8.099999999999,32.63438496507717],[-3.5399999999988268,30.93980401262062],[-3.5399999999988268,42.10174227646523],[-7.919999999998993,43.60365874468085],[-12.117835791069405,44.939999999999685],[-34.5,44.939999999999685],[-34.5,40.08852844983263],[-31.019999999999868,39.40014873019808],[-27.479999999999734,38.59549078189117],[-23.819999999999595,37.65973513436271],[-20.099999999999454,36.608337323617704],[-16.25999999999931,35.4261511553158],[-12.299999999999159,34.11468551654238],[-8.099999999999,32.63438496507717]]]}},{"type":"Feature","properties":{"magnitude":0.8,"de":0.8,"ate":0.95,"percentagem":80.0},"geometry":{"type":"Polygon","coordinates":[[[-7.919999999998993,43.60365874468085],[-3.5399999999988268,42.10174227646523],[-3.5399999999988268,44.939999999999685],[-12.117835791069405,44.939999999999685],[-7.919999999998993,43.60365874468085]]]}}]}