{"type":"FeatureCollection","properties":{"largura_maxima_km":151.601,"largura_sobre_pt_km":148.198,"linha_central_sobre_pt":false,"desenhavel_como_area":true,"perfil_largura":[{"t":0.73889,"lat":27.2624,"lon":-39.9542,"largura_km":144.24,"eixo_na_terra":true},{"t":0.74444,"lat":27.2084,"lon":-39.8027,"largura_km":144.424,"eixo_na_terra":true},{"t":0.75,"lat":27.154,"lon":-39.6506,"largura_km":144.61,"eixo_na_terra":true},{"t":0.75556,"lat":27.0991,"lon":-39.4979,"largura_km":144.796,"eixo_na_terra":true},{"t":0.76111,"lat":27.0438,"lon":-39.3446,"largura_km":144.985,"eixo_na_terra":true},{"t":0.76667,"lat":26.988,"lon":-39.1908,"largura_km":145.174,"eixo_na_terra":true},{"t":0.77222,"lat":26.9317,"lon":-39.0363,"largura_km":145.365,"eixo_na_terra":true},{"t":0.77778,"lat":26.8749,"lon":-38.8812,"largura_km":145.557,"eixo_na_terra":true},{"t":0.78333,"lat":26.8177,"lon":-38.7255,"largura_km":145.751,"eixo_na_terra":true},{"t":0.78889,"lat":26.7599,"lon":-38.5691,"largura_km":145.946,"eixo_na_terra":true},{"t":0.79444,"lat":26.7017,"lon":-38.4121,"largura_km":146.143,"eixo_na_terra":true},{"t":0.8,"lat":26.643,"lon":-38.2545,"largura_km":146.342,"eixo_na_terra":true},{"t":0.80556,"lat":26.5837,"lon":-38.0962,"largura_km":146.542,"eixo_na_terra":true},{"t":0.81111,"lat":26.524,"lon":-37.9372,"largura_km":146.744,"eixo_na_terra":true},{"t":0.81667,"lat":26.4637,"lon":-37.7775,"largura_km":146.947,"eixo_na_terra":true},{"t":0.82222,"lat":26.403,"lon":-37.6171,"largura_km":147.151,"eixo_na_terra":true},{"t":0.82778,"lat":26.3417,"lon":-37.456,"largura_km":147.358,"eixo_na_terra":true},{"t":0.83333,"lat":26.2798,"lon":-37.2941,"largura_km":147.565,"eixo_na_terra":true},{"t":0.83889,"lat":26.2174,"lon":-37.1316,"largura_km":147.775,"eixo_na_terra":true},{"t":0.84444,"lat":26.1545,"lon":-36.9683,"largura_km":147.986,"eixo_na_terra":true},{"t":0.85,"lat":26.0911,"lon":-36.8042,"largura_km":148.198,"eixo_na_terra":true},{"t":0.85556,"lat":26.027,"lon":-36.6393,"largura_km":148.412,"eixo_na_terra":true},{"t":0.86111,"lat":25.9625,"lon":-36.4737,"largura_km":148.628,"eixo_na_terra":true},{"t":0.86667,"lat":25.8973,"lon":-36.3072,"largura_km":148.847,"eixo_na_terra":true},{"t":0.87222,"lat":25.8316,"lon":-36.1399,"largura_km":149.066,"eixo_na_terra":true},{"t":0.87778,"lat":25.7653,"lon":-35.9718,"largura_km":149.288,"eixo_na_terra":true},{"t":0.88333,"lat":25.6984,"lon":-35.8029,"largura_km":149.511,"eixo_na_terra":true},{"t":0.88889,"lat":25.6309,"lon":-35.6331,"largura_km":149.736,"eixo_na_terra":true},{"t":0.89444,"lat":25.5628,"lon":-35.4624,"largura_km":149.963,"eixo_na_terra":true},{"t":0.9,"lat":25.4941,"lon":-35.2908,"largura_km":150.192,"eixo_na_terra":true},{"t":0.90556,"lat":25.4247,"lon":-35.1183,"largura_km":150.422,"eixo_na_terra":true},{"t":0.91111,"lat":25.3548,"lon":-34.9448,"largura_km":150.654,"eixo_na_terra":true},{"t":0.91667,"lat":25.2842,"lon":-34.7704,"largura_km":150.888,"eixo_na_terra":true},{"t":0.92222,"lat":25.213,"lon":-34.5951,"largura_km":151.124,"eixo_na_terra":true},{"t":0.92778,"lat":25.1411,"lon":-34.4188,"largura_km":151.362,"eixo_na_terra":true},{"t":0.93333,"lat":25.0685,"lon":-34.2414,"largura_km":151.601,"eixo_na_terra":true}]},"features":[{"type":"Feature","properties":{},"geometry":{"type":"Polygon","coordinates":[[[-39.539098300799026,27.81474473129505],[-38.76432435172512,27.53943632804614],[-38.13332498916324,27.310580041096717],[-37.32951721195957,27.013241578544456],[-36.673530457348704,26.765939561804267],[-35.82000669641454,26.43809226843312],[-35.1345780981886,26.17022455502874],[-34.434566374539315,25.892542786053554],[-33.718817181478926,25.604513124371906],[-34.72996236897254,24.52418632499557],[-35.422048998001344,24.80912275236022],[-36.09942169258284,25.08401040806428],[-36.763130417002515,25.349347440037512],[-37.57498014111525,25.668267436885106],[-38.21125643037914,25.913690879994455],[-38.97635278092588,26.203397080089633],[-39.5892363718786,26.43087971213674],[-40.342091112995774,26.70464810772847],[-39.539098300799026,27.81474473129505]]]}}]}