{"type":"FeatureCollection","features":[{"type":"Feature","properties":{"t_inicio":0.738888888888872,"t_fim":0.9333333333333158},"geometry":{"type":"LineString","coordinates":[[-39.9541937572173,27.262369035690714],[-39.80266427863171,27.208416831075624],[-39.6505642846422,27.15400652947061],[-39.49788500313164,27.09913397224357],[-39.34461746987054,27.04379491117822],[-39.19075252274533,26.987985005831302],[-39.03628079576316,26.931699820788374],[-38.88119271282295,26.874934822813426],[-38.72547848124037,26.817685377887113],[-38.569128085015734,26.759946748128392],[-38.41213127783212,26.70171408859377],[-38.25447757576967,26.64298244394816],[-38.096156249722725,26.583746745001168],[-37.93715631750422,26.52400180510177],[-37.777466535621954,26.463742316384575],[-37.61707539070966,26.4029628458599],[-37.4559710905946,26.341657831339635],[-37.29414155498378,26.27982157719056],[-37.13157440574736,26.21744824990587],[-36.968256956778646,26.1545318734854],[-36.80417620340799,26.091066324614356],[-36.63931881134556,26.027045327629665],[-36.47367110512798,25.962462449262297],[-36.307219056040935,25.89731109314338],[-36.139948269488514,25.831584494060877],[-35.971843971778185,25.765275711952896],[-35.80289099628757,25.698377625622648],[-35.63307376897802,25.630882926159067],[-35.46237629321632,25.562784110046216],[-35.29078213386413,25.494073471942976],[-35.11827440059136,25.424743097113833],[-34.94483573036686,25.354784853489605],[-34.77044826907638,25.28419038333595],[-34.595093652213876,25.21295109450554],[-34.41875298458888,25.141058151248156],[-34.24140681898754,25.06850246455115]]}}]}