{"type":"FeatureCollection","properties":{"largura_maxima_km":null,"largura_sobre_pt_km":null,"linha_central_sobre_pt":false,"desenhavel_como_area":true,"perfil_largura":[{"t":1.55,"lat":24.0157,"lon":-9.2107,"largura_km":null,"eixo_na_terra":false},{"t":1.55556,"lat":24.8475,"lon":-7.4238,"largura_km":null,"eixo_na_terra":false},{"t":1.56111,"lat":25.2084,"lon":-6.627,"largura_km":null,"eixo_na_terra":false},{"t":1.56667,"lat":25.5019,"lon":-5.9282,"largura_km":null,"eixo_na_terra":false},{"t":1.57222,"lat":25.8399,"lon":-5.1443,"largura_km":null,"eixo_na_terra":false},{"t":1.57778,"lat":26.4497,"lon":-3.7513,"largura_km":null,"eixo_na_terra":false}]},"features":[{"type":"Feature","properties":{},"geometry":{"type":"Polygon","coordinates":[[[-9.264567200586294,23.59394146435165],[-9.733429457575511,23.361694220905637],[-10.007940463926275,23.23041614360443],[-10.269148049829766,23.109351568257765],[-10.435388462925374,23.034565751575148],[-10.672221515186862,22.931581807021058],[-10.893285072723046,22.839930891198396],[-11.097827412014738,22.75987609599599],[-11.28516924738463,22.69160631421383],[-11.45469457632771,22.635241792535403],[-11.60584394168535,22.59083890559555],[-11.738109575838536,22.558394353776404],[-11.851032034374697,22.537848928939507],[-11.884301635757225,22.533626850937658],[-11.944198030028218,22.529090950495625],[-11.970798093510211,22.52876459608264],[-12.017239253779422,22.53195944398875],[-12.03705692314611,22.535464719604313],[-12.069832026974467,22.54624711219032],[-12.08276937222513,22.553505112796135],[-12.093394128511022,22.561994057479744],[-12.101697671988063,22.571703132040927],[-12.107671958227797,22.582621038577333],[-12.111309529607922,22.594736005575232],[-12.112603523472899,22.608035797805755],[-12.111547681061097,22.62250772602384],[-12.102364530756518,22.6549150201413],[-12.09422781589737,22.672822821909115],[-12.070845426934795,22.711974681311762],[-12.055594269809063,22.733188696445147],[-12.017963463776539,22.77881483761121],[-11.94369173568191,22.855003750273003],[-11.848063142712306,22.940079714883073],[-11.731175074542847,23.033552645528854],[-11.641518474813637,23.10027859689772],[-11.489607463006791,23.206584191095985],[-11.376845183799958,23.281356781768405],[-11.190746101089445,23.3989377006164],[-11.055572975628252,23.48067858920355],[-10.836556911715263,23.607855667122156],[-10.679987736822852,23.695402451591796],[-10.42985851684611,23.830362275632943],[-10.253305141297517,23.922454718085984],[-9.974539746969754,24.06321821388961],[-9.779925590606183,24.1584682116715],[-9.475887284280873,24.30282763110127],[-9.170335971753858,24.44291772032234],[-8.848721821295044,24.60405297197653],[-8.48356533339799,24.780875141997022],[-8.223356596813943,24.9035017681226],[-7.9489171837780646,25.03018380117663],[-7.507410105986056,25.22902955655056],[-7.073595416900162,25.43664044156013],[-6.500514157264746,25.70280527701667],[-5.801602190599397,26.01818963179249],[-5.2128519979755765,26.27818503879407],[-4.144141625425675,26.7431467693639],[-4.141958601546045,26.742298888648843],[-3.6856851254047456,26.938325330213832],[-3.6492222173555544,26.62071681894332],[-3.3420118975727746,26.76506521187731],[-3.291808255815198,26.5030127557837],[-3.3894536319088036,26.46618401704605],[-3.11146029618979,26.364647593932897],[-3.139696588229936,26.353022967091285],[-3.0857690881181554,26.332077668332676],[-3.921776926795701,25.979915266109902],[-5.656315652836376,25.239696685531765],[-7.082735308536826,24.593286672175413],[-7.5313725549731885,24.393562184680572],[-7.809927536611657,24.27158503004843],[-8.27645538155582,24.047914612924654],[-8.63060223873589,23.88147428740665],[-8.960654568005765,23.72981426141749],[-9.264567200586294,23.59394146435165]]]}}]}