{"type":"FeatureCollection","features":[{"type":"Feature","properties":{"t_inicio":-0.5555555555555678,"t_fim":0.4944444444444285},"geometry":{"type":"LineString","coordinates":[[-25.929232614725777,49.98237866548974],[-25.70349672183562,49.929164500738366],[-25.478954900020653,49.87575489098918],[-25.25559369034474,49.82215219009092],[-25.033399832372368,49.76835870835557],[-24.81236025945023,49.71437671352392],[-24.592462094135158,49.66020843170174],[-24.37369264376298,49.60585604826893],[-24.156039396152266,49.55132170876131],[-23.93949001543831,49.496607519727135],[-23.724032338032146,49.44171554955856],[-23.509654368699785,49.38664782929918],[-23.29634427675711,49.33140635342865],[-23.084090392376396,49.275993080624886],[-22.87288120299982,49.22040993450476],[-22.662705349856424,49.16465880434424],[-22.453551624578495,49.10874154577831],[-22.245408965913725,49.052659981481675],[-22.038266456529897,48.99641590183067],[-21.832113319908473,48.94001106554726],[-21.62693891732394,48.88344720032539],[-21.4227327449062,48.82672600344067],[-21.219484430782558,48.7698491423436],[-21.017183732296985,48.71281825523703],[-20.81582053330345,48.6556349516384],[-20.61538484153141,48.59830081292711],[-20.415866786020075,48.54081739287777],[-20.217256614620197,48.48318621817923],[-20.019544691559958,48.4254087889406],[-19.82272149507361,48.36748657918407],[-19.626777615090305,48.309421037324995],[-19.43170375098137,48.251213586640105],[-19.237490709363755,48.1928656257236],[-19.04412940195823,48.13437852893189],[-18.85161084349997,48.07575364681711],[-18.659926149700482,48.01699230655002],[-18.46906653525855,47.958095812332225],[-18.27902331191902,47.8990654457983],[-18.089787886577767,47.83990246640815],[-17.901351759431293,47.780608111829544],[-17.7137065221697,47.72118359831158],[-17.526843856211457,47.66163012104907],[-17.340755530978726,47.601948854537916],[-17.155433402212168,47.54214095292223],[-16.970869410323502,47.48220755033297],[-16.787055578785214,47.42214976121872],[-16.603984012555998,47.36196868066829],[-16.421646896540494,47.30166538472597],[-16.240036494083085,47.24124093069935],[-16.059145145493886,47.18069635745967],[-15.878965266606428,47.12003268573542],[-15.699489347365812,47.059250918398966],[-15.520709950446786,46.9983520407465],[-15.342619709900333,46.93733702077158],[-15.16521132982831,46.87620680943227],[-14.98847758308517,46.814962340912196],[-14.81241131000587,46.753604532875514],[-14.637005417159429,46.69213428671614],[-14.46225287612711,46.63055248780119],[-14.288146722304589,46.568860005708935],[-14.114680053727596,46.50705769446124],[-13.941846029920015,46.44514639275091],[-13.769637870764058,46.38312692416359],[-13.598048855391653,46.32100009739485],[-13.427072321096745,46.2587667064624],[-13.256701662267346,46.196427530913255],[-13.086930329337548,46.13398333602644],[-12.917751827758138,46.071434873011164],[-12.749159716985787,46.00878287920028],[-12.581147609490102,45.94602807823953],[-12.413709169778002,45.88317118027262],[-12.246838113434961,45.82021288212201],[-12.080528206182777,45.75715386746556],[-11.914773262952934,45.69399480700942],[-11.749567146975778,45.630736358656755],[-11.58490376888443,45.567379167672854],[-11.420777085833407,45.50392386684653],[-11.257181100631414,45.44037107664755],[-11.09410986088767,45.37672140538103],[-10.931557458171966,45.31297544933782],[-10.769518027187303,45.2491337929417],[-10.607985744955329,45.185197008893276],[-10.446954830013965,45.12116565831049],[-10.286419541626913,45.05704029086581],[-10.126374179004586,44.99282144492052],[-9.96681308053627,44.928509647655694],[-9.807730623033251,44.86410541520021],[-9.649121220982238,44.7996092527558],[-9.490979325809207,44.73502165471913],[-9.333299425153058,44.670343104801105],[-9.176076042148907,44.605574076143235],[-9.019303734720609,44.54071503143123],[-8.862977094882496,44.4757664230061],[-8.707090748049666,44.41072869297232],[-8.551639352356858,44.345602273303456],[-8.396617597985568,44.28038758594532],[-8.242020206499006,44.21508504291647],[-8.087841930184908,44.149695046406215],[-7.934077551405551,44.084217988870236],[-7.780721881955259,44.01865425312382],[-7.627769762424634,43.953004212432546],[-7.475216061571672,43.88726823060085],[-7.323055675699209,43.8214466620581],[-7.171283528038856,43.755539851942565],[-7.019894568140671,43.68954813618295],[-6.868883771268997,43.62347184157797],[-6.718246137803618,43.55731128587354],[-6.567976692646511,43.49106677783789],[-6.418070484633631,43.4247386173346],[-6.268522585951757,43.35832709539347],[-6.119328091560163,43.29183249427938],[-5.970482118616729,43.22525508755918],[-5.821979805908597,43.15859514016627],[-5.673816313286835,43.091852908463665],[-5.525986821105249,43.025028640304555],[-5.378486529662865,42.958122575091394],[-5.231310658650216,42.89113494383266],[-5.084454446598869,42.82406596919805],[-4.9379131503342535,42.7569158655715],[-4.791682044431553,42.68968483910251],[-4.645756420674616,42.622373087755506],[-4.5001315875173304,42.55498080135746],[-4.354802869547655,42.48750816164351],[-4.209765606954079,42.419955342301044],[-4.065015154994029,42.352322509011614],[-3.9205468834645103,42.28460981949142],[-3.7763561761744597,42.21681742352976],[-3.6324384304187163,42.14894546302586],[-3.488789056453527,42.08099407202382],[-3.3454034769733028,42.01296337674593],[-3.202277126588683,41.944853495624216],[-3.059405451305196,41.87666453933008],[-2.91678390800314,41.80839661080254],[-2.774407963917781,41.7400498052744],[-2.632273096120059,41.67162421029702],[-2.490374790997663,41.60311990576299],[-2.348708543736052,41.53453696392749],[-2.207269857799531,41.4658754494277],[-2.0660542444120438,41.397135419300525],[-1.9250572220374806,41.32831692299863],[-1.7842743158594487,41.25942000240485],[-1.6437010572601594,41.19044469184475],[-1.5033329832985771,41.12139101809748],[-1.363165636187233,41.05225900040511],[-1.223194562767702,40.98304865047996],[-1.083415313984716,40.91375997251042],[-0.9438234443586282,40.8443929631649],[-0.8044145114556613,40.774947611594136],[-0.6651840753565921,40.70542389943177],[-0.5261276981227638,40.635821800793046],[-0.3872409432598545,40.56614128227183],[-0.2485193751790007,40.49638230293582],[-0.10995855865499493,40.42654481432015],[0.028445941718473478,40.35662876041886],[0.16669856207687417,40.286634077674826],[0.3048037398363306,40.216560694967775],[0.4427659142488096,40.14640853360054],[0.5805895269610915,40.07617750728324],[0.7182790225779172,40.00586752211591],[0.855838849229599,39.935478476568925],[0.993273459143694,39.86501026146176],[1.1305873092220793,39.79446275993971],[1.26778486162263,39.7238358474486],[1.4048705843461562,39.65312939170772],[1.5418489518290244,39.582343252680516],[1.6787244455414054,39.511477282543424],[1.8155015545915205,39.44053132565266],[1.9521847763360825,39.36950521850876],[2.0887786169974447,39.29839878971936],[2.225287592287401,39.22721185995931],[2.3617162280380057,39.155944241929205],[2.4980690608399243,39.08459574031129],[2.6343506386882893,39.013166151723404],[2.7705655216365983,38.941655264670274],[2.9067182824587974,38.870062859493125],[3.0428135073200053,38.798388708316274],[3.17885579645602,38.72663257499171],[3.3148497648621458,38.65479421504125],[3.450800042991659,38.582873375596066],[3.586711277463934,38.51086979533368],[3.7225881317831124,38.438783204412665],[3.8584352870672376,38.36661332440432],[3.994257442788495,38.29435986822198],[4.130059317524854,38.222022540047504],[4.265845649723445,38.14960103525492],[4.401621198476306,38.07709504033129],[4.537390744308652,38.004504232794716],[4.673159089980288,37.931828281109304],[4.808931061300569,37.85906684459703],[4.944711507957351,37.78621957334678]]}}]}