{"type":"FeatureCollection","features":[{"type":"Feature","properties":{"magnitude":0.2,"de":0.2,"ate":0.5,"percentagem":20.0},"geometry":{"type":"Polygon","coordinates":[[[-34.5,30.0],[-34.44,30.0],[-21.130301180799783,30.0],[-24.419999999999618,31.20432375387231],[-27.719999999999743,32.25334609948315],[-31.07999999999987,33.16489106971888],[-34.5,33.94041492280289],[-34.5,30.0]]]}},{"type":"Feature","properties":{"magnitude":0.5,"de":0.5,"ate":0.8,"percentagem":50.0},"geometry":{"type":"Polygon","coordinates":[[[-24.539999999999623,31.24523018362759],[-21.130301180799783,30.0],[-3.5399999999988268,30.0],[-3.5399999999988268,32.79037590885888],[-7.619999999998981,34.880474483166466],[-11.459999999999127,36.688686656656714],[-15.179999999999268,38.271599242257984],[-17.03999999999934,38.99791215132873],[-18.89999999999941,39.68056240275025],[-20.75999999999948,40.31994116770696],[-22.679999999999552,40.93535056205697],[-24.599999999999625,41.50652190360326],[-26.519999999999698,42.034731445263],[-28.499999999999773,42.535919169522934],[-30.479999999999848,42.99449850544737],[-34.49999999999999,43.80113381162232],[-34.5,33.94041492280289],[-31.07999999999987,33.16489106971888],[-27.779999999999745,32.270982201109796],[-24.539999999999623,31.24523018362759]]]}},{"type":"Feature","properties":{"magnitude":0.8,"de":0.8,"ate":0.95,"percentagem":80.0},"geometry":{"type":"Polygon","coordinates":[[[-7.679999999998984,34.90999630530086],[-3.5399999999988268,32.79037590885888],[-3.5399999999988268,38.95397469778986],[-5.939999999998918,40.11060525194472],[-8.279999999999006,41.18093907107385],[-10.559999999999093,42.16555336405365],[-12.83999999999918,43.09058569660732],[-15.359999999999275,44.04279848136116],[-17.934689082014444,44.939999999999685],[-34.5,44.939999999999685],[-34.49999999999999,43.80113381162232],[-30.479999999999848,42.99449850544737],[-28.499999999999773,42.53591916952294],[-26.519999999999698,42.034731445263006],[-24.599999999999625,41.50652190360326],[-22.679999999999552,40.93535056205697],[-20.75999999999948,40.31994116770696],[-18.89999999999941,39.68056240275025],[-17.03999999999934,38.99791215132873],[-15.179999999999268,38.271599242257984],[-11.459999999999127,36.688686656656714],[-7.679999999998984,34.90999630530086]]]}},{"type":"Feature","properties":{"magnitude":0.95,"de":0.95,"ate":0.99,"percentagem":95.0},"geometry":{"type":"MultiPolygon","coordinates":[[[[-3.5399999999988268,38.95397469778986],[-7.31999999999897,40.74897774681191],[-10.859999999999104,42.2906994095094],[-14.399999999999238,43.6887419659839],[-17.934689082014444,44.939999999999685],[-13.515920423255201,44.939999999999685],[-9.899999999999068,43.51197240006133],[-6.7799999999989495,42.16181497991094],[-3.5399999999988268,40.65004730436665],[-3.5399999999988268,38.95397469778986]]],[[[-3.5399999999988268,43.57077314488484],[-5.159999999998888,44.30752708949255],[-6.602595609440036,44.939999999999685],[-3.5399999999988268,44.939999999999685],[-3.5399999999988268,43.57077314488484]]]]}},{"type":"Feature","properties":{"magnitude":0.99,"de":0.99,"ate":2.0,"percentagem":99.0},"geometry":{"type":"Polygon","coordinates":[[[-6.158047429342386,41.87999999999975],[-3.5399999999988268,40.65004730436665],[-3.5399999999988268,43.57077314488484],[-6.602595609440036,44.939999999999685],[-13.515920423255201,44.939999999999685],[-11.099999999999113,44.002335495633545],[-8.63999999999902,42.97966445543802],[-6.158047429342386,41.87999999999975]]]}}]}