{"type":"FeatureCollection","properties":{"largura_maxima_km":30.126,"largura_sobre_pt_km":29.984,"linha_central_sobre_pt":false,"desenhavel_como_area":true,"perfil_largura":[{"t":-0.61111,"lat":27.2944,"lon":-39.9285,"largura_km":30.126,"eixo_na_terra":true},{"t":-0.60556,"lat":27.2057,"lon":-39.7947,"largura_km":29.984,"eixo_na_terra":true},{"t":-0.6,"lat":27.1176,"lon":-39.6616,"largura_km":29.844,"eixo_na_terra":true},{"t":-0.59444,"lat":27.0302,"lon":-39.5293,"largura_km":29.706,"eixo_na_terra":true},{"t":-0.58889,"lat":26.9434,"lon":-39.3976,"largura_km":29.569,"eixo_na_terra":true},{"t":-0.58333,"lat":26.8572,"lon":-39.2667,"largura_km":29.434,"eixo_na_terra":true},{"t":-0.57778,"lat":26.7716,"lon":-39.1364,"largura_km":29.3,"eixo_na_terra":true},{"t":-0.57222,"lat":26.6866,"lon":-39.0069,"largura_km":29.168,"eixo_na_terra":true},{"t":-0.56667,"lat":26.6022,"lon":-38.8779,"largura_km":29.037,"eixo_na_terra":true},{"t":-0.56111,"lat":26.5183,"lon":-38.7496,"largura_km":28.908,"eixo_na_terra":true},{"t":-0.55556,"lat":26.4351,"lon":-38.622,"largura_km":28.78,"eixo_na_terra":true},{"t":-0.55,"lat":26.3524,"lon":-38.4949,"largura_km":28.653,"eixo_na_terra":true},{"t":-0.54444,"lat":26.2703,"lon":-38.3685,"largura_km":28.528,"eixo_na_terra":true},{"t":-0.53889,"lat":26.1888,"lon":-38.2426,"largura_km":28.405,"eixo_na_terra":true},{"t":-0.53333,"lat":26.1078,"lon":-38.1174,"largura_km":28.282,"eixo_na_terra":true},{"t":-0.52778,"lat":26.0274,"lon":-37.9927,"largura_km":28.162,"eixo_na_terra":true},{"t":-0.52222,"lat":25.9475,"lon":-37.8686,"largura_km":28.042,"eixo_na_terra":true},{"t":-0.51667,"lat":25.8681,"lon":-37.745,"largura_km":27.924,"eixo_na_terra":true},{"t":-0.51111,"lat":25.7893,"lon":-37.622,"largura_km":27.807,"eixo_na_terra":true},{"t":-0.50556,"lat":25.711,"lon":-37.4995,"largura_km":27.691,"eixo_na_terra":true},{"t":-0.5,"lat":25.6333,"lon":-37.3776,"largura_km":27.577,"eixo_na_terra":true},{"t":-0.49444,"lat":25.5561,"lon":-37.2561,"largura_km":27.464,"eixo_na_terra":true},{"t":-0.48889,"lat":25.4793,"lon":-37.1352,"largura_km":27.353,"eixo_na_terra":true},{"t":-0.48333,"lat":25.4031,"lon":-37.0148,"largura_km":27.242,"eixo_na_terra":true},{"t":-0.47778,"lat":25.3274,"lon":-36.8948,"largura_km":27.133,"eixo_na_terra":true},{"t":-0.47222,"lat":25.2522,"lon":-36.7753,"largura_km":27.025,"eixo_na_terra":true},{"t":-0.46667,"lat":25.1775,"lon":-36.6564,"largura_km":26.919,"eixo_na_terra":true},{"t":-0.46111,"lat":25.1033,"lon":-36.5378,"largura_km":26.814,"eixo_na_terra":true},{"t":-0.45556,"lat":25.0296,"lon":-36.4197,"largura_km":26.71,"eixo_na_terra":true}]},"features":[{"type":"Feature","properties":{},"geometry":{"type":"Polygon","coordinates":[[[-39.90223273899227,27.446854382962623],[-38.97928853238537,26.831901205065954],[-38.088793529945576,26.24668870010502],[-37.22676863382674,25.68910165317891],[-36.86517599585969,25.458136105134667],[-36.39161139032464,25.15848413167597],[-36.44946832707018,24.90330709349456],[-37.28528645043991,25.424535335957476],[-38.14577599740912,25.97053423659065],[-39.034270360579114,26.5429899991682],[-39.95690808195016,27.145392730591887],[-39.90223273899227,27.446854382962623]]]}}]}