{"type":"FeatureCollection","features":[{"type":"Feature","properties":{"t_inicio":-0.6111111111111232,"t_fim":-0.45555555555556815},"geometry":{"type":"LineString","coordinates":[[-39.92847632138859,27.294417057963464],[-39.79468302041079,27.2057146414277],[-39.661623357849805,27.117646496204372],[-39.529283449084346,27.030205277665235],[-39.39764972937044,26.94338381889711],[-39.2667089431736,26.857175125088673],[-39.13644813394296,26.7715723681475],[-39.00685463430486,26.68656888153569],[-38.87791605665535,26.602158155314115],[-38.74962028413162,26.518333831384066],[-38.62195546194414,26.435089698917743],[-38.494909989051735,26.352419689968023],[-38.36847251016309,26.270317875249276],[-38.2426319080497,26.18877846008108],[-38.11737729615439,26.107795780487297],[-37.9926980114829,26.027364299443313],[-37.86858360776432,25.947478603264916],[-37.74502384886827,25.86813339813181],[-37.62200870246761,25.789323506740473],[-37.49952833393445,25.711043865079937],[-37.377573100460125,25.633289519325466],[-37.256133545388195,25.556055622844813],[-37.13520039275156,25.479337433312015],[-37.0147645420044,25.403130309924485],[-36.89481706294072,25.32742971071871],[-36.77534919079119,25.252231189980037],[-36.65635232149049,25.17753039574349],[-36.537818007108285,25.103323067380927],[-36.419737951436474,25.029605033271356]]}}]}