{"type":"FeatureCollection","properties":{"largura_maxima_km":null,"largura_sobre_pt_km":null,"linha_central_sobre_pt":false,"desenhavel_como_area":true,"perfil_largura":[{"t":1.98889,"lat":32.7622,"lon":-37.9453,"largura_km":null,"eixo_na_terra":false},{"t":1.99444,"lat":32.9382,"lon":-37.4949,"largura_km":null,"eixo_na_terra":false},{"t":2.0,"lat":33.1646,"lon":-36.9231,"largura_km":null,"eixo_na_terra":false},{"t":2.00556,"lat":33.416,"lon":-36.3442,"largura_km":null,"eixo_na_terra":false},{"t":2.01111,"lat":33.3655,"lon":-36.2891,"largura_km":null,"eixo_na_terra":false},{"t":2.01667,"lat":33.4654,"lon":-35.9615,"largura_km":null,"eixo_na_terra":false},{"t":2.02222,"lat":33.7801,"lon":-35.2668,"largura_km":null,"eixo_na_terra":false},{"t":2.02778,"lat":33.6483,"lon":-35.426,"largura_km":null,"eixo_na_terra":false},{"t":2.03333,"lat":33.5689,"lon":-35.4845,"largura_km":null,"eixo_na_terra":false},{"t":2.03889,"lat":33.8956,"lon":-34.6543,"largura_km":null,"eixo_na_terra":false},{"t":2.04444,"lat":33.7434,"lon":-34.8752,"largura_km":null,"eixo_na_terra":false},{"t":2.05,"lat":34.0741,"lon":-34.0029,"largura_km":null,"eixo_na_terra":false},{"t":2.05556,"lat":33.9049,"lon":-34.278,"largura_km":null,"eixo_na_terra":false},{"t":2.06111,"lat":34.0645,"lon":-33.9247,"largura_km":null,"eixo_na_terra":false},{"t":2.06667,"lat":34.1258,"lon":-33.527,"largura_km":null,"eixo_na_terra":false},{"t":2.07222,"lat":34.3538,"lon":-33.0368,"largura_km":null,"eixo_na_terra":false},{"t":2.07778,"lat":34.3329,"lon":-32.944,"largura_km":null,"eixo_na_terra":false},{"t":2.08333,"lat":34.4106,"lon":-32.6345,"largura_km":null,"eixo_na_terra":false},{"t":2.08889,"lat":34.581,"lon":-32.109,"largura_km":null,"eixo_na_terra":false},{"t":2.09444,"lat":34.9064,"lon":-31.209,"largura_km":null,"eixo_na_terra":false},{"t":2.1,"lat":35.0443,"lon":-30.7329,"largura_km":null,"eixo_na_terra":false},{"t":2.10556,"lat":35.2563,"lon":-30.0727,"largura_km":null,"eixo_na_terra":false},{"t":2.11111,"lat":35.8004,"lon":-28.5539,"largura_km":null,"eixo_na_terra":false}]},"features":[{"type":"Feature","properties":{},"geometry":{"type":"Polygon","coordinates":[[[-27.89356706616418,36.24321994745824],[-27.873370631694677,36.090347211616894],[-27.487856900524122,35.82756300424682],[-27.686347503837062,35.744937757781265],[-27.273849279121322,35.286733839003205],[-28.117139858775943,34.9543690204876],[-28.03545078387046,34.87699525926241],[-28.63474735008584,34.64459262092789],[-28.633894113952948,34.639648947148636],[-29.904285722477784,34.15013983601459],[-30.53723000699611,33.900663374972034],[-31.90640905579669,33.35741121513479],[-33.28788984847083,32.796899364146206],[-34.40585876431485,32.3351615499472],[-34.76202159333067,32.18469701536319],[-35.36623696124483,31.93265747248096],[-35.704633589050104,31.787687039432495],[-36.22101846595592,31.569863201918967],[-36.54351012941112,31.42998215757259],[-36.99673835660443,31.236910036469286],[-37.30450067262649,31.101904907607214],[-37.708838739009856,30.92813188032566],[-38.004261794852766,30.797210348754884],[-38.36940915324136,30.63901394253822],[-38.654269450569785,30.51158968887179],[-38.987168493665074,30.366294532584675],[-39.262826758338264,30.241920984539632],[-39.56864461228999,30.10752765297679],[-39.83617019064977,29.985856044181606],[-40.11887279934369,29.860823646240668],[-40.379124503543665,29.741575691828594],[-40.64183244565448,29.62468687589152],[-40.89551284830088,29.507636416582532],[-41.14073239035015,29.39790955086277],[-41.388425396872805,29.282869862843615],[-41.61820436603211,29.179499681811684],[-41.860401916835826,29.0663144739111],[-42.22163702267511,28.904384886348783],[-42.56735065652606,28.757716974108096],[-42.734304629009245,28.690145584359357],[-42.897277037447566,28.626432879527243],[-43.05623173925375,28.56658902572038],[-43.211131566505,28.510622123892517],[-43.36193839605912,28.458538201770068],[-43.50861321728894,28.410341208403217],[-43.651116197750696,28.366033011190236],[-43.7894067470595,28.325613395240854],[-43.923443579202285,28.289080064961073],[-44.05318477348641,28.256428647754113],[-44.17858783429108,28.227652699743896],[-44.29960974976467,28.202743713437002],[-44.41620704958817,28.181691127247436],[-44.5283358619065,28.164482336815983],[-44.63595196951354,28.15110270806211],[-44.73901086536168,28.14153559191194],[-44.83746780745571,28.135762340650558],[-44.93127787317928,28.13376232585114],[-45.020396013094114,28.135512957837317],[-45.10477710424351,28.140989706637843],[-45.18437600298526,28.15016612439641],[-45.25914759737327,28.163013869201166],[-45.329046859101936,28.179502730301458],[-45.39402889502253,28.19960065468126],[-45.45404899823768,28.223273774960614],[-45.509062698775864,28.250486438598305],[-45.55902581384481,28.281201238370816],[-45.603894497660065,28.31537904410401],[-45.64362529084178,28.352979035635947],[-45.678175169371514,28.393958736990264],[-45.7075015930962,28.438274051741608],[-45.731562553766025,28.48587929955584],[-45.75031662258948,28.536727253889463],[-45.76372299728587,28.590769180833902],[-45.77174154861359,28.647954879092765],[-45.774332866348516,28.70823272108094],[-45.771458304684046,28.771549695137],[-45.763080027020266,28.837851448841498],[-45.74916105010573,28.907082333436737],[-45.72966528749018,28.979185449344605],[-45.70455759224183,29.05410269278247],[-45.67380379887669,29.13177480347856],[-45.637370764440135,29.212141413491917],[-45.59522640867428,29.295141097144075],[-45.547339753195644,29.380711422073446],[-45.493680959597526,29.468789001426302],[-45.43422136638213,29.55930954720266],[-45.368933524613254,29.652207924779045],[-45.29779123216801,29.74741820863522],[-45.2207695664498,29.844873739317112],[-45.137844915407015,29.944507181673874],[-45.04899500668205,30.046250584413837],[-44.95419893469281,30.15003544103178],[-44.85343718542191,30.255792752167693],[-44.74669165866146,30.363453089468127],[-44.63394568742572,30.47294666103094],[-44.515184054207225,30.58420337852807],[-44.39039300370786,30.697152926115262],[-44.259560251625885,30.811724831254406],[-44.122674989022244,30.9278485375945],[-43.97972788172339,31.04545348007971],[-43.83071106413951,31.164469162480227],[-43.675618126788095,31.28482523757306],[-43.51444409670785,31.4064515902373],[-43.34718540982465,31.529278423771807],[-43.17383987418859,31.65323634979582],[-42.99440662282993,31.778256482154255],[-42.80888605478148,31.904270535323747],[-42.61727976257541,32.03121092790324],[-42.41959044423726,32.15901089187914],[-42.215821797457465,32.28760458848299],[-42.00597839320804,32.41692723161414],[-41.79006552557328,32.54691521998816],[-41.56808903395597,32.67750627940125],[-41.34005509307846,32.80863961678272],[-41.105969965286135,32.94025608805432],[-40.86583970853397,33.07229838224522],[-40.61966983203672,33.20471122484642],[-40.36746488981245,33.33744160405837],[-40.10922800014623,33.470439024430235],[-39.84496027621077,33.603655793459374],[-39.57466014952152,33.73704734808638],[-39.29832256332804,33.87057262977967],[-39.01593800711558,34.00419451918216],[-38.72749135564436,34.13788034427181],[-38.432960465736755,34.2716024799198],[-37.959963413550305,34.48046714199468],[-37.63534110522994,34.62631542519169],[-36.37685493485978,35.17819319861387],[-36.09290606577526,35.299651568634104],[-35.73809478940558,35.454951130140785],[-35.3082538690295,35.639755370089276],[-34.91590996511477,35.805543056871755],[-34.543959554883855,35.96563201282867],[-34.01870352864711,36.18782475354421],[-33.42706502807047,36.43383328749541],[-33.02726279188323,36.60222776936508],[-32.30166463612409,36.90251659312876],[-30.653443269829864,37.571798201355946],[-28.197297157392654,38.54224208790364],[-28.185513114443168,38.453045210718194],[-28.05270057489082,38.504221980632664],[-28.1096227880471,37.878609072617735],[-27.918582749295467,36.432570989841246],[-27.76679965585592,36.2983902248468],[-27.89356706616418,36.24321994745824]]]}}]}