{"type":"FeatureCollection","features":[{"type":"Feature","properties":{"magnitude":0.2,"percentagem":20.0,"territorio":"acores"},"geometry":{"type":"LineString","coordinates":[[-26.848627447889573,36.0],[-26.84861843747882,36.04],[-26.88000000000011,36.07138156252129],[-26.88860601980403,36.08],[-26.888597062630645,36.12],[-26.888588127584768,36.16],[-26.92000000000011,36.19141187241534],[-26.928575812421762,36.199999999999996],[-26.928566930020573,36.239999999999995],[-26.928558069500426,36.279999999999994],[-26.960000000000107,36.311441930499676],[-26.968545855709877,36.31999999999999],[-26.968537047250763,36.35999999999999],[-26.96852826042998,36.39999999999999],[-27.000000000000107,36.431471739570114],[-27.008516146889924,36.43999999999999],[-27.008507411555392,36.47999999999999],[-27.040000000000106,36.5114925884447],[-27.048495367473333,36.51999999999998],[-27.048486683225676,36.55999999999999],[-27.04847802021062,36.59999999999999],[-27.080000000000105,36.63152197978947],[-27.088466074510556,36.639999999999986],[-27.08845746202232,36.679999999999986],[-27.08844887053379,36.719999999999985],[-27.120000000000104,36.7515511294663],[-27.12843702213903,36.75999999999999],[-27.128428480625683,36.79999999999998],[-27.128419959882663,36.83999999999998],[-27.160000000000103,36.87158004011742],[-27.168408207732686,36.87999999999998],[-27.168399736421485,36.91999999999998],[-27.168391285654664,36.95999999999998],[-27.200000000000102,36.99160871434542],[-27.208379628704854,36.99999999999998],[-27.208380298257268,37.03999999999998],[-27.2400000000001,37.07161970174281],[-27.248391904336525,37.07999999999998],[-27.24840036506921,37.119999999999976],[-27.248408839324473,37.159999999999975],[-27.2800000000001,37.1915911606756],[-27.288420509098966,37.199999999999974],[-27.288429015372813,37.239999999999974],[-27.288437535248235,37.27999999999997],[-27.3200000000001,37.31156246475184],[-27.328449269107647,37.31999999999997],[-27.328457821192643,37.35999999999997],[-27.328466386958546,37.39999999999997],[-27.3600000000001,37.43153361304152],[-27.36847818529458,37.43999999999997],[-27.36848678346196,37.47999999999997],[-27.400000000000098,37.511513216538106],[-27.408498627890964,37.51999999999997],[-27.40850725859628,37.55999999999996],[-27.408515903118563,37.599999999999966],[-27.440000000000097,37.63148409688151],[-27.44852781270012,37.639999999999965],[-27.448536489953803,37.679999999999964],[-27.44854518110476,37.71999999999996],[-27.480000000000096,37.7514548188953],[-27.488557156235977,37.75999999999996],[-27.48856588031269,37.79999999999996],[-27.48857461836736,37.83999999999996],[-27.520000000000095,37.8714253816327],[-27.5285866594473,37.87999999999996],[-27.52859543062299,37.91999999999996],[-27.560000000000098,37.95140456937707],[-27.568607518851774,37.95999999999996],[-27.56861632328735,37.99999999999996],[-27.56862514183918,38.03999999999996],[-27.600000000000094,38.07137485816087],[-27.608637296705318,38.079999999999956],[-27.608646148713824,38.119999999999955],[-27.608655014920213,38.159999999999954],[-27.640000000000096,38.19134498507984],[-27.648667236828107,38.19999999999995],[-27.64867613668885,38.23999999999995],[-27.648685050829435,38.27999999999995],[-27.680000000000092,38.31131494917061],[-27.688697340185463,38.31999999999995],[-27.688706288178956,38.35999999999995],[-27.72000000000009,38.391293711821085],[-27.728718625759445,38.39999999999995],[-27.728727607747068,38.43999999999995],[-27.728736604155056,38.47999999999995],[-27.76000000000009,38.511263395844985],[-27.76874900988482,38.519999999999946],[-27.768758040486986,38.559999999999945],[-27.7687670855924,38.59999999999995],[-27.80000000000009,38.63123291440763],[-27.808779559883078,38.639999999999944],[-27.80878863938359,38.67999999999994],[-27.808797733470577,38.71999999999994],[-27.84000000000009,38.751202266529454],[-27.848810276735726,38.75999999999995],[-27.848819405419576,38.79999999999994],[-27.880000000000088,38.831180594580445],[-27.88883199800429,38.83999999999994],[-27.888841161428537,38.87999999999994],[-27.888850339581907,38.91999999999994],[-27.920000000000087,38.95114966041812],[-27.92886300185456,38.95999999999994],[-27.928872214951554,38.999999999999936],[-27.928881442861783,39.039999999999935],[-27.960000000000086,39.071118557138234],[-27.968894175241108,39.079999999999934],[-27.968903438299023,39.11999999999993],[-28.000000000000085,39.15109656170099],[-28.00891622081044,39.15999999999993],[-28.008925519161217,39.19999999999993],[-28.00893483246939,39.23999999999993],[-28.040000000000084,39.27106516753062],[-28.048947685809818,39.27999999999993],[-28.048957034616336,39.319999999999936],[-28.048966398465232,39.35999999999993],[-28.080000000000084,39.39103360153478],[-28.08897932305849,39.39999999999993],[-28.088988722612033,39.43999999999993],[-28.120000000000083,39.47101127738798],[-28.129001698160017,39.479999999999926],[-28.129011133564987,39.519999999999925],[-28.129020584157956,39.559999999999924],[-28.160000000000082,39.59097941584205],[-28.169033631689828,39.59999999999992],[-28.169043118341904,39.63999999999992],[-28.16905262026781,39.67999999999992],[-28.20000000000008,39.7109473797322],[-28.20906574021236,39.71999999999992],[-28.209075278405845,39.75999999999992],[-28.24000000000008,39.79092472159415],[-28.24908845013772,39.799999999999926],[-28.24909802474712,39.83999999999992],[-28.249107614777387,39.87999999999992],[-28.28000000000008,39.91089238522262],[-28.289120859661537,39.919999999999916],[-28.289130486317532,39.95999999999991],[-28.289140128481016,39.999999999999915],[-28.32000000000008,40.03085987151898],[-28.329153446951132,40.039999999999914],[-28.329163125950924,40.07999999999991],[-28.360000000000078,40.11083687404907],[-28.369176497050674,40.11999999999991],[-28.369186213036627,40.15999999999991],[-28.369195944678456,40.19999999999992],[-28.400000000000077,40.230804055321535],[-28.409209390112103,40.23999999999991],[-28.409219158951956,40.27999999999991],[-28.409228943535084,40.31999999999991],[-28.440000000000076,40.35077105646491],[-28.449242463741065,40.35999999999991],[-28.44925228573481,40.399999999999906],[-28.480000000000075,40.43074771426517],[-28.489265859422265,40.439999999999905],[-28.489275718977947,40.479999999999905]]}},{"type":"Feature","properties":{"magnitude":0.4,"percentagem":40.0,"territorio":"acores"},"geometry":{"type":"LineString","coordinates":[[-26.857254895779043,36.0],[-26.85723687495753,36.04],[-26.88000000000011,36.062763125042586],[-26.89721203960795,36.08],[-26.89719412526118,36.12],[-26.897176255169427,36.16],[-26.92000000000011,36.18282374483067],[-26.937151624843416,36.199999999999996],[-26.93713386004103,36.239999999999995],[-26.93711613900074,36.279999999999994],[-26.960000000000107,36.30288386099936],[-26.977091711419646,36.31999999999999],[-26.97707409450141,36.35999999999999],[-26.977056520859858,36.39999999999999],[-27.000000000000107,36.422943479140244],[-27.017032293779742,36.43999999999999],[-27.017014823110678,36.47999999999999],[-27.040000000000106,36.50298517688942],[-27.05699073494656,36.51999999999999],[-27.056973366451246,36.55999999999999],[-27.056956040421138,36.59999999999999],[-27.080000000000105,36.62304395957895],[-27.096932149021008,36.639999999999986],[-27.096914924044533,36.67999999999998],[-27.096897741067476,36.719999999999985],[-27.120000000000104,36.74310225893261],[-27.136874044277945,36.759999999999984],[-27.136856961251254,36.79999999999998],[-27.136839919765222,36.83999999999998],[-27.160000000000103,36.86316008023486],[-27.176816415465268,36.87999999999998],[-27.176799472842866,36.91999999999998],[-27.176782571309225,36.95999999999998],[-27.200000000000102,36.983217428690864],[-27.21675925740961,36.99999999999998],[-27.216760596514433,37.03999999999998],[-27.2400000000001,37.063239403485646],[-27.256783808672946,37.07999999999997],[-27.25680073013831,37.119999999999976],[-27.256817678648844,37.159999999999975],[-27.2800000000001,37.18318232135123],[-27.296841018197824,37.199999999999974],[-27.296858030745526,37.239999999999974],[-27.296875070496366,37.27999999999997],[-27.3200000000001,37.30312492950371],[-27.336898538215195,37.31999999999997],[-27.336915642385186,37.35999999999997],[-27.336932773916992,37.39999999999996],[-27.3600000000001,37.42306722608308],[-27.376956370589056,37.43999999999997],[-27.37697356692382,37.479999999999976],[-27.400000000000098,37.50302643307625],[-27.41699725578183,37.51999999999997],[-27.417014517192463,37.55999999999997],[-27.417031806237024,37.599999999999966],[-27.440000000000097,37.62296819376304],[-27.45705562540015,37.639999999999965],[-27.457072979907508,37.679999999999964],[-27.45709036220942,37.71999999999996],[-27.480000000000096,37.74290963779064],[-27.497114312471854,37.75999999999996],[-27.497131760625287,37.799999999999955],[-27.497149236734625,37.83999999999996],[-27.520000000000095,37.862850763265435],[-27.537173318894503,37.87999999999996],[-27.537190861245882,37.91999999999996],[-27.560000000000095,37.94280913875418],[-27.57721503770346,37.95999999999996],[-27.577232646574604,37.99999999999996],[-27.577250283678268,38.03999999999996],[-27.600000000000094,38.06274971632178],[-27.617274593410535,38.079999999999956],[-27.617292297427554,38.11999999999996],[-27.617310029840333,38.159999999999954],[-27.640000000000093,38.182689970159714],[-27.65733447365612,38.19999999999995],[-27.657352273377604,38.23999999999995],[-27.65737010165878,38.279999999999944],[-27.680000000000092,38.30262989834126],[-27.697394680370834,38.31999999999995],[-27.69741257635782,38.35999999999995],[-27.72000000000009,38.38258742364222],[-27.737437251518802,38.39999999999995],[-27.737455215494048,38.43999999999994],[-27.737473208310018,38.47999999999995],[-27.76000000000009,38.502526791690016],[-27.77749801976955,38.519999999999946],[-27.777516080973882,38.559999999999945],[-27.777534171184712,38.599999999999945],[-27.80000000000009,38.62246582881532],[-27.81755911976607,38.639999999999944],[-27.817577278767097,38.67999999999994],[-27.81759546694107,38.71999999999994],[-27.84000000000009,38.74240453305896],[-27.857620553471364,38.75999999999995],[-27.857638810839063,38.79999999999994],[-27.880000000000088,38.82236118916096],[-27.89766399600849,38.83999999999993],[-27.89768232285699,38.87999999999994],[-27.897700679163727,38.91999999999993],[-27.920000000000087,38.9422993208363],[-27.937726003709038,38.95999999999994],[-27.937744429903024,38.999999999999936],[-27.93776288572348,39.039999999999935],[-27.960000000000086,39.06223711427654],[-27.977788350482136,39.079999999999934],[-27.977806876597967,39.11999999999993],[-28.000000000000085,39.14219312340205],[-28.0178324416208,39.159999999999926],[-28.017851038322352,39.19999999999993],[-28.017869664938694,39.23999999999993],[-28.040000000000084,39.262130335061315],[-28.05789537161955,39.27999999999993],[-28.057914069232588,39.319999999999936],[-28.057932796930384,39.35999999999993],[-28.080000000000084,39.382067203069624],[-28.097958646116894,39.399999999999935],[-28.097977445223982,39.43999999999993],[-28.120000000000083,39.462022554776034],[-28.138003396319956,39.47999999999992],[-28.13802226712989,39.519999999999925],[-28.13804116831583,39.559999999999924],[-28.160000000000082,39.581958831684176],[-28.178067263379575,39.59999999999992],[-28.178086236683725,39.63999999999992],[-28.178105240535537,39.67999999999992],[-28.20000000000008,39.70189475946447],[-28.218131480424645,39.71999999999992],[-28.218150556811608,39.75999999999992],[-28.24000000000008,39.78184944318839],[-28.258176900275352,39.79999999999992],[-28.25819604949416,39.83999999999992],[-28.25821522955469,39.87999999999992],[-28.28000000000008,39.9017847704453],[-28.298241719322995,39.919999999999916],[-28.29826097263499,39.959999999999916],[-28.298280256961952,39.999999999999915],[-28.32000000000008,40.021719743038034],[-28.338306893902185,40.039999999999914],[-28.338326251901766,40.07999999999991],[-28.360000000000078,40.10167374809822],[-28.37835299410127,40.11999999999991],[-28.378372426073177,40.15999999999991],[-28.37839188935683,40.19999999999991],[-28.400000000000077,40.22160811064316],[-28.41841878022413,40.23999999999991],[-28.418438317903842,40.279999999999916],[-28.41845788707009,40.31999999999991],[-28.440000000000076,40.3415421129299],[-28.458484927482047,40.35999999999991],[-28.458504571469547,40.399999999999906],[-28.480000000000075,40.421495428530434],[-28.498531718844454,40.439999999999905],[-28.498551437955815,40.479999999999905]]}},{"type":"Feature","properties":{"magnitude":0.6,"percentagem":60.0,"territorio":"acores"},"geometry":{"type":"LineString","coordinates":[[-26.865882343668506,36.0],[-26.865855312436235,36.04],[-26.88000000000011,36.05414468756388],[-26.90581805941187,36.08],[-26.905791187891715,36.12],[-26.905764382754086,36.16],[-26.92000000000011,36.17423561724601],[-26.945727437265074,36.199999999999996],[-26.945700790061494,36.239999999999995],[-26.945674208501053,36.279999999999994],[-26.960000000000107,36.29432579149905],[-26.985637567129416,36.31999999999999],[-26.98561114175206,36.35999999999999],[-26.98558478128973,36.39999999999999],[-27.000000000000107,36.41441521871037],[-27.02554844066956,36.43999999999999],[-27.02552223466596,36.47999999999999],[-27.040000000000106,36.49447776533413],[-27.065486102419783,36.51999999999999],[-27.06546004967682,36.55999999999999],[-27.065434060631652,36.59999999999999],[-27.080000000000105,36.61456593936844],[-27.10539822353146,36.639999999999986],[-27.105372386066747,36.679999999999986],[-27.105346611601163,36.719999999999985],[-27.120000000000104,36.734653388398925],[-27.145311066416866,36.759999999999984],[-27.145285441876833,36.79999999999998],[-27.145259879647778,36.83999999999998],[-27.160000000000103,36.854740120352304],[-27.185224623197854,36.87999999999998],[-27.185199209264248,36.91999999999998],[-27.185173856963786,36.95999999999998],[-27.200000000000102,36.974826143036296],[-27.225138886114365,36.99999999999998],[-27.225140894771595,37.03999999999998],[-27.2400000000001,37.05485910522848],[-27.26517571300937,37.07999999999998],[-27.265201095207416,37.119999999999976],[-27.265226517973215,37.159999999999975],[-27.2800000000001,37.17477348202686],[-27.305261527296686,37.199999999999974],[-27.305287046118238,37.239999999999974],[-27.305312605744497,37.27999999999997],[-27.3200000000001,37.294687394255575],[-27.34534780732275,37.31999999999997],[-27.345373463577726,37.35999999999997],[-27.345399160875438,37.39999999999997],[-27.3600000000001,37.41460083912463],[-27.385434555883542,37.43999999999997],[-27.385460350385678,37.47999999999997],[-27.400000000000098,37.49453964961439],[-27.425495883672696,37.51999999999997],[-27.425521775788646,37.55999999999997],[-27.425547709355484,37.599999999999966],[-27.440000000000097,37.61445229064458],[-27.465583438100175,37.639999999999965],[-27.465609469861207,37.679999999999964],[-27.465635543314082,37.71999999999996],[-27.480000000000096,37.73436445668598],[-27.50567146870773,37.75999999999996],[-27.505697640937882,37.79999999999996],[-27.505723855101888,37.83999999999996],[-27.520000000000095,37.85427614489817],[-27.545759978341707,37.87999999999996],[-27.545786291868765,37.91999999999996],[-27.560000000000095,37.93421370813129],[-27.58582255655514,37.95999999999996],[-27.585848969861857,37.99999999999996],[-27.585875425517354,38.03999999999996],[-27.600000000000094,38.0541245744827],[-27.625911890115756,38.079999999999956],[-27.625938446141284,38.119999999999955],[-27.62596504476045,38.159999999999954],[-27.640000000000093,38.1740349552396],[-27.66600171048414,38.19999999999995],[-27.66602841006636,38.23999999999995],[-27.666055152488127,38.27999999999995],[-27.680000000000092,38.293944847511916],[-27.706092020556202,38.31999999999995],[-27.706118864536688,38.35999999999995],[-27.72000000000009,38.37388113546336],[-27.746155877278156,38.39999999999995],[-27.74618282324103,38.43999999999995],[-27.746209812464983,38.47999999999995],[-27.76000000000009,38.493790187535055],[-27.786247029654277,38.519999999999946],[-27.786274121460778,38.559999999999945],[-27.786301256777023,38.599999999999945],[-27.80000000000009,38.61369874322301],[-27.826338679649062,38.639999999999944],[-27.826365918150593,38.67999999999994],[-27.826393200411555,38.71999999999994],[-27.84000000000009,38.73360679958847],[-27.866430830207,38.75999999999994],[-27.866458216258557,38.79999999999994],[-27.880000000000088,38.81354178374147],[-27.906495994012698,38.83999999999994],[-27.90652348428544,38.87999999999994],[-27.906551018745546,38.91999999999994],[-27.920000000000087,38.93344898125448],[-27.946589005563514,38.95999999999994],[-27.946616644854487,38.999999999999936],[-27.94664432858518,39.039999999999935],[-27.960000000000086,39.05335567141484],[-27.98668252572316,39.079999999999934],[-27.986710314896904,39.11999999999993],[-28.000000000000085,39.133289685103115],[-28.02674866243116,39.15999999999993],[-28.026776557483487,39.19999999999993],[-28.026804497407998,39.23999999999993],[-28.040000000000084,39.253195502592014],[-28.06684305742929,39.27999999999993],[-28.06687110384884,39.31999999999993],[-28.066899195395532,39.35999999999993],[-28.080000000000084,39.373100804604476],[-28.1069379691753,39.39999999999993],[-28.106966167835928,39.43999999999993],[-28.120000000000083,39.45303383216408],[-28.147005094479894,39.479999999999926],[-28.147033400694795,39.519999999999925],[-28.147061752473704,39.559999999999924],[-28.160000000000082,39.5729382475263],[-28.187100895069314,39.59999999999992],[-28.18712935502555,39.63999999999992],[-28.187157860803257,39.67999999999992],[-28.20000000000008,39.69284213919675],[-28.227197220636924,39.71999999999992],[-28.227225835217375,39.75999999999992],[-28.24000000000008,39.772774164782625],[-28.267265350412988,39.79999999999992],[-28.267294074241203,39.83999999999992],[-28.267322844331993,39.87999999999992],[-28.28000000000008,39.892677155668004],[-28.30736257898445,39.919999999999916],[-28.30739145895244,39.959999999999916],[-28.30742038544289,39.999999999999915],[-28.32000000000008,40.0125796145571],[-28.34746034085323,40.039999999999914],[-28.34748937785261,40.07999999999991],[-28.360000000000078,40.09251062214738],[-28.387529491151867,40.11999999999991],[-28.387558639109727,40.15999999999991],[-28.387587834035205,40.19999999999991],[-28.400000000000077,40.21241216596478],[-28.427628170336156,40.23999999999991],[-28.42765747685572,40.27999999999991],[-28.42768683060509,40.31999999999991],[-28.440000000000076,40.332313169394894],[-28.467727391223036,40.35999999999991],[-28.467756857204286,40.399999999999906],[-28.480000000000075,40.412243142795695],[-28.507797578266647,40.439999999999905],[-28.507827156933686,40.479999999999905]]}},{"type":"Feature","properties":{"magnitude":0.8,"percentagem":80.0,"territorio":"acores"},"geometry":{"type":"LineString","coordinates":[[-26.874509791557973,36.0],[-26.87447374991494,36.04],[-26.88000000000011,36.04552625008516],[-26.91442407921579,36.08],[-26.914388250522247,36.12],[-26.91435251033875,36.16],[-26.92000000000011,36.16564748966135],[-26.954303249686728,36.199999999999996],[-26.95426772008196,36.239999999999995],[-26.95423227800137,36.279999999999994],[-26.960000000000107,36.28576772199873],[-26.994183422839182,36.31999999999999],[-26.994148189002715,36.35999999999999],[-26.994113041719608,36.39999999999999],[-27.000000000000107,36.4058869582805],[-27.034064587559378,36.43999999999999],[-27.03402964622125,36.47999999999999],[-27.040000000000106,36.485970353778846],[-27.07398146989301,36.51999999999999],[-27.073946732902392,36.55999999999999],[-27.07391208084217,36.59999999999999],[-27.080000000000105,36.60608791915792],[-27.113864298041914,36.639999999999986],[-27.11382984808896,36.679999999999986],[-27.11379548213485,36.719999999999985],[-27.120000000000104,36.726204517865234],[-27.153748088555787,36.759999999999984],[-27.153713922502412,36.79999999999998],[-27.153679839530337,36.83999999999998],[-27.160000000000103,36.846320160469745],[-27.193632830930433,36.87999999999998],[-27.19359894568563,36.91999999999998],[-27.193565142618347,36.95999999999998],[-27.200000000000102,36.966434857381735],[-27.233518514819114,36.99999999999998],[-27.23352119302876,37.03999999999998],[-27.2400000000001,37.046478806971315],[-27.273567617345794,37.07999999999998],[-27.27360146027652,37.119999999999976],[-27.27363535729759,37.159999999999975],[-27.2800000000001,37.16636464270249],[-27.313682036395548,37.199999999999974],[-27.31371606149095,37.239999999999974],[-27.31375014099263,37.27999999999997],[-27.3200000000001,37.28624985900744],[-27.353797076430297,37.31999999999997],[-27.353831284770273,37.35999999999997],[-27.353865547833884,37.39999999999997],[-27.3600000000001,37.406134452166185],[-27.39391274117802,37.43999999999997],[-27.393947133847536,37.47999999999997],[-27.400000000000098,37.48605286615253],[-27.43399451156356,37.51999999999997],[-27.434029034384828,37.55999999999997],[-27.43406361247395,37.599999999999966],[-27.440000000000097,37.605936387526114],[-27.474111250800206,37.639999999999965],[-27.474145959814912,37.679999999999964],[-27.474180724418744,37.71999999999996],[-27.480000000000096,37.725819275581316],[-27.51422862494361,37.75999999999996],[-27.51426352125048,37.79999999999996],[-27.51429847346915,37.83999999999996],[-27.520000000000095,37.8457015265309],[-27.55434663778891,37.87999999999996],[-27.554381722491662,37.91999999999996],[-27.560000000000095,37.92561827750839],[-27.594430075406823,37.95999999999996],[-27.59446529314911,37.99999999999996],[-27.594500567356437,38.03999999999995],[-27.600000000000094,38.04549943264361],[-27.634549186820976,38.079999999999956],[-27.63458459485501,38.119999999999955],[-27.63462005968057,38.159999999999954],[-27.640000000000093,38.16537994031948],[-27.674668947312153,38.19999999999996],[-27.674704546755116,38.23999999999995],[-27.674740203317473,38.27999999999995],[-27.680000000000092,38.28525979668257],[-27.714789360741573,38.31999999999995],[-27.71482515271555,38.35999999999995],[-27.72000000000009,38.365174847284486],[-27.754874503037513,38.39999999999995],[-27.75491043098801,38.43999999999995],[-27.754946416619944,38.47999999999995],[-27.76000000000009,38.48505358338009],[-27.794996039539008,38.519999999999946],[-27.79503216194767,38.559999999999945],[-27.79506834236933,38.599999999999945],[-27.80000000000009,38.6049316576307],[-27.83511823953205,38.639999999999944],[-27.835154557534096,38.67999999999994],[-27.835190933882046,38.71999999999994],[-27.84000000000009,38.724809066117984],[-27.875241106942635,38.75999999999995],[-27.875277621678045,38.79999999999994],[-27.880000000000088,38.80472237832198],[-27.9153279920169,38.83999999999994],[-27.91536464571389,38.87999999999994],[-27.915401358327365,38.91999999999994],[-27.920000000000087,38.92459864167266],[-27.955452007417993,38.95999999999994],[-27.955488859805957,38.999999999999936],[-27.95552577144688,39.039999999999935],[-27.960000000000086,39.04447422855315],[-27.995576700964182,39.07999999999994],[-27.995613753195844,39.11999999999993],[-28.000000000000085,39.12438624680417],[-28.035664883241516,39.159999999999926],[-28.03570207664462,39.19999999999993],[-28.035739329877302,39.23999999999993],[-28.040000000000084,39.24426067012271],[-28.075790743239025,39.27999999999993],[-28.07582813846509,39.319999999999936],[-28.07586559386068,39.35999999999993],[-28.080000000000084,39.36413440613933],[-28.115917292233704,39.39999999999993],[-28.115954890447874,39.43999999999993],[-28.120000000000083,39.444045109552135],[-28.156006792639833,39.479999999999926],[-28.1560445342597,39.519999999999925],[-28.156082336631577,39.559999999999924],[-28.160000000000082,39.56391766336843],[-28.19613452675906,39.59999999999992],[-28.196172473367373,39.63999999999992],[-28.196210481070985,39.67999999999992],[-28.20000000000008,39.68378951892902],[-28.23626296084921,39.71999999999992],[-28.23630111362314,39.75999999999992],[-28.24000000000008,39.763698886376865],[-28.276353800550623,39.79999999999992],[-28.276392098988243,39.83999999999992],[-28.2764304591093,39.87999999999992],[-28.28000000000008,39.8835695408907],[-28.316483438645907,39.919999999999916],[-28.316521945269898,39.959999999999916],[-28.31656051392383,39.999999999999915],[-28.32000000000008,40.00343948607616],[-28.35661378780429,40.039999999999914],[-28.356652503803456,40.07999999999991],[-28.360000000000078,40.08334749619654],[-28.396705988202463,40.11999999999991],[-28.396744852146274,40.15999999999991],[-28.396783778713584,40.19999999999991],[-28.400000000000077,40.203216221286404],[-28.436837560448183,40.23999999999991],[-28.4368766358076,40.27999999999991],[-28.436915774140097,40.31999999999991],[-28.440000000000076,40.32308422585989],[-28.476969854964022,40.35999999999991],[-28.477009142939018,40.399999999999906],[-28.480000000000075,40.40299085706096],[-28.517063437688837,40.439999999999905],[-28.517102875911554,40.479999999999905]]}},{"type":"Feature","properties":{"magnitude":0.9,"percentagem":90.0,"territorio":"acores"},"geometry":{"type":"LineString","coordinates":[[-26.878823515502702,36.0],[-26.8787829686543,36.040000000000006],[-26.88000000000011,36.041217031345816],[-26.918727089117752,36.08],[-26.91868678183752,36.12],[-26.91864657413108,36.16],[-26.92000000000011,36.161353425869024],[-26.958591155897555,36.199999999999996],[-26.95855118509219,36.239999999999995],[-26.95851131275153,36.279999999999994],[-26.960000000000107,36.281488687248576],[-26.998456350694063,36.31999999999999],[-26.99841671262804,36.35999999999999],[-26.998377171934543,36.39999999999999],[-27.000000000000107,36.401622828065555],[-27.03832266100429,36.43999999999999],[-27.038283351998892,36.47999999999999],[-27.040000000000106,36.48171664800121],[-27.078229153629625,36.51999999999999],[-27.078190074515177,36.55999999999999],[-27.07815109094743,36.59999999999998],[-27.080000000000105,36.60184890905266],[-27.11809733529714,36.639999999999986],[-27.11805857910007,36.679999999999986],[-27.118019917401696,36.719999999999985],[-27.120000000000104,36.72198008259839],[-27.15796659962525,36.759999999999984],[-27.1579281628152,36.79999999999998],[-27.157889819471617,36.83999999999998],[-27.160000000000103,36.84211018052847],[-27.197836934796726,36.87999999999998],[-27.19779881389632,36.91999999999998],[-27.197760785445624,36.95999999999998],[-27.200000000000102,36.96223921455446],[-27.237708329171493,36.99999999999998],[-27.237711342157347,37.03999999999998],[-27.2400000000001,37.04228865784274],[-27.277763569514004,37.07999999999998],[-27.27780164281107,37.119999999999976],[-27.277839776959773,37.159999999999975],[-27.2800000000001,37.1621602230403],[-27.31789229094498,37.199999999999974],[-27.31793056917731,37.23999999999998],[-27.3179689086167,37.27999999999997],[-27.3200000000001,37.28203109138338],[-27.358021710984072,37.31999999999997],[-27.358060195366544,37.35999999999997],[-27.35809874131311,37.39999999999996],[-27.3600000000001,37.401901258686955],[-27.398151833825263,37.43999999999997],[-27.39819052557847,37.47999999999997],[-27.400000000000098,37.481809474421595],[-27.438243825508994,37.51999999999997],[-27.43828266368292,37.55999999999997],[-27.43832156403318,37.599999999999966],[-27.440000000000097,37.60167843596689],[-27.478375157150218,37.639999999999965],[-27.478414204791765,37.679999999999964],[-27.478453314971073,37.71999999999996],[-27.480000000000096,37.72154668502899],[-27.51850720306155,37.75999999999996],[-27.51854646140678,37.79999999999996],[-27.518585782652785,37.83999999999996],[-27.520000000000095,37.84141421734728],[-27.558639967512512,37.87999999999996],[-27.558679437803107,37.91999999999996],[-27.560000000000095,37.92132056219695],[-27.59873383483266,37.95999999999995],[-27.598773454792738,37.99999999999996],[-27.59881313827598,38.03999999999996],[-27.600000000000094,38.041186861724064],[-27.63886783517359,38.079999999999956],[-27.638907669211875,38.119999999999955],[-27.638947567140626,38.159999999999954],[-27.640000000000093,38.16105243285942],[-27.67900256572616,38.19999999999995],[-27.679042615099494,38.23999999999995],[-27.679082728732144,38.27999999999995],[-27.680000000000092,38.280917271267896],[-27.719138030834262,38.31999999999995],[-27.719178296804984,38.35999999999995],[-27.72000000000009,38.36082170319506],[-27.759233815917188,38.39999999999995],[-27.7592742348615,38.43999999999995],[-27.75931471869743,38.47999999999995],[-27.76000000000009,38.48068528130261],[-27.79937054448137,38.519999999999946],[-27.79941118219112,38.559999999999945],[-27.799451885165485,38.599999999999945],[-27.80000000000009,38.600548114834545],[-27.83950801947355,38.639999999999944],[-27.839548877225845,38.67999999999994],[-27.839589800617286,38.71999999999994],[-27.84000000000009,38.72041019938274],[-27.879646245310454,38.75999999999994],[-27.87968732438779,38.79999999999994],[-27.880000000000088,38.80031267561224],[-27.919743991019,38.83999999999994],[-27.919785226428118,38.87999999999994],[-27.919826528118275,38.91999999999994],[-27.920000000000087,38.920173471881746],[-27.959883508345232,38.95999999999994],[-27.95992496728169,38.999999999999936],[-27.959966492877726,39.039999999999935],[-27.960000000000086,39.040033507122295],[-28.000000000000085,39.05714580377685],[-28.040000000000084,39.04204937711403],[-28.04542691505584,39.039999999999935],[-28.080000000000084,39.02694770914923],[-28.120000000000083,39.011835586616485],[-28.151305050527057,38.999999999999936],[-28.160000000000082,38.99671358461104],[-28.20000000000008,38.98158574945367],[-28.24000000000008,38.96644647121765],[-28.25702149545249,38.95999999999994],[-28.28000000000008,38.95129985804589],[-28.32000000000008,38.93614484328701],[-28.360000000000078,38.92097836734688],[-28.36257886918152,38.91999999999994],[-28.400000000000077,38.905807136820144],[-28.440000000000076,38.89062490049685],[-28.467973495690707,38.87999999999994],[-28.480000000000075,38.87543334423826],[-28.520000000000074,38.86023533086605],[-28.560000000000073,38.84502583104627],[-28.57320938234298,38.83999999999994],[-28.600000000000072,38.82980965089213],[-28.64000000000007,38.814584350236615],[-28.67828748634445,38.79999999999994],[-28.68000000000007,38.79934785300431],[-28.72000000000007,38.784106734908605],[-28.76000000000007,38.76885410511348],[-28.783204289124733,38.75999999999994],[-28.80000000000007,38.75359297751207],[-28.840000000000067,38.738324506568404],[-28.880000000000067,38.72304450581485],[-28.887965167169888,38.71999999999994],[-28.920000000000066,38.70775874185933],[-28.960000000000065,38.692462876294414],[-28.992568110858304,38.67999999999994],[-29.000000000000068,38.677156803455304],[-29.040000000000063,38.661845056577405],[-29.080000000000062,38.64652175465976],[-29.097013525511713,38.639999999999944],[-29.12000000000006,38.63119103916051],[-29.16000000000006,38.615851832353655],[-29.20000000000006,38.600501052396226],[-29.201304876038385,38.59999999999994],[-29.24000000000006,38.58514568841218],[-29.280000000000058,38.569778980039814],[-29.305437647071052,38.559999999999945],[-29.320000000000057,38.554403315363224],[-29.360000000000056,38.539020662186076],[-29.400000000000055,38.523626410660654],[-29.409417111517147,38.519999999999946],[-29.440000000000055,38.50822609139765],[-29.480000000000054,38.4928158716368],[-29.51324197417376,38.47999999999995],[-29.520000000000053,38.47739526024119],[-29.560000000000052,38.461969055931405],[-29.60000000000005,38.44653122810674],[-29.61691188331475,38.43999999999995],[-29.64000000000005,38.431085956150596],[-29.68000000000005,38.41563212044697],[-29.72000000000005,38.4001666431349],[-29.72043076826871,38.39999999999995],[-29.76000000000005,38.38469670509176],[-29.800000000000047,38.36921519662972],[-29.82379358647393,38.35999999999995],[-29.840000000000046,38.35372497469876],[-29.880000000000045,38.3382274189006],[-29.920000000000044,38.32271819637699],[-29.927006423999572,38.31999999999995],[-29.960000000000043,38.307203302652425],[-30.000000000000043,38.291678009631454],[-30.03006658630427,38.279999999999944],[-30.040000000000045,38.27614284060261],[-30.08000000000004,38.26060146098449],[-30.12000000000004,38.24504838956649],[-30.132975663517065,38.23999999999995],[-30.16000000000004,38.229488543205704],[-30.20000000000004,38.21391936214502],[-30.235735218685413,38.19999999999995],[-30.240000000000034,38.1983392490806],[-30.280000000000037,38.182753942367924],[-30.320000000000036,38.16715691882811],[-30.338342805999854,38.159999999999954],[-30.360000000000035,38.15155212307806],[-30.400000000000034,38.13593895096248],[-30.440000000000033,38.12031404398183],[-30.440803513995913,38.119999999999955],[-30.480000000000032,38.104684560531716],[-30.52000000000003,38.089043482123344],[-30.54311214164266,38.079999999999956],[-30.56000000000003,38.07339374046066],[-30.60000000000003,38.05773647476613],[-30.64000000000003,38.04206744925529],[-30.64527477358814,38.03999999999996],[-30.680000000000028,38.02639301490079],[-30.720000000000027,38.0107077793837],[-30.747287931946644,37.99999999999996],[-30.760000000000026,37.99501309554321],[-30.800000000000026,37.97931163426298],[-30.840000000000025,37.96359838827514],[-30.84915471589253,37.95999999999996],[-30.880000000000024,37.947879006980244],[-30.920000000000023,37.93214951264753],[-30.950874410004975,37.91999999999996],[-30.960000000000026,37.916409890651565],[-31.00000000000002,37.90066413232313],[-31.04000000000002,37.88490656446078],[-31.052447557802772,37.87999999999996],[-31.08000000000002,37.8691422404949],[-31.12000000000002,37.8533683862002],[-31.153875780783086,37.83999999999996],[-31.16000000000002,37.83758383038861],[-31.200000000000017,37.82179367412135],[-31.240000000000016,37.80599168356424],[-31.2551574882221,37.79999999999996],[-31.280000000000015,37.79018242153263],[-31.320000000000014,37.774364106718274],[-31.356296221394718,37.75999999999996],[-31.360000000000014,37.75853462177916],[-31.40000000000001,37.742699967282746],[-31.440000000000012,37.72685345381629],[-31.457288668335927,37.71999999999996],[-31.48000000000001,37.71099925869128],[-31.52000000000001,37.69513638341712],[-31.558139881372288,37.679999999999964],[-31.56000000000001,37.67926197441831],[-31.600000000000005,37.6633827220319],[-31.640000000000008,37.647491586076626],[-31.658845231879802,37.639999999999965],[-31.680000000000007,37.631592463229595],[-31.720000000000006,37.61568492820268],[-31.75941088293367,37.599999999999966],[-31.76,37.5997656006241],[-31.800000000000004,37.5838416513462],[-31.840000000000003,37.56790579398778],[-31.859831285402276,37.55999999999997],[-31.880000000000003,37.551961749221896],[-31.92,37.536009455826864],[-31.96,37.52004523656588],[-31.960113283724883,37.51999999999997],[-32.0,37.50407647111295]]}},{"type":"Feature","properties":{"magnitude":0.95,"percentagem":95.0,"territorio":"acores"},"geometry":{"type":"LineString","coordinates":[[-29.304893372331232,36.0],[-29.280000000000058,36.00984168451301],[-29.24000000000006,36.02564524878933],[-29.203640784220692,36.04],[-29.20000000000006,36.0414377102599],[-29.16000000000006,36.057224314838315],[-29.12000000000006,36.072999240764986],[-29.102237086678464,36.08],[-29.08000000000006,36.08876605763827],[-29.040000000000063,36.10452404891103],[-29.000686964624496,36.12],[-29.000000000000064,36.12027048979131],[-28.960000000000065,36.1360115638269],[-28.920000000000066,36.15174098522739],[-28.898983578254345,36.16],[-28.880000000000067,36.167461798160055],[-28.840000000000067,36.18317432747096],[-28.800000000000068,36.19887522248974],[-28.79713285849016,36.199999999999996],[-28.76000000000007,36.21457041928303],[-28.72000000000007,36.23025444741516],[-28.695128601691586,36.239999999999995],[-28.68000000000007,36.245929273361014],[-28.64000000000007,36.26159645214296],[-28.600000000000072,36.27725202269442],[-28.59297478019949,36.279999999999994],[-28.560000000000077,36.29290124940794],[-28.520000000000074,36.30853999590635],[-28.49066788264189,36.31999999999999],[-28.480000000000075,36.32416885194922],[-28.440000000000076,36.33979079200218],[-28.400000000000077,36.35540114991439],[-28.388208691712137,36.35999999999999],[-28.36000000000008,36.371004423753575],[-28.32000000000008,36.38659800060605],[-28.285597117495538,36.39999999999999],[-28.28000000000008,36.402180903933406],[-28.24000000000008,36.41775771740096],[-28.20000000000008,36.43332297484148],[-28.18283027258121,36.43999999999999],[-28.160000000000082,36.44888031309988],[-28.120000000000083,36.46442883262422],[-28.080000000000084,36.47996581448122],[-28.079911940065372,36.47999999999999],[-28.040000000000084,36.495497599848136],[-28.000000000000085,36.51101786930111],[-27.976835172665858,36.51999999999999],[-27.960000000000086,36.52652928933529],[-27.920000000000087,36.542032864156894],[-27.880000000000088,36.55752492744573],[-27.87360567859806,36.55999999999999],[-27.84000000000009,36.573010811891315],[-27.80000000000009,36.58848620613551],[-27.77021901183818,36.59999999999999],[-27.76000000000009,36.60395172534027],[-27.72000000000009,36.61941046837033],[-27.680000000000092,36.63485772601566],[-27.666676027698912,36.639999999999986],[-27.64000000000009,36.65029772700239],[-27.600000000000094,36.66572835908971],[-27.56297737968471,36.67999999999999],[-27.560000000000095,36.68114799487412],[-27.520000000000095,36.696562019288336],[-27.480000000000096,36.7119645844755],[-27.459118559588767,36.719999999999985],[-27.440000000000097,36.72735871946599],[-27.400000000000098,36.74274470270061],[-27.3600000000001,36.7581192450545],[-27.355103972785937,36.759999999999984],[-27.3200000000001,36.773487891682535],[-27.2800000000001,36.788845877837076],[-27.250928815741453,36.79999999999998],[-27.2400000000001,36.80419416427103],[-27.200000000000102,36.81953561218903],[-27.160000000000103,36.83486564538322],[-27.159994809442257,36.83999999999998],[-27.160000000000103,36.840005190557825],[-27.199938986729872,36.87999999999998],[-27.199898748001665,36.91999999999998],[-27.199858606859266,36.95999999999998],[-27.200000000000102,36.960141393140816],[-27.23980323634768,36.99999999999998],[-27.239806416721635,37.03999999999998],[-27.2400000000001,37.040193583278445],[-27.27986154559811,37.07999999999998],[-27.27990173407835,37.119999999999976],[-27.279941986790867,37.159999999999975],[-27.2800000000001,37.16005801320921],[-27.319997418219693,37.199999999999974],[-27.3200000000001,37.20255833131147],[-27.32682700306689,37.199999999999974],[-27.360000000000095,37.187571852848336],[-27.400000000000098,37.17257531333431],[-27.433517966959542,37.159999999999975],[-27.440000000000097,37.157568649177435],[-27.480000000000096,37.142556129724376],[-27.520000000000095,37.12753245430597],[-27.540041798598132,37.119999999999976],[-27.56000000000009,37.1125007699387],[-27.600000000000094,37.097461090036475],[-27.640000000000093,37.08241023666143],[-27.646401796103937,37.07999999999998],[-27.680000000000092,37.06735352184442],[-27.72000000000009,37.05228663947342],[-27.752595810392435,37.03999999999998],[-27.76000000000009,37.037209739176205],[-27.80000000000009,37.0221268106508],[-27.84000000000009,37.00703268381727],[-27.858624847979897,36.99999999999998],[-27.88000000000009,36.99193073964872],[-27.920000000000087,36.97682054221258],[-27.960000000000086,36.961699128950805],[-27.9644920191219,36.95999999999998],[-28.000000000000085,36.94657213076583],[-28.040000000000084,36.931434622490414],[-28.070194274345987,36.91999999999998],[-28.080000000000084,36.916287438932294],[-28.120000000000083,36.90113381856969],[-28.160000000000082,36.88596895755869],[-28.17573424460155,36.87999999999998],[-28.20000000000008,36.870796706659185],[-28.24000000000008,36.85561570922155],[-28.28000000000008,36.840423453613326],[-28.281114290774877,36.83999999999998],[-28.320000000000082,36.82522612534213],[-28.360000000000078,36.81001770900962],[-28.38632992483806,36.79999999999998],[-28.400000000000077,36.794800195402246],[-28.440000000000076,36.77957560136543],[-28.480000000000075,36.76433972435716],[-28.49138648508129,36.759999999999984],[-28.520000000000074,36.749097120184665],[-28.560000000000073,36.733845041254014],[-28.596283646584197,36.719999999999985],[-28.600000000000072,36.7185822549677],[-28.64000000000007,36.70331395719893],[-28.68000000000007,36.68803435168176],[-28.70101913760866,36.679999999999986],[-28.720000000000066,36.672746461718745],[-28.76000000000007,36.657450613230196],[-28.800000000000068,36.64214343947981],[-28.805597876626756,36.639999999999986],[-28.840000000000067,36.62683043603202],[-28.880000000000067,36.61150699522682],[-28.910016786795882,36.59999999999999],[-28.920000000000066,36.59617380964461],[-28.960000000000065,36.58083408497707],[-29.000000000000064,36.56548301030894],[-29.014278100688824,36.55999999999999],[-29.040000000000063,36.550124698321724],[-29.080000000000062,36.53475731580126],[-29.118383940702277,36.51999999999999],[-29.120000000000065,36.519378824856425],[-29.16000000000006,36.5039951177499],[-29.20000000000006,36.48860003593867],[-29.222330201611555,36.47999999999999],[-29.24000000000006,36.47319640578903],[-29.280000000000058,36.45778497550072],[-29.320000000000057,36.44236215301907],[-29.326122816884535,36.43999999999999],[-29.360000000000056,36.4269333741391],[-29.400000000000055,36.411494179347805],[-29.429758640340907,36.39999999999999],[-29.440000000000055,36.396045221539],[-29.480000000000054,36.380589637828365],[-29.520000000000053,36.365122637276],[-29.53323977737941,36.35999999999999],[-29.560000000000052,36.34964851819226],[-29.60000000000005,36.334165104996245],[-29.636567848221215,36.31999999999999],[-29.64000000000005,36.31867081018404],[-29.68000000000005,36.30317096781872],[-29.72000000000005,36.287659684009384],[-29.739739835584743,36.279999999999994],[-29.760000000000048,36.27214021553936],[-29.800000000000047,36.25661247895063],[-29.840000000000046,36.241073283471415],[-29.842761219182094,36.239999999999995],[-29.880000000000045,36.22552863216499],[-29.920000000000044,36.20997296036393],[-29.945627376878253,36.199999999999996],[-29.960000000000043,36.194408133521364],[-30.000000000000043,36.178835969013775],[-30.040000000000042,36.163252321088095],[-30.04834311763782,36.16],[-30.08000000000004,36.147662299349584],[-30.12000000000004,36.13206213529909],[-30.150906757780362,36.12],[-30.16000000000004,36.116451941322104],[-30.20000000000004,36.100835244857166],[-30.240000000000038,36.08520704050497],[-30.253319141614345,36.08],[-30.280000000000037,36.06957163977821],[-30.320000000000036,36.053926879723846],[-30.355582306242457,36.03999999999999],[-30.360000000000035,36.03827131010394],[-30.400000000000034,36.02260997815722],[-30.440000000000033,36.006937113917616],[-30.457693602758532,36.0]]}}]}