{"type":"FeatureCollection","properties":{"largura_maxima_km":314.572,"largura_sobre_pt_km":309.709,"linha_central_sobre_pt":true,"desenhavel_como_area":true,"perfil_largura":[{"t":0.78889,"lat":25.0176,"lon":-34.0984,"largura_km":276.152,"eixo_na_terra":true},{"t":0.79444,"lat":25.1169,"lon":-33.999,"largura_km":276.245,"eixo_na_terra":true},{"t":0.8,"lat":25.2165,"lon":-33.8991,"largura_km":276.339,"eixo_na_terra":true},{"t":0.80556,"lat":25.3162,"lon":-33.7986,"largura_km":276.435,"eixo_na_terra":true},{"t":0.81111,"lat":25.4162,"lon":-33.6974,"largura_km":276.531,"eixo_na_terra":true},{"t":0.81667,"lat":25.5164,"lon":-33.5956,"largura_km":276.631,"eixo_na_terra":true},{"t":0.82222,"lat":25.6167,"lon":-33.4932,"largura_km":276.731,"eixo_na_terra":true},{"t":0.82778,"lat":25.7173,"lon":-33.3902,"largura_km":276.833,"eixo_na_terra":true},{"t":0.83333,"lat":25.8182,"lon":-33.2865,"largura_km":276.936,"eixo_na_terra":true},{"t":0.83889,"lat":25.9192,"lon":-33.1822,"largura_km":277.04,"eixo_na_terra":true},{"t":0.84444,"lat":26.0205,"lon":-33.0772,"largura_km":277.145,"eixo_na_terra":true},{"t":0.85,"lat":26.1219,"lon":-32.9716,"largura_km":277.251,"eixo_na_terra":true},{"t":0.85556,"lat":26.2236,"lon":-32.8653,"largura_km":277.358,"eixo_na_terra":true},{"t":0.86111,"lat":26.3256,"lon":-32.7582,"largura_km":277.466,"eixo_na_terra":true},{"t":0.86667,"lat":26.4277,"lon":-32.6505,"largura_km":277.576,"eixo_na_terra":true},{"t":0.87222,"lat":26.5301,"lon":-32.5421,"largura_km":277.689,"eixo_na_terra":true},{"t":0.87778,"lat":26.6328,"lon":-32.433,"largura_km":277.802,"eixo_na_terra":true},{"t":0.88333,"lat":26.7356,"lon":-32.3231,"largura_km":277.917,"eixo_na_terra":true},{"t":0.88889,"lat":26.8387,"lon":-32.2125,"largura_km":278.033,"eixo_na_terra":true},{"t":0.89444,"lat":26.9421,"lon":-32.1011,"largura_km":278.15,"eixo_na_terra":true},{"t":0.9,"lat":27.0457,"lon":-31.989,"largura_km":278.269,"eixo_na_terra":true},{"t":0.90556,"lat":27.1495,"lon":-31.8761,"largura_km":278.388,"eixo_na_terra":true},{"t":0.91111,"lat":27.2536,"lon":-31.7625,"largura_km":278.509,"eixo_na_terra":true},{"t":0.91667,"lat":27.3579,"lon":-31.648,"largura_km":278.631,"eixo_na_terra":true},{"t":0.92222,"lat":27.4625,"lon":-31.5327,"largura_km":278.755,"eixo_na_terra":true},{"t":0.92778,"lat":27.5673,"lon":-31.4167,"largura_km":278.881,"eixo_na_terra":true},{"t":0.93333,"lat":27.6724,"lon":-31.2998,"largura_km":279.009,"eixo_na_terra":true},{"t":0.93889,"lat":27.7777,"lon":-31.182,"largura_km":279.137,"eixo_na_terra":true},{"t":0.94444,"lat":27.8833,"lon":-31.0634,"largura_km":279.268,"eixo_na_terra":true},{"t":0.95,"lat":27.9892,"lon":-30.9439,"largura_km":279.399,"eixo_na_terra":true},{"t":0.95556,"lat":28.0954,"lon":-30.8236,"largura_km":279.531,"eixo_na_terra":true},{"t":0.96111,"lat":28.2018,"lon":-30.7023,"largura_km":279.665,"eixo_na_terra":true},{"t":0.96667,"lat":28.3085,"lon":-30.5802,"largura_km":279.8,"eixo_na_terra":true},{"t":0.97222,"lat":28.4154,"lon":-30.4571,"largura_km":279.936,"eixo_na_terra":true},{"t":0.97778,"lat":28.5226,"lon":-30.3331,"largura_km":280.075,"eixo_na_terra":true},{"t":0.98333,"lat":28.6302,"lon":-30.2081,"largura_km":280.216,"eixo_na_terra":true},{"t":0.98889,"lat":28.738,"lon":-30.0822,"largura_km":280.358,"eixo_na_terra":true},{"t":0.99444,"lat":28.846,"lon":-29.9553,"largura_km":280.501,"eixo_na_terra":true},{"t":1.0,"lat":28.9544,"lon":-29.8274,"largura_km":280.646,"eixo_na_terra":true},{"t":1.00556,"lat":29.0631,"lon":-29.6985,"largura_km":280.792,"eixo_na_terra":true},{"t":1.01111,"lat":29.172,"lon":-29.5685,"largura_km":280.94,"eixo_na_terra":true},{"t":1.01667,"lat":29.2813,"lon":-29.4375,"largura_km":281.089,"eixo_na_terra":true},{"t":1.02222,"lat":29.3909,"lon":-29.3055,"largura_km":281.242,"eixo_na_terra":true},{"t":1.02778,"lat":29.5008,"lon":-29.1724,"largura_km":281.396,"eixo_na_terra":true},{"t":1.03333,"lat":29.6109,"lon":-29.0382,"largura_km":281.552,"eixo_na_terra":true},{"t":1.03889,"lat":29.7214,"lon":-28.9028,"largura_km":281.708,"eixo_na_terra":true},{"t":1.04444,"lat":29.8322,"lon":-28.7664,"largura_km":281.866,"eixo_na_terra":true},{"t":1.05,"lat":29.9434,"lon":-28.6287,"largura_km":282.026,"eixo_na_terra":true},{"t":1.05556,"lat":30.0548,"lon":-28.4899,"largura_km":282.187,"eixo_na_terra":true},{"t":1.06111,"lat":30.1666,"lon":-28.35,"largura_km":282.349,"eixo_na_terra":true},{"t":1.06667,"lat":30.2787,"lon":-28.2088,"largura_km":282.513,"eixo_na_terra":true},{"t":1.07222,"lat":30.3912,"lon":-28.0663,"largura_km":282.68,"eixo_na_terra":true},{"t":1.07778,"lat":30.504,"lon":-27.9226,"largura_km":282.849,"eixo_na_terra":true},{"t":1.08333,"lat":30.6171,"lon":-27.7777,"largura_km":283.02,"eixo_na_terra":true},{"t":1.08889,"lat":30.7306,"lon":-27.6314,"largura_km":283.192,"eixo_na_terra":true},{"t":1.09444,"lat":30.8445,"lon":-27.4838,"largura_km":283.366,"eixo_na_terra":true},{"t":1.1,"lat":30.9587,"lon":-27.3349,"largura_km":283.542,"eixo_na_terra":true},{"t":1.10556,"lat":31.0732,"lon":-27.1846,"largura_km":283.722,"eixo_na_terra":true},{"t":1.11111,"lat":31.1882,"lon":-27.0329,"largura_km":283.904,"eixo_na_terra":true},{"t":1.11667,"lat":31.3035,"lon":-26.8798,"largura_km":284.087,"eixo_na_terra":true},{"t":1.12222,"lat":31.4192,"lon":-26.7252,"largura_km":284.271,"eixo_na_terra":true},{"t":1.12778,"lat":31.5352,"lon":-26.5692,"largura_km":284.458,"eixo_na_terra":true},{"t":1.13333,"lat":31.6517,"lon":-26.4116,"largura_km":284.646,"eixo_na_terra":true},{"t":1.13889,"lat":31.7685,"lon":-26.2525,"largura_km":284.835,"eixo_na_terra":true},{"t":1.14444,"lat":31.8858,"lon":-26.0919,"largura_km":285.027,"eixo_na_terra":true},{"t":1.15,"lat":32.0034,"lon":-25.9297,"largura_km":285.22,"eixo_na_terra":true},{"t":1.15556,"lat":32.1215,"lon":-25.7658,"largura_km":285.416,"eixo_na_terra":true},{"t":1.16111,"lat":32.2399,"lon":-25.6003,"largura_km":285.615,"eixo_na_terra":true},{"t":1.16667,"lat":32.3588,"lon":-25.4331,"largura_km":285.817,"eixo_na_terra":true},{"t":1.17222,"lat":32.4782,"lon":-25.2642,"largura_km":286.02,"eixo_na_terra":true},{"t":1.17778,"lat":32.5979,"lon":-25.0935,"largura_km":286.228,"eixo_na_terra":true},{"t":1.18333,"lat":32.7181,"lon":-24.921,"largura_km":286.438,"eixo_na_terra":true},{"t":1.18889,"lat":32.8388,"lon":-24.7467,"largura_km":286.651,"eixo_na_terra":true},{"t":1.19444,"lat":32.9599,"lon":-24.5705,"largura_km":286.865,"eixo_na_terra":true},{"t":1.2,"lat":33.0814,"lon":-24.3924,"largura_km":287.081,"eixo_na_terra":true},{"t":1.20556,"lat":33.2035,"lon":-24.2124,"largura_km":287.299,"eixo_na_terra":true},{"t":1.21111,"lat":33.326,"lon":-24.0304,"largura_km":287.52,"eixo_na_terra":true},{"t":1.21667,"lat":33.449,"lon":-23.8463,"largura_km":287.742,"eixo_na_terra":true},{"t":1.22222,"lat":33.5725,"lon":-23.6601,"largura_km":287.967,"eixo_na_terra":true},{"t":1.22778,"lat":33.6965,"lon":-23.4718,"largura_km":288.194,"eixo_na_terra":true},{"t":1.23333,"lat":33.821,"lon":-23.2814,"largura_km":288.425,"eixo_na_terra":true},{"t":1.23889,"lat":33.946,"lon":-23.0887,"largura_km":288.66,"eixo_na_terra":true},{"t":1.24444,"lat":34.0715,"lon":-22.8937,"largura_km":288.899,"eixo_na_terra":true},{"t":1.25,"lat":34.1976,"lon":-22.6964,"largura_km":289.143,"eixo_na_terra":true},{"t":1.25556,"lat":34.3242,"lon":-22.4967,"largura_km":289.388,"eixo_na_terra":true},{"t":1.26111,"lat":34.4514,"lon":-22.2946,"largura_km":289.636,"eixo_na_terra":true},{"t":1.26667,"lat":34.5792,"lon":-22.0899,"largura_km":289.887,"eixo_na_terra":true},{"t":1.27222,"lat":34.7075,"lon":-21.8827,"largura_km":290.14,"eixo_na_terra":true},{"t":1.27778,"lat":34.8365,"lon":-21.6729,"largura_km":290.396,"eixo_na_terra":true},{"t":1.28333,"lat":34.966,"lon":-21.4603,"largura_km":290.654,"eixo_na_terra":true},{"t":1.28889,"lat":35.0962,"lon":-21.245,"largura_km":290.916,"eixo_na_terra":true},{"t":1.29444,"lat":35.2269,"lon":-21.0268,"largura_km":291.18,"eixo_na_terra":true},{"t":1.3,"lat":35.3583,"lon":-20.8057,"largura_km":291.447,"eixo_na_terra":true},{"t":1.30556,"lat":35.4904,"lon":-20.5816,"largura_km":291.725,"eixo_na_terra":true},{"t":1.31111,"lat":35.6231,"lon":-20.3545,"largura_km":292.006,"eixo_na_terra":true},{"t":1.31667,"lat":35.7566,"lon":-20.1241,"largura_km":292.29,"eixo_na_terra":true},{"t":1.32222,"lat":35.8907,"lon":-19.8905,"largura_km":292.578,"eixo_na_terra":true},{"t":1.32778,"lat":36.0255,"lon":-19.6536,"largura_km":292.869,"eixo_na_terra":true},{"t":1.33333,"lat":36.161,"lon":-19.4132,"largura_km":293.163,"eixo_na_terra":true},{"t":1.33889,"lat":36.2973,"lon":-19.1692,"largura_km":293.461,"eixo_na_terra":true},{"t":1.34444,"lat":36.4344,"lon":-18.9216,"largura_km":293.762,"eixo_na_terra":true},{"t":1.35,"lat":36.5723,"lon":-18.6702,"largura_km":294.067,"eixo_na_terra":true},{"t":1.35556,"lat":36.7109,"lon":-18.415,"largura_km":294.377,"eixo_na_terra":true},{"t":1.36111,"lat":36.8504,"lon":-18.1557,"largura_km":294.694,"eixo_na_terra":true},{"t":1.36667,"lat":36.9907,"lon":-17.8922,"largura_km":295.019,"eixo_na_terra":true},{"t":1.37222,"lat":37.1319,"lon":-17.6245,"largura_km":295.35,"eixo_na_terra":true},{"t":1.37778,"lat":37.274,"lon":-17.3524,"largura_km":295.684,"eixo_na_terra":true},{"t":1.38333,"lat":37.417,"lon":-17.0757,"largura_km":296.023,"eixo_na_terra":true},{"t":1.38889,"lat":37.5609,"lon":-16.7942,"largura_km":296.367,"eixo_na_terra":true},{"t":1.39444,"lat":37.7058,"lon":-16.5078,"largura_km":296.716,"eixo_na_terra":true},{"t":1.4,"lat":37.8517,"lon":-16.2164,"largura_km":297.07,"eixo_na_terra":true},{"t":1.40556,"lat":37.9986,"lon":-15.9196,"largura_km":297.431,"eixo_na_terra":true},{"t":1.41111,"lat":38.1466,"lon":-15.6174,"largura_km":297.801,"eixo_na_terra":true},{"t":1.41667,"lat":38.2957,"lon":-15.3095,"largura_km":298.176,"eixo_na_terra":true},{"t":1.42222,"lat":38.446,"lon":-14.9957,"largura_km":298.559,"eixo_na_terra":true},{"t":1.42778,"lat":38.5974,"lon":-14.6756,"largura_km":298.951,"eixo_na_terra":true},{"t":1.43333,"lat":38.75,"lon":-14.3492,"largura_km":299.349,"eixo_na_terra":true},{"t":1.43889,"lat":38.9039,"lon":-14.016,"largura_km":299.755,"eixo_na_terra":true},{"t":1.44444,"lat":39.059,"lon":-13.6758,"largura_km":300.167,"eixo_na_terra":true},{"t":1.45,"lat":39.2156,"lon":-13.3283,"largura_km":300.591,"eixo_na_terra":true},{"t":1.45556,"lat":39.3735,"lon":-12.9731,"largura_km":301.025,"eixo_na_terra":true},{"t":1.46111,"lat":39.5329,"lon":-12.6099,"largura_km":301.466,"eixo_na_terra":true},{"t":1.46667,"lat":39.6939,"lon":-12.2382,"largura_km":301.917,"eixo_na_terra":true},{"t":1.47222,"lat":39.8564,"lon":-11.8576,"largura_km":302.376,"eixo_na_terra":true},{"t":1.47778,"lat":40.0206,"lon":-11.4677,"largura_km":302.847,"eixo_na_terra":true},{"t":1.48333,"lat":40.1866,"lon":-11.0679,"largura_km":303.332,"eixo_na_terra":true},{"t":1.48889,"lat":40.3544,"lon":-10.6577,"largura_km":303.833,"eixo_na_terra":true},{"t":1.49444,"lat":40.5241,"lon":-10.2364,"largura_km":304.346,"eixo_na_terra":true},{"t":1.5,"lat":40.6959,"lon":-9.8033,"largura_km":304.871,"eixo_na_terra":true},{"t":1.50556,"lat":40.8698,"lon":-9.3578,"largura_km":305.409,"eixo_na_terra":true},{"t":1.51111,"lat":41.046,"lon":-8.8989,"largura_km":305.96,"eixo_na_terra":true},{"t":1.51667,"lat":41.2247,"lon":-8.4258,"largura_km":306.533,"eixo_na_terra":true},{"t":1.52222,"lat":41.4059,"lon":-7.9374,"largura_km":307.124,"eixo_na_terra":true},{"t":1.52778,"lat":41.5898,"lon":-7.4326,"largura_km":307.734,"eixo_na_terra":true},{"t":1.53333,"lat":41.7767,"lon":-6.91,"largura_km":308.367,"eixo_na_terra":true},{"t":1.53889,"lat":41.9668,"lon":-6.368,"largura_km":309.022,"eixo_na_terra":true},{"t":1.54444,"lat":42.1603,"lon":-5.8051,"largura_km":309.709,"eixo_na_terra":true},{"t":1.55,"lat":42.3575,"lon":-5.2192,"largura_km":310.422,"eixo_na_terra":true},{"t":1.55556,"lat":42.5589,"lon":-4.6079,"largura_km":311.162,"eixo_na_terra":true},{"t":1.56111,"lat":42.7647,"lon":-3.9685,"largura_km":311.945,"eixo_na_terra":true},{"t":1.56667,"lat":42.9754,"lon":-3.2977,"largura_km":312.768,"eixo_na_terra":true},{"t":1.57222,"lat":43.1918,"lon":-2.5916,"largura_km":313.637,"eixo_na_terra":true},{"t":1.57778,"lat":43.4144,"lon":-1.8452,"largura_km":314.572,"eixo_na_terra":true},{"t":1.58333,"lat":44.4783,"lon":2.181,"largura_km":null,"eixo_na_terra":false},{"t":1.58889,"lat":44.6714,"lon":2.9789,"largura_km":null,"eixo_na_terra":false},{"t":1.59444,"lat":44.8427,"lon":3.7281,"largura_km":null,"eixo_na_terra":false},{"t":1.6,"lat":45.0493,"lon":4.6687,"largura_km":null,"eixo_na_terra":false},{"t":1.60556,"lat":45.0684,"lon":4.811,"largura_km":null,"eixo_na_terra":false},{"t":1.61111,"lat":45.0254,"lon":4.6881,"largura_km":null,"eixo_na_terra":false},{"t":1.61667,"lat":45.1612,"lon":5.3742,"largura_km":null,"eixo_na_terra":false},{"t":1.62222,"lat":45.2751,"lon":5.9908,"largura_km":null,"eixo_na_terra":false},{"t":1.62778,"lat":45.3688,"lon":6.5396,"largura_km":null,"eixo_na_terra":false},{"t":1.63333,"lat":45.4495,"lon":7.0496,"largura_km":null,"eixo_na_terra":false},{"t":1.63889,"lat":45.5346,"lon":7.6209,"largura_km":null,"eixo_na_terra":false},{"t":1.64444,"lat":45.5123,"lon":7.2985,"largura_km":null,"eixo_na_terra":false},{"t":1.65,"lat":45.6163,"lon":7.9082,"largura_km":null,"eixo_na_terra":false},{"t":1.65556,"lat":45.7899,"lon":8.8462,"largura_km":null,"eixo_na_terra":false},{"t":1.66111,"lat":45.7408,"lon":9.1305,"largura_km":null,"eixo_na_terra":false},{"t":1.66667,"lat":45.9509,"lon":9.9924,"largura_km":null,"eixo_na_terra":false}]},"features":[{"type":"Feature","properties":{},"geometry":{"type":"Polygon","coordinates":[[[-34.591819107340086,26.381840669396553],[-34.28440380600537,26.686292060181803],[-33.97117930003165,26.992792869717828],[-33.43555152959016,27.508329231419246],[-32.881864939368484,28.029975039496513],[-32.540429382859315,28.346014231013022],[-32.28568281060922,28.57897361338076],[-31.931490384106098,28.899164047289617],[-31.691004885064075,29.114005396039577],[-31.323470004437127,29.438395776976648],[-31.073742610908198,29.656109628575408],[-30.691794505192036,29.984923177230066],[-30.43207252050601,30.205665585365843],[-29.87346396238803,30.67272731409831],[-29.32237623978787,31.12355422076324],[-29.039646413241513,31.351027580219125],[-28.751901307630476,31.579919205622502],[-28.45896169863505,31.810264768201954],[-28.131584604641063,32.06439834585195],[-27.827221111693632,32.29791808432035],[-27.517048756142856,32.533013337322025],[-27.200845465926932,32.769727368999796],[-26.878376525478444,33.00810565431563],[-26.549393550628622,33.248196047374506],[-26.213633354842017,33.49004896703025],[-25.663406129638247,33.8794673970112],[-25.30882052584994,34.126153772323185],[-24.94637267409911,34.374808499055376],[-24.575713123445183,34.625496773976394],[-24.196468482240903,34.87828784055853],[-23.80823907444224,35.13325536537584],[-23.573283879237493,35.28556304968822],[-22.964521501972655,35.67436247067716],[-22.332321875329228,36.06864704117236],[-21.67482927176445,36.46874974291302],[-21.449690386801308,36.60347325174954],[-20.94683061607958,36.90015020883492],[-20.472763422148347,37.174938667759406],[-20.230505600845902,37.313480850302795],[-19.7350135456513,37.59295284283621],[-19.48155280681317,37.733921809458934],[-18.914327175221445,38.04438198399376],[-18.37700253073234,38.33281169123607],[-18.101592836031557,38.47843659533147],[-17.53648444155297,38.77264085109312],[-17.246440749454905,38.921278266290884],[-16.65043457514554,39.22178104499989],[-15.9749828513539,39.55430110215374],[-15.329803324043354,39.864639993081745],[-14.997316756732687,40.02174453477386],[-14.311070255751076,40.340065803175435],[-13.956652361954468,40.50138959293695],[-13.528928520939019,40.69307087758627],[-13.156685027017573,40.85778943103827],[-12.77553140771738,41.02417348476928],[-12.384995485845877,41.192298718133095],[-11.984563209339882,41.3622472492924],[-11.573673267934737,41.534108449772546],[-11.076401783172713,41.73836296915847],[-10.640713853091796,41.91473580937847],[-10.192402599069737,42.09336451857569],[-9.730627708517034,42.27438112917614],[-9.254453560900828,42.4579321739767],[-8.762833377929155,42.644181068428814],[-8.164762510926721,42.86595687493992],[-7.635515379528755,43.0587301947773],[-7.086529621877162,43.25486806690694],[-6.516025752921934,43.454644761093085],[-5.817645045961314,43.6931208719783],[-5.1931270780295335,43.901952024481346],[-4.539276949963806,44.115619929276576],[-3.8525998235723478,44.33465664088849],[-3.0024634057525077,44.59771882785911],[-2.229030324061114,44.83079946953827],[-1.2620325863466633,45.11217647492129],[-0.36907302100686934,45.36425249422263],[-0.3704792998875885,45.361576088606796],[0.10205798947995959,45.49488677090967],[1.11212111327211,45.76507926300921],[1.4706590892860731,45.85872512884779],[1.888688425576527,45.96408159908982],[2.2242905995430817,46.05103391667653],[2.621913527016602,46.15081139222415],[3.1542005649839804,46.279193074987504],[3.4703719333280674,46.357485224766066],[3.9210947324147583,46.46549275658162],[4.389765962437451,46.57414622347827],[4.618412051514346,46.62541479309967],[4.903151314893478,46.69227016743182],[5.432023452177134,46.81224303187501],[5.990551603109736,46.934598098198364],[7.284228407424621,47.210239944481415],[8.00582489011424,47.35716011256574],[8.877445986316218,47.527987683576235],[9.84440392172911,47.7136303560062],[11.035041049051529,47.93032449033708],[12.759510339277824,48.22375634268618],[12.761150881305198,48.22007479328034],[13.034687363902236,48.26692537629885],[13.044319390953962,48.24860254839459],[13.137929898217521,48.26479581489605],[13.160468291667256,48.22927038837931],[13.65397026170217,48.30779948574577],[13.675580177796528,48.24038689752664],[14.69743648101064,48.39638518792618],[14.996685674580895,46.3082848867108],[15.675035592175334,45.63590353337033],[12.999104390950865,45.22230095643062],[12.997928798249575,45.21560518916754],[12.750636575756783,45.17578204384962],[12.750085343720315,45.172099593991014],[11.37991777331493,44.94313851547561],[10.356040938467402,44.76463954870688],[9.419813916708847,44.5906704079541],[8.680642867165801,44.449787003453224],[8.128342919208993,44.34307792986803],[7.972182166224201,44.3114616948801],[6.470874907211573,44.002249902734924],[5.087329836495561,43.69921137891218],[3.8814165538173904,43.42077616113826],[2.803021324181904,43.16011397602456],[1.8219916343655804,42.91311902258103],[0.9195754196414453,42.67744379237037],[0.602836860364846,42.5908212563581],[0.08101394548472517,42.45098231552122],[-0.24458598754284822,42.359010966960696],[-0.7043994207374217,42.2321429233668],[-1.0369873267248408,42.135353902548125],[-1.4443090346699403,42.019878957569844],[-1.7824753957507937,41.91870301288392],[-2.250844035544274,41.78289848252268],[-2.2524221580820836,41.77989502703417],[-2.9327053037700637,41.57299753476404],[-3.5802155798654383,41.371100881684185],[-4.198509691573776,41.17369678262552],[-4.790547488056092,40.98036113286914],[-5.3588235132925774,40.79073554482946],[-5.905463458476447,40.604513798285446],[-6.432296326948887,40.421431693089396],[-6.940909394271927,40.24125931384304],[-7.432690727041717,40.063795039963345],[-7.827283737796705,39.91945799870785],[-8.291211798955317,39.74649012526035],[-8.741428446519961,39.575775622734376],[-9.178813036973253,39.40718531002922],[-9.604156179352174,39.240602706831275],[-10.018171793769397,39.0759223245842],[-10.421507140706467,38.91304824365679],[-10.81475122359248,38.75189292010716],[-11.507591869278144,38.46250944515828],[-12.234107215455111,38.150515675676715],[-12.929127347753507,37.84406973663456],[-13.265714421110289,37.69279279407727],[-13.918602604537568,37.39389349374397],[-14.235464972675402,37.24618530574921],[-14.797005137529766,36.980329043281195],[-15.09732162245848,36.835649509312084],[-15.681930478902075,36.549290307084235],[-15.966609509004428,36.40755041466603],[-16.521602775598126,36.12681141171502],[-16.792242579160643,35.98776112124731],[-17.32055876642744,35.71218047891553],[-17.786513656487045,35.464687191374885],[-18.037275305552953,35.32951751506463],[-18.52767989194996,35.0614048044573],[-19.00397830936916,34.79614506202859],[-19.23708912418789,34.66454433119986],[-19.69369861518439,34.40332548608491],[-20.13806590817694,34.14465616216506],[-20.531264541929716,33.9121742912216],[-20.953882223572947,33.65807539884708],[-21.365987816979015,33.40624063951889],[-21.768088112947936,33.156585093439254],[-22.160653219084622,32.90902951782254],[-22.544120160507703,32.66349980995097],[-22.884116873600362,32.44282257725583],[-23.251235588252058,32.2009596236954],[-23.6103703445134,31.960932235999948],[-23.96185569443321,31.722682357411134],[-24.306005476535574,31.48615521543302],[-24.64311456209242,31.25129905732047],[-25.105394442454724,30.924200894034904],[-25.426582271645316,30.693162684162193],[-25.741614198429545,30.463638931863816],[-26.050717955408317,30.235588670329072],[-26.5037266733396,29.8961913096955],[-26.798928549181085,29.671658237940733],[-27.231997642088686,29.337369875577032],[-27.627073809103763,29.027320434513094],[-27.90280117912269,28.80785146170098],[-28.17396222909383,28.589606392155027],[-28.572464450963366,28.26447300057472],[-28.96149699195317,27.94194173487108],[-29.341501410213738,27.62192859608699],[-29.688929906492916,27.325081089940493],[-29.932215181333845,27.114578812135957],[-30.290509249670635,26.800753365865326],[-30.64115290649147,26.489181006929545],[-30.984476500516678,26.179796971775048],[-31.320791588351483,25.872539820404167],[-31.650392417846035,25.567351195516775],[-31.952356916899134,25.284248005562947],[-32.26966726304997,24.982903550160852],[-32.58104198889146,24.6834724284437],[-32.88671894830219,24.385906477199732],[-33.186924184899055,24.090159714050273],[-35.01307607035909,25.95895120467773],[-34.591819107340086,26.381840669396553]]]}}]}