{"type":"FeatureCollection","features":[{"type":"Feature","properties":{"t_inicio":0.7888888888888719,"t_fim":1.6111111111110912},"geometry":{"type":"LineString","coordinates":[[-34.09840215913056,25.01761230444271],[-33.99904854960087,25.11694323706752],[-33.89910303356717,25.216481338312857],[-33.79855759133196,25.316228308387075],[-33.697404069706465,25.416185873359893],[-33.5956341787649,25.516355785723608],[-33.493239488499114,25.61673982497036],[-33.39021142537004,25.717339798186817],[-33.286541268751876,25.818157540666157],[-33.182220147265184,25.919194916538483],[-33.077239034993966,26.020453819420343],[-32.97158874758338,26.12193617308367],[-32.86525993821181,26.223643932145436],[-32.75824309343409,26.325579082778326],[-32.65052852888937,26.427743643443513],[-32.54210638486913,26.530139665646374],[-32.43296662173901,26.632769234715788],[-32.323099015209294,26.73563447060837],[-32.21249315144718,26.838737528738264],[-32.10113842202483,26.942080600833613],[-31.989024018696,27.04566591582083],[-31.876138927994447,27.149495740737848],[-31.76247192564648,27.253572381677333],[-31.648011570789663,27.35789818476127],[-31.532746199989646,27.462475537148197],[-31.416663921046165,27.56730686807431],[-31.29975260657926,27.672394649930087],[-31.18199988738627,27.777741399373706],[-31.063393145558877,27.883349678483118],[-30.943919507350444,27.989222095948115],[-30.823565835781608,28.0953613083043],[-30.70231872297302,28.20177002121096],[-30.580164482192316,28.30845099077441],[-30.457089139602573,28.415407024919197],[-30.333078425698147,28.52264098480904],[-30.208117766413636,28.630155786320103],[-30.08219227389023,28.73795440156846],[-29.955286736883437,28.846039860494958],[-29.82738561079529,28.954415252509467],[-29.69847300731206,29.063083728197874],[-29.56853268362923,29.172048501094384],[-29.437548031242954,29.281312849522543],[-29.305502064286514,29.390880118508093],[-29.172377407389206,29.500753721767385],[-29.038156283033487,29.6109371437749],[-28.902820498384614,29.721433941913777],[-28.76635143156622,29.83224774871383],[-28.62873001735241,29.943382274181072],[-28.48993673224612,30.054841308223715],[-28.349951578911657,30.16662872317959],[-28.208754069926044,30.27874847645013],[-28.066323210813465,30.39120461324683],[-27.92263748232284,30.504001269455827],[-27.777674821907794,30.61714267462721],[-27.631412604363902,30.73063315509592],[-27.483827621576637,30.844477137240954],[-27.334896061328976,30.958679150891385],[-27.184593485115272,31.07324383288657],[-27.03289480490386,31.18817593080005],[-26.87977425878634,31.303480306835883],[-26.725205385448618,31.419161941907923],[-26.5691609973926,31.53522593991253],[-26.41161315283307,31.65167753220612],[-26.25253312618952,31.76852208230005],[-26.09189137708529,31.885765090785743],[-25.929657517760972,32.003412200504656],[-25.765800278802658,32.12146920197753],[-25.60028747307578,32.239942039110055],[-25.433085957750365,32.35883681519196],[-25.26416159429084,32.4781597992085],[-25.093479206277237,32.597917432484905],[-24.921002534911395,32.7181163356856],[-24.746694192051336,32.83876331619173],[-24.570515610604133,32.959865375883105],[-24.39242699209302,33.08142971935129],[-24.21238725120014,33.20346376257515],[-24.030353957068485,33.32597514208999],[-23.846283271128954,33.448971724686345],[-23.66012988119749,33.57246161767639],[-23.471846931565608,33.69645317976948],[-23.281385948782344,33.820955032602214],[-23.08869676279835,33.945976072972094],[-22.893727423113603,34.07152548582876],[-22.69642410953591,34.19761275808125],[-22.496731037120753,34.324247693285756],[-22.294590354822333,34.45144042728367],[-22.089942037339455,34.57920144486762],[-21.88272376958946,34.70754159755923],[-21.6728708231866,34.83647212259221],[-21.460315924237875,34.96600466320258],[-21.2449891116986,35.096151290339186],[-21.0268175854506,35.22692452591862],[-20.805725543175953,35.358337367762424],[-20.58163400500041,35.49040331636893],[-20.354460624765437,35.62313640368908],[-20.124119486661982,35.75655122409375],[-19.89052088581286,35.89066296774248],[-19.653571091228088,36.025487456586205],[-19.41317208936971,36.161041183265525],[-19.169221306351574,36.29734135319605],[-18.921611306556827,36.43440593016842],[-18.67022946517801,36.57225368583171],[-18.41495761186775,36.71090425347446],[-18.15567164232067,36.85037818657273],[-17.892241094186943,36.990697022635196],[-17.624528683228164,37.131883352947234],[-17.352389795062095,37.27396089889908],[-17.075671927183578,37.416954595678654],[-16.794214075180662,37.56089068422305],[-16.507846056167665,37.70579681245313],[-16.21638776139804,37.85170214697022],[-15.919648328777555,37.99863749657636],[-15.617425224523288,38.14663544919336],[-15.309503221465661,38.29573052401184],[-14.995653259403355,38.44595934100577],[-14.675631170420843,38.597360810311315],[-14.349176249074361,38.74997634440757],[-14.016009643713346,38.90385009656464],[-13.675832540793948,39.05902922966807],[-13.32832410864711,39.215564220310696],[-12.973139160547191,39.373509204005984],[-12.609905488751366,39.53292236856315],[-12.238220811025428,39.69386640413918],[-11.85764925846837,39.8564090203243],[-11.467717317450308,40.020623542938765],[-11.067909118186037,40.18658960615771],[-10.657660936511832,40.35439395934139],[-10.236354741975276,40.524131412790716],[-9.80331058180559,40.69590595294799],[-9.357777533137948,40.86983206583461],[-8.898922879936634,41.04603631849023],[-8.425819069134036,41.22465926290419],[-7.937427861996525,41.405857746927175],[-7.432580906007672,41.58980774417461],[-6.909955686132605,41.77670785336246],[-6.368045436205989,41.96678367202619],[-5.805121045131614,42.16029332825556],[-5.219182188693651,42.3575345698483],[-4.607893708702761,42.55885398432407],[-3.9685013986278364,42.76465919120251],[-3.297718407014912,42.97543527183387],[-2.5915686590782343,43.191767393499525],[-1.8451655638948807,43.41437275277452],[-1.0523899523319358,43.64414701944978],[-0.20540472819200772,43.88223425969664],[0.7061080642562274,44.13013674365107],[1.6962106970960633,44.38989661685951],[2.7849454089396204,44.66441705192698],[4.0026512352894486,44.95808176081298]]}}]}