{"type":"FeatureCollection","features":[{"type":"Feature","properties":{"magnitude":0.8,"percentagem":80.0,"territorio":"continente"},"geometry":{"type":"LineString","coordinates":[[-6.045185207442615,36.0],[-6.020000000000096,36.00950420350101],[-5.980000000000096,36.02457692116415],[-5.940000000000097,36.03962618284702],[-5.939005094618792,36.04],[-5.900000000000098,36.05465274198446],[-5.860000000000099,36.069655931358696],[-5.832380670025365,36.08],[-5.8200000000001,36.08463599792314],[-5.780000000000101,36.099593259315384],[-5.7400000000001015,36.11452723432694],[-5.725320721982694,36.12],[-5.700000000000102,36.12943843452881],[-5.660000000000103,36.144326692310564],[-5.620000000000104,36.159191764774974],[-5.617822223063159,36.16],[-5.580000000000105,36.17403440646606],[-5.540000000000106,36.18885397101151]]}},{"type":"Feature","properties":{"magnitude":0.9,"percentagem":90.0,"territorio":"continente"},"geometry":{"type":"LineString","coordinates":[[-10.5,38.0514319842733],[-10.46,38.068318235564746],[-10.432288592704788,38.079999999999956],[-10.420000000000002,38.0851792505801],[-10.380000000000003,38.102015647635284],[-10.340000000000003,38.11882642314439],[-10.337204042758227,38.119999999999955],[-10.300000000000004,38.13561302337435],[-10.260000000000005,38.15237418476315],[-10.241776296464622,38.159999999999954],[-10.220000000000006,38.169110669055485],[-10.180000000000007,38.185822378361365],[-10.14601514578423,38.19999999999995],[-10.140000000000008,38.2025088892446],[-10.100000000000009,38.21917130774331],[-10.06000000000001,38.235808374089956],[-10.049908959447652,38.23999999999995],[-10.02000000000001,38.2524212750166],[-9.980000000000011,38.26900928685532],[-9.953459327394572,38.27999999999995],[-9.940000000000012,38.2855725806003],[-9.900000000000013,38.30211169735341],[-9.860000000000014,38.31862565229875],[-9.856666841229016,38.31999999999995],[-9.820000000000014,38.335115903571506],[-9.780000000000015,38.351581197049924],[-9.759519370422204,38.35999999999995],[-9.740000000000016,38.36802220182709],[-9.700000000000017,38.38443899142599],[-9.662027903146633,38.39999999999995],[-9.66000000000002,38.40083088677571],[-9.620000000000019,38.41719932933928],[-9.58000000000002,38.43354287249711],[-9.564175057544569,38.43999999999995],[-9.54000000000002,38.449862503051165],[-9.500000000000021,38.466157929064664],[-9.465971821375962,38.47999999999995],[-9.460000000000022,38.482428803179864],[-9.420000000000023,38.498676267084434],[-9.380000000000024,38.51489901700241],[-9.367405833950496,38.519999999999946],[-9.340000000000025,38.53109817480694],[-9.300000000000026,38.54727318988963],[-9.268481107610148,38.559999999999945],[-9.260000000000026,38.5634239388584],[-9.220000000000027,38.57955137235088],[-9.180000000000028,38.59565427525932],[-9.169190801582225,38.599999999999945],[-9.140000000000029,38.61173384867105],[-9.10000000000003,38.627789394671844],[-9.06953471023646,38.639999999999944],[-9.06000000000003,38.64382090152947],[-9.020000000000032,38.65982924209585],[-8.980000000000032,38.67581323348326],[-8.969508713231136,38.67999999999994],[-8.940000000000033,38.691774097895745],[-8.900000000000034,38.70771110596649],[-8.869111225868778,38.71999999999994],[-8.860000000000035,38.72362424084894],[-8.820000000000036,38.73951441532297],[-8.780000000000037,38.75538042004467],[-8.768337966483326,38.75999999999994],[-8.740000000000038,38.77122343804145],[-8.700000000000038,38.78704282874567],[-8.667188893227898,38.79999999999994],[-8.66000000000004,38.80283844904228],[-8.62000000000004,38.818611373714134],[-8.580000000000041,38.834360306101004],[-8.56565659751091,38.83999999999994],[-8.540000000000042,38.850086327607954],[-8.500000000000043,38.86578901102943],[-8.463745586865706,38.87999999999994],[-8.460000000000045,38.88146796153511],[-8.420000000000044,38.89712454225996],[-8.380000000000045,38.912757306227014],[-8.36144227470524,38.91999999999994],[-8.340000000000046,38.92836716866411],[-8.300000000000047,38.94395404451551],[-8.260000000000048,38.95951720866754],[-8.258757565531639,38.95999999999994],[-8.220000000000049,38.9750582898885],[-8.18000000000005,38.99057577904347],[-8.155672292147589,38.999999999999936],[-8.14000000000005,39.00607030747553],[-8.100000000000051,39.0215422652068],[-8.060000000000052,39.036990683707856],[-8.052197835834082,39.039999999999935],[-8.020000000000053,39.05241693009181],[-7.980000000000054,39.06782002784334],[-7.948323562912792,39.079999999999934],[-7.940000000000054,39.08320003513014],[-7.900000000000055,39.09855795403671],[-7.860000000000056,39.11389250429163],[-7.8440468352879975,39.11999999999993],[-7.820000000000056,39.12920472155007],[-7.780000000000058,39.14449430121588],[-7.740000000000059,39.159760614357985],[-7.739371975148046,39.15999999999993],[-7.70000000000006,39.17500533749184],[-7.6600000000000605,39.19022688687801],[-7.634280869285427,39.19999999999993],[-7.620000000000061,39.2054258687531],[-7.580000000000062,39.2206027936678],[-7.540000000000063,39.23575661965812],[-7.528784140906366,39.23999999999993],[-7.500000000000064,39.250888588231945],[-7.460000000000065,39.26599799420694],[-7.422875844240304,39.27999999999993],[-7.420000000000065,39.281084522619025],[-7.3800000000000665,39.29614964624156],[-7.340000000000067,39.31119183669782],[-7.316544153386786,39.31999999999993],[-7.300000000000068,39.326211825706835],[-7.260000000000069,39.341209935915685],[-7.22000000000007,39.35618521223158],[-7.209796785769804,39.35999999999993],[-7.18000000000007,39.37113894713026],[-7.140000000000072,39.38607034392062],[-7.102627282261251,39.39999999999993],[-7.1000000000000725,39.400979116769776],[-7.060000000000073,39.41586676915179],[-7.020000000000074,39.430731750498126],[-6.9950244470059495,39.43999999999993],[-6.980000000000075,39.44557473228942],[-6.940000000000076,39.46039616763906],[-6.900000000000077,39.47519502950797],[-6.886994929692048,39.479999999999926],[-6.860000000000078,39.48997249918287],[-6.820000000000078,39.50472801210752],[-6.780000000000079,39.51946104847059],[-6.778534864621846,39.519999999999925],[-6.74000000000008,39.53417328264201],[-6.700000000000081,39.54886316576288],[-6.669630319252489,39.559999999999924],[-6.660000000000082,39.5635310800022],[-6.620000000000083,39.57817794157856],[-6.580000000000084,39.59280248554337],[-6.560286243536561,39.59999999999992],[-6.5400000000000835,39.60740561279836],[-6.500000000000085,39.62198732866616],[-6.460000000000086,39.63654682216196],[-6.450500173600328,39.63999999999992],[-6.420000000000087,39.651085432862885],[-6.380000000000088,39.66560229038252],[-6.340267802649338,39.67999999999992],[-6.340000000000089,39.68009703165636],[-6.3000000000000895,39.69457138245871],[-6.26000000000009,39.70902366705135],[-6.229575834194028,39.71999999999992],[-6.220000000000091,39.72345432994212],[-6.180000000000092,39.73786429772388],[-6.140000000000093,39.752252292884],[-6.1184300878108,39.75999999999992],[-6.100000000000095,39.76661914176057],[-6.060000000000095,39.78096500871322],[-6.0200000000000955,39.7952889960212],[-6.006826414887513,39.79999999999992],[-5.980000000000096,39.80959229303014],[-5.940000000000097,39.823874339439726],[-5.900000000000098,39.838134598574435],[-5.894760622288648,39.83999999999992],[-5.860000000000099,39.852374603656315],[-5.8200000000001,39.86659310791599],[-5.782226107226822,39.87999999999992],[-5.780000000000101,39.88079001307833],[-5.7400000000001015,39.89496688757279],[-5.700000000000102,39.90912212619533],[-5.669215863420536,39.919999999999916],[-5.660000000000103,39.92325616004734],[-5.620000000000104,39.9373699527826],[-5.580000000000105,39.9514622004127],[-5.55573111382874,39.959999999999916],[-5.540000000000106,39.965533617040556]]}},{"type":"Feature","properties":{"magnitude":0.9,"percentagem":90.0,"territorio":"continente"},"geometry":{"type":"LineString","coordinates":[[-10.062897762641295,42.95999999999985],[-10.100000000000009,42.94588941918002],[-10.140000000000008,42.93065420853475],[-10.167932960934838,42.91999999999986],[-10.180000000000007,42.915396967943636],[-10.220000000000006,42.9001188209321],[-10.260000000000005,42.88481770147789],[-10.27257789811688,42.87999999999985],[-10.300000000000004,42.86949556984871],[-10.340000000000003,42.85415131560112],[-10.376835635925085,42.83999999999985],[-10.380000000000003,42.838784217918125],[-10.420000000000002,42.82339669466112],[-10.46,42.807986032226374],[-10.480700302496295,42.799999999999855],[-10.5,42.79255359927484]]}},{"type":"Feature","properties":{"magnitude":0.95,"percentagem":95.0,"territorio":"continente"},"geometry":{"type":"LineString","coordinates":[[-10.5,40.005108836282204],[-10.46,40.02152454595495],[-10.420000000000002,40.03791548766399],[-10.414906599925583,40.039999999999914],[-10.380000000000003,40.054283552313294],[-10.340000000000003,40.07062719240124],[-10.317028791873302,40.07999999999991],[-10.300000000000004,40.08694708219614],[-10.260000000000005,40.10324357259567],[-10.220000000000006,40.119515479207834],[-10.218807468227938,40.11999999999991],[-10.180000000000007,40.13576490757583],[-10.140000000000008,40.15198988789801],[-10.120225393588342,40.15999999999991],[-10.100000000000009,40.16819147509294],[-10.06000000000001,40.18436967930425],[-10.021296598161197,40.19999999999991],[-10.020000000000012,40.200523551328395],[-9.980000000000011,40.21665512889969],[-9.940000000000012,40.23276237623343],[-9.922002046816132,40.23999999999991],[-9.900000000000013,40.2488465105984],[-9.860000000000014,40.264907351115944],[-9.82235515654332,40.27999999999991],[-9.820000000000016,40.28094409676283],[-9.780000000000015,40.29695867820747],[-9.740000000000016,40.31294910880344],[-9.722338330276589,40.31999999999991],[-9.700000000000017,40.32891662762883],[-9.660000000000018,40.34486101646503],[-9.621963696557092,40.35999999999991],[-9.620000000000019,40.36078146796748],[-9.58000000000002,40.37667996107784],[-9.54000000000002,40.39255448076854],[-9.521213487294787,40.399999999999906],[-9.500000000000021,40.408406209013364],[-9.460000000000022,40.424235047806796],[-9.420101311483604,40.439999999999905],[-9.420000000000023,40.44004002512763],[-9.380000000000024,40.45582332736676],[-9.340000000000025,40.471582831674645],[-9.318606420086871,40.479999999999905],[-9.300000000000026,40.487319582114075],[-9.260000000000026,40.5030337622378],[-9.220000000000027,40.51872424974584],[-9.216743614145948,40.519999999999904],[-9.180000000000028,40.53439307182667],[-9.140000000000029,40.55003844607233],[-9.114495683904757,40.5599999999999],[-9.10000000000003,40.56566101944442],[-9.06000000000003,40.58126142211382],[-9.020000000000032,40.59683830459524],[-9.011870547581914,40.5999999999999],[-8.980000000000032,40.61239343472336],[-8.940000000000033,40.62792555413328],[-8.908859481033264,40.6399999999999],[-8.900000000000034,40.64343473928475],[-8.860000000000035,40.658922235665386],[-8.820000000000036,40.674386382395234],[-8.805460211567864,40.6799999999999],[-8.780000000000037,40.68982860245043],[-8.740000000000038,40.70524833226457],[-8.701675654638535,40.7199999999999],[-8.700000000000038,40.72064490629574],[-8.66000000000004,40.736020357610585],[-8.62000000000004,40.75137262794056],[-8.597490245990944,40.7599999999999],[-8.580000000000041,40.76670270814064],[-8.540000000000042,40.782010903719666],[-8.500000000000043,40.79729601958154],[-8.492914742045697,40.7999999999999],[-8.460000000000043,40.81255988976487],[-8.420000000000044,40.827801133230494],[-8.387937921683465,40.8399999999999],[-8.380000000000045,40.84301983227457],[-8.340000000000046,40.85821733920662],[-8.300000000000047,40.873391932136876],[-8.282557505654715,40.879999999999896],[-8.260000000000048,40.88854488164779],[-8.220000000000049,40.903675938074855],[-8.18000000000005,40.91878418001636],[-8.176776953168396,40.919999999999895],[-8.14000000000005,40.93387165749271],[-8.100000000000051,40.94893656159181],[-8.070582263354778,40.959999999999894],[-8.060000000000052,40.96397933108611],[-8.020000000000053,40.97900103069688],[-7.980000000000054,40.99400007863541],[-7.963977510902934,40.99999999999989],[-7.9400000000000555,41.00897782600572],[-7.900000000000055,41.02393386583299],[-7.860000000000056,41.03886735178155],[-7.856962291348591,41.03999999999989],[-7.820000000000057,41.05378034833233],[-7.780000000000058,41.068671021200984],[-7.74952347766493,41.07999999999989],[-7.740000000000059,41.08353976143137],[-7.70000000000006,41.09838775211038],[-7.6600000000000605,41.11321334887019],[-7.6416642404002975,41.11999999999989],[-7.620000000000061,41.12801777782475],[-7.580000000000062,41.142800885182794],[-7.540000000000063,41.15756169472114],[-7.533383907383799,41.15999999999989],[-7.500000000000064,41.17230207763032],[-7.460000000000065,41.18702058923277],[-7.424674048566761,41.19999999999989],[-7.420000000000066,41.20171715621662],[-7.3800000000000665,41.21639349835413],[-7.340000000000067,41.2310476998254],[-7.315529334737294,41.23999999999988],[-7.300000000000068,41.245680650144266],[-7.260000000000069,41.26029287141294],[-7.22000000000007,41.27488304644917],[-7.2059525896255225,41.27999999999989],[-7.180000000000071,41.28945263937818],[-7.140000000000072,41.30400102217564],[-7.1000000000000725,41.31852745255728],[-7.095939970764445,41.31999999999989],[-7.060000000000074,41.33303394518764],[-7.020000000000074,41.34751877000444],[-6.985482027864684,41.359999999999886],[-6.980000000000075,41.361982038390195],[-6.940000000000076,41.37642538286367],[-6.900000000000077,41.39084692829596],[-6.8745766944015765,41.399999999999885],[-6.8600000000000785,41.405247512146616],[-6.820000000000078,41.419627761760154],[-6.780000000000079,41.43398630452203],[-6.763224120640212,41.439999999999884],[-6.74000000000008,41.44832445513343],[-6.700000000000081,41.462641885334435],[-6.660000000000082,41.47693770027051],[-6.65142030755354,41.47999999999989],[-6.620000000000083,41.49121366681314],[-6.580000000000084,41.50546855118804],[-6.540000000000084,41.51970191128575],[-6.539161213977778,41.51999999999988],[-6.500000000000085,41.533915940820386],[-6.460000000000086,41.54810855110698],[-6.426436135254782,41.55999999999988],[-6.420000000000088,41.56228008331963],[-6.380000000000088,41.57643206500228],[-6.340000000000089,41.59056267110204],[-6.313247141967542,41.59999999999988],[-6.3000000000000895,41.60467266529424],[-6.26000000000009,41.618762821458475],[-6.220000000000091,41.632831691448864],[-6.199590931442186,41.63999999999988],[-6.180000000000093,41.646880389084735],[-6.140000000000093,41.66090898658105],[-6.100000000000094,41.67491638672775],[-6.085463297448294,41.67999999999988],[-6.060000000000095,41.688904027218875],[-6.0200000000000955,41.702871331094364],[-5.980000000000096,41.71681752586337],[-5.970859989289951,41.71999999999988],[-5.940000000000097,41.73074434658403],[-5.900000000000098,41.74465062009447],[-5.860000000000099,41.75853587216427],[-5.85577671129781,41.75999999999988],[-5.820000000000099,41.77240210846654],[-5.780000000000101,41.786247613088484],[-5.740208904046641,41.79999999999987],[-5.7400000000001015,41.800072194908445],[-5.700000000000102,41.81387806859101],[-5.660000000000103,41.82766306403385],[-5.6241484887973305,41.839999999999876],[-5.620000000000104,41.84142744084645],[-5.580000000000105,41.855172977159306],[-5.540000000000106,41.868897721377195]]}},{"type":"Feature","properties":{"magnitude":0.95,"percentagem":95.0,"territorio":"continente"},"geometry":{"type":"LineString","coordinates":[[-5.540000000000106,42.63026512575583],[-5.580000000000105,42.61701007419869],[-5.620000000000104,42.60373482619067],[-5.631238226573666,42.59999999999986],[-5.660000000000103,42.59044103683369],[-5.700000000000102,42.57712765564122],[-5.7400000000001015,42.563793995656106],[-5.751366264614822,42.55999999999986],[-5.780000000000101,42.55044170579494],[-5.8200000000001,42.53706974948116],[-5.860000000000099,42.52367743149061],[-5.870968840743988,42.51999999999986],[-5.900000000000098,42.510266425322236],[-5.940000000000097,42.49683564672971],[-5.980000000000096,42.48338442303028],[-5.990050730734225,42.47999999999986],[-6.0200000000000955,42.46991448287025],[-6.060000000000095,42.456424633158534],[-6.100000000000094,42.44291425436011],[-6.108616659741316,42.43999999999986],[-6.140000000000093,42.42938516062832],[-6.180000000000092,42.41583598926235],[-6.220000000000091,42.40226620427652],[-6.226671302897824,42.399999999999864],[-6.26000000000009,42.38867773548283],[-6.3000000000000895,42.37506899022118],[-6.340000000000089,42.36143954624962],[-6.344219285897659,42.359999999999864],[-6.380000000000088,42.34779147897941],[-6.420000000000087,42.334122905862735],[-6.460000000000086,42.32043354838535],[-6.46126518557186,42.319999999999865],[-6.500000000000085,42.306725657285085],[-6.540000000000084,42.2929970006242],[-6.577811248040812,42.279999999999866],[-6.580000000000084,42.27924760216716],[-6.620000000000083,42.26547953114995],[-6.660000000000082,42.25169053351404],[-6.693862418961,42.239999999999874],[-6.700000000000081,42.23788093988176],[-6.74000000000008,42.224052355868906],[-6.780000000000079,42.210202758073635],[-6.809424465182521,42.19999999999987],[-6.820000000000078,42.196332738626865],[-6.860000000000078,42.18244338124295],[-6.900000000000077,42.16853292233859],[-6.924501782397025,42.15999999999987],[-6.940000000000076,42.154602244444604],[-6.980000000000075,42.14065185154058],[-7.020000000000074,42.12668026879991],[-7.039098720067612,42.11999999999987],[-7.060000000000073,42.11268869781758],[-7.1000000000000725,42.09867700545867],[-7.140000000000072,42.08464403436503],[-7.1532195819547555,42.07999999999987],[-7.180000000000071,42.07059133362975],[-7.22000000000007,42.05651807608341],[-7.260000000000069,42.042423450318545],[-7.266868626634003,42.03999999999987],[-7.300000000000068,42.028309381127194],[-7.340000000000067,42.01417429085095],[-7.3800000000000665,42.000017742282864],[-7.380050068005574,41.99999999999987],[-7.420000000000066,41.98584206387855],[-7.460000000000065,41.97164487150784],[-7.492760686134226,41.95999999999987],[-7.500000000000065,41.957426557412475],[-7.540000000000063,41.94318859973542],[-7.580000000000062,41.928929034071366],[-7.605011519293376,41.919999999999874],[-7.6200000000000605,41.914648713144395],[-7.6600000000000605,41.9003482007925],[-7.70000000000006,41.886025988789584],[-7.716806709647027,41.879999999999875],[-7.740000000000059,41.87168341467513],[-7.780000000000058,41.857320073347594],[-7.820000000000057,41.84293494010138],[-7.828150305241778,41.839999999999876],[-7.860000000000055,41.82852986433276],[-7.900000000000055,41.81410341786133],[-7.939045347204782,41.799999999999876],[-7.940000000000055,41.799655142937304],[-7.980000000000054,41.78518725858031],[-8.020000000000053,41.77069742891693],[-8.049488101900408,41.75999999999988],[-8.060000000000052,41.75618624156813],[-8.100000000000051,41.74165478797522],[-8.14000000000005,41.72710129517955],[-8.159490766104515,41.71999999999988],[-8.18000000000005,41.71252694118476],[-8.220000000000049,41.69793163712873],[-8.260000000000048,41.68331419935565],[-8.269057228811263,41.67999999999988],[-8.300000000000047,41.66867642232476],[-8.340000000000046,41.65401698466505],[-8.378189527785217,41.63999999999988],[-8.380000000000043,41.63933542495455],[-8.420000000000044,41.62463385951028],[-8.460000000000043,41.60991000318033],[-8.486883823097873,41.59999999999988],[-8.500000000000043,41.595164596144905],[-8.540000000000042,41.580398421206866],[-8.580000000000041,41.565609859201565],[-8.595152983354904,41.55999999999988],[-8.62000000000004,41.550800342537975],[-8.66000000000004,41.53596926978226],[-8.700000000000038,41.52111571314532],[-8.703000744920647,41.51999999999988],[-8.740000000000038,41.50624182232228],[-8.780000000000037,41.49134556146503],[-8.810421324082764,41.47999999999988],[-8.820000000000036,41.47642728381344],[-8.860000000000035,41.46148818751823],[-8.900000000000034,41.44652644630298],[-8.917424541304591,41.439999999999884],[-8.940000000000033,41.43154335631146],[-8.980000000000032,41.41653858393657],[-9.020000000000032,41.40151106812149],[-9.024017005847654,41.39999999999988],[-9.06000000000003,41.38646289518417],[-9.10000000000003,41.37139215113661],[-9.130192672731543,41.359999999999886],[-9.140000000000029,41.35629914167295],[-9.180000000000028,41.34118503570442],[-9.220000000000027,41.32604802238425],[-9.235960449822063,41.31999999999989],[-9.260000000000026,41.31088948142844],[-9.300000000000026,41.295708906822455],[-9.340000000000025,41.28050532460988],[-9.341327820741634,41.27999999999989],[-9.380000000000024,41.26528097536193],[-9.420000000000023,41.25003363112379],[-9.446284898318321,41.23999999999989],[-9.460000000000022,41.23476398416107],[-9.500000000000021,41.21947274169345],[-9.54000000000002,41.20415832478688],[-9.550846906117009,41.19999999999989],[-9.58000000000002,41.188822410414794],[-9.620000000000019,41.17346389220653],[-9.65501372432401,41.15999999999989],[-9.660000000000018,41.15808238995944],[-9.700000000000017,41.14267963264428],[-9.740000000000016,41.12725353220577],[-9.75878272275575,41.11999999999989],[-9.780000000000015,41.11180529668459],[-9.820000000000014,41.09633475170891],[-9.860000000000014,41.08084076047425],[-9.862167823512307,41.07999999999989],[-9.900000000000013,41.065325504533035],[-9.940000000000012,41.04978686191693],[-9.965158052178747,41.03999999999989],[-9.980000000000011,41.03422553770886],[-10.02000000000001,41.01864210331729],[-10.06000000000001,41.003035050982575],[-10.067768624993834,40.9999999999999],[-10.100000000000009,40.987406229579506],[-10.140000000000008,40.97175417622612],[-10.169995304888829,40.959999999999894],[-10.180000000000007,40.956078984138095],[-10.220000000000006,40.94038178772439],[-10.260000000000005,40.92466079978156],[-10.27184317389118,40.919999999999895],[-10.300000000000004,40.908917626760335],[-10.340000000000003,40.89315128408924],[-10.373316526787457,40.8799999999999],[-10.380000000000003,40.87736143312957],[-10.420000000000002,40.86154959202288],[-10.46,40.84571378388014],[-10.474413315307432,40.8399999999999],[-10.5,40.829855461201376]]}},{"type":"Feature","properties":{"magnitude":0.8,"percentagem":80.0,"territorio":"acores"},"geometry":{"type":"LineString","coordinates":[[-24.04000000000017,40.44241655968082],[-24.04409615206683,40.43999999999991],[-24.08000000000017,40.418811586153566],[-24.111831349417272,40.399999999999906],[-24.120000000000168,40.39517099876061],[-24.160000000000167,40.37149657761829],[-24.1793989940795,40.35999999999991],[-24.200000000000166,40.34778719860611],[-24.240000000000165,40.32404269081235],[-24.246802404932588,40.31999999999991],[-24.280000000000165,40.30026427689247],[-24.314038792289054,40.27999999999991],[-24.320000000000164,40.27644998464417],[-24.360000000000163,40.252601735596016],[-24.381108388328528,40.23999999999991],[-24.400000000000166,40.228718049802936],[-24.44000000000016,40.2047990745746],[-24.448016120167566,40.19999999999992],[-24.48000000000016,40.180845748863064],[-24.514759642965082,40.15999999999991],[-24.52000000000016,40.15685627564402],[-24.56000000000016,40.13283257837484],[-24.581338019982987,40.11999999999991],[-24.600000000000154,40.108773101701296],[-24.640000000000157,40.084678032776715],[-24.647756864001508,40.07999999999991],[-24.680000000000156,40.060548303193706],[-24.714013395742587,40.039999999999914],[-24.720000000000155,40.03638215219947],[-24.760000000000154,40.01218137126238],[-24.7801072800608,39.999999999999915],[-24.800000000000153,39.98794459892748],[-24.840000000000153,39.96367179494499],[-24.846043924574307,39.959999999999916],[-24.88000000000015,39.939364148739664],[-24.911819267636247,39.919999999999916],[-24.920000000000154,39.91501980248964],[-24.96000000000015,39.890640287389374],[-24.977435283387337,39.87999999999992],[-25.00000000000015,39.86622469395019],[-25.04000000000015,39.84177249853691],[-25.042896314913126,39.83999999999992],[-25.080000000000148,39.81728540231306],[-25.108196201337286,39.79999999999992],[-25.120000000000143,39.792761322679766],[-25.160000000000146,39.76820140797021],[-25.173340871528076,39.75999999999992],[-25.200000000000145,39.74360544735781],[-25.238331802916004,39.71999999999992],[-25.240000000000144,39.71897233777724],[-25.280000000000143,39.694304088991885],[-25.303162868102753,39.67999999999992],[-25.320000000000142,39.66959871724746],[-25.36000000000014,39.64485672264401],[-25.367842615651956,39.63999999999992],[-25.40000000000014,39.6200788282171],[-25.43236736264063,39.59999999999992],[-25.44000000000014,39.59526349381412],[-25.48000000000014,39.57041214251182],[-25.496737670576074,39.559999999999924],[-25.520000000000138,39.545523899392975],[-25.560000000000137,39.520598129900435],[-25.560958819326924,39.519999999999925],[-25.600000000000136,39.495636714517815],[-25.62502293282776,39.479999999999926],[-25.640000000000136,39.47063756343202],[-25.680000000000135,39.44560140574569],[-25.688938745540376,39.43999999999993],[-25.720000000000134,39.42052869153781],[-25.752703353682584,39.39999999999993],[-25.760000000000133,39.39541806845047],[-25.800000000000132,39.37027089370733],[-25.816316484560122,39.35999999999993],[-25.84000000000013,39.34508631368316],[-25.879783843747465,39.31999999999993],[-25.88000000000013,39.319863649811204],[-25.92000000000013,39.29460482591671],[-25.94309692298686,39.27999999999993],[-25.96000000000013,39.269307808347094],[-26.000000000000128,39.2439730633204],[-26.006265727422186,39.23999999999994],[-26.040000000000127,39.218601421824445],[-26.06928490717352,39.19999999999993],[-26.080000000000126,39.19319139025617],[-26.120000000000125,39.16774394526735],[-26.132157626282115,39.15999999999993],[-26.160000000000124,39.14225888825522],[-26.194885243487573,39.11999999999994],[-26.200000000000124,39.11673526152701],[-26.240000000000123,39.09117447606931],[-26.25746444593489,39.079999999999934],[-26.280000000000122,39.06557541946799],[-26.31990269856952,39.039999999999935],[-26.32000000000012,39.039937611728476],[-26.36000000000012,39.01426284216082],[-26.382190929549466,38.999999999999936],[-26.40000000000012,38.988549197221985],[-26.44000000000012,38.962796976445304],[-26.444339588960986,38.95999999999994],[-26.480000000000118,38.937007217526826],[-26.506341780967123,38.91999999999994],[-26.520000000000117,38.911178390848086],[-26.560000000000116,38.885311116423715],[-26.56820330096489,38.87999999999994],[-26.600000000000115,38.859405763778184],[-26.629921664950817,38.83999999999994],[-26.640000000000114,38.83346115732637],[-26.680000000000113,38.807478177488555],[-26.691498530536485,38.79999999999994],[-26.720000000000113,38.78145663023303],[-26.752935207430596,38.75999999999994],[-26.76000000000011,38.75539564136972],[-26.80000000000011,38.729296301338245],[-26.81422988064077,38.71999999999994],[-26.84000000000011,38.70315795400441],[-26.875386995745657,38.67999999999994],[-26.88000000000011,38.67697997551362],[-26.92000000000011,38.6507636175309],[-26.936401915788863,38.639999999999944],[-26.960000000000107,38.624507860094354],[-26.997281578882948,38.599999999999945],[-27.000000000000107,38.598212280212564],[-27.040000000000106,38.571878243582674],[-27.058019162274594,38.559999999999945],[-27.080000000000105,38.545504461494474],[-27.118623467712222,38.519999999999946],[-27.1200000000001,38.51909066394298],[-27.160000000000103,38.492638285072815],[-27.17908610840761,38.47999999999995],[-27.200000000000102,38.46614585929338],[-27.239417135217973,38.43999999999995],[-27.2400000000001,38.43961322331327],[-27.2800000000001,38.41304183575542],[-27.299607204743126,38.39999999999995],[-27.3200000000001,38.38643014279112],[-27.359667016727627,38.35999999999995],[-27.360000000000102,38.3597780431805],[-27.400000000000098,38.33308697767872],[-27.41958686430857,38.31999999999995],[-27.440000000000097,38.30635538962083],[-27.479377510136864,38.27999999999995],[-27.480000000000096,38.27958319677479],[-27.520000000000095,38.252771781311246],[-27.539029462826566,38.23999999999995],[-27.560000000000095,38.22591966587768],[-27.59855297613161,38.19999999999995],[-27.600000000000097,38.19902674583104],[-27.640000000000093,38.1720943056759],[-27.65793933893529,38.159999999999954],[-27.680000000000092,38.14512102625568],[-27.71719773840667,38.119999999999955],[-27.720000000000095,38.118106740728315],[-27.76000000000009,38.091052598491544],[-27.776320794404967,38.079999999999956],[-27.800000000000093,38.06395751419198],[-27.835316083881295,38.03999999999996],[-27.84000000000009,38.03682122063706],[-27.880000000000088,38.009644696322695],[-27.894178094351894,37.99999999999996],[-27.920000000000087,37.98242716201951],[-27.95291226291176,37.95999999999996],[-27.960000000000086,37.95516821367472],[-28.000000000000085,37.92786862473744],[-28.011515467449073,37.91999999999996],[-28.040000000000084,37.90052799112786],[-28.069990489500693,37.87999999999996],[-28.080000000000084,37.87314573706946],[-28.120000000000083,37.84572239847355],[-28.12833710613362,37.83999999999996],[-28.160000000000082,37.818258012132546],[-28.186554941503612,37.79999999999996],[-28.20000000000008,37.79075179733273],[-28.24000000000008,37.76320402161364],[-28.244647166811685,37.75999999999996],[-28.28000000000008,37.7356152250531],[-28.302609760832226,37.71999999999996],[-28.32000000000008,37.70798439044039],[-28.360000000000078,37.68031148776876],[-28.360449770059795,37.679999999999964],[-28.400000000000077,37.652597619500206],[-28.418159053655025,37.639999999999965],[-28.44000000000008,37.62484150202318],[-28.475746852445774,37.599999999999966],[-28.480000000000075,37.59704307331893],[-28.520000000000074,37.56920317487195],[-28.533206890594776,37.55999999999997],[-28.560000000000073,37.54132110756625],[-28.590544161148152,37.51999999999997],[-28.600000000000072,37.51339651572239],[-28.64000000000007,37.48542986055956],[-28.647757306923346,37.47999999999997],[-28.68000000000007,37.45742117261851],[-28.70484594591244,37.43999999999997],[-28.72000000000007,37.42936974531737],[-28.76000000000007,37.40127563616303],[-28.761814302753617,37.39999999999997],[-28.800000000000068,37.37313965301161],[-28.818656192730167,37.35999999999997],[-28.840000000000067,37.34496071419185],[-28.875379556522045,37.319999999999965],[-28.88000000000007,37.316738755623106],[-28.920000000000066,37.28847449508905],[-28.931978852704184,37.27999999999997],[-28.960000000000065,37.260167365024714],[-28.98845818237801,37.239999999999974],[-29.000000000000064,37.23181699685494],[-29.040000000000063,37.2034236359456],[-29.044817842233947,37.199999999999974],[-29.080000000000062,37.174987631328946],[-29.101054986772066,37.159999999999975],[-29.12000000000006,37.14650816882621],[-29.157175665839734,37.11999999999998],[-29.16000000000006,37.117985182952125],[-29.20000000000006,37.08941943770555],[-29.21317383773558,37.07999999999998],[-29.24000000000006,37.06081019267198],[-29.26905499987219,37.03999999999998],[-29.280000000000058,37.03215720252463],[-29.320000000000057,37.00346070010843],[-29.32481856903665,36.99999999999998],[-29.360000000000056,36.97472098097236],[-29.380462030119688,36.95999999999998],[-29.400000000000055,36.945937293625796],[-29.435991054616974,36.91999999999998],[-29.440000000000055,36.91710957122891],[-29.480000000000054,36.88823843803268],[-29.49140054260284,36.87999999999998],[-29.520000000000053,36.85932335731603],[-29.546694488216403,36.839999999999975],[-29.560000000000052,36.830364016587865],[-29.60000000000005,36.80136046017542],[-29.601874289504096,36.79999999999998],[-29.64000000000005,36.77231328677487],[-29.656934939456555,36.759999999999984],[-29.68000000000005,36.743221627125465],[-29.71188315035295,36.719999999999985],[-29.72000000000005,36.714085413089734],[-29.760000000000048,36.68490496760904],[-29.766716113372308,36.679999999999986],[-29.800000000000047,36.655680285448234],[-29.82143360537743,36.639999999999986],[-29.840000000000046,36.62641082090809],[-29.876039825387604,36.59999999999999],[-29.88000000000005,36.59709650511688],[-29.920000000000044,36.567737867022856],[-29.930530205688726,36.55999999999999],[-29.960000000000043,36.53833444431122],[-29.984908257385428,36.51999999999999],[-30.000000000000043,36.50888594066717],[-30.03917619372482,36.47999999999999],[-30.040000000000042,36.479392286506766],[-30.08000000000004,36.449854149233225],[-30.09332819212124,36.43999999999999],[-30.12000000000004,36.42027074620348],[-30.14737048474275,36.39999999999999],[-30.160000000000036,36.39064196135921],[-30.20000000000004,36.360967795280224],[-30.201303208400308,36.35999999999999],[-30.240000000000038,36.331248778767666],[-30.25512157126687,36.31999999999999],[-30.280000000000037,36.30148414806402],[-30.308831749937703,36.28],[-30.32000000000004,36.27167383243418],[-30.360000000000035,36.24181788957291],[-30.362432986194527,36.239999999999995],[-30.400000000000034,36.211916695445375],[-30.415921715623078,36.199999999999996],[-30.440000000000033,36.18196958253448],[-30.469303389650705,36.16],[-30.480000000000032,36.1519764794617],[-30.52000000000003,36.12193744702361],[-30.52257719267778,36.120000000000005],[-30.56000000000003,36.091852816044806],[-30.575739872541405,36.08],[-30.60000000000003,36.06172195965016],[-30.628796615703045,36.04],[-30.64000000000003,36.03154480584559],[-30.680000000000028,36.00132136952875],[-30.681746986326008,36.0]]}},{"type":"Feature","properties":{"magnitude":0.9,"percentagem":90.0,"territorio":"acores"},"geometry":{"type":"LineString","coordinates":[[-24.04000000000017,36.04297529601247],[-24.044689782610003,36.04],[-24.08000000000017,36.0175892171045],[-24.10767565763605,36.0]]}},{"type":"Feature","properties":{"magnitude":0.8,"percentagem":80.0,"territorio":"madeira"},"geometry":{"type":"LineString","coordinates":[[-18.0,30.25950141285823],[-17.999171698115948,30.259999999999984],[-17.96,30.283568143182087],[-17.932649921088608,30.299999999999983],[-17.92,30.307596561144585],[-17.880000000000003,30.331586129053036],[-17.865952263583,30.339999999999982],[-17.840000000000003,30.35553698590946],[-17.800000000000004,30.37944970408366],[-17.79907839277161,30.37999999999998],[-17.760000000000005,30.40332330070453],[-17.73201765218724,30.41999999999998],[-17.720000000000006,30.42715894618342],[-17.680000000000007,30.450956080378795],[-17.6647780453279,30.45999999999998],[-17.640000000000008,30.474714913074934],[-17.60000000000001,30.498435897528577],[-17.59735929969942,30.49999999999998],[-17.56000000000001,30.522118214793288],[-17.529752510439046,30.539999999999978],[-17.52000000000001,30.54576293655785],[-17.48000000000001,30.569369420319397],[-17.46196250733181,30.579999999999977],[-17.440000000000012,30.592938068436474],[-17.400000000000013,30.616469096363275],[-17.39399038934751,30.619999999999976],[-17.360000000000014,30.639961964648442],[-17.325830374938125,30.659999999999975],[-17.320000000000014,30.663417587496443],[-17.280000000000015,30.686835188264617],[-17.257481392375297,30.699999999999974],[-17.240000000000016,30.71021546737965],[-17.200000000000017,30.733558300068843],[-17.18894726757258,30.739999999999974],[-17.160000000000018,30.75686352571804],[-17.120226759099324,30.779999999999973],[-17.12000000000002,30.78013185041759],[-17.08000000000002,30.80336231963655],[-17.05131007591501,30.819999999999972],[-17.04000000000002,30.826556021273483],[-17.00000000000002,30.849712403959785],[-16.982205171247333,30.85999999999997],[-16.960000000000022,30.872831769243305],[-16.920000000000023,30.895914331207063],[-16.912910969924283,30.89999999999997],[-16.880000000000024,30.918959645476463],[-16.843423561623396,30.93999999999997],[-16.84000000000002,30.941968537078957],[-16.800000000000026,30.964940198810986],[-16.77373896375766,30.97999999999997],[-16.760000000000026,30.9878754619071],[-16.720000000000027,31.010773975769425],[-16.70386191778812,31.019999999999968],[-16.680000000000028,31.03363589213191],[-16.64000000000003,31.05646152055491],[-16.633791321516497,31.059999999999967],[-16.60000000000003,31.079250370583225],[-16.563523130386123,31.099999999999966],[-16.56000000000003,31.10200326557954],[-16.52000000000003,31.124719437767318],[-16.493054130972936,31.139999999999965],[-16.480000000000032,31.147399681039317],[-16.440000000000033,31.170043631863937],[-16.422388356350393,31.179999999999964],[-16.400000000000034,31.192651500241723],[-16.360000000000035,31.21522348872349],[-16.35152467681864,31.219999999999963],[-16.320000000000036,31.237759257662688],[-16.280461567419646,31.25999999999996],[-16.280000000000037,31.260259528596734],[-16.240000000000038,31.282723485446315],[-16.209191306770883,31.29999999999996],[-16.20000000000004,31.305152063663282],[-16.16000000000004,31.327544713402954],[-16.13771984154776,31.33999999999996],[-16.12000000000004,31.349901870791772],[-16.08000000000004,31.372223469007597],[-16.066046014055946,31.37999999999996],[-16.040000000000042,31.394509476083485],[-16.000000000000043,31.41676027739854],[-15.994168658953864,31.41999999999996],[-15.960000000000043,31.43897540330334],[-15.92208483310657,31.459999999999958],[-15.920000000000044,31.461155607387084],[-15.880000000000045,31.483300173878966],[-15.849790334065283,31.499999999999957],[-15.840000000000046,31.505409893459664],[-15.800000000000047,31.527484306899993],[-15.777288910786655,31.539999999999957],[-15.760000000000048,31.549523807562757],[-15.720000000000049,31.57152831911771],[-15.704579369282152,31.579999999999956],[-15.68000000000005,31.593497865077584],[-15.64000000000005,31.61543272494484],[-15.631660507734708,31.619999999999955],[-15.600000000000051,31.63733257904778],[-15.560000000000052,31.65919803645572],[-15.55853111645942,31.659999999999954],[-15.520000000000053,31.68102846017968],[-15.485185518610333,31.699999999999953],[-15.480000000000054,31.702824646337234],[-15.440000000000055,31.724586016842814],[-15.411625845701806,31.739999999999952],[-15.400000000000055,31.746313157115488],[-15.360000000000056,31.768005755070558],[-15.337852125736545,31.77999999999995],[-15.320000000000057,31.789664107401173],[-15.280000000000058,31.811288178561156],[-15.263863119549466,31.81999999999995],[-15.24000000000006,31.832877999530393],[-15.20000000000006,31.85443378867879],[-15.189657579916007,31.85999999999995],[-15.16000000000006,31.8759553335069],[-15.120000000000061,31.89744308445503],[-15.115234251510369,31.89999999999995],[-15.080000000000062,31.918896607003695],[-15.040591355934097,31.939999999999948],[-15.040000000000063,31.940316551138928]]}}]}