{"type":"FeatureCollection","features":[{"type":"Feature","properties":{"magnitude":0.2,"percentagem":20.0,"territorio":"acores"},"geometry":{"type":"LineString","coordinates":[[-24.41090209771655,36.0],[-24.410913602362662,36.040000000000006],[-24.41092512019605,36.08],[-24.400000000000162,36.0909357696868],[-24.370935769686966,36.12],[-24.37094731359097,36.16],[-24.370958870684095,36.199999999999996],[-24.370970440965703,36.239999999999995],[-24.360000000000163,36.25098113860089],[-24.33098113860106,36.279999999999994],[-24.330992734960397,36.31999999999999],[-24.331004344508887,36.35999999999999],[-24.331015967245502,36.39999999999999],[-24.320000000000164,36.41102671303283],[-24.291026713033006,36.43999999999999],[-24.29103836185143,36.47999999999999],[-24.291050023857448,36.51999999999999],[-24.280000000000165,36.53106080490217],[-24.251060804902348,36.55999999999999],[-24.251072492991177,36.59999999999999],[-24.251084194266156,36.639999999999986],[-24.251095908725524,36.679999999999986],[-24.240000000000165,36.691106737918034],[-24.211106737918215,36.719999999999985],[-24.211118478459046,36.759999999999984],[-24.21113023218159,36.79999999999998],[-24.21114199908365,36.839999999999975],[-24.200000000000166,36.85115287641544],[-24.171152876415626,36.87999999999998],[-24.17116466939458,36.91999999999998],[-24.171176475549117,36.95999999999998],[-24.17118829487659,36.99999999999997],[-24.16000000000017,37.011199220333],[-24.13119922033319,37.03999999999998],[-24.131211065729705,37.07999999999998],[-24.131222924293926,37.119999999999976],[-24.131234796022756,37.159999999999975],[-24.120000000000168,37.17124576958284],[-24.091245769583033,37.199999999999974],[-24.091257667369703,37.239999999999974],[-24.091269578314424,37.27999999999997],[-24.091281502413644,37.31999999999997],[-24.08000000000017,37.33129252405003],[-24.05129252405023,37.35999999999997],[-24.051304474192644,37.39999999999997],[-24.051316437481653,37.43999999999997],[-24.051328413913218,37.479999999999976],[-24.04000000000017,37.49133948359198]]}},{"type":"Feature","properties":{"magnitude":0.4,"percentagem":40.0,"territorio":"acores"},"geometry":{"type":"LineString","coordinates":[[-24.42180419543294,36.0],[-24.421827204725155,36.04],[-24.421850240391944,36.08],[-24.400000000000162,36.101871539373604],[-24.38187153937377,36.12],[-24.381894627181783,36.16],[-24.38191774136802,36.199999999999996],[-24.381940881931243,36.239999999999995],[-24.360000000000163,36.26196227720179],[-24.34196227720196,36.279999999999994],[-24.341985469920637,36.31999999999999],[-24.34200868901761,36.35999999999999],[-24.342031934490837,36.39999999999999],[-24.320000000000164,36.422053426065666],[-24.30205342606584,36.43999999999999],[-24.302076723702697,36.47999999999999],[-24.302100047714735,36.51999999999999],[-24.280000000000165,36.542121609804354],[-24.262121609804534,36.55999999999999],[-24.26214498598219,36.59999999999999],[-24.262168388532146,36.639999999999986],[-24.262191817450883,36.679999999999986],[-24.240000000000165,36.70221347583609],[-24.222213475836266,36.719999999999985],[-24.222236956917925,36.759999999999984],[-24.22226046436301,36.79999999999998],[-24.222283998167136,36.83999999999998],[-24.200000000000166,36.86230575283089],[-24.182305752831084,36.87999999999998],[-24.182329338788996,36.91999999999998],[-24.182352951098068,36.95999999999998],[-24.182376589753012,36.99999999999998],[-24.160000000000167,37.02239844066602],[-24.142398440666206,37.03999999999998],[-24.14242213145924,37.07999999999998],[-24.142445848587684,37.119999999999976],[-24.142469592045344,37.159999999999975],[-24.120000000000168,37.18249153916571],[-24.102491539165896,37.199999999999974],[-24.102515334739238,37.239999999999974],[-24.10253915662868,37.27999999999997],[-24.10256300482711,37.31999999999997],[-24.08000000000017,37.34258504810009],[-24.06258504810029,37.35999999999997],[-24.062608948385122,37.39999999999997],[-24.062632874963132,37.43999999999997],[-24.062656827826267,37.47999999999997],[-24.04000000000017,37.502678967183996]]}},{"type":"Feature","properties":{"magnitude":0.6,"percentagem":60.0,"territorio":"acores"},"geometry":{"type":"LineString","coordinates":[[-24.43270629314933,36.0],[-24.43274080708765,36.04],[-24.432775360587836,36.08],[-24.400000000000162,36.11280730906041],[-24.392807309060572,36.12],[-24.392841940772595,36.16],[-24.39287661205195,36.199999999999996],[-24.392911322896786,36.239999999999995],[-24.360000000000163,36.27294341580269],[-24.35294341580286,36.279999999999994],[-24.352978204880873,36.31999999999999],[-24.353013033526338,36.35999999999999],[-24.353047901736176,36.39999999999999],[-24.320000000000164,36.43308013909851],[-24.31308013909868,36.43999999999999],[-24.313115085553967,36.47999999999999],[-24.31315007157202,36.51999999999999],[-24.280000000000165,36.55318241470654],[-24.273182414706717,36.55999999999999],[-24.2732174789732,36.59999999999999],[-24.273252582798136,36.639999999999986],[-24.273287726176243,36.679999999999986],[-24.240000000000165,36.71332021375414],[-24.233320213754318,36.719999999999985],[-24.233355435376804,36.759999999999984],[-24.233390696544433,36.79999999999998],[-24.23342599725062,36.83999999999998],[-24.200000000000166,36.87345862924635],[-24.19345862924654,36.87999999999998],[-24.193494008183414,36.91999999999998],[-24.193529426647018,36.95999999999998],[-24.193564884629435,36.99999999999998],[-24.160000000000167,37.033597660999035],[-24.153597660999225,37.03999999999998],[-24.153633197188782,37.07999999999998],[-24.153668772881446,37.119999999999976],[-24.153704388067933,37.159999999999975],[-24.120000000000168,37.193737308748574],[-24.113737308748764,37.199999999999974],[-24.113773002108772,37.239999999999974],[-24.113808734942932,37.27999999999997],[-24.113844507240586,37.31999999999997],[-24.08000000000017,37.353877572150154],[-24.073877572150348,37.35999999999997],[-24.073913422577597,37.39999999999997],[-24.07394931244461,37.43999999999997],[-24.07398524173931,37.47999999999997],[-24.04000000000017,37.51401845077601]]}}]}