{"type":"FeatureCollection","features":[{"type":"Feature","properties":{"magnitude":0.2,"de":0.2,"ate":0.5,"percentagem":20.0},"geometry":{"type":"Polygon","coordinates":[[[-27.78422961121668,30.0],[-8.76581066279822,30.0],[-3.5399999999988268,34.907861872443135],[-3.5399999999988268,44.939999999999685],[-11.423410979835309,44.939999999999685],[-14.025805469410518,42.539999999999736],[-19.714327324055333,37.139999999999844],[-22.296075462456706,34.739999999999895],[-25.128686110798196,32.219999999999956],[-27.78422961121668,30.0]]]}},{"type":"Feature","properties":{"magnitude":0.5,"de":0.5,"ate":0.8,"percentagem":50.0},"geometry":{"type":"Polygon","coordinates":[[[-34.5,30.0],[-27.78422961121668,30.0],[-25.128686110798196,32.219999999999956],[-22.296075462456706,34.739999999999895],[-19.714327324055333,37.139999999999844],[-14.025805469410518,42.539999999999736],[-11.423410979835309,44.939999999999685],[-34.5,44.939999999999685],[-34.5,30.0]]]}}]}