{"type":"FeatureCollection","properties":{"largura_maxima_km":383.473,"largura_sobre_pt_km":360.745,"linha_central_sobre_pt":true,"desenhavel_como_area":true,"perfil_largura":[{"t":0.32222,"lat":46.9332,"lon":-39.7792,"largura_km":369.651,"eixo_na_terra":true},{"t":0.32778,"lat":46.8065,"lon":-39.5295,"largura_km":369.623,"eixo_na_terra":true},{"t":0.33333,"lat":46.6791,"lon":-39.2781,"largura_km":369.588,"eixo_na_terra":true},{"t":0.33889,"lat":46.5511,"lon":-39.025,"largura_km":369.548,"eixo_na_terra":true},{"t":0.34444,"lat":46.4223,"lon":-38.7701,"largura_km":369.501,"eixo_na_terra":true},{"t":0.35,"lat":46.2929,"lon":-38.5135,"largura_km":369.447,"eixo_na_terra":true},{"t":0.35556,"lat":46.1627,"lon":-38.2549,"largura_km":369.387,"eixo_na_terra":true},{"t":0.36111,"lat":46.0317,"lon":-37.9943,"largura_km":369.32,"eixo_na_terra":true},{"t":0.36667,"lat":45.9,"lon":-37.7317,"largura_km":369.246,"eixo_na_terra":true},{"t":0.37222,"lat":45.7675,"lon":-37.467,"largura_km":369.165,"eixo_na_terra":true},{"t":0.37778,"lat":45.6342,"lon":-37.2001,"largura_km":369.076,"eixo_na_terra":true},{"t":0.38333,"lat":45.5001,"lon":-36.9309,"largura_km":368.98,"eixo_na_terra":true},{"t":0.38889,"lat":45.365,"lon":-36.6593,"largura_km":368.875,"eixo_na_terra":true},{"t":0.39444,"lat":45.2291,"lon":-36.3853,"largura_km":368.763,"eixo_na_terra":true},{"t":0.4,"lat":45.0923,"lon":-36.1087,"largura_km":368.642,"eixo_na_terra":true},{"t":0.40556,"lat":44.9546,"lon":-35.8294,"largura_km":368.512,"eixo_na_terra":true},{"t":0.41111,"lat":44.8159,"lon":-35.5474,"largura_km":368.374,"eixo_na_terra":true},{"t":0.41667,"lat":44.6761,"lon":-35.2626,"largura_km":368.227,"eixo_na_terra":true},{"t":0.42222,"lat":44.5354,"lon":-34.9747,"largura_km":368.07,"eixo_na_terra":true},{"t":0.42778,"lat":44.3936,"lon":-34.6837,"largura_km":367.906,"eixo_na_terra":true},{"t":0.43333,"lat":44.2507,"lon":-34.3894,"largura_km":367.733,"eixo_na_terra":true},{"t":0.43889,"lat":44.1066,"lon":-34.0918,"largura_km":367.55,"eixo_na_terra":true},{"t":0.44444,"lat":43.9614,"lon":-33.7906,"largura_km":367.356,"eixo_na_terra":true},{"t":0.45,"lat":43.8149,"lon":-33.4857,"largura_km":367.152,"eixo_na_terra":true},{"t":0.45556,"lat":43.6671,"lon":-33.177,"largura_km":366.938,"eixo_na_terra":true},{"t":0.46111,"lat":43.5181,"lon":-32.8642,"largura_km":366.715,"eixo_na_terra":true},{"t":0.46667,"lat":43.3676,"lon":-32.5472,"largura_km":366.482,"eixo_na_terra":true},{"t":0.47222,"lat":43.2157,"lon":-32.2257,"largura_km":366.237,"eixo_na_terra":true},{"t":0.47778,"lat":43.0623,"lon":-31.8996,"largura_km":365.98,"eixo_na_terra":true},{"t":0.48333,"lat":42.9074,"lon":-31.5686,"largura_km":365.712,"eixo_na_terra":true},{"t":0.48889,"lat":42.7508,"lon":-31.2325,"largura_km":365.432,"eixo_na_terra":true},{"t":0.49444,"lat":42.5925,"lon":-30.8909,"largura_km":365.141,"eixo_na_terra":true},{"t":0.5,"lat":42.4324,"lon":-30.5436,"largura_km":364.837,"eixo_na_terra":true},{"t":0.50556,"lat":42.2705,"lon":-30.1903,"largura_km":364.523,"eixo_na_terra":true},{"t":0.51111,"lat":42.1065,"lon":-29.8306,"largura_km":364.202,"eixo_na_terra":true},{"t":0.51667,"lat":41.9405,"lon":-29.4641,"largura_km":363.869,"eixo_na_terra":true},{"t":0.52222,"lat":41.7723,"lon":-29.0905,"largura_km":363.525,"eixo_na_terra":true},{"t":0.52778,"lat":41.6017,"lon":-28.7092,"largura_km":363.178,"eixo_na_terra":true},{"t":0.53333,"lat":41.4286,"lon":-28.3197,"largura_km":362.824,"eixo_na_terra":true},{"t":0.53889,"lat":41.253,"lon":-27.9216,"largura_km":362.463,"eixo_na_terra":true},{"t":0.54444,"lat":41.0745,"lon":-27.5141,"largura_km":362.098,"eixo_na_terra":true},{"t":0.55,"lat":40.893,"lon":-27.0967,"largura_km":361.736,"eixo_na_terra":true},{"t":0.55556,"lat":40.7084,"lon":-26.6684,"largura_km":361.385,"eixo_na_terra":true},{"t":0.56111,"lat":40.5202,"lon":-26.2285,"largura_km":361.055,"eixo_na_terra":true},{"t":0.56667,"lat":40.3284,"lon":-25.7759,"largura_km":360.745,"eixo_na_terra":true},{"t":0.57222,"lat":40.1324,"lon":-25.3095,"largura_km":360.469,"eixo_na_terra":true},{"t":0.57778,"lat":39.9321,"lon":-24.828,"largura_km":360.272,"eixo_na_terra":true},{"t":0.58333,"lat":39.7269,"lon":-24.3299,"largura_km":360.163,"eixo_na_terra":true},{"t":0.58889,"lat":39.5164,"lon":-23.8133,"largura_km":360.208,"eixo_na_terra":true},{"t":0.59444,"lat":39.2999,"lon":-23.2762,"largura_km":360.482,"eixo_na_terra":true},{"t":0.6,"lat":39.0768,"lon":-22.716,"largura_km":361.134,"eixo_na_terra":true},{"t":0.60556,"lat":38.8462,"lon":-22.1295,"largura_km":362.412,"eixo_na_terra":true},{"t":0.61111,"lat":38.607,"lon":-21.513,"largura_km":364.899,"eixo_na_terra":true},{"t":0.61667,"lat":38.3578,"lon":-20.8616,"largura_km":369.988,"eixo_na_terra":true},{"t":0.62222,"lat":38.097,"lon":-20.1688,"largura_km":383.473,"eixo_na_terra":true},{"t":0.62778,"lat":37.4031,"lon":-17.4484,"largura_km":null,"eixo_na_terra":false},{"t":0.63333,"lat":37.1381,"lon":-16.8717,"largura_km":null,"eixo_na_terra":false},{"t":0.63889,"lat":36.8724,"lon":-16.2765,"largura_km":null,"eixo_na_terra":false},{"t":0.64444,"lat":36.663,"lon":-15.9896,"largura_km":null,"eixo_na_terra":false},{"t":0.65,"lat":36.4069,"lon":-15.6004,"largura_km":null,"eixo_na_terra":false},{"t":0.65556,"lat":36.2836,"lon":-15.6316,"largura_km":null,"eixo_na_terra":false},{"t":0.66111,"lat":36.0589,"lon":-15.3082,"largura_km":null,"eixo_na_terra":false},{"t":0.66667,"lat":35.8365,"lon":-15.0052,"largura_km":null,"eixo_na_terra":false},{"t":0.67222,"lat":35.6014,"lon":-14.6576,"largura_km":null,"eixo_na_terra":false},{"t":0.67778,"lat":35.3287,"lon":-14.1688,"largura_km":null,"eixo_na_terra":false},{"t":0.68333,"lat":35.1426,"lon":-13.9,"largura_km":null,"eixo_na_terra":false},{"t":0.68889,"lat":34.9145,"lon":-13.6034,"largura_km":null,"eixo_na_terra":false},{"t":0.69444,"lat":34.5343,"lon":-12.6857,"largura_km":null,"eixo_na_terra":false},{"t":0.7,"lat":34.1462,"lon":-11.7812,"largura_km":null,"eixo_na_terra":false}]},"features":[{"type":"Feature","properties":{},"geometry":{"type":"Polygon","coordinates":[[[-20.71377762642763,36.613299502842835],[-20.85898710954524,36.66092166495448],[-21.12648524187435,36.75433513234213],[-21.248862712901285,36.80013161082737],[-21.447895392551114,36.88027535245747],[-21.584797578891056,36.92564050971436],[-21.83686196146718,37.014855399018174],[-21.95233532332435,37.05878398459286],[-22.141829509922516,37.136597171633596],[-22.386750939132924,37.22043098237935],[-22.50307889890763,37.26313345607754],[-22.612794603894315,37.305502800605424],[-22.79426494739057,37.38137071367136],[-23.021067606792855,37.45980161131168],[-23.132155370990148,37.50107643901202],[-23.23697759014314,37.542119158374604],[-23.335509344609022,37.5829104496149],[-23.41154356319957,37.61631874600817],[-23.622872127017217,37.69009762135491],[-23.729446934747244,37.73014079382998],[-23.83004613587147,37.770037326031336],[-23.92463509030256,37.809765224133066],[-23.99858426199437,37.84278364955724],[-24.19651222212488,37.91250204492883],[-24.29914985025607,37.95146872162982],[-24.396058579072957,37.99036235153882],[-24.4871965381397,38.02915894584242],[-24.61983564645872,38.090766052174],[-25.57820473754819,38.46857466262233],[-26.12455378418133,38.68647618069949],[-27.560691034996097,39.27640239315007],[-28.877460888334923,39.83224291251636],[-29.674990870760524,40.176878315743274],[-30.846895328475853,40.69048763655257],[-31.565581279419945,41.01159651285903],[-32.25922107035478,41.32508339243771],[-33.6151390272276,41.946304827760095],[-34.247015123365685,42.24058589546597],[-34.862215788922725,42.529544612281924],[-36.04813569335198,43.09301631102965],[-36.90326670814119,43.50424334702215],[-37.76213539444973,43.920202926921974],[-38.8321395425063,44.44433099912196],[-40.3728223776302,45.20717948381968],[-41.36355766126681,45.70192454053862],[-42.32950201198773,46.186757974319015],[-36.966402994041005,47.59725299493878],[-35.90570389290133,47.05612650847845],[-34.80910611243627,46.50147161472624],[-33.67055268490617,45.931594509992266],[-32.78469714083417,45.49295613620114],[-31.86729817390409,45.04351271433054],[-30.91379608782583,44.58196950404699],[-29.888035521043122,44.09098730151289],[-29.197347096032644,43.76539735994661],[-28.115212715911753,43.26236741150135],[-27.358557975656623,42.91596798419459],[-26.569284893922344,42.55946749339005],[-25.742628058718623,42.191507606846955],[-24.83598541352336,41.79251599113893],[-24.38156119604247,41.59612521598705],[-23.42957281909321,41.19045297873138],[-22.36929319526712,40.74534941974892],[-21.82788858437209,40.52320118846805],[-20.626735991510685,40.03650553047803],[-19.29311001902542,39.511083636637174],[-18.58539603596782,39.24075017134547],[-17.7726145247388,38.931612907461414],[-16.886232990762096,38.60116079214703],[-15.846006693773916,38.216926298586664],[-14.658235787808934,37.78973892873239],[-13.864262037657532,37.51015508457737],[-13.257705180581638,37.33517871202525],[-12.94595379236253,37.243054734238214],[-12.307506405071734,37.05019605025683],[-11.97924299828128,36.94905830337209],[-11.298350862981977,36.73571273890236],[-10.321806470270662,36.4239828110034],[-9.079046675676892,36.06032745768277],[-9.078688891935384,36.027517828623836],[-8.73520958544506,35.91981681218706],[-8.307554711977673,35.7993241891334],[-8.728032994104577,35.42632818987966],[-8.74836460255338,35.190325536991736],[-8.946017415787356,35.23295954126352],[-9.068836283222387,35.1240099280887],[-9.066176914359602,34.88013941136017],[-9.28656133469404,34.930871360442694],[-9.304301762380428,34.91513426096968],[-8.880349008284412,34.03337754922187],[-10.360974540719889,34.40711395721669],[-10.396804515044813,34.330242376875525],[-10.378076868243387,34.210418456255475],[-10.29485104830502,34.191157538042354],[-10.336326885129953,33.94329217415949],[-10.274213633031252,33.54587687324937],[-10.397429609752512,33.57813380166582],[-10.430576624986088,33.38004263289254],[-10.791209805049984,33.484063765005274],[-10.804388582154417,33.45578929810796],[-11.814313813707713,33.73786747696059],[-12.44167978368722,33.91834915339124],[-12.925976387961185,34.06166842561104],[-13.325888304180268,34.18361031748642],[-13.559734747050634,34.257264642841506],[-14.195306004294935,34.44179087094513],[-14.525752406903166,34.540926075101865],[-14.822693019057425,34.63241572299533],[-15.09110887149916,34.717592254273],[-15.334586354256658,34.79741037250798],[-15.49320128178134,34.851306502235836],[-15.888796653587178,34.96994391668228],[-16.13186578518659,35.04551402825355],[-16.356529702280653,35.117518015598755],[-16.56417564534607,35.186320271771635],[-16.755925021879506,35.252211424243406],[-16.8861608809129,35.29878416673184],[-17.183572982791077,35.39009132268382],[-17.385762054263893,35.45462004998166],[-17.57456515616809,35.516946331427704],[-17.75058317822885,35.577222422043654],[-18.028422551043317,35.678035792671295],[-18.269102426484125,35.75335355865076],[-18.44642323001989,35.81115509050109],[-18.61286458088037,35.867440107086644],[-18.76873339480659,35.92228140808264],[-19.01757783513549,36.015471827086046],[-19.220277060887128,36.07996096859292],[-19.531274049660198,36.18517700965528],[-19.672889028462407,36.23617122070726],[-19.9007956661309,36.32387153478632],[-20.07585696892491,36.380395161230034],[-20.36243831564059,36.478991161371354],[-20.493297131534916,36.52708021804508],[-20.71377762642763,36.613299502842835]]]}}]}