{"type":"FeatureCollection","features":[{"type":"Feature","properties":{"t_inicio":0.32222222222220687,"t_fim":0.6611111111110946},"geometry":{"type":"LineString","coordinates":[[-39.77918408139999,46.93322796275613],[-39.52945743268603,46.80651786637873],[-39.278082082557404,46.67914428435119],[-39.02499879461362,46.55109130624122],[-38.77014594523479,46.42234232881688],[-38.51345937530749,46.292880014392374],[-38.25487223012183,46.162686245856065],[-37.99431478626295,46.031742078052346],[-37.73171426418139,45.90002768514952],[-37.46699462496463,45.7675223035816],[-37.200076349650345,45.634204170101256],[-36.930876199210616,45.50005045442145],[-36.65930695309612,45.36503718585761],[-36.38527712395046,45.22913917330389],[-36.108690645785,45.09232991778841],[-35.82944653253139,44.95458151674817],[-35.54743850345852,44.81586455904574],[-35.26255457143628,44.676148009608106],[-34.97467658944146,44.535399082406386],[-34.683679750010356,44.393583100302294],[-34.38943203153144,44.25066334006253],[-34.09179358431277,44.1066008605756],[-33.79061604822158,43.96135431199037],[-33.48574179234089,43.81487972312004],[-33.177003065470444,43.66713026400636],[-32.864221044358175,43.518055980000966],[-32.547204764206725,43.367603493070625],[-32.225749913162616,43.215715665247686],[-31.89963746904047,43.062331218188],[-31.568632152303337,42.90738430162792],[-31.232480664110227,42.75080400208676],[-30.890909671789785,42.592513781375544],[-30.54362349605185,42.432430832244094],[-30.19030144415558,42.27046533570473],[-29.830594720490325,42.10651960103879],[-29.46412282977701,41.940487064996454],[-29.090469367231293,41.77225112092894],[-28.709177063011907,41.60168374112007],[-28.31974191295575,41.42864384581908],[-27.92160618097057,41.25297535958783],[-27.5141499962225,41.07450487837836],[-27.096681184227748,40.893038847543195],[-26.668422856061085,40.708360119247544],[-26.228498120608492,40.52022371377059],[-25.775911060630534,40.32835154730353],[-25.309522792678194,40.13242580033844],[-24.828020963597027,39.93208047180865],[-24.329880341570174,39.72689047249301],[-23.813311103133742,39.51635731984348],[-23.276189769828846,39.299890042113255],[-22.71596510365768,39.07677917077446],[-22.129526885398178,38.846160491883865],[-21.51301794931817,38.60696314703586],[-20.861556262871403,38.35783293312799],[-20.168808092880226,38.09701456108116],[-19.42630134803167,37.82216233332834],[-18.622254958765694,37.53001754071233],[-17.739428054769405,37.21581602110172],[-16.750749029442375,36.872084786244635],[-15.60905215953062,36.4858178156126],[-14.216760647631105,36.03013805300799],[-12.284804014528163,35.42551858336515]]}}]}