{"type":"FeatureCollection","features":[{"type":"Feature","properties":{"magnitude":0.2,"de":0.2,"ate":0.5,"percentagem":20.0},"geometry":{"type":"Polygon","coordinates":[[[-34.5,30.0],[-3.5399999999988268,30.0],[-3.5399999999988268,37.975274581932254],[-5.279999999998893,38.155079392389446],[-7.079999999998961,38.29607515681731],[-8.87999999999903,38.393033546454475],[-10.7399999999991,38.44869176830143],[-12.59999999999917,38.4607321098203],[-14.45999999999924,38.43070270918223],[-16.379999999999313,38.3570966558092],[-18.299999999999386,38.24167135536856],[-20.21999999999946,38.085816714699035],[-22.199999999999534,37.88414399410705],[-26.219999999999686,37.35240708365616],[-30.299999999999837,36.65459255255721],[-34.5,35.78167234482956],[-34.5,30.0]]]}},{"type":"Feature","properties":{"magnitude":0.5,"de":0.5,"ate":0.8,"percentagem":50.0},"geometry":{"type":"Polygon","coordinates":[[[-34.5,44.939999999999685],[-34.5,35.78167234482956],[-32.03999999999991,36.311292818802485],[-29.639999999999816,36.7778099622763],[-25.919999999999675,37.39756490374931],[-22.019999999999527,37.90415954930048],[-18.17999999999938,38.2500840461484],[-16.25999999999931,38.36293727751327],[-14.399999999999238,38.43231315211345],[-12.539999999999168,38.46100840295093],[-10.679999999999097,38.44758583322328],[-8.87999999999903,38.393033546454475],[-7.079999999998961,38.29607515681731],[-5.279999999998893,38.155079392389446],[-3.5399999999988268,37.975274581932254],[-3.5399999999988268,44.939999999999685],[-34.5,44.939999999999685]]]}}]}