{"type":"FeatureCollection","features":[{"type":"Feature","properties":{"t_inicio":-0.0444444444444585,"t_fim":0.03888888888887454},"geometry":{"type":"LineString","coordinates":[[-39.73110879342414,48.37668235784476],[-39.391253787612754,48.476147022023525],[-39.06556011505802,48.57692000634199],[-38.752726917051916,48.67891566358217],[-38.45164480960733,48.782061419255754],[-38.161358745134635,48.88629524965061],[-37.881039660860836,48.991563756366794],[-37.60996249931378,49.097820673509865],[-37.34748893337064,49.20502569438606],[-37.09305362082904,49.31314353795155],[-36.846153145352275,49.42214319778325],[-36.60633702885019,49.531997331825444],[-36.373200360123406,49.64268176200547],[-36.14637769830955,49.75417506053259],[-35.92553799180058,49.866458205266156],[-35.71038031345461,49.97951429062481]]}}]}