{"type":"FeatureCollection","features":[{"type":"Feature","properties":{"magnitude":0.5,"de":0.5,"ate":0.8,"percentagem":50.0},"geometry":{"type":"Polygon","coordinates":[[[-34.5,30.0],[-3.5399999999988268,30.0],[-3.5399999999988268,44.939999999999685],[-9.55940372608947,44.939999999999685],[-10.760582320830736,43.55999999999971],[-11.936868412678226,42.29999999999974],[-13.13999999999919,41.10478324261447],[-14.339999999999236,40.00501936980011],[-15.53999999999928,38.99425299059812],[-16.79999999999933,38.024313851887605],[-18.06410739322893,37.139999999999844],[-19.393306882976756,36.29999999999987],[-21.05999999999949,35.36711193740192],[-22.799999999999557,34.523808170523424],[-24.595707081126704,33.779999999999916],[-26.399999999999693,33.14938387902299],[-28.319999999999766,32.59398631186321],[-30.299999999999837,32.13363911529254],[-32.33999999999992,31.76667571846025],[-34.5,31.484934283923323],[-34.5,30.0]]]}},{"type":"Feature","properties":{"magnitude":0.8,"de":0.8,"ate":0.95,"percentagem":80.0},"geometry":{"type":"Polygon","coordinates":[[[-34.5,31.499999999999968],[-32.759999999999934,31.70364057980176],[-30.77999999999986,32.03789917305652],[-28.91999999999979,32.44298330010116],[-27.179999999999723,32.91006089779769],[-25.439999999999657,33.47107592892538],[-23.819999999999595,34.08637394229112],[-22.200670340022146,34.7999999999999],[-20.658830400630716,35.579999999999885],[-19.19454211965247,36.41999999999986],[-17.708640664375267,37.37999999999984],[-16.297812983291887,38.39999999999982],[-14.939999999999259,39.48874691398238],[-13.591857885613338,40.67999999999977],[-12.230129877125396,41.999999999999744],[-10.919999999999106,43.38391016830604],[-9.55940372608947,44.939999999999685],[-34.5,44.939999999999685],[-34.5,31.499999999999968]]]}}]}