{"type":"FeatureCollection","properties":{"largura_maxima_km":358.387,"largura_sobre_pt_km":312.313,"linha_central_sobre_pt":false,"desenhavel_como_area":true,"perfil_largura":[{"t":0.3,"lat":49.9163,"lon":-14.886,"largura_km":320.712,"eixo_na_terra":true},{"t":0.30556,"lat":49.7418,"lon":-14.7068,"largura_km":320.787,"eixo_na_terra":true},{"t":0.31111,"lat":49.5666,"lon":-14.5248,"largura_km":320.847,"eixo_na_terra":true},{"t":0.31667,"lat":49.3908,"lon":-14.3398,"largura_km":320.892,"eixo_na_terra":true},{"t":0.32222,"lat":49.2142,"lon":-14.1518,"largura_km":320.92,"eixo_na_terra":true},{"t":0.32778,"lat":49.0369,"lon":-13.9607,"largura_km":320.934,"eixo_na_terra":true},{"t":0.33333,"lat":48.8588,"lon":-13.7662,"largura_km":320.93,"eixo_na_terra":true},{"t":0.33889,"lat":48.6799,"lon":-13.5684,"largura_km":320.909,"eixo_na_terra":true},{"t":0.34444,"lat":48.5001,"lon":-13.3669,"largura_km":320.868,"eixo_na_terra":true},{"t":0.35,"lat":48.3194,"lon":-13.1618,"largura_km":320.808,"eixo_na_terra":true},{"t":0.35556,"lat":48.1378,"lon":-12.9529,"largura_km":320.728,"eixo_na_terra":true},{"t":0.36111,"lat":47.9551,"lon":-12.7399,"largura_km":320.626,"eixo_na_terra":true},{"t":0.36667,"lat":47.7714,"lon":-12.5227,"largura_km":320.503,"eixo_na_terra":true},{"t":0.37222,"lat":47.5867,"lon":-12.3011,"largura_km":320.356,"eixo_na_terra":true},{"t":0.37778,"lat":47.4007,"lon":-12.075,"largura_km":320.186,"eixo_na_terra":true},{"t":0.38333,"lat":47.2135,"lon":-11.844,"largura_km":319.992,"eixo_na_terra":true},{"t":0.38889,"lat":47.0251,"lon":-11.6079,"largura_km":319.773,"eixo_na_terra":true},{"t":0.39444,"lat":46.8352,"lon":-11.3666,"largura_km":319.529,"eixo_na_terra":true},{"t":0.4,"lat":46.644,"lon":-11.1196,"largura_km":319.259,"eixo_na_terra":true},{"t":0.40556,"lat":46.4512,"lon":-10.8667,"largura_km":318.961,"eixo_na_terra":true},{"t":0.41111,"lat":46.2567,"lon":-10.6076,"largura_km":318.639,"eixo_na_terra":true},{"t":0.41667,"lat":46.0606,"lon":-10.3418,"largura_km":318.289,"eixo_na_terra":true},{"t":0.42222,"lat":45.8626,"lon":-10.069,"largura_km":317.91,"eixo_na_terra":true},{"t":0.42778,"lat":45.6626,"lon":-9.7887,"largura_km":317.502,"eixo_na_terra":true},{"t":0.43333,"lat":45.4605,"lon":-9.5004,"largura_km":317.065,"eixo_na_terra":true},{"t":0.43889,"lat":45.2562,"lon":-9.2036,"largura_km":316.6,"eixo_na_terra":true},{"t":0.44444,"lat":45.0494,"lon":-8.8975,"largura_km":316.108,"eixo_na_terra":true},{"t":0.45,"lat":44.84,"lon":-8.5816,"largura_km":315.594,"eixo_na_terra":true},{"t":0.45556,"lat":44.6277,"lon":-8.2551,"largura_km":315.067,"eixo_na_terra":true},{"t":0.46111,"lat":44.4123,"lon":-7.9169,"largura_km":314.533,"eixo_na_terra":true},{"t":0.46667,"lat":44.1935,"lon":-7.5661,"largura_km":313.996,"eixo_na_terra":true},{"t":0.47222,"lat":43.971,"lon":-7.2014,"largura_km":313.469,"eixo_na_terra":true},{"t":0.47778,"lat":43.7444,"lon":-6.8214,"largura_km":312.982,"eixo_na_terra":true},{"t":0.48333,"lat":43.5132,"lon":-6.4245,"largura_km":312.586,"eixo_na_terra":true},{"t":0.48889,"lat":43.2769,"lon":-6.0086,"largura_km":312.322,"eixo_na_terra":true},{"t":0.49444,"lat":43.0347,"lon":-5.5713,"largura_km":312.313,"eixo_na_terra":true},{"t":0.5,"lat":42.786,"lon":-5.1096,"largura_km":312.745,"eixo_na_terra":true},{"t":0.50556,"lat":42.5296,"lon":-4.6198,"largura_km":314.017,"eixo_na_terra":true},{"t":0.51111,"lat":42.2642,"lon":-4.097,"largura_km":317.032,"eixo_na_terra":true},{"t":0.51667,"lat":41.9881,"lon":-3.5348,"largura_km":324.528,"eixo_na_terra":true},{"t":0.52222,"lat":41.699,"lon":-2.9245,"largura_km":358.387,"eixo_na_terra":true},{"t":0.52778,"lat":41.0606,"lon":-0.7903,"largura_km":null,"eixo_na_terra":false},{"t":0.53333,"lat":40.8444,"lon":-0.6044,"largura_km":null,"eixo_na_terra":false},{"t":0.53889,"lat":40.5592,"lon":-0.0949,"largura_km":null,"eixo_na_terra":false},{"t":0.54444,"lat":40.3481,"lon":0.0128,"largura_km":null,"eixo_na_terra":false},{"t":0.55,"lat":40.1129,"lon":0.2486,"largura_km":null,"eixo_na_terra":false},{"t":0.55556,"lat":39.8353,"lon":0.7167,"largura_km":null,"eixo_na_terra":false},{"t":0.56111,"lat":39.6175,"lon":0.8655,"largura_km":null,"eixo_na_terra":false},{"t":0.56667,"lat":39.3613,"lon":1.1724,"largura_km":null,"eixo_na_terra":false},{"t":0.57222,"lat":39.1103,"lon":1.5336,"largura_km":null,"eixo_na_terra":false},{"t":0.57778,"lat":38.8013,"lon":2.0551,"largura_km":null,"eixo_na_terra":false},{"t":0.58333,"lat":38.522,"lon":2.4077,"largura_km":null,"eixo_na_terra":false}]},"features":[{"type":"Feature","properties":{},"geometry":{"type":"Polygon","coordinates":[[[-4.011401960995547,40.70193828148785],[-4.222520179599286,40.77770019886512],[-4.294670318816429,40.80606738186361],[-4.421350660202421,40.860488002671495],[-4.475912490504072,40.88652611638247],[-4.524639530437895,40.91176963100824],[-4.567542576070537,40.93620665119375],[-4.604630907467538,40.959823749328606],[-4.647783965204514,40.99282338580036],[-4.8361497645044835,41.061925783826766],[-4.965284112460608,41.115508411630415],[-5.021638527751918,41.14130606602822],[-5.117926221717312,41.19085263704864],[-5.1578600505752945,41.21457320269353],[-5.192320600444987,41.23757108857434],[-5.2321724174535955,41.269763300273546],[-5.402306074336309,41.33346473372249],[-5.46568205973486,41.359576789400485],[-5.576944670680717,41.41009324144488],[-5.624814310079103,41.434469128744446],[-5.667499109394015,41.45823609727989],[-5.704992118892051,41.48137742492767],[-5.737287173010117,41.503875476426074],[-5.774397354894779,41.53539639008349],[-5.929515748328413,41.59459809582929],[-6.044824890936468,41.64466592896747],[-6.095106870159924,41.668948577787816],[-6.180853299856068,41.71592892286576],[-6.216292707064383,41.73859123983666],[-6.246761846569854,41.76067680023704],[-6.28154396169914,41.791625820022425],[-6.424031957666983,41.84700011088552],[-6.481364162130632,41.871576397014096],[-6.581929600770678,41.91942788216947],[-6.625123335851157,41.94266835376759],[-6.663567658148139,41.965427671526534],[-6.69724724158155,41.98768677721639],[-6.726148597004993,42.00942598179462],[-6.750260105723953,42.030624993276746],[-6.769572050435897,42.051262945725114],[-6.779634202223295,42.065175870983985],[-6.861447681247199,42.079821005975475],[-7.332930304042918,42.3304200636189],[-7.78000097965446,42.574755643599026],[-8.181326465072743,42.802327205410315],[-8.589281468167542,43.03651415669676],[-8.957983301201068,43.25543259067483],[-9.334207402071172,43.481459577811975],[-9.676172043593851,43.69331073862931],[-10.345525071244992,44.11856259269495],[-10.655345451225315,44.32195393055891],[-10.95612627113627,44.52297259536797],[-11.248480313027699,44.72178501571345],[-11.826252202627586,45.12334823795081],[-12.096114341315541,45.31631972293907],[-12.359451300962121,45.50760286074058],[-12.616627383007625,45.69729732597103],[-12.867975060201502,45.885494230651204],[-13.113798740493166,46.07227713477624],[-13.35437797761179,46.25772290860894],[-13.834331738945139,46.634504214551036],[-14.060462473693178,46.816311998336516],[-14.499961385912968,47.17673651997839],[-14.713695292258905,47.35545493455479],[-15.12995664254845,47.71013409370589],[-15.532255564295468,48.061410716678196],[-15.921645130291893,48.4095810582603],[-16.29905866815662,48.75490910750238],[-16.6760872027333,49.10699933517162],[-17.03174643790669,49.447308569344116],[-17.377689680411436,49.78542199311094],[-12.223027611056352,49.97613280845286],[-11.840523490996759,49.61280868577852],[-11.64383994726532,49.429836778341446],[-11.2388576520772,49.06105223468447],[-11.030225813670256,48.875142220053235],[-10.817257690106914,48.68814976536818],[-10.59975415287633,48.50001710195228],[-10.377500464623466,48.31068211025604],[-10.150264525371426,48.12007783038067],[-9.917794856555304,47.92813189964855],[-9.679818273344495,47.73476590345895],[-9.43603718428551,47.539894622489776],[-9.186126442681172,47.34342515524919],[-8.929729655310439,47.145255889760485],[-8.654713588203066,46.93525635119226],[-8.383855943392263,46.73329147998627],[-8.105190843017084,46.5292519365131],[-7.818182261042239,46.322986081090974],[-7.522230467046256,46.11432453466087],[-7.216660925082948,45.903077092834785],[-6.900710574476562,45.68902891333547],[-6.573510696086913,45.47193575599311],[-6.234065264371026,45.25151797044966],[-5.881223240825676,45.027452803512475],[-5.51364259824166,44.7993644135781],[-5.129742843747209,44.5668106966569],[-4.71197468982777,44.3182857237075],[-4.288684541468427,44.07494930666231],[-3.8420354681769027,43.825184064908996],[-3.368524572233497,43.5680144545589],[-2.863680175490515,43.30219629235977],[-2.302490191088225,43.01413852485925],[-1.7137785200020232,42.72517443543727],[-1.0472376823791762,42.407912581983034],[-0.3036869735512937,42.06925138436183],[0.5471814513136337,41.70082073742457],[1.5627008336429355,41.286790566004804],[2.9376018288366197,40.75852452256425],[4.679607771528996,40.16479245818101],[5.765634145984052,39.85402447144468],[5.628153819592329,39.653174435912696],[5.694507412882103,39.63507651652523],[5.584963876317914,39.59007666862507],[5.45369327001967,39.39829864022424],[5.240933921401705,39.44875116344335],[4.932104629344844,39.32188588589657],[4.992184331572616,39.30612162823575],[4.556124376658413,38.902293345041315],[4.557882925389691,38.84926453097757],[4.51124867092691,38.86073465798816],[4.446091146147053,38.80039329650216],[4.633596689774805,38.7524823098406],[4.430902458920183,38.681036405100336],[4.433854475415501,38.666183733835055],[4.407445078151664,38.67276811949212],[4.247341938741526,38.616334773566656],[4.229280461196855,38.59960832256692],[4.669502036784593,38.48727863291162],[3.933357679286747,38.27997339827261],[3.92027371587875,38.24248175802682],[3.8576371093466735,38.2586497674405],[3.343182829053717,38.11377456164571],[3.3182384125245385,38.120474654017144],[3.225242755910074,38.05991771190858],[2.724564288147377,38.20109993825561],[2.367647567902054,38.30483017709481],[2.085260762710192,38.38949310667271],[1.8523061377279646,38.461747552832264],[1.6562734469248426,38.5249061823722],[1.4898748242337945,38.580892465695584],[1.3484497852370794,38.6309302821915],[1.2288317966734894,38.67584515222765],[1.1287809228371657,38.71621503568839],[1.0875795353667705,38.73439894803693],[0.7843006671825492,38.823724842465175],[0.5903341240477573,38.882684763576236],[0.41600647914680167,38.93719522188925],[0.1183436796927424,39.03493960422856],[-0.007839806443996622,39.07891014693758],[-0.21989522369190695,39.15831197258288],[-0.30718846148741363,39.19409296164679],[-0.38271758091204333,39.22743274973039],[-0.4725752299984403,39.27229180211125],[-0.7842766881499301,39.36994039326517],[-0.9128104173701672,39.41233253342587],[-1.1375153560646822,39.49082089085597],[-1.2345448634143565,39.52712465504916],[-1.399614062023204,39.59423070003924],[-1.468165039619464,39.62514087521195],[-1.5276682397374088,39.654341490493394],[-1.5981070408409441,39.69409581904421],[-1.8312296953208431,39.76983014831984],[-1.9382298979491566,39.806544323632934],[-2.126792961923911,39.875543840555345],[-2.208732000361209,39.90790836073697],[-2.348677416255015,39.96850570915604],[-2.406923211265621,39.996774111346426],[-2.4574823299324464,40.02370323010112],[-2.5171988929629077,40.060781342887864],[-2.7040899954422457,40.12325835608188],[-2.7979550328543894,40.15652184787153],[-2.8845494354416132,40.18864169474929],[-3.0363096723742444,40.249511528387096],[-3.101636712229606,40.278280934990526],[-3.160018431165838,40.30594633911731],[-3.211511101977635,40.3325080355403],[-3.2561631377619733,40.35796308306123],[-3.308683441936522,40.393261299911416],[-3.464465972915093,40.44664869763182],[-3.54925914628609,40.477538068489494],[-3.6275892449261846,40.50750607022428],[-3.765047283299083,40.564686491906855],[-3.8242540616688814,40.59189628199697],[-3.877156812942644,40.61817983647103],[-3.9237831776171674,40.643529790394474],[-3.964157001949701,40.66793663393737],[-4.011401960995547,40.70193828148785]]]}}]}