{"type":"FeatureCollection","features":[{"type":"Feature","properties":{"magnitude":0.95,"percentagem":95.0,"territorio":"continente"},"geometry":{"type":"LineString","coordinates":[[-10.5,39.477501199181106],[-10.46,39.456129864497925],[-10.429771943192973,39.43999999999993],[-10.420000000000002,39.434794052981744],[-10.380000000000003,39.413511504727374],[-10.354573056568261,39.39999999999993],[-10.340000000000003,39.392268589599965],[-10.300000000000004,39.37107466529972],[-10.279071598920984,39.35999999999993],[-10.260000000000005,39.34992418040723],[-10.220000000000006,39.328818715971956],[-10.20326484000459,39.31999999999993],[-10.180000000000007,39.307760195418965],[-10.140000000000008,39.28674302517546],[-10.127150020280775,39.27999999999993],[-10.100000000000009,39.26577600336248],[-10.06000000000001,39.24484696008378],[-10.050724350544062,39.23999999999993],[-10.02000000000001,39.223970971744066],[-9.980000000000011,39.203129886679626],[-9.97398501154033,39.19999999999993],[-9.940000000000012,39.18234446691541],[-9.900000000000013,39.16159116982056],[-9.896929153580018,39.15999999999993],[-9.860000000000014,39.14089585413892],[-9.820000000000014,39.12023017330464],[-9.819553896143937,39.11999999999993],[-9.780000000000015,39.09962449765246],[-9.741853876915648,39.079999999999934],[-9.740000000000016,39.07904779663397],[-9.700000000000017,39.05852976073304],[-9.663828430625212,39.039999999999935],[-9.660000000000018,39.0380419482326],[-9.620000000000019,39.01761100575976],[-9.585475176404103,38.999999999999936],[-9.58000000000002,38.99721161975257],[-9.54000000000002,38.97686759427595],[-9.506791113616497,38.95999999999994],[-9.500000000000021,38.95655617329388],[-9.460000000000022,38.93629888705031],[-9.427773208846894,38.91999999999994],[-9.420000000000023,38.91607497021456],[-9.380000000000024,38.89590424413761],[-9.348418395469496,38.87999999999994],[-9.340000000000025,38.87576737119047],[-9.300000000000026,38.855683024937974],[-9.268723573210732,38.83999999999994],[-9.260000000000026,38.835632736274356],[-9.220000000000027,38.815634588255875],[-9.188685607704453,38.79999999999994],[-9.180000000000028,38.79567042495415],[-9.140000000000029,38.77575829235832],[-9.108301330039966,38.75999999999994],[-9.10000000000003,38.75587979621041],[-9.06000000000003,38.73605349503153],[-9.027567536303224,38.71999999999994],[-9.020000000000032,38.716260208572855],[-8.980000000000032,38.69651955363786],[-8.946480987109432,38.67999999999994],[-8.940000000000033,38.67681102017649],[-8.900000000000034,38.657155825171],[-8.865038407129655,38.639999999999944],[-8.860000000000035,38.63753158881624],[-8.820000000000036,38.617961666311],[-8.783236484607704,38.599999999999945],[-8.780000000000037,38.59842127200175],[-8.740000000000038,38.578936433478106],[-8.701071870871235,38.559999999999945],[-8.700000000000038,38.55947942701031],[-8.66000000000004,38.540079482886085],[-8.62000000000004,38.52070653217751],[-8.618539180446433,38.519999999999946],[-8.580000000000041,38.50139017059467],[-8.540000000000042,38.48210191266645],[-8.535634997561871,38.47999999999995],[-8.500000000000043,38.46286785256112],[-8.460000000000043,38.44366409506269],[-8.45235731608781,38.43999999999995],[-8.420000000000044,38.424511884691235],[-8.380000000000045,38.40539243429297],[-8.368702625577649,38.39999999999995],[-8.340000000000046,38.38632162288944],[-8.300000000000047,38.367286285307166],[-8.284667375948686,38.35999999999995],[-8.260000000000048,38.34829642310817],[-8.220000000000049,38.32934500312741],[-8.20024797693878,38.31999999999995],[-8.18000000000005,38.310435641396495],[-8.14000000000005,38.29156794289638],[-8.115440797553948,38.27999999999995],[-8.100000000000051,38.272738633947924],[-8.060000000000052,38.253954459924934],[-8.030242165506609,38.23999999999995],[-8.020000000000053,38.235204757147685],[-7.980000000000054,38.216503909739075],[-7.94464836664403,38.19999999999995],[-7.940000000000055,38.19783336761905],[-7.900000000000056,38.17921564812606],[-7.860000000000056,38.16062480389056],[-7.858653755452185,38.159999999999954],[-7.820000000000057,38.14208903117966],[-7.780000000000058,38.123581097979056],[-7.772249294971855,38.119999999999955],[-7.740000000000059,38.10512341534512],[-7.700000000000061,38.08669819224532],[-7.685437645507081,38.079999999999956],[-7.6600000000000605,38.06831815746291],[-7.620000000000061,38.04997544277052],[-7.5982149090501885,38.03999999999996],[-7.580000000000062,38.031672614812074],[-7.540000000000063,38.01341220609672],[-7.51057714255082,37.99999999999996],[-7.500000000000064,37.995186145152786],[-7.460000000000065,37.97700783926878],[-7.422520357281593,37.959999999999965],[-7.420000000000066,37.95885810676817],[-7.3800000000000665,37.940761699876305],[-7.340000000000067,37.9226920590284],[-7.3340319991160206,37.91999999999996],[-7.300000000000068,37.9046731460942],[-7.260000000000069,37.88668517846131],[-7.245112233984109,37.87999999999996],[-7.22000000000007,37.86874153672319],[-7.180000000000071,37.85083503656509],[-7.155760513902626,37.83999999999996],[-7.140000000000072,37.83296623122919],[-7.1000000000000725,37.81514099218375],[-7.065972649248391,37.79999999999996],[-7.060000000000073,37.797346589782194],[-7.020000000000074,37.77960240488595],[-6.980000000000075,37.76188490083938],[-6.975738244323634,37.75999999999996],[-6.940000000000076,37.74421863500294],[-6.900000000000077,37.72658195380933],[-6.885049823643513,37.71999999999996],[-6.860000000000078,37.708989043665774],[-6.820000000000078,37.69143297667768],[-6.7939116530116985,37.679999999999964],[-6.780000000000079,37.67391299284213],[-6.74000000000008,37.656437330878965],[-6.702319329190128,37.639999999999965],[-6.700000000000081,37.63898984537211],[-6.660000000000082,37.6215943787397],[-6.620000000000083,37.60422549707313],[-6.610254145387003,37.599999999999966],[-6.580000000000084,37.58690348351345],[-6.540000000000084,37.56961456090221],[-6.517721679208639,37.55999999999997],[-6.500000000000085,37.552364009415335],[-6.460000000000086,37.535154834688186],[-6.424720742095863,37.51999999999997],[-6.420000000000087,37.517975321655854],[-6.380000000000088,37.5008456831928],[-6.340000000000089,37.483742551555736],[-6.331233762896989,37.47999999999997],[-6.3000000000000895,37.46668647222495],[-6.26000000000009,37.44966263700734],[-6.23726121681083,37.43999999999997],[-6.220000000000091,37.43267656867289],[-6.180000000000092,37.415731816930624],[-6.142805306758995,37.39999999999997],[-6.140000000000093,37.39881534053603],[-6.100000000000094,37.38194945893876],[-6.060000000000095,37.36511000030033],[-6.0478431006134645,37.35999999999997],[-6.0200000000000955,37.348314931804836],[-5.980000000000096,37.331554100193856],[-5.952382804538986,37.31999999999997],[-5.940000000000097,37.31482760549226],[-5.900000000000098,37.298145186401584],[-5.860000000000098,37.28148913146936],[-5.856418272790708,37.27999999999997],[-5.8200000000001,37.264882629780516],[-5.780000000000101,37.24830474201385],[-5.759930421657421,37.239999999999974],[-5.7400000000001015,37.23176580245377],[-5.700000000000102,37.21526586626943],[-5.6629327231903055,37.199999999999974],[-5.660000000000103,37.19879407783891],[-5.620000000000104,37.1823718773682],[-5.580000000000105,37.165975948032894],[-5.565397907299193,37.15999999999998],[-5.540000000000106,37.14962214978093]]}},{"type":"Feature","properties":{"magnitude":0.99,"percentagem":99.0,"territorio":"continente"},"geometry":{"type":"LineString","coordinates":[[-10.138542021609933,42.95999999999985],[-10.100000000000009,42.93640233045135],[-10.073179415762857,42.91999999999985],[-10.06000000000001,42.911954784674336],[-10.02000000000001,42.8875657694514],[-10.007576973018782,42.87999999999985],[-9.980000000000011,42.86323604190198],[-9.941732205858298,42.839999999999854],[-9.940000000000012,42.83895013571348],[-9.900000000000013,42.81473565512639],[-9.875629802701642,42.799999999999855],[-9.860000000000014,42.79056658458944],[-9.820000000000014,42.76645290203122],[-9.809283144601274,42.75999999999986],[-9.780000000000015,42.74240008359301],[-9.742686639710964,42.71999999999986],[-9.740000000000016,42.71839009387617],[-9.700000000000017,42.694449906529165],[-9.67582819332028,42.67999999999986],[-9.660000000000018,42.67055518917296],[-9.620000000000019,42.6467153239679],[-9.608719073487404,42.63999999999986],[-9.58000000000002,42.62293529548903],[-9.541355293902374,42.59999999999986],[-9.54000000000002,42.59919711262332],[-9.500000000000021,42.57552967995786],[-9.473722228492026,42.55999999999986],[-9.460000000000022,42.55190520964709],[-9.420000000000023,42.528337606756],[-9.405831882241461,42.51999999999986],[-9.380000000000024,42.50482626597326],[-9.340000000000025,42.481358337209],[-9.337681925253356,42.47999999999986],[-9.300000000000026,42.457959542768315],[-9.269258103631465,42.43999999999986],[-9.260000000000026,42.4346012316022],[-9.220000000000027,42.411304298511176],[-9.200567230723756,42.399999999999864],[-9.180000000000028,42.38805756231538],[-9.140000000000029,42.36485978909534],[-9.131609872590957,42.359999999999864],[-9.10000000000003,42.34172404565531],[-9.062380521203659,42.319999999999865],[-9.06000000000003,42.31862782616094],[-9.020000000000032,42.295599935074236],[-8.992869267894003,42.279999999999866],[-8.980000000000032,42.27261374165975],[-8.940000000000033,42.24968448169598],[-8.92308445039184,42.23999999999987],[-8.900000000000034,42.226807733465144],[-8.860000000000035,42.20397693441381],[-8.85302356551385,42.19999999999986],[-8.820000000000036,42.18120905064987],[-8.782680581653057,42.15999999999987],[-8.780000000000037,42.15847936155056],[-8.740000000000038,42.13581694020617],[-8.712047667306797,42.11999999999987],[-8.700000000000038,42.11319515554893],[-8.66000000000004,42.09063064714044],[-8.641131317191666,42.07999999999987],[-8.62000000000004,42.06811618798828],[-8.580000000000041,42.04564941456678],[-8.56992892167966,42.03999999999988],[-8.540000000000042,42.023241702343824],[-8.500000000000043,42.00087248379916],[-8.498437842216699,41.99999999999987],[-8.460000000000043,41.97857094034094],[-8.426646625457941,41.95999999999987],[-8.420000000000044,41.956305908118495],[-8.380000000000045,41.93410314204541],[-8.354559634817605,41.919999999999874],[-8.340000000000046,41.911943327915985],[-8.300000000000047,41.88983754595253],[-8.28217620571778,41.879999999999875],[-8.260000000000048,41.867782374083234],[-8.220000000000049,41.845773389074836],[-8.2094935864655,41.839999999999876],[-8.18000000000005,41.82382228421183],[-8.14000000000005,41.80190990702899],[-8.13650899458553,41.79999999999988],[-8.100000000000051,41.78006229454396],[-8.063215314659512,41.75999999999988],[-8.060000000000052,41.75824954324023],[-8.020000000000053,41.736501640056964],[-7.989609715797045,41.71999999999988],[-7.980000000000054,41.714791441184616],[-7.940000000000055,41.693139554547145],[-7.9156939795825885,41.67999999999988],[-7.900000000000055,41.671531336314565],[-7.860000000000056,41.64997527071209],[-7.841465203189577,41.63999999999988],[-7.820000000000057,41.62846846210711],[-7.780000000000057,41.60700802023189],[-7.7669204510072785,41.59999999999988],[-7.740000000000059,41.5856020510646],[-7.70000000000006,41.56423703384946],[-7.692056754198568,41.55999999999988],[-7.6600000000000605,41.542931334794226],[-7.620000000000061,41.52166154144934],[-7.6168711102511395,41.51999999999988],[-7.580000000000062,41.50045554408624],[-7.541358632638861,41.47999999999988],[-7.540000000000063,41.479282077074615],[-7.500000000000064,41.4581739089911],[-7.465514271519535,41.439999999999884],[-7.460000000000065,41.43709922061444],[-7.420000000000066,41.41608565889541],[-7.38933917128673,41.399999999999885],[-7.3800000000000665,41.39510918422625],[-7.340000000000067,41.3741900225969],[-7.312830197831365,41.359999999999886],[-7.300000000000068,41.35331119774888],[-7.260000000000069,41.33248622837834],[-7.235984181135565,41.31999999999989],[-7.22000000000007,41.31170449054376],[-7.180000000000071,41.29097350408013],[-7.158797914778943,41.27999999999989],[-7.140000000000072,41.27028829156706],[-7.1000000000000725,41.249651077171976],[-7.0812681554360335,41.23999999999989],[-7.060000000000073,41.22906182944073],[-7.020000000000074,41.208518174823446],[-7.003391622366372,41.19999999999989],[-6.980000000000075,41.188024332522204],[-6.940000000000076,41.16757402397365],[-6.925164996894569,41.15999999999989],[-6.900000000000077,41.14717502897331],[-6.860000000000078,41.12681785139933],[-6.846584921883164,41.11999999999989],[-6.820000000000078,41.10651314682775],[-6.780000000000078,41.08624888378252],[-6.767648001194954,41.07999999999989],[-6.74000000000008,41.06603791405809],[-6.700000000000081,41.04586634777676],[-6.688350799146998,41.03999999999989],[-6.660000000000082,41.02574855864117],[-6.620000000000083,41.005669470072355],[-6.608689839955265,40.99999999999989],[-6.580000000000084,40.98564430862282],[-6.540000000000084,40.96565747746077],[-6.528661607169278,40.959999999999894],[-6.500000000000085,40.94572439218128],[-6.460000000000087,40.925829596897536],[-6.44826254309776,40.919999999999895],[-6.420000000000087,40.90598803768997],[-6.380000000000088,40.88618505556483],[-6.367489048223323,40.879999999999896],[-6.340000000000089,40.86643447377888],[-6.3000000000000895,40.8467230809324],[-6.286337480608162,40.83999999999989],[-6.26000000000009,40.82706292939505],[-6.220000000000091,40.8074429008179],[-6.204804155288466,40.7999999999999],[-6.180000000000092,40.78787263386226],[-6.140000000000093,40.76834374344598],[-6.122885343658995,40.7599999999999],[-6.100000000000094,40.74886281693949],[-6.060000000000095,40.72942483750658],[-6.04057727284636,40.7199999999999],[-6.0200000000000955,40.71003270887849],[-5.980000000000096,40.690685412212034],[-5.9578761250718575,40.6799999999999],[-5.940000000000097,40.671381540480326],[-5.900000000000098,40.652124697353514],[-5.874778037002308,40.6399999999999],[-5.860000000000099,40.632908543151196],[-5.8200000000001,40.61374192335602],[-5.791279099090844,40.5999999999999],[-5.780000000000101,40.59461294895677],[-5.7400000000001015,40.575536321333225],[-5.707375354903843,40.5599999999999],[-5.700000000000102,40.55649399067637],[-5.660000000000103,40.53750712314021],[-5.623062800438766,40.519999999999904],[-5.620000000000104,40.51855090185526],[-5.580000000000105,40.4996535614264],[-5.540000000000106,40.480784295838745]]}},{"type":"Feature","properties":{"magnitude":0.8,"percentagem":80.0,"territorio":"acores"},"geometry":{"type":"LineString","coordinates":[[-30.073820074127205,40.479999999999905],[-30.040000000000042,40.45087332851564],[-30.02736792576595,40.439999999999905],[-30.000000000000043,40.41646615399749],[-29.980841089997643,40.399999999999906],[-29.960000000000043,40.382106131410495],[-29.934239175009218,40.35999999999991],[-29.920000000000044,40.347793265244974],[-29.887561787720742,40.31999999999991],[-29.880000000000045,40.313527558895935],[-29.84080853377861,40.27999999999991],[-29.840000000000046,40.27930901467044],[-29.800000000000047,40.24514410641968],[-29.793974033286577,40.23999999999991],[-29.760000000000048,40.211027291235304],[-29.74706212548012,40.19999999999991],[-29.720000000000045,40.17695769753707],[-29.700073079896057,40.15999999999991],[-29.68000000000005,40.14293532323917],[-29.653006496409176,40.11999999999991],[-29.64000000000005,40.10896016520282],[-29.605861973583355,40.07999999999991],[-29.60000000000005,40.07503221924373],[-29.560000000000052,40.041152931863],[-29.558637973033687,40.03999999999991],[-29.520000000000053,40.00732716718573],[-29.51133025864274,39.999999999999915],[-29.480000000000057,39.973548654382434],[-29.463943309095107,39.95999999999991],[-29.440000000000055,39.939817385030224],[-29.416476717015357,39.919999999999916],[-29.400000000000055,39.90613334969629],[-29.368930073679174,39.87999999999992],[-29.360000000000056,39.872496537945636],[-29.321302969006005,39.83999999999992],[-29.320000000000057,39.838906938348956],[-29.280000000000058,39.80537130502512],[-29.27358959639814,39.79999999999992],[-29.24000000000006,39.77188429497966],[-29.225793755320943,39.75999999999992],[-29.20000000000006,39.738444514854066],[-29.17791612692492,39.71999999999992],[-29.16000000000006,39.70505194916592],[-29.12995629498667,39.67999999999992],[-29.12000000000006,39.67170658147433],[-29.08191384188727,39.63999999999992],[-29.080000000000062,39.638408394387994],[-29.040000000000063,39.60516387725656],[-29.033783074823837,39.59999999999992],[-29.000000000000064,39.571968569211506],[-28.98556713424628,39.559999999999924],[-28.960000000000065,39.53882044134686],[-28.937267220245754,39.519999999999925],[-28.920000000000066,39.50571947237829],[-28.88888290888335,39.479999999999926],[-28.880000000000067,39.47266564010744],[-28.840413774784658,39.43999999999993],[-28.840000000000067,39.4396589214295],[-28.800000000000068,39.40670774757301],[-28.791852425163675,39.39999999999993],[-28.76000000000007,39.37380412583961],[-28.743204950337862,39.35999999999993],[-28.72000000000007,39.34094759973449],[-28.6944712734767,39.31999999999993],[-28.68000000000007,39.30813814242206],[-28.64565096270395,39.27999999999993],[-28.64000000000007,39.275375726197026],[-28.600000000000072,39.242663680910326],[-28.59674078018896,39.239999999999924],[-28.560000000000073,39.210004513714985],[-28.547738138893074,39.19999999999993],[-28.520000000000074,39.1773923554976],[-28.49864746174854,39.15999999999993],[-28.480000000000075,39.14482717495638],[-28.449468310225356,39.11999999999993],[-28.440000000000076,39.1123089399567],[-28.40020024428227,39.079999999999934],[-28.400000000000077,39.079837617538566],[-28.360000000000078,39.04742253196606],[-28.350834874565525,39.039999999999935],[-28.32000000000008,39.015054551152275],[-28.30137943180589,38.999999999999936],[-28.28000000000008,38.98273343447932],[-28.25183364422321,38.95999999999994],[-28.24000000000008,38.95045914555489],[-28.202197064931788,38.91999999999994],[-28.20000000000008,38.91823164719824],[-28.160000000000082,38.88605853995565],[-28.15246266767032,38.87999999999994],[-28.12000000000008,38.85393443419804],[-28.102634560348367,38.83999999999994],[-28.080000000000084,38.82185705742452],[-28.052714207080143,38.79999999999994],[-28.040000000000084,38.78982636915734],[-28.002701153975966,38.75999999999994],[-28.000000000000085,38.75784232816698],[-27.960000000000086,38.72591234606743],[-27.95258843649763,38.71999999999994],[-27.920000000000087,38.69403170482958],[-27.902379628909234,38.67999999999994],[-27.880000000000088,38.66219763659813],[-27.85207664285495,38.639999999999944],[-27.84000000000009,38.63041009698201],[-27.801679017277817,38.599999999999945],[-27.80000000000009,38.59866904087491],[-27.76000000000009,38.56698322452134],[-27.751178493292198,38.559999999999945],[-27.72000000000009,38.53534553277278],[-27.700580809759526,38.519999999999946],[-27.680000000000092,38.50375423803378],[-27.64988698311045,38.47999999999995],[-27.640000000000093,38.47220929217171],[-27.600000000000094,38.440711543238784],[-27.599095741859724,38.43999999999994],[-27.560000000000095,38.40926993231493],[-27.548198529885667,38.39999999999995],[-27.520000000000095,38.377874574238696],[-27.497203651462865,38.35999999999995],[-27.480000000000096,38.34652541795755],[-27.446110632389974,38.31999999999995],[-27.440000000000097,38.315222411768545],[-27.400000000000098,38.283970506198465],[-27.39491445187936,38.27999999999995],[-27.3600000000001,38.25277072625268],[-27.343613602971324,38.23999999999995],[-27.3200000000001,38.22161698895839],[-27.292213064068495,38.19999999999995],[-27.2800000000001,38.19050923982695],[-27.240712353328647,38.159999999999954],[-27.2400000000001,38.15944742375496],[-27.200000000000102,38.128442117459485],[-27.18910118627669,38.119999999999955],[-27.160000000000103,38.097483380029416],[-27.137388119005685,38.079999999999956],[-27.120000000000104,38.06657045726415],[-27.08557330392999,38.03999999999996],[-27.080000000000105,38.03570329140803],[-27.040000000000106,38.00488797897814],[-27.033650513714896,37.99999999999996],[-27.000000000000107,37.97412377516312],[-26.98161983863411,37.95999999999996],[-26.960000000000107,37.94340520133244],[-26.929485818726402,37.91999999999996],[-26.92000000000011,37.91273219718268],[-26.880000000000113,37.88210735468242],[-26.877245456918818,37.87999999999996],[-26.840000000000114,37.851537172508216],[-26.824892022377817,37.83999999999996],[-26.80000000000011,37.82101242484018],[-26.77243362454947,37.79999999999996],[-26.76000000000011,37.79053304893095],[-26.720000000000113,37.76009910622718],[-26.71986964232801,37.75999999999996],[-26.68000000000011,37.72972238939316],[-26.667188223136456,37.71999999999996],[-26.640000000000114,37.699390901172606],[-26.614400200366607,37.679999999999964],[-26.600000000000115,37.669104576477096],[-26.56150506543382,37.639999999999965],[-26.560000000000116,37.63886334972144],[-26.520000000000117,37.608678067349395],[-26.508491742673474,37.599999999999966],[-26.480000000000118,37.57853922931055],[-26.455368772642732,37.55999999999997],[-26.44000000000012,37.548445336631346],[-26.402137021389994,37.51999999999997],[-26.40000000000012,37.51839632151459],[-26.36000000000012,37.48840267712763],[-26.34878562690782,37.47999999999997],[-26.32000000000012,37.45845583884127],[-26.295322310603254,37.43999999999997],[-26.280000000000122,37.42855371819477],[-26.24174852126063,37.39999999999997],[-26.240000000000123,37.39869624527981],[-26.200000000000124,37.368894523703325],[-26.188052661104596,37.35999999999997],[-26.160000000000124,37.33913899495671],[-26.13424352139576,37.31999999999997],[-26.120000000000125,37.3094279469501],[-26.080322193657665,37.27999999999997],[-26.080000000000126,37.27976130776371],[-26.040000000000127,37.250151751264994],[-26.026275364963414,37.23999999999998],[-26.000000000000128,37.220586803433505],[-25.972114845148525,37.199999999999974],[-25.96000000000013,37.19106609063306],[-25.92000000000013,37.16159153693508],[-25.917838378514737,37.159999999999975],[-25.88000000000013,37.132172348181555],[-25.8634359876001,37.119999999999976],[-25.84000000000013,37.102797215590556],[-25.808918449921848,37.07999999999998],[-25.800000000000132,37.07346606388002],[-25.760000000000133,37.044184066345025],[-25.754279851571,37.03999999999998],[-25.720000000000134,37.01495415194301],[-25.699516502420323,36.99999999999998],[-25.680000000000135,36.98576803321928],[-25.644636226549686,36.95999999999998],[-25.640000000000136,36.956625633147226],[-25.600000000000136,36.927536322040396],[-25.589628688910867,36.91999999999998],[-25.560000000000137,36.89849485407126],[-25.5344986018806,36.87999999999998],[-25.520000000000138,36.86949691348227],[-25.480000000000135,36.84054310224148],[-25.47924907242152,36.83999999999998],[-25.44000000000014,36.811645887839866],[-25.423866381928484,36.79999999999998],[-25.40000000000014,36.7827920049959],[-25.368363692134402,36.759999999999984],[-25.36000000000014,36.753981373776305],[-25.320000000000142,36.72522045127202],[-25.31273352859242,36.719999999999985],[-25.280000000000143,36.69651020998996],[-25.25697413184883,36.679999999999986],[-25.240000000000144,36.6678430188914],[-25.201092887559923,36.639999999999986],[-25.200000000000145,36.63921879655565],[-25.160000000000146,36.61065078743577],[-25.14507496130275,36.599999999999994],[-25.120000000000147,36.582126601974224],[-25.088932844168827,36.55999999999999],[-25.080000000000148,36.553645178471974],[-25.04000000000015,36.52521295392702],[-25.032659965828433,36.51999999999999],[-25.00000000000015,36.496831326043484],[-24.97625406431466,36.47999999999999],[-24.96000000000015,36.46849224927771],[-24.92000000000015,36.440195884628935],[-24.919722856273314,36.43999999999999],[-24.88000000000015,36.41195635305155],[-24.863050226737634,36.39999999999999],[-24.840000000000153,36.38375915784721],[-24.80625122587112,36.35999999999999],[-24.800000000000153,36.35560421410262],[-24.760000000000154,36.32750080482675],[-24.749314934209853,36.31999999999999],[-24.720000000000155,36.29944501328926],[-24.69224488390008,36.279999999999994],[-24.680000000000156,36.27143125372118],[-24.640000000000157,36.24346376401041],[-24.635041712467114,36.239999999999995],[-24.600000000000158,36.21554888588169],[-24.577697589616275,36.199999999999996],[-24.56000000000016,36.18767581664183],[-24.520223791056324,36.16],[-24.52000000000016,36.15984446928868],[-24.48000000000016,36.132069808000544],[-24.462602756994848,36.12],[-24.44000000000016,36.104336923360535],[-24.40485045006864,36.08],[-24.400000000000162,36.076645533201344],[-24.360000000000163,36.04900677504344],[-24.34695372031793,36.04],[-24.320000000000164,36.0214135577438],[-24.288919799814686,36.0]]}},{"type":"Feature","properties":{"magnitude":0.8,"percentagem":80.0,"territorio":"madeira"},"geometry":{"type":"LineString","coordinates":[[-18.0,32.207842623622966],[-17.96,32.18694076285683],[-17.94670169375692,32.179999999999936],[-17.92,32.16608035265306],[-17.880000000000003,32.14525307373067],[-17.86989919125412,32.139999999999944],[-17.840000000000003,32.12446914582505],[-17.800000000000004,32.10371633803169],[-17.792828423646462,32.099999999999945],[-17.760000000000005,32.08300859947983],[-17.720000000000006,32.06233015093011],[-17.715487227188987,32.059999999999945],[-17.680000000000007,32.04169830844293],[-17.640000000000008,32.02109410609978],[-17.63787341820193,32.019999999999946],[-17.60000000000001,32.000537866069564],[-17.56000000000001,31.980007795763214],[-17.559984792852322,31.979999999999947],[-17.52000000000001,31.959526864289096],[-17.48181697639713,31.939999999999948],[-17.48000000000001,31.939071909377414],[-17.440000000000012,31.91866489364913],[-17.403370178051173,31.89999999999995],[-17.400000000000013,31.89828476945001],[-17.360000000000014,31.87795154335919],[-17.32464215493433,31.85999999999995],[-17.320000000000014,31.85764595573688],[-17.280000000000015,31.8373864013339],[-17.245630625234583,31.81999999999995],[-17.240000000000016,31.817155055947534],[-17.200000000000017,31.796969054235596],[-17.166333285914614,31.77999999999995],[-17.160000000000018,31.77681165656326],[-17.12000000000002,31.75669908751668],[-17.086747812475366,31.739999999999952],[-17.08000000000002,31.736615342879517],[-17.04000000000002,31.716576085461387],[-17.006871858717812,31.699999999999953],[-17.00000000000002,31.696565699047063],[-16.960000000000022,31.67659963122714],[-16.92670305650044,31.659999999999954],[-16.920000000000023,31.656662308113187],[-16.880000000000024,31.636769306885498],[-16.846239015493786,31.619999999999955],[-16.840000000000025,31.6169047520623],[-16.800000000000026,31.597084693462655],[-16.765477322931574,31.579999999999956],[-16.760000000000026,31.57729261185604],[-16.720000000000027,31.557545370979245],[-16.68441554335843,31.539999999999957],[-16.680000000000028,31.53782546747299],[-16.64000000000003,31.518150918490157],[-16.60305121837369,31.499999999999957],[-16.60000000000003,31.498502897948054],[-16.56000000000003,31.47890091412347],[-16.52138186637248,31.459999999999958],[-16.52000000000003,31.45932448141107],[-16.480000000000032,31.439794935119277],[-16.440000000000033,31.420290134842702],[-16.439404257619877,31.41999999999996],[-16.400000000000034,31.400832557867854],[-16.360000000000035,31.38140005354414],[-16.35711451961128,31.379999999999956],[-16.320000000000036,31.362013357947387],[-16.280000000000037,31.342653019732005],[-16.274511773062976,31.33999999999996],[-16.240000000000038,31.32333691016148],[-16.20000000000004,31.304048607375915],[-16.19159343510572,31.299999999999958],[-16.16000000000004,31.28480278857601],[-16.12000000000004,31.265586389724],[-16.10835689823588,31.259999999999962],[-16.08000000000004,31.246410566555475],[-16.040000000000042,31.227265939339308],[-16.024799530032027,31.219999999999963],[-16.000000000000043,31.20815981679936],[-15.960000000000043,31.18908682813575],[-15.940918672867618,31.179999999999964],[-15.920000000000044,31.170050111377513],[-15.880000000000045,31.15104862741338],[-15.856711643620077,31.139999999999965],[-15.840000000000046,31.132081021765405],[-15.800000000000047,31.11315090789373],[-15.772175733374802,31.099999999999966],[-15.760000000000048,31.09425211887893],[-15.720000000000049,31.075393239754213],[-15.687308207125707,31.059999999999967],[-15.68000000000005,31.056562973108797],[-15.64000000000005,31.03777519266246],[-15.602106303471277,31.019999999999968],[-15.600000000000051,31.019013154354322],[-15.560000000000052,31.000296335810035],[-15.520000000000053,30.981604093841252],[-15.516562945673694,30.97999999999997],[-15.480000000000054,30.962956237945825],[-15.440000000000055,30.944334802102897],[-15.43067652480684,30.93999999999997],[-15.400000000000055,30.925754467408993],[-15.360000000000056,30.907203699121983],[-15.344446817327505,30.89999999999997],[-15.320000000000057,30.88869059216153],[-15.280000000000056,30.870210352203195],[-15.257870946406161,30.85999999999997],[-15.240000000000059,30.851764179820233],[-15.20000000000006,30.83335432832088],[-15.170946007138538,30.819999999999972],[-15.16000000000006,30.814974797688613],[-15.120000000000061,30.796635194150472],[-15.083669066213286,30.779999999999973],[-15.080000000000062,30.77832201278808],[-15.040000000000063,30.76005251609974]]}}]}