{"type":"FeatureCollection","properties":{"largura_maxima_km":112.703,"largura_sobre_pt_km":101.312,"linha_central_sobre_pt":false,"desenhavel_como_area":true,"perfil_largura":[{"t":2.06111,"lat":25.3721,"lon":-39.6558,"largura_km":112.703,"eixo_na_terra":true},{"t":2.06667,"lat":25.51,"lon":-39.1796,"largura_km":112.205,"eixo_na_terra":true},{"t":2.07222,"lat":25.6506,"lon":-38.6878,"largura_km":111.692,"eixo_na_terra":true},{"t":2.07778,"lat":25.7939,"lon":-38.179,"largura_km":111.164,"eixo_na_terra":true},{"t":2.08333,"lat":25.9403,"lon":-37.6516,"largura_km":110.618,"eixo_na_terra":true},{"t":2.08889,"lat":26.09,"lon":-37.1039,"largura_km":110.052,"eixo_na_terra":true},{"t":2.09444,"lat":26.2434,"lon":-36.5337,"largura_km":109.465,"eixo_na_terra":true},{"t":2.1,"lat":26.4008,"lon":-35.9385,"largura_km":108.854,"eixo_na_terra":true},{"t":2.10556,"lat":26.5627,"lon":-35.3153,"largura_km":108.217,"eixo_na_terra":true},{"t":2.11111,"lat":26.7298,"lon":-34.6603,"largura_km":107.55,"eixo_na_terra":true},{"t":2.11667,"lat":26.9026,"lon":-33.969,"largura_km":106.847,"eixo_na_terra":true},{"t":2.12222,"lat":27.0821,"lon":-33.2356,"largura_km":106.106,"eixo_na_terra":true},{"t":2.12778,"lat":27.2695,"lon":-32.4525,"largura_km":105.317,"eixo_na_terra":true},{"t":2.13333,"lat":27.4662,"lon":-31.6098,"largura_km":104.467,"eixo_na_terra":true},{"t":2.13889,"lat":27.6745,"lon":-30.6935,"largura_km":103.542,"eixo_na_terra":true},{"t":2.14444,"lat":27.8975,"lon":-29.6833,"largura_km":102.511,"eixo_na_terra":true},{"t":2.15,"lat":28.14,"lon":-28.5472,"largura_km":101.312,"eixo_na_terra":true},{"t":2.15556,"lat":28.54,"lon":-26.5553,"largura_km":null,"eixo_na_terra":false},{"t":2.16111,"lat":28.9143,"lon":-24.5618,"largura_km":null,"eixo_na_terra":false},{"t":2.16667,"lat":29.0764,"lon":-23.6124,"largura_km":null,"eixo_na_terra":false},{"t":2.17222,"lat":29.1597,"lon":-23.0538,"largura_km":null,"eixo_na_terra":false},{"t":2.17778,"lat":29.3404,"lon":-21.9144,"largura_km":null,"eixo_na_terra":false},{"t":2.18333,"lat":29.6198,"lon":-20.0749,"largura_km":null,"eixo_na_terra":false}]},"features":[{"type":"Feature","properties":{},"geometry":{"type":"Polygon","coordinates":[[[-38.673402852773734,26.179954264977464],[-38.15749176226902,26.32208069973079],[-37.62251715137387,26.467242201752867],[-37.06658112694558,26.615725703208508],[-36.48745156162889,26.76786817013177],[-35.88247341010489,26.92406982221537],[-35.21463510834204,27.09346416412243],[-34.54622732136886,27.259534548226686],[-33.839764358776364,27.431496936635078],[-33.088982473347954,27.610289693528298],[-32.28569475787583,27.797137478460726],[-31.41884669122601,27.993691467242716],[-30.472875798079656,28.202272734609178],[-29.424622556093453,28.426330299258172],[-28.295489761493144,28.659203488858388],[-28.324478973097953,28.609732654802222],[-28.069606062048052,28.675184796105082],[-27.70212832125398,28.76355718083081],[-27.31519021992068,28.849970606087716],[-27.047483703415253,28.906191405776525],[-26.77279875929034,28.961099143034176],[-26.49190420183146,29.014525014600082],[-26.20563616844578,29.06630337182043],[-25.87831574808792,29.122318737194067],[-25.35271460073099,29.227252007723507],[-24.819872281446493,29.3263612727942],[-24.249676813523905,29.42559269231531],[-23.714908236446654,29.513146214680024],[-23.41823657478014,29.568165651074263],[-22.888623444410342,29.662697524128507],[-22.282207230253277,29.766250425376192],[-21.93716468380157,29.82331452042226],[-21.100867733854386,29.95721116332228],[-20.5360110844031,30.04488427711867],[-19.603539078009533,30.186148052811458],[-19.621285365364336,30.097471384287033],[-19.6166211222004,30.098122604650722],[-19.72328311400892,29.519963020161978],[-19.73737801991441,29.517366394446967],[-19.76825677396073,29.363067921630247],[-19.92592173118242,29.335984298206668],[-19.92768354321248,29.326065657231403],[-20.244772942415807,29.276870560478898],[-20.245985282805066,29.236824323770524],[-20.9171599306911,29.125600202581467],[-22.93242208813105,28.785942256866154],[-24.367290714434972,28.512813107394315],[-24.923596843986275,28.41053189791321],[-25.29908255381121,28.343954425228336],[-25.67011591405864,28.265719428706642],[-26.12967683797214,28.171651007774937],[-26.559780577365558,28.08729058939279],[-26.95271186640938,28.014306057146307],[-27.498673213546,27.893425689741303],[-27.982320723034604,27.79371482989766],[-28.211640342579187,27.74940982953881],[-28.43196147576947,27.708989549592822],[-28.642821928339714,27.67257063994217],[-28.897318499651792,27.632167292029273],[-28.92187195626238,27.590266187782408],[-30.003215473170997,27.351186233445507],[-30.97243371160522,27.13007380084351],[-31.856325194399062,26.922696426952893],[-32.67247410769886,26.726272846085603],[-33.433156224669546,26.538858572881118],[-34.11191749219134,26.367886954653216],[-34.78787737105014,26.19434325927784],[-35.42923835953056,26.026493528734065],[-36.04025170686134,25.863660598735468],[-36.62436741215501,25.705294132719576],[-37.184430900803164,25.550939574047586],[-37.72282167220274,25.400216245147227],[-38.24155356565288,25.252801499635996],[-39.19995914240971,24.974546299905505],[-39.66973815579962,24.83545536155192],[-39.654335662345204,25.903852234907244],[-38.673402852773734,26.179954264977464]]]}}]}