{"type":"FeatureCollection","features":[{"type":"Feature","properties":{"t_inicio":2.0611111111110896,"t_fim":2.1666666666666448},"geometry":{"type":"LineString","coordinates":[[-39.65582965684578,25.372075923214158],[-39.17961845505053,25.510035516529996],[-38.687787504514944,25.650581025799138],[-38.17897991913273,25.79392443226108],[-37.651632627094045,25.940309572714785],[-37.103929664140225,26.090019321289724],[-36.53374091588745,26.243385002748738],[-35.938540352917755,26.400798949258625],[-35.31529468680449,26.56273158901296],[-34.66030821293674,26.72975524428116],[-33.96900072484024,26.902578173707493],[-33.23557942121167,27.08209483244615],[-32.452535506411806,27.269462938957194],[-31.60983529019944,27.466227233891733],[-30.693543092911312,27.674530037652026],[-29.68329552302032,27.897497187210785],[-28.547180720607827,28.14001999716862],[-27.22975501234575,28.410583965815917],[-25.616843021693796,28.7266367532257],[-23.373823742622704,29.139230925592457]]}}]}