{"type":"FeatureCollection","features":[{"type":"Feature","properties":{"magnitude":0.6,"percentagem":60.0,"territorio":"continente"},"geometry":{"type":"LineString","coordinates":[[-10.5,38.679775373484],[-10.46,38.66069177590488],[-10.420000000000003,38.64160843614109],[-10.41662797789947,38.639999999999944],[-10.380000000000003,38.622537441607534],[-10.340000000000003,38.60346785858112],[-10.332724649809935,38.599999999999945],[-10.300000000000004,38.584409375229654],[-10.260000000000003,38.5653536315039],[-10.248760448594165,38.559999999999945],[-10.220000000000006,38.54630772199907],[-10.180000000000007,38.527265899641804],[-10.164734890789106,38.51999999999995],[-10.140000000000008,38.50823262604645],[-10.100000000000009,38.48920480663019],[-10.080647492714828,38.47999999999995],[-10.06000000000001,38.4701842304067],[-10.02000000000001,38.45117049500858],[-9.996497770465876,38.43999999999995],[-9.980000000000011,38.43216267702033],[-9.940000000000012,38.41316310622247],[-9.912285239901783,38.39999999999995],[-9.900000000000013,38.39416810673501],[-9.860000000000014,38.3751827806245],[-9.828009416638473,38.35999999999995],[-9.820000000000014,38.35620065930702],[-9.780000000000015,38.337229657476115],[-9.743669816039468,38.31999999999995],[-9.740000000000016,38.31826047340279],[-9.700000000000017,38.29930387494919],[-9.660000000000018,38.28034792811705],[-9.659265661004936,38.27999999999995],[-9.620000000000019,38.26140557012775],[-9.58000000000002,38.242464146718845],[-9.574795267894272,38.23999999999995],[-9.54000000000002,38.22353487900943],[-9.500000000000021,38.204608056959415],[-9.49025960891077,38.19999999999996],[-9.460000000000022,38.18569193650758],[-9.420000000000023,38.16677979325808],[-9.405658197995542,38.159999999999954],[-9.380000000000024,38.147876876452806],[-9.340000000000025,38.12897948895184],[-9.320990548791642,38.119999999999955],[-9.300000000000026,38.11008983159496],[-9.260000000000026,38.091207276297325],[-9.236256174635285,38.079999999999956],[-9.220000000000027,38.072330933605095],[-9.180000000000028,38.05346328647257],[-9.151454588547532,38.03999999999996],[-9.140000000000029,38.034600313077206],[-9.10000000000003,38.01574764957916],[-9.06658530322482,37.99999999999996],[-9.06000000000003,37.99689809953065],[-9.020000000000032,37.97806049464424],[-8.981647831030893,37.95999999999996],[-8.980000000000032,37.9592244214118],[-8.940000000000033,37.940401949622526],[-8.900000000000034,37.92158050842271],[-8.896640322840554,37.91999999999996],[-8.860000000000035,37.90277214139853],[-8.820000000000036,37.88396594712238],[-8.81156294911745,37.87999999999996],[-8.780000000000037,37.86517119578865],[-8.740000000000038,37.846380321765196],[-8.726415887456234,37.83999999999996],[-8.700000000000038,37.82759923754353],[-8.66000000000004,37.80882375661153],[-8.641198648468212,37.79999999999996],[-8.62000000000004,37.79005639035025],[-8.580000000000041,37.771296374858636],[-8.555910742387427,37.75999999999996],[-8.540000000000042,37.752542776834616],[-8.500000000000043,37.73379829864312],[-8.470551679061915,37.71999999999996],[-8.460000000000043,37.71505851856361],[-8.420000000000044,37.696329649043356],[-8.385120967944959,37.679999999999964],[-8.380000000000045,37.67760373604781],[-8.340000000000046,37.658890546081786],[-8.300000000000047,37.64017867379183],[-8.29961796117184,37.639999999999965],[-8.260000000000048,37.62148110872756],[-8.220000000000049,37.60278502495373],[-8.214040185766562,37.599999999999966],[-8.18000000000005,37.58410145489891],[-8.14000000000005,37.56542122937536],[-8.128389249943979,37.55999999999997],[-8.100000000000051,37.54675170146573],[-8.060000000000052,37.52808740344055],[-8.042664661151283,37.51999999999997],[-8.020000000000053,37.509431964252364],[-7.980000000000054,37.49078366248816],[-7.956865926397042,37.47999999999997],[-7.940000000000055,37.47214235804004],[-7.900000000000055,37.45351012081463],[-7.870992552243,37.43999999999997],[-7.860000000000056,37.434882996569605],[-7.820000000000057,37.41626689167681],[-7.7850440447952005,37.39999999999997],[-7.780000000000058,37.39765399254432],[-7.740000000000059,37.379054087294676],[-7.70000000000006,37.36045577762253],[-7.699019501576436,37.35999999999997],[-7.6600000000000605,37.341871818854045],[-7.620000000000061,37.32328981295348],[-7.612916698534394,37.31999999999998],[-7.580000000000062,37.304720196509514],[-7.540000000000063,37.286154560552504],[-7.5267372366484615,37.27999999999997],[-7.500000000000064,37.26759932938726],[-7.460000000000064,37.2490501290649],[-7.440480619767124,37.239999999999974],[-7.420000000000066,37.23050932558789],[-7.3800000000000665,37.21197662611124],[-7.354146351239754,37.199999999999974],[-7.340000000000067,37.19345029218951],[-7.300000000000068,37.17493415829036],[-7.267733933908273,37.159999999999975],[-7.260000000000069,37.15642233525055],[-7.22000000000007,37.137922831182394],[-7.181242870098719,37.119999999999976],[-7.180000000000071,37.11942555981284],[-7.140000000000072,37.10094274935168],[-7.1000000000000725,37.082461803191904],[-7.094670414310219,37.07999999999998],[-7.060000000000073,37.06399401634996],[-7.020000000000074,37.045529863134384],[-7.008017748458312,37.03999999999998],[-6.980000000000075,37.02707673471938],[-6.940000000000076,37.008629437098165],[-6.921284896298013,36.999999999999986],[-6.900000000000077,36.990191005995655],[-6.860000000000078,36.97176062614439],[-6.834471357647855,36.95999999999998],[-6.820000000000078,36.953336930711195],[-6.780000000000079,36.93492353033181],[-6.747576631767244,36.91999999999998],[-6.74000000000008,36.916514608398366],[-6.700000000000081,36.898118248720095],[-6.660600217348022,36.87999999999998],[-6.660000000000082,36.879724137592675],[-6.620000000000083,36.861344879373064],[-6.580000000000084,36.842967710076586],[-6.573538858128226,36.83999999999998],[-6.540000000000084,36.82460351936188],[-6.500000000000084,36.80624354676458],[-6.486394504935017,36.79999999999998],[-6.460000000000086,36.78789426476846],[-6.420000000000087,36.76955154851481],[-6.3991669098875,36.759999999999984],[-6.380000000000088,36.75121721068877],[-6.340000000000089,36.7328918099548],[-6.311855568955967,36.719999999999985],[-6.3000000000000895,36.714572451236144],[-6.26000000000009,36.69626442473046],[-6.224459977500135,36.679999999999986],[-6.220000000000091,36.677960079544754],[-6.180000000000092,36.65966948550959],[-6.140000000000093,36.641381164200084],[-6.136978330443916,36.639999999999986],[-6.100000000000094,36.62310708398532],[-6.060000000000095,36.604836286970624],[-6.04940945808937,36.59999999999999],[-6.0200000000000955,36.586577310879534],[-5.980000000000096,36.56832409530073],[-5.961754769692719,36.55999999999999],[-5.940000000000097,36.550080255946376],[-5.900000000000098,36.53184467848177],[-5.8740137577128095,36.51999999999999],[-5.860000000000099,36.51361600797583],[-5.8200000000001,36.49539812484191],[-5.786185913955207,36.47999999999999],[-5.780000000000101,36.47718465479708],[-5.7400000000001015,36.45898452174988],[-5.700000000000102,36.44078684047225],[-5.698269978739808,36.43999999999999],[-5.660000000000103,36.42260395561841],[-5.620000000000104,36.4044241128701],[-5.610263462479855,36.39999999999999],[-5.580000000000105,36.38625651190792],[-5.540000000000106,36.36809456235674]]}},{"type":"Feature","properties":{"magnitude":0.4,"percentagem":40.0,"territorio":"acores"},"geometry":{"type":"LineString","coordinates":[[-32.0,38.6881671295683],[-31.983507824391303,38.67999999999994],[-31.96,38.66836040521603],[-31.92,38.648549976897485],[-31.902739958567025,38.639999999999944],[-31.880000000000003,38.62873721034106],[-31.840000000000003,38.60892097215719],[-31.821996345747856,38.599999999999945],[-31.800000000000004,38.589102308142486],[-31.76,38.5692804002998],[-31.741276373552328,38.559999999999945],[-31.720000000000006,38.54945598331967],[-31.680000000000003,38.529628545862366],[-31.660579432224147,38.519999999999946],[-31.640000000000008,38.50979852015118],[-31.60000000000001,38.489965692956424],[-31.579904914602217,38.47999999999995],[-31.56000000000001,38.470130202484725],[-31.52000000000001,38.45029212525799],[-31.499252216090767,38.43999999999995],[-31.48000000000001,38.43045131372705],[-31.440000000000012,38.410608125997705],[-31.418620734629435,38.39999999999995],[-31.400000000000013,38.39076213683417],[-31.36000000000001,38.370913977950764],[-31.338009870664212,38.35999999999995],[-31.320000000000014,38.35106295430144],[-31.280000000000015,38.33120996342722],[-31.257419027118367,38.31999999999995],[-31.240000000000016,38.31135404815376],[-31.200000000000017,38.291496364262166],[-31.17684760936364,38.27999999999995],[-31.160000000000018,38.27163569993576],[-31.12000000000002,38.25177346180601],[-31.096295025191854,38.23999999999995],[-31.08000000000002,38.231908190702384],[-31.04000000000002,38.212041536914995],[-31.015760684786603,38.19999999999995],[-31.00000000000002,38.19217180100907],[-30.960000000000022,38.172300869941424],[-30.93524400069566,38.159999999999954],[-30.920000000000023,38.15242681090228],[-30.880000000000024,38.13255174072434],[-30.85474438780314,38.119999999999955],[-30.840000000000025,38.11267349991013],[-30.800000000000026,38.09279442858006],[-30.774261263301995,38.079999999999956],[-30.760000000000026,38.072912147033044],[-30.72000000000003,38.0530292122928],[-30.69379404666753,38.03999999999996],[-30.680000000000028,38.033143030734216],[-30.640000000000025,38.013256370105466],[-30.613342159629944,37.99999999999996],[-30.60000000000003,37.99336642893065],[-30.560000000000027,37.9734761797104],[-30.532905026148104,37.95999999999996],[-30.52000000000003,37.953582618983916],[-30.480000000000032,37.93368891824029],[-30.452482072383425,37.91999999999996],[-30.440000000000033,37.91379187769093],[-30.400000000000034,37.89389486225909],[-30.3720727266735,37.87999999999996],[-30.360000000000035,37.87399448127515],[-30.320000000000032,37.85409428775304],[-30.291676419506594,37.83999999999996],[-30.280000000000037,37.83419070537751],[-30.240000000000038,37.81428747012184],[-30.211292583495975,37.79999999999996],[-30.20000000000004,37.794380825047604],[-30.160000000000043,37.774474684169725],[-30.13092065335477,37.75999999999996],[-30.12000000000004,37.754565114734916],[-30.08000000000004,37.734656204096744],[-30.050560065870936,37.71999999999996],[-30.040000000000042,37.71474384828005],[-30.000000000000043,37.694832303490145],[-29.970210259882396,37.679999999999964],[-29.960000000000043,37.67491729890619],[-29.920000000000044,37.65500325531574],[-29.889870676252478,37.639999999999965],[-29.880000000000045,37.635085739210524],[-29.840000000000046,37.615169331909364],[-29.809540757845895,37.599999999999966],[-29.800000000000047,37.59524944115569],[-29.760000000000048,37.57533080496842],[-29.729219949504426,37.55999999999997],[-29.72000000000005,37.55540867606147],[-29.680000000000053,37.535487945543636],[-29.648907698022988,37.51999999999997],[-29.64000000000005,37.51556371459651],[-29.60000000000005,37.495641024030675],[-29.568603452126396,37.47999999999997],[-29.560000000000052,37.47571482676997],[-29.520000000000053,37.45579031016198],[-29.48830666244568,37.43999999999997],[-29.480000000000054,37.43586228192346],[-29.440000000000058,37.41593607299863],[-29.4080167814951,37.39999999999997],[-29.400000000000055,37.39600634872291],[-29.360000000000056,37.37607858092239],[-29.327733263649126,37.35999999999997],[-29.320000000000057,37.35614729515061],[-29.280000000000058,37.33621810162756],[-29.247455565119797,37.31999999999997],[-29.24000000000006,37.31628538849734],[-29.20000000000006,37.29635490211332],[-29.16718314393407,37.27999999999997],[-29.16000000000006,37.27642089535447],[-29.12000000000006,37.25648924867584],[-29.086915459911904,37.239999999999974],[-29.080000000000062,37.23655408160617],[-29.040000000000063,37.2166214069005],[-29.00665197464372,37.199999999999974],[-29.000000000000064,37.196685212421926],[-28.960000000000065,37.17675164165439],[-28.92639215146887,37.159999999999975],[-28.920000000000066,37.15681455224879],[-28.88000000000007,37.1368802170787],[-28.846135455453872,37.119999999999976],[-28.840000000000067,37.11694236480393],[-28.800000000000068,37.09700739658123],[-28.765881353370954,37.07999999999998],[-28.76000000000007,37.07706891306727],[-28.72000000000007,37.057133442829084],[-28.685629313676838,37.03999999999998],[-28.68000000000007,37.03719445927406],[-28.64000000000007,37.017258617741334],[-28.605378806491657,36.99999999999998],[-28.600000000000072,36.99731926490773],[-28.560000000000073,36.97738318248177],[-28.52512930357808,36.95999999999998],[-28.520000000000074,36.95744359069268],[-28.48000000000007,36.93750739745189],[-28.444880278320774,36.91999999999998],[-28.440000000000076,36.91756769658714],[-28.400000000000077,36.89763152228372],[-28.36463120570575,36.87999999999998],[-28.360000000000078,36.87769184177635],[-28.32000000000008,36.85775581583293],[-28.28438156230025,36.83999999999998],[-28.28000000000008,36.83781628466545],[-28.24000000000008,36.81788053617204],[-28.204130826232515,36.79999999999998],[-28.20000000000008,36.797941282872806],[-28.160000000000082,36.778005940583455],[-28.123878477172028,36.759999999999984],[-28.120000000000083,36.758067093223204],[-28.080000000000084,36.73813228555288],[-28.043623996309705,36.719999999999985],[-28.040000000000084,36.7181939717412],[-28.000000000000085,36.698259826762694],[-27.96336686633842,36.679999999999986],[-27.960000000000086,36.67832217364454],[-27.920000000000087,36.65838881908545],[-27.883106571433476,36.639999999999986],[-27.880000000000088,36.63845195333778],[-27.84000000000009,36.61851951657734],[-27.802842597233564,36.599999999999994],[-27.80000000000009,36.59858356440577],[-27.76000000000009,36.5786521724719],[-27.722574430821805,36.55999999999999],[-27.72000000000009,36.558717259607405],[-27.680000000000092,36.538787039173755],[-27.642301560706734,36.51999999999998],[-27.640000000000093,36.518853290869394],[-27.600000000000094,36.49892436825242],[-27.56202347680387,36.47999999999999],[-27.560000000000095,36.4789919092801],[-27.520000000000095,36.459064410436156],[-27.481739670416818,36.43999999999999],[-27.480000000000096,36.439133365083606],[-27.440000000000097,36.41920741560598],[-27.4014496342196,36.39999999999999],[-27.400000000000098,36.39927790767348],[-27.3600000000001,36.3793536327898],[-27.321152862237668,36.35999999999999],[-27.3200000000001,36.35942578558729],[-27.2800000000001,36.339503310156516],[-27.240848849830613,36.31999999999999],[-27.2400000000001,36.319577246500465],[-27.200000000000102,36.29965669501027],[-27.160537093673856,36.279999999999994],[-27.160000000000103,36.2797325372208],[-27.120000000000104,36.2598140337848],[-27.080217091741297,36.239999999999995],[-27.080000000000105,36.239891903682704],[-27.040000000000106,36.21997557203781],[-27.00000000000011,36.20005561750112],[-26.999888313113733,36.199999999999996],[-26.960000000000107,36.18014155444561],[-26.920000000000105,36.16022395026909],[-26.91955022681171,36.16],[-26.88000000000011,36.14031222479752],[-26.84000000000011,36.12039709382393],[-26.83920239285776,36.12],[-26.80000000000011,36.10048782599071],[-26.76000000000011,36.0805752906773],[-26.75884431408099,36.07999999999999],[-26.720000000000113,36.06066860002488],[-26.680000000000113,36.04075878244082],[-26.67847549452118,36.04],[-26.640000000000114,36.020854787997145],[-26.600000000000115,36.0009478098211],[-26.598095439411907,36.0]]}},{"type":"Feature","properties":{"magnitude":0.4,"percentagem":40.0,"territorio":"madeira"},"geometry":{"type":"LineString","coordinates":[[-18.0,31.799042997184124],[-17.96,31.780039002136764],[-17.959917888726146,31.779999999999948],[-17.92,31.761046794662523],[-17.880000000000006,31.742056229427053],[-17.875668015309927,31.739999999999952],[-17.840000000000003,31.723076402705733],[-17.800000000000004,31.70409933883003],[-17.791357648432246,31.699999999999953],[-17.760000000000005,31.685131948889055],[-17.720000000000006,31.666168457453598],[-17.706986345715457,31.659999999999954],[-17.680000000000007,31.64721355978105],[-17.640000000000008,31.628263711399658],[-17.622553664731306,31.619999999999955],[-17.60000000000001,31.609321360945977],[-17.56000000000001,31.590385225766543],[-17.538059162993065,31.579999999999956],[-17.52000000000001,31.571455476946],[-17.48000000000001,31.552533124651184],[-17.45350239794781,31.539999999999957],[-17.440000000000012,31.53361603134374],[-17.400000000000013,31.514707531151863],[-17.36888292696803,31.499999999999957],[-17.360000000000014,31.495803146704695],[-17.320000000000014,31.47690856737036],[-17.284200307344452,31.459999999999958],[-17.280000000000015,31.458016944599606],[-17.240000000000016,31.43913635441463],[-17.200000000000017,31.42025768481636],[-17.19945388820682,31.41999999999996],[-17.160000000000018,31.401391012401312],[-17.120000000000015,31.382526434922482],[-17.1146418054087,31.37999999999996],[-17.08000000000002,31.363672660458292],[-17.04000000000002,31.344822242294228],[-17.0297652134877,31.33999999999996],[-17.00000000000002,31.32598141672726],[-16.960000000000022,31.30714522461318],[-16.94482366904564,31.29999999999996],[-16.920000000000023,31.288317398366427],[-16.880000000000024,31.269495498578273],[-16.85981672856252,31.259999999999962],[-16.840000000000025,31.250680721553138],[-16.800000000000026,31.23187317990846],[-16.77474394838895,31.219999999999963],[-16.760000000000026,31.213071501486564],[-16.720000000000027,31.194278383345484],[-16.68960488473827,31.179999999999964],[-16.680000000000028,31.17548985239053],[-16.64000000000003,31.156711222656558],[-16.604399093679216,31.139999999999965],[-16.60000000000003,31.13793588751614],[-16.56000000000003,31.119171810637212],[-16.52000000000003,31.100409941681406],[-16.519125792688875,31.099999999999966],[-16.480000000000032,31.081660259114045],[-16.440000000000033,31.062913040714882],[-16.433783141558422,31.059999999999967],[-16.400000000000034,31.04417667894763],[-16.360000000000035,31.025444174473268],[-16.34837239611273,31.019999999999968],[-16.320000000000036,31.006721180035314],[-16.280000000000037,30.988003452401443],[-16.26289311147722,30.97999999999997],[-16.240000000000038,30.96929387131418],[-16.20000000000004,30.950590982984977],[-16.177344842593975,30.93999999999997],[-16.16000000000004,30.931894860763975],[-16.12000000000004,30.91320687375317],[-16.091727144214232,30.89999999999997],[-16.08000000000004,30.89452425541],[-16.040000000000042,30.87585123128183],[-16.006039570891108,30.85999999999997],[-16.000000000000043,30.85718216132619],[-15.960000000000043,30.838524161196464],[-15.920281676971985,30.819999999999972],[-15.920000000000044,30.819868683638045],[-15.880000000000045,30.80122576817523],[-15.840000000000046,30.782585336141278],[-15.83445083502046,30.779999999999973],[-15.800000000000047,30.76395615595196],[-15.760000000000048,30.74533090110053],[-15.748548633628948,30.739999999999974],[-15.720000000000049,30.726715427319274],[-15.68000000000005,30.708105409258202],[-15.662574736769916,30.699999999999974],[-15.64000000000005,30.689503684131715],[-15.60000000000005,30.670908962024924],[-15.57652869759923,30.659999999999975],[-15.560000000000052,30.652321027308822],[-15.520000000000055,30.633741659877487],[-15.490410069029467,30.619999999999976],[-15.480000000000054,30.615167556838294],[-15.440000000000055,30.596603602361967],[-15.404218403722426,30.579999999999977],[-15.400000000000055,30.578043371779252],[-15.360000000000056,30.559494888096932],[-15.320000000000057,30.540949089373253],[-15.317952439948725,30.539999999999978],[-15.280000000000058,30.52241561477662],[-15.240000000000059,30.503885375479367],[-15.23161083077973,30.49999999999998],[-15.20000000000006,30.485365879174253],[-15.16000000000006,30.466851256097723],[-15.145194802790385,30.45999999999998],[-15.120000000000061,30.448345777145164],[-15.080000000000064,30.429846826646944],[-15.058703907267521,30.41999999999998],[-15.040000000000063,30.411355403630264]]}}]}