{"type":"FeatureCollection","properties":{"largura_maxima_km":52.561,"largura_sobre_pt_km":27.973,"linha_central_sobre_pt":true,"desenhavel_como_area":true,"perfil_largura":[{"t":1.05556,"lat":37.3568,"lon":-39.9753,"largura_km":18.972,"eixo_na_terra":true},{"t":1.06111,"lat":37.4349,"lon":-39.7728,"largura_km":19.166,"eixo_na_terra":true},{"t":1.06667,"lat":37.5132,"lon":-39.5687,"largura_km":19.362,"eixo_na_terra":true},{"t":1.07222,"lat":37.5917,"lon":-39.3628,"largura_km":19.559,"eixo_na_terra":true},{"t":1.07778,"lat":37.6704,"lon":-39.1552,"largura_km":19.759,"eixo_na_terra":true},{"t":1.08333,"lat":37.7493,"lon":-38.9459,"largura_km":19.96,"eixo_na_terra":true},{"t":1.08889,"lat":37.8285,"lon":-38.7347,"largura_km":20.164,"eixo_na_terra":true},{"t":1.09444,"lat":37.9078,"lon":-38.5217,"largura_km":20.37,"eixo_na_terra":true},{"t":1.1,"lat":37.9873,"lon":-38.3069,"largura_km":20.577,"eixo_na_terra":true},{"t":1.10556,"lat":38.067,"lon":-38.0901,"largura_km":20.787,"eixo_na_terra":true},{"t":1.11111,"lat":38.1469,"lon":-37.8714,"largura_km":20.999,"eixo_na_terra":true},{"t":1.11667,"lat":38.2271,"lon":-37.6507,"largura_km":21.213,"eixo_na_terra":true},{"t":1.12222,"lat":38.3074,"lon":-37.428,"largura_km":21.429,"eixo_na_terra":true},{"t":1.12778,"lat":38.388,"lon":-37.2032,"largura_km":21.647,"eixo_na_terra":true},{"t":1.13333,"lat":38.4688,"lon":-36.9763,"largura_km":21.868,"eixo_na_terra":true},{"t":1.13889,"lat":38.5498,"lon":-36.7473,"largura_km":22.091,"eixo_na_terra":true},{"t":1.14444,"lat":38.6311,"lon":-36.5161,"largura_km":22.316,"eixo_na_terra":true},{"t":1.15,"lat":38.7126,"lon":-36.2826,"largura_km":22.544,"eixo_na_terra":true},{"t":1.15556,"lat":38.7943,"lon":-36.0468,"largura_km":22.774,"eixo_na_terra":true},{"t":1.16111,"lat":38.8763,"lon":-35.8087,"largura_km":23.007,"eixo_na_terra":true},{"t":1.16667,"lat":38.9585,"lon":-35.5681,"largura_km":23.242,"eixo_na_terra":true},{"t":1.17222,"lat":39.0409,"lon":-35.3251,"largura_km":23.48,"eixo_na_terra":true},{"t":1.17778,"lat":39.1236,"lon":-35.0796,"largura_km":23.72,"eixo_na_terra":true},{"t":1.18333,"lat":39.2066,"lon":-34.8316,"largura_km":23.963,"eixo_na_terra":true},{"t":1.18889,"lat":39.2898,"lon":-34.5809,"largura_km":24.209,"eixo_na_terra":true},{"t":1.19444,"lat":39.3732,"lon":-34.3275,"largura_km":24.457,"eixo_na_terra":true},{"t":1.2,"lat":39.457,"lon":-34.0713,"largura_km":24.708,"eixo_na_terra":true},{"t":1.20556,"lat":39.541,"lon":-33.8124,"largura_km":24.963,"eixo_na_terra":true},{"t":1.21111,"lat":39.6253,"lon":-33.5505,"largura_km":25.22,"eixo_na_terra":true},{"t":1.21667,"lat":39.7098,"lon":-33.2857,"largura_km":25.48,"eixo_na_terra":true},{"t":1.22222,"lat":39.7947,"lon":-33.0178,"largura_km":25.744,"eixo_na_terra":true},{"t":1.22778,"lat":39.8798,"lon":-32.7468,"largura_km":26.01,"eixo_na_terra":true},{"t":1.23333,"lat":39.9653,"lon":-32.4725,"largura_km":26.28,"eixo_na_terra":true},{"t":1.23889,"lat":40.051,"lon":-32.195,"largura_km":26.554,"eixo_na_terra":true},{"t":1.24444,"lat":40.1371,"lon":-31.9142,"largura_km":26.83,"eixo_na_terra":true},{"t":1.25,"lat":40.2234,"lon":-31.6298,"largura_km":27.111,"eixo_na_terra":true},{"t":1.25556,"lat":40.3101,"lon":-31.3419,"largura_km":27.394,"eixo_na_terra":true},{"t":1.26111,"lat":40.3971,"lon":-31.0502,"largura_km":27.682,"eixo_na_terra":true},{"t":1.26667,"lat":40.4845,"lon":-30.7549,"largura_km":27.973,"eixo_na_terra":true},{"t":1.27222,"lat":40.5722,"lon":-30.4556,"largura_km":28.268,"eixo_na_terra":true},{"t":1.27778,"lat":40.6602,"lon":-30.1523,"largura_km":28.567,"eixo_na_terra":true},{"t":1.28333,"lat":40.7486,"lon":-29.8448,"largura_km":28.87,"eixo_na_terra":true},{"t":1.28889,"lat":40.8373,"lon":-29.5331,"largura_km":29.177,"eixo_na_terra":true},{"t":1.29444,"lat":40.9265,"lon":-29.217,"largura_km":29.488,"eixo_na_terra":true},{"t":1.3,"lat":41.016,"lon":-28.8964,"largura_km":29.804,"eixo_na_terra":true},{"t":1.30556,"lat":41.1059,"lon":-28.571,"largura_km":30.124,"eixo_na_terra":true},{"t":1.31111,"lat":41.1962,"lon":-28.2408,"largura_km":30.45,"eixo_na_terra":true},{"t":1.31667,"lat":41.2869,"lon":-27.9056,"largura_km":30.78,"eixo_na_terra":true},{"t":1.32222,"lat":41.378,"lon":-27.5652,"largura_km":31.116,"eixo_na_terra":true},{"t":1.32778,"lat":41.4696,"lon":-27.2194,"largura_km":31.456,"eixo_na_terra":true},{"t":1.33333,"lat":41.5616,"lon":-26.868,"largura_km":31.802,"eixo_na_terra":true},{"t":1.33889,"lat":41.6541,"lon":-26.5108,"largura_km":32.154,"eixo_na_terra":true},{"t":1.34444,"lat":41.7471,"lon":-26.1476,"largura_km":32.511,"eixo_na_terra":true},{"t":1.35,"lat":41.8405,"lon":-25.7782,"largura_km":32.875,"eixo_na_terra":true},{"t":1.35556,"lat":41.9345,"lon":-25.4022,"largura_km":33.244,"eixo_na_terra":true},{"t":1.36111,"lat":42.0289,"lon":-25.0194,"largura_km":33.62,"eixo_na_terra":true},{"t":1.36667,"lat":42.124,"lon":-24.6296,"largura_km":34.002,"eixo_na_terra":true},{"t":1.37222,"lat":42.2195,"lon":-24.2323,"largura_km":34.392,"eixo_na_terra":true},{"t":1.37778,"lat":42.3157,"lon":-23.8274,"largura_km":34.788,"eixo_na_terra":true},{"t":1.38333,"lat":42.4124,"lon":-23.4143,"largura_km":35.193,"eixo_na_terra":true},{"t":1.38889,"lat":42.5098,"lon":-22.9928,"largura_km":35.606,"eixo_na_terra":true},{"t":1.39444,"lat":42.6078,"lon":-22.5624,"largura_km":36.026,"eixo_na_terra":true},{"t":1.4,"lat":42.7065,"lon":-22.1226,"largura_km":36.456,"eixo_na_terra":true},{"t":1.40556,"lat":42.8059,"lon":-21.6729,"largura_km":36.895,"eixo_na_terra":true},{"t":1.41111,"lat":42.906,"lon":-21.2129,"largura_km":37.343,"eixo_na_terra":true},{"t":1.41667,"lat":43.0069,"lon":-20.7419,"largura_km":37.802,"eixo_na_terra":true},{"t":1.42222,"lat":43.1087,"lon":-20.2592,"largura_km":38.271,"eixo_na_terra":true},{"t":1.42778,"lat":43.2112,"lon":-19.7642,"largura_km":38.751,"eixo_na_terra":true},{"t":1.43333,"lat":43.3147,"lon":-19.2561,"largura_km":39.244,"eixo_na_terra":true},{"t":1.43889,"lat":43.4191,"lon":-18.7339,"largura_km":39.75,"eixo_na_terra":true},{"t":1.44444,"lat":43.5246,"lon":-18.1967,"largura_km":40.269,"eixo_na_terra":true},{"t":1.45,"lat":43.6311,"lon":-17.6434,"largura_km":40.803,"eixo_na_terra":true},{"t":1.45556,"lat":43.7387,"lon":-17.0727,"largura_km":41.353,"eixo_na_terra":true},{"t":1.46111,"lat":43.8476,"lon":-16.4833,"largura_km":41.919,"eixo_na_terra":true},{"t":1.46667,"lat":43.9578,"lon":-15.8735,"largura_km":42.504,"eixo_na_terra":true},{"t":1.47222,"lat":44.0694,"lon":-15.2415,"largura_km":43.108,"eixo_na_terra":true},{"t":1.47778,"lat":44.1826,"lon":-14.5851,"largura_km":43.733,"eixo_na_terra":true},{"t":1.48333,"lat":44.2974,"lon":-13.9018,"largura_km":44.383,"eixo_na_terra":true},{"t":1.48889,"lat":44.4142,"lon":-13.1886,"largura_km":45.058,"eixo_na_terra":true},{"t":1.49444,"lat":44.533,"lon":-12.4419,"largura_km":45.761,"eixo_na_terra":true},{"t":1.5,"lat":44.6541,"lon":-11.6574,"largura_km":46.496,"eixo_na_terra":true},{"t":1.50556,"lat":44.7778,"lon":-10.8296,"largura_km":47.266,"eixo_na_terra":true},{"t":1.51111,"lat":44.9045,"lon":-9.9518,"largura_km":48.075,"eixo_na_terra":true},{"t":1.51667,"lat":45.0348,"lon":-9.015,"largura_km":48.926,"eixo_na_terra":true},{"t":1.52222,"lat":45.1692,"lon":-8.0075,"largura_km":49.823,"eixo_na_terra":true},{"t":1.52778,"lat":45.3087,"lon":-6.913,"largura_km":50.76,"eixo_na_terra":true},{"t":1.53333,"lat":45.4546,"lon":-5.7075,"largura_km":51.718,"eixo_na_terra":true},{"t":1.53889,"lat":45.6091,"lon":-4.3539,"largura_km":52.561,"eixo_na_terra":true},{"t":1.54444,"lat":45.8243,"lon":-2.3929,"largura_km":null,"eixo_na_terra":false},{"t":1.55,"lat":46.0678,"lon":0.1358,"largura_km":null,"eixo_na_terra":false},{"t":1.55556,"lat":46.2271,"lon":2.3779,"largura_km":null,"eixo_na_terra":false},{"t":1.56111,"lat":46.2641,"lon":3.5564,"largura_km":null,"eixo_na_terra":false},{"t":1.56667,"lat":46.316,"lon":4.989,"largura_km":null,"eixo_na_terra":false}]},"features":[{"type":"Feature","properties":{},"geometry":{"type":"Polygon","coordinates":[[[-39.36852512094896,37.687328870242446],[-38.52557944847814,38.007781859610965],[-37.87365045165231,38.25040584640792],[-37.200861814448814,38.49607652818658],[-36.51150132101202,38.74291768709054],[-35.80164270128785,38.9919877626214],[-35.06988012271802,39.24339038717646],[-34.31465262531512,39.49723951198519],[-33.79727995880867,39.667893042856946],[-32.995142451402785,39.927311780605415],[-32.447036749031014,40.1010399755152],[-31.599508373085087,40.36408705342037],[-31.01644896279754,40.54116718806295],[-30.112636163337868,40.80951063984017],[-29.489193116882888,40.990319442263825],[-28.847761291265584,41.17274541964669],[-28.181746657812027,41.35832937877234],[-27.500278609821464,41.54429106394181],[-26.796701287873645,41.73214836997754],[-26.069299847283645,41.92201545396154],[-25.31613245264697,42.11402076414887],[-24.534985704310486,42.308309792292015],[-23.723318121026495,42.50504855681945],[-22.870465056572698,42.706194235200826],[-22.434063412504656,42.806974158257084],[-21.531592106621332,43.01080996566276],[-21.064415548931862,43.11393667872882],[-20.095003987438474,43.32281009330697],[-19.591301315475818,43.428649892840895],[-18.531223473144962,43.645444738837675],[-17.98281065504301,43.754534520643965],[-17.417370905850277,43.86483466876559],[-16.833540564799506,43.97643041210421],[-16.229764793110036,44.08941866827313],[-15.604257729091756,44.20391046131263],[-14.954951276154446,44.320034026455204],[-14.279428288112086,44.437938857329414],[-13.559963707035394,44.560227787839274],[-12.822012064837338,44.682337077306926],[-12.047322875902154,44.80687597855039],[-11.230772946764262,44.93415835704232],[-10.365925846598827,45.06457759636008],[-9.423862885686418,45.201482531431616],[-8.433035063949205,45.33999839775328],[-7.359209319874225,45.483763564074295],[-6.180583074495843,45.63409903268657],[-4.831904940357191,45.79661014115886],[-3.3144900523596164,45.967935177235226],[-3.5561387905197694,45.87337483386991],[-3.322997847644558,45.91519727501825],[-3.0719821260908304,45.956953198091895],[-2.8089620895388805,45.99746579774431],[-2.5358863664165767,46.03632728221207],[-2.2550034156166703,46.073129425360335],[-1.9688988291023861,46.10746488072842],[-1.680534088416323,46.13892849788056],[-1.4886837413271223,46.158110316892405],[-1.2042691975447042,46.183898078776636],[-1.0186818349145312,46.19893113201873],[-0.8378565530431104,46.21210486037395],[-0.5988479820059384,46.226986843993984],[-0.1478201451771497,46.279137181669846],[0.24669763868368477,46.320565791027626],[0.6566803809388375,46.35985253783179],[1.0801296758259014,46.39666318538073],[1.6612742470201454,46.44131296894298],[1.9567582378044222,46.4615083348474],[2.350624347149495,46.48579503414397],[2.8340454242529916,46.53052424837072],[3.3427856155534528,46.57436041259138],[4.282518082229103,46.64823340182673],[5.171849090879903,46.71148934309384],[5.887229057576548,46.75879467330027],[6.103491884661493,46.54927522295083],[6.310475057689956,46.56503604706092],[6.205041462034499,46.450892103109105],[6.320079399151609,46.33944120940261],[6.304583809005584,46.33839811163861],[6.417166090297968,46.2391401912906],[5.494050515224956,46.1839588921539],[4.9530894409615485,46.1489621457749],[4.179090486607549,46.09613807057714],[2.6969017733578653,45.990917637242035],[2.17182054183354,45.95501182403565],[1.7335519446581031,45.92729591018676],[1.2797988454843332,45.90274842355413],[0.3720844164968753,45.81525520395974],[-0.22735274250672433,45.76225465869641],[-0.7268628844714158,45.7242010653411],[-0.9004854066045596,45.713105234668674],[-1.1244949445823287,45.70127047006313],[-1.7013577606300032,45.63490347453661],[-2.1557367037139272,45.588245277292074],[-2.5502395246471394,45.55405102867876],[-2.7572251933984546,45.539666374745835],[-2.9386567561434287,45.53004735653322],[-3.2644865541899435,45.48699211101392],[-3.575725150983203,45.44937621353893],[-3.861400062114541,45.41873288727568],[-4.057239309724906,45.40054156447258],[-4.291958090760488,45.38286794843195],[-4.4947334500838565,45.372833910279496],[-4.663951125291476,45.370460543285745],[-4.7355545112689015,45.37212311464094],[-4.8225912237428785,45.377795267209585],[-5.038159677692619,45.29344048357025],[-6.322476960425604,45.1470925942189],[-7.453113594901879,45.01103415079696],[-8.511686351537605,44.87695886387484],[-9.470172178100114,44.750224595415425],[-10.366280946970534,44.62690462751095],[-11.209702606354085,44.506496082251026],[-12.007850661751206,44.38861333691594],[-12.766547655905924,44.27295281405442],[-13.49046604610055,44.159270316876686],[-14.183423394285029,44.04736584153474],[-14.848586722401194,43.93707305417403],[-15.488618028987815,43.828251791552674],[-16.105780438892907,43.720782585917846],[-16.702017271264964,43.614562583325174],[-17.27901202155212,43.509502444624424],[-17.838234604397684,43.40552395427437],[-18.380977519214525,43.30255814866801],[-19.421473473248426,43.099426386920435],[-19.92115515299568,42.99915680809852],[-20.883491949571322,42.800988697737786],[-21.34755644837756,42.70301377872908],[-22.236564840482174,42.51090123911647],[-22.67077916710636,42.4148896396368],[-23.512504006106354,42.22467549917715],[-24.321347420123914,42.03672289143135],[-25.100170348489996,41.85087281199478],[-25.851447419887904,41.666986837504],[-26.57733642572373,41.48494347589871],[-27.27973249676802,41.304635315012725],[-27.960310910365507,41.125966765334475],[-28.61540352822209,40.95027419090602],[-29.25688309111223,40.77459751946419],[-29.880547783480864,40.60032978471942],[-30.48747851694111,40.42740756216729],[-31.078654622369214,40.25577298585236],[-31.937805682053494,40.00062071203119],[-32.493324369090715,39.831982625958126],[-33.30251372917749,39.581112591520466],[-33.82685185224136,39.4152000125455],[-34.588760799698946,39.16935618980307],[-35.08568924357968,39.00591661179869],[-35.81220527215544,38.76252276134276],[-36.51738233143706,38.521164312583586],[-37.2025654487033,38.281755194086806],[-37.86897334451797,38.04421659559671],[-38.51771454471944,37.808476083141244],[-39.149800942205076,37.57446685155576],[-39.9660451000876,37.265897877631474],[-39.98224376897855,37.449179146004084],[-39.36852512094896,37.687328870242446]]]}}]}