{"type":"FeatureCollection","features":[{"type":"Feature","properties":{"magnitude":0.5,"de":0.5,"ate":0.8,"percentagem":50.0},"geometry":{"type":"Polygon","coordinates":[[[-34.5,30.0],[-3.5399999999988268,30.0],[-3.5399999999988268,38.9491966722579],[-6.839999999998952,38.55750692118164],[-10.019999999999072,38.11775465409241],[-13.13999999999919,37.62289023265025],[-16.199999999999307,37.0723797034113],[-19.19999999999942,36.46565329609406],[-22.13999999999953,35.80214127960369],[-25.01999999999964,35.081312907165966],[-27.779999999999745,34.3200800749073],[-31.199999999999875,33.27402419987983],[-34.5,32.14852929555779],[-34.5,30.0]]]}},{"type":"Feature","properties":{"magnitude":0.8,"de":0.8,"ate":0.95,"percentagem":80.0},"geometry":{"type":"MultiPolygon","coordinates":[[[[-34.5,32.14852929555779],[-34.5,37.578085687297275],[-30.959999999999866,38.72020336458169],[-27.35999999999973,39.76001998955472],[-23.63999999999959,40.71563734420395],[-19.859999999999445,41.57277952040597],[-15.959999999999297,42.3464660285797],[-11.939999999999145,43.0356644358668],[-7.799999999998988,43.63951132191282],[-3.5399999999988268,44.15720361808294],[-3.5399999999988268,38.9491966722579],[-7.739999999998986,38.43942625240574],[-11.81999999999914,37.84018947535144],[-15.779999999999289,37.15192353363034],[-19.619999999999436,36.375153289350216],[-23.219999999999573,35.54031119324611],[-26.759999999999707,34.60973570218186],[-30.659999999999854,33.447097060965675],[-34.5,32.14852929555779]]],[[[-34.5,41.07097752690365],[-34.5,44.939999999999685],[-19.302111418452455,44.939999999999685],[-22.91999999999956,44.18415375124776],[-26.399999999999693,43.36542133796986],[-30.53999999999985,42.26446134756001],[-34.5,41.07097752690365]]]]}},{"type":"Feature","properties":{"magnitude":0.95,"de":0.95,"ate":0.99,"percentagem":95.0},"geometry":{"type":"MultiPolygon","coordinates":[[[[-34.5,37.578085687297275],[-34.5,39.06165027211798],[-31.739999999999895,39.950223893228106],[-28.91999999999979,40.784311094398205],[-26.03999999999968,41.56377085290762],[-23.039999999999566,42.30277790471449],[-19.619999999999436,43.060459953263894],[-16.079999999999302,43.756135492328966],[-12.479999999999166,44.37771694805957],[-8.726592099555223,44.939999999999685],[-3.5399999999988268,44.939999999999685],[-3.5399999999988268,44.15720361808294],[-7.679999999998984,43.65549577752276],[-11.699999999999136,43.07352136380288],[-15.599999999999284,42.41253402342247],[-19.43999999999943,41.66133848753012],[-22.979999999999563,40.87330031271379],[-26.399999999999693,40.01779944808663],[-30.53999999999985,38.84765274709294],[-34.5,37.578085687297275]]],[[[-34.5,39.57042684194672],[-34.5,41.07097752690365],[-31.679999999999893,41.93548940633884],[-28.799999999999784,42.74471482061806],[-25.859999999999673,43.49863633708561],[-22.85999999999956,44.197461379090385],[-19.302111418452455,44.939999999999685],[-10.69043270918262,44.939999999999685],[-13.799999999999216,44.46902010357578],[-16.79999999999933,43.95698200224935],[-19.73999999999944,43.396833078331966],[-22.619999999999553,42.7885887432202],[-25.199999999999648,42.19059587373834],[-27.779999999999745,41.539391804831645],[-31.199999999999875,40.58878915099454],[-34.5,39.57042684194672]]]]}},{"type":"Feature","properties":{"magnitude":0.99,"de":0.99,"ate":2.0,"percentagem":99.0},"geometry":{"type":"Polygon","coordinates":[[[-34.5,39.57042684194672],[-34.5,39.06165027211798],[-31.199999999999875,40.11558104688745],[-27.839999999999748,41.08493342759912],[-24.899999999999636,41.85310299869643],[-21.899999999999523,42.565078296647286],[-18.719999999999402,43.24560969920937],[-15.47999999999928,43.86557621846978],[-12.119999999999152,44.435347218378794],[-8.726592099555223,44.939999999999685],[-10.69043270918262,44.939999999999685],[-13.199999999999193,44.56452398558576],[-15.719999999999288,44.148055592066626],[-18.239999999999384,43.6900595009694],[-20.699999999999477,43.20080892035912],[-23.15999999999957,42.66768322773182],[-25.79999999999967,42.04401326893209],[-28.319999999999762,41.396069038635815],[-30.83999999999986,40.69374040434275],[-33.299999999999955,39.952694111040984],[-34.5,39.57042684194672]]]}}]}