{"type":"FeatureCollection","properties":{"largura_maxima_km":165.885,"largura_sobre_pt_km":161.581,"linha_central_sobre_pt":true,"desenhavel_como_area":true,"perfil_largura":[{"t":-0.37778,"lat":49.6759,"lon":-32.5584,"largura_km":105.921,"eixo_na_terra":true},{"t":-0.37222,"lat":49.3344,"lon":-31.9815,"largura_km":106.955,"eixo_na_terra":true},{"t":-0.36667,"lat":49.0127,"lon":-31.4377,"largura_km":107.924,"eixo_na_terra":true},{"t":-0.36111,"lat":48.708,"lon":-30.9224,"largura_km":108.841,"eixo_na_terra":true},{"t":-0.35556,"lat":48.4183,"lon":-30.4318,"largura_km":109.717,"eixo_na_terra":true},{"t":-0.35,"lat":48.1419,"lon":-29.963,"largura_km":110.556,"eixo_na_terra":true},{"t":-0.34444,"lat":47.8771,"lon":-29.5135,"largura_km":111.366,"eixo_na_terra":true},{"t":-0.33889,"lat":47.6231,"lon":-29.0814,"largura_km":112.151,"eixo_na_terra":true},{"t":-0.33333,"lat":47.3786,"lon":-28.6649,"largura_km":112.911,"eixo_na_terra":true},{"t":-0.32778,"lat":47.1429,"lon":-28.2626,"largura_km":113.652,"eixo_na_terra":true},{"t":-0.32222,"lat":46.9152,"lon":-27.8733,"largura_km":114.373,"eixo_na_terra":true},{"t":-0.31667,"lat":46.695,"lon":-27.4958,"largura_km":115.078,"eixo_na_terra":true},{"t":-0.31111,"lat":46.4816,"lon":-27.1293,"largura_km":115.769,"eixo_na_terra":true},{"t":-0.30556,"lat":46.2747,"lon":-26.773,"largura_km":116.446,"eixo_na_terra":true},{"t":-0.3,"lat":46.0737,"lon":-26.426,"largura_km":117.11,"eixo_na_terra":true},{"t":-0.29444,"lat":45.8782,"lon":-26.0877,"largura_km":117.763,"eixo_na_terra":true},{"t":-0.28889,"lat":45.688,"lon":-25.7577,"largura_km":118.404,"eixo_na_terra":true},{"t":-0.28333,"lat":45.5028,"lon":-25.4353,"largura_km":119.035,"eixo_na_terra":true},{"t":-0.27778,"lat":45.3221,"lon":-25.1201,"largura_km":119.656,"eixo_na_terra":true},{"t":-0.27222,"lat":45.1459,"lon":-24.8116,"largura_km":120.269,"eixo_na_terra":true},{"t":-0.26667,"lat":44.9739,"lon":-24.5095,"largura_km":120.873,"eixo_na_terra":true},{"t":-0.26111,"lat":44.8058,"lon":-24.2134,"largura_km":121.469,"eixo_na_terra":true},{"t":-0.25556,"lat":44.6415,"lon":-23.9231,"largura_km":122.057,"eixo_na_terra":true},{"t":-0.25,"lat":44.4807,"lon":-23.6381,"largura_km":122.639,"eixo_na_terra":true},{"t":-0.24444,"lat":44.3234,"lon":-23.3582,"largura_km":123.213,"eixo_na_terra":true},{"t":-0.23889,"lat":44.1694,"lon":-23.0833,"largura_km":123.781,"eixo_na_terra":true},{"t":-0.23333,"lat":44.0185,"lon":-22.8129,"largura_km":124.343,"eixo_na_terra":true},{"t":-0.22778,"lat":43.8707,"lon":-22.547,"largura_km":124.899,"eixo_na_terra":true},{"t":-0.22222,"lat":43.7257,"lon":-22.2853,"largura_km":125.449,"eixo_na_terra":true},{"t":-0.21667,"lat":43.5835,"lon":-22.0277,"largura_km":125.994,"eixo_na_terra":true},{"t":-0.21111,"lat":43.444,"lon":-21.7739,"largura_km":126.534,"eixo_na_terra":true},{"t":-0.20556,"lat":43.3071,"lon":-21.5238,"largura_km":127.068,"eixo_na_terra":true},{"t":-0.2,"lat":43.1726,"lon":-21.2772,"largura_km":127.598,"eixo_na_terra":true},{"t":-0.19444,"lat":43.0406,"lon":-21.0341,"largura_km":128.123,"eixo_na_terra":true},{"t":-0.18889,"lat":42.9109,"lon":-20.7942,"largura_km":128.644,"eixo_na_terra":true},{"t":-0.18333,"lat":42.7834,"lon":-20.5575,"largura_km":129.161,"eixo_na_terra":true},{"t":-0.17778,"lat":42.6581,"lon":-20.3237,"largura_km":129.674,"eixo_na_terra":true},{"t":-0.17222,"lat":42.535,"lon":-20.0929,"largura_km":130.182,"eixo_na_terra":true},{"t":-0.16667,"lat":42.4138,"lon":-19.8649,"largura_km":130.687,"eixo_na_terra":true},{"t":-0.16111,"lat":42.2947,"lon":-19.6396,"largura_km":131.187,"eixo_na_terra":true},{"t":-0.15556,"lat":42.1774,"lon":-19.4169,"largura_km":131.684,"eixo_na_terra":true},{"t":-0.15,"lat":42.0621,"lon":-19.1967,"largura_km":132.177,"eixo_na_terra":true},{"t":-0.14444,"lat":41.9486,"lon":-18.9789,"largura_km":132.667,"eixo_na_terra":true},{"t":-0.13889,"lat":41.8368,"lon":-18.7635,"largura_km":133.153,"eixo_na_terra":true},{"t":-0.13333,"lat":41.7268,"lon":-18.5503,"largura_km":133.635,"eixo_na_terra":true},{"t":-0.12778,"lat":41.6184,"lon":-18.3393,"largura_km":134.114,"eixo_na_terra":true},{"t":-0.12222,"lat":41.5117,"lon":-18.1305,"largura_km":134.59,"eixo_na_terra":true},{"t":-0.11667,"lat":41.4066,"lon":-17.9236,"largura_km":135.063,"eixo_na_terra":true},{"t":-0.11111,"lat":41.3031,"lon":-17.7188,"largura_km":135.532,"eixo_na_terra":true},{"t":-0.10556,"lat":41.201,"lon":-17.5159,"largura_km":135.998,"eixo_na_terra":true},{"t":-0.1,"lat":41.1005,"lon":-17.3149,"largura_km":136.46,"eixo_na_terra":true},{"t":-0.09444,"lat":41.0014,"lon":-17.1157,"largura_km":136.92,"eixo_na_terra":true},{"t":-0.08889,"lat":40.9038,"lon":-16.9182,"largura_km":137.377,"eixo_na_terra":true},{"t":-0.08333,"lat":40.8075,"lon":-16.7225,"largura_km":137.83,"eixo_na_terra":true},{"t":-0.07778,"lat":40.7126,"lon":-16.5284,"largura_km":138.281,"eixo_na_terra":true},{"t":-0.07222,"lat":40.6191,"lon":-16.3359,"largura_km":138.728,"eixo_na_terra":true},{"t":-0.06667,"lat":40.5268,"lon":-16.1449,"largura_km":139.173,"eixo_na_terra":true},{"t":-0.06111,"lat":40.4358,"lon":-15.9555,"largura_km":139.614,"eixo_na_terra":true},{"t":-0.05556,"lat":40.3461,"lon":-15.7676,"largura_km":140.053,"eixo_na_terra":true},{"t":-0.05,"lat":40.2576,"lon":-15.5811,"largura_km":140.489,"eixo_na_terra":true},{"t":-0.04444,"lat":40.1704,"lon":-15.3959,"largura_km":140.922,"eixo_na_terra":true},{"t":-0.03889,"lat":40.0843,"lon":-15.2122,"largura_km":141.352,"eixo_na_terra":true},{"t":-0.03333,"lat":39.9994,"lon":-15.0297,"largura_km":141.78,"eixo_na_terra":true},{"t":-0.02778,"lat":39.9156,"lon":-14.8485,"largura_km":142.205,"eixo_na_terra":true},{"t":-0.02222,"lat":39.833,"lon":-14.6686,"largura_km":142.627,"eixo_na_terra":true},{"t":-0.01667,"lat":39.7515,"lon":-14.4899,"largura_km":143.046,"eixo_na_terra":true},{"t":-0.01111,"lat":39.671,"lon":-14.3124,"largura_km":143.462,"eixo_na_terra":true},{"t":-0.00556,"lat":39.5916,"lon":-14.136,"largura_km":143.876,"eixo_na_terra":true},{"t":-0.0,"lat":39.5133,"lon":-13.9607,"largura_km":144.286,"eixo_na_terra":true},{"t":0.00556,"lat":39.4361,"lon":-13.7866,"largura_km":144.694,"eixo_na_terra":true},{"t":0.01111,"lat":39.3598,"lon":-13.6135,"largura_km":145.099,"eixo_na_terra":true},{"t":0.01667,"lat":39.2845,"lon":-13.4414,"largura_km":145.5,"eixo_na_terra":true},{"t":0.02222,"lat":39.2103,"lon":-13.2703,"largura_km":145.899,"eixo_na_terra":true},{"t":0.02778,"lat":39.137,"lon":-13.1003,"largura_km":146.295,"eixo_na_terra":true},{"t":0.03333,"lat":39.0647,"lon":-12.9311,"largura_km":146.688,"eixo_na_terra":true},{"t":0.03889,"lat":38.9933,"lon":-12.763,"largura_km":147.078,"eixo_na_terra":true},{"t":0.04444,"lat":38.9229,"lon":-12.5957,"largura_km":147.466,"eixo_na_terra":true},{"t":0.05,"lat":38.8533,"lon":-12.4293,"largura_km":147.851,"eixo_na_terra":true},{"t":0.05556,"lat":38.7847,"lon":-12.2638,"largura_km":148.232,"eixo_na_terra":true},{"t":0.06111,"lat":38.717,"lon":-12.0991,"largura_km":148.611,"eixo_na_terra":true},{"t":0.06667,"lat":38.6502,"lon":-11.9352,"largura_km":148.986,"eixo_na_terra":true},{"t":0.07222,"lat":38.5843,"lon":-11.7722,"largura_km":149.358,"eixo_na_terra":true},{"t":0.07778,"lat":38.5192,"lon":-11.6099,"largura_km":149.728,"eixo_na_terra":true},{"t":0.08333,"lat":38.455,"lon":-11.4484,"largura_km":150.094,"eixo_na_terra":true},{"t":0.08889,"lat":38.3916,"lon":-11.2876,"largura_km":150.456,"eixo_na_terra":true},{"t":0.09444,"lat":38.329,"lon":-11.1275,"largura_km":150.817,"eixo_na_terra":true},{"t":0.1,"lat":38.2673,"lon":-10.9682,"largura_km":151.174,"eixo_na_terra":true},{"t":0.10556,"lat":38.2064,"lon":-10.8095,"largura_km":151.528,"eixo_na_terra":true},{"t":0.11111,"lat":38.1463,"lon":-10.6515,"largura_km":151.879,"eixo_na_terra":true},{"t":0.11667,"lat":38.087,"lon":-10.4942,"largura_km":152.226,"eixo_na_terra":true},{"t":0.12222,"lat":38.0285,"lon":-10.3375,"largura_km":152.57,"eixo_na_terra":true},{"t":0.12778,"lat":37.9708,"lon":-10.1814,"largura_km":152.911,"eixo_na_terra":true},{"t":0.13333,"lat":37.9139,"lon":-10.0259,"largura_km":153.248,"eixo_na_terra":true},{"t":0.13889,"lat":37.8577,"lon":-9.871,"largura_km":153.582,"eixo_na_terra":true},{"t":0.14444,"lat":37.8022,"lon":-9.7167,"largura_km":153.912,"eixo_na_terra":true},{"t":0.15,"lat":37.7476,"lon":-9.5629,"largura_km":154.238,"eixo_na_terra":true},{"t":0.15556,"lat":37.6936,"lon":-9.4097,"largura_km":154.561,"eixo_na_terra":true},{"t":0.16111,"lat":37.6404,"lon":-9.257,"largura_km":154.88,"eixo_na_terra":true},{"t":0.16667,"lat":37.588,"lon":-9.1049,"largura_km":155.196,"eixo_na_terra":true},{"t":0.17222,"lat":37.5362,"lon":-8.9532,"largura_km":155.507,"eixo_na_terra":true},{"t":0.17778,"lat":37.4852,"lon":-8.802,"largura_km":155.815,"eixo_na_terra":true},{"t":0.18333,"lat":37.4349,"lon":-8.6513,"largura_km":156.12,"eixo_na_terra":true},{"t":0.18889,"lat":37.3853,"lon":-8.5011,"largura_km":156.421,"eixo_na_terra":true},{"t":0.19444,"lat":37.3364,"lon":-8.3513,"largura_km":156.719,"eixo_na_terra":true},{"t":0.2,"lat":37.2882,"lon":-8.2019,"largura_km":157.012,"eixo_na_terra":true},{"t":0.20556,"lat":37.2407,"lon":-8.053,"largura_km":157.301,"eixo_na_terra":true},{"t":0.21111,"lat":37.1939,"lon":-7.9044,"largura_km":157.587,"eixo_na_terra":true},{"t":0.21667,"lat":37.1477,"lon":-7.7563,"largura_km":157.869,"eixo_na_terra":true},{"t":0.22222,"lat":37.1022,"lon":-7.6086,"largura_km":158.148,"eixo_na_terra":true},{"t":0.22778,"lat":37.0574,"lon":-7.4612,"largura_km":158.422,"eixo_na_terra":true},{"t":0.23333,"lat":37.0133,"lon":-7.3142,"largura_km":158.691,"eixo_na_terra":true},{"t":0.23889,"lat":36.9698,"lon":-7.1676,"largura_km":158.957,"eixo_na_terra":true},{"t":0.24444,"lat":36.9269,"lon":-7.0212,"largura_km":159.218,"eixo_na_terra":true},{"t":0.25,"lat":36.8848,"lon":-6.8753,"largura_km":159.475,"eixo_na_terra":true},{"t":0.25556,"lat":36.8432,"lon":-6.7296,"largura_km":159.727,"eixo_na_terra":true},{"t":0.26111,"lat":36.8023,"lon":-6.5843,"largura_km":159.975,"eixo_na_terra":true},{"t":0.26667,"lat":36.7621,"lon":-6.4393,"largura_km":160.219,"eixo_na_terra":true},{"t":0.27222,"lat":36.7225,"lon":-6.2945,"largura_km":160.457,"eixo_na_terra":true},{"t":0.27778,"lat":36.6835,"lon":-6.15,"largura_km":160.692,"eixo_na_terra":true},{"t":0.28333,"lat":36.6452,"lon":-6.0058,"largura_km":160.921,"eixo_na_terra":true},{"t":0.28889,"lat":36.6074,"lon":-5.8619,"largura_km":161.146,"eixo_na_terra":true},{"t":0.29444,"lat":36.5703,"lon":-5.7182,"largura_km":161.366,"eixo_na_terra":true},{"t":0.3,"lat":36.5338,"lon":-5.5747,"largura_km":161.581,"eixo_na_terra":true},{"t":0.30556,"lat":36.498,"lon":-5.4315,"largura_km":161.792,"eixo_na_terra":true},{"t":0.31111,"lat":36.4627,"lon":-5.2885,"largura_km":161.999,"eixo_na_terra":true},{"t":0.31667,"lat":36.4281,"lon":-5.1457,"largura_km":162.2,"eixo_na_terra":true},{"t":0.32222,"lat":36.394,"lon":-5.0031,"largura_km":162.397,"eixo_na_terra":true},{"t":0.32778,"lat":36.3606,"lon":-4.8607,"largura_km":162.59,"eixo_na_terra":true},{"t":0.33333,"lat":36.3278,"lon":-4.7185,"largura_km":162.778,"eixo_na_terra":true},{"t":0.33889,"lat":36.2956,"lon":-4.5765,"largura_km":162.961,"eixo_na_terra":true},{"t":0.34444,"lat":36.2639,"lon":-4.4346,"largura_km":163.138,"eixo_na_terra":true},{"t":0.35,"lat":36.2329,"lon":-4.2929,"largura_km":163.31,"eixo_na_terra":true},{"t":0.35556,"lat":36.2025,"lon":-4.1513,"largura_km":163.477,"eixo_na_terra":true},{"t":0.36111,"lat":36.1726,"lon":-4.0099,"largura_km":163.639,"eixo_na_terra":true},{"t":0.36667,"lat":36.1433,"lon":-3.8686,"largura_km":163.795,"eixo_na_terra":true},{"t":0.37222,"lat":36.1147,"lon":-3.7274,"largura_km":163.946,"eixo_na_terra":true},{"t":0.37778,"lat":36.0866,"lon":-3.5863,"largura_km":164.091,"eixo_na_terra":true},{"t":0.38333,"lat":36.0591,"lon":-3.4453,"largura_km":164.231,"eixo_na_terra":true},{"t":0.38889,"lat":36.0322,"lon":-3.3044,"largura_km":164.365,"eixo_na_terra":true},{"t":0.39444,"lat":36.0058,"lon":-3.1637,"largura_km":164.494,"eixo_na_terra":true},{"t":0.4,"lat":35.9801,"lon":-3.0229,"largura_km":164.617,"eixo_na_terra":true},{"t":0.40556,"lat":35.9549,"lon":-2.8823,"largura_km":164.735,"eixo_na_terra":true},{"t":0.41111,"lat":35.9303,"lon":-2.7417,"largura_km":164.846,"eixo_na_terra":true},{"t":0.41667,"lat":35.9063,"lon":-2.6012,"largura_km":164.952,"eixo_na_terra":true},{"t":0.42222,"lat":35.8828,"lon":-2.4607,"largura_km":165.054,"eixo_na_terra":true},{"t":0.42778,"lat":35.8599,"lon":-2.3203,"largura_km":165.15,"eixo_na_terra":true},{"t":0.43333,"lat":35.8376,"lon":-2.1798,"largura_km":165.241,"eixo_na_terra":true},{"t":0.43889,"lat":35.8159,"lon":-2.0394,"largura_km":165.326,"eixo_na_terra":true},{"t":0.44444,"lat":35.7947,"lon":-1.899,"largura_km":165.406,"eixo_na_terra":true},{"t":0.45,"lat":35.7742,"lon":-1.7587,"largura_km":165.479,"eixo_na_terra":true},{"t":0.45556,"lat":35.7541,"lon":-1.6183,"largura_km":165.547,"eixo_na_terra":true},{"t":0.46111,"lat":35.7347,"lon":-1.4779,"largura_km":165.608,"eixo_na_terra":true},{"t":0.46667,"lat":35.7158,"lon":-1.3374,"largura_km":165.663,"eixo_na_terra":true},{"t":0.47222,"lat":35.6975,"lon":-1.197,"largura_km":165.713,"eixo_na_terra":true},{"t":0.47778,"lat":35.6797,"lon":-1.0565,"largura_km":165.756,"eixo_na_terra":true},{"t":0.48333,"lat":35.6626,"lon":-0.9159,"largura_km":165.793,"eixo_na_terra":true},{"t":0.48889,"lat":35.646,"lon":-0.7753,"largura_km":165.824,"eixo_na_terra":true},{"t":0.49444,"lat":35.6299,"lon":-0.6347,"largura_km":165.848,"eixo_na_terra":true},{"t":0.5,"lat":35.6145,"lon":-0.4939,"largura_km":165.867,"eixo_na_terra":true},{"t":0.50556,"lat":35.5996,"lon":-0.3531,"largura_km":165.879,"eixo_na_terra":true},{"t":0.51111,"lat":35.5852,"lon":-0.2122,"largura_km":165.885,"eixo_na_terra":true},{"t":0.51667,"lat":35.5715,"lon":-0.0712,"largura_km":165.885,"eixo_na_terra":true},{"t":0.52222,"lat":35.5583,"lon":0.0699,"largura_km":165.878,"eixo_na_terra":true},{"t":0.52778,"lat":35.5456,"lon":0.2111,"largura_km":165.866,"eixo_na_terra":true},{"t":0.53333,"lat":35.5336,"lon":0.3525,"largura_km":165.85,"eixo_na_terra":true},{"t":0.53889,"lat":35.5221,"lon":0.4939,"largura_km":165.827,"eixo_na_terra":true},{"t":0.54444,"lat":35.5112,"lon":0.6355,"largura_km":165.798,"eixo_na_terra":true},{"t":0.55,"lat":35.5009,"lon":0.7773,"largura_km":165.762,"eixo_na_terra":true},{"t":0.55556,"lat":35.4911,"lon":0.9192,"largura_km":165.72,"eixo_na_terra":true},{"t":0.56111,"lat":35.4819,"lon":1.0613,"largura_km":165.672,"eixo_na_terra":true},{"t":0.56667,"lat":35.4733,"lon":1.2035,"largura_km":165.617,"eixo_na_terra":true},{"t":0.57222,"lat":35.4652,"lon":1.346,"largura_km":165.556,"eixo_na_terra":true},{"t":0.57778,"lat":35.4578,"lon":1.4886,"largura_km":165.489,"eixo_na_terra":true},{"t":0.58333,"lat":35.4509,"lon":1.6314,"largura_km":165.415,"eixo_na_terra":true},{"t":0.58889,"lat":35.4446,"lon":1.7745,"largura_km":165.335,"eixo_na_terra":true},{"t":0.59444,"lat":35.4389,"lon":1.9177,"largura_km":165.248,"eixo_na_terra":true},{"t":0.6,"lat":35.4337,"lon":2.0612,"largura_km":165.155,"eixo_na_terra":true},{"t":0.60556,"lat":35.4292,"lon":2.2049,"largura_km":165.055,"eixo_na_terra":true},{"t":0.61111,"lat":35.4252,"lon":2.3489,"largura_km":164.949,"eixo_na_terra":true},{"t":0.61667,"lat":35.4218,"lon":2.4931,"largura_km":164.837,"eixo_na_terra":true},{"t":0.62222,"lat":35.419,"lon":2.6376,"largura_km":164.718,"eixo_na_terra":true},{"t":0.62778,"lat":35.4168,"lon":2.7823,"largura_km":164.593,"eixo_na_terra":true},{"t":0.63333,"lat":35.4152,"lon":2.9274,"largura_km":164.463,"eixo_na_terra":true},{"t":0.63889,"lat":35.4142,"lon":3.0727,"largura_km":164.328,"eixo_na_terra":true},{"t":0.64444,"lat":35.4138,"lon":3.2183,"largura_km":164.186,"eixo_na_terra":true},{"t":0.65,"lat":35.414,"lon":3.3643,"largura_km":164.038,"eixo_na_terra":true},{"t":0.65556,"lat":35.4148,"lon":3.5106,"largura_km":163.883,"eixo_na_terra":true},{"t":0.66111,"lat":35.4162,"lon":3.6572,"largura_km":163.722,"eixo_na_terra":true},{"t":0.66667,"lat":35.4182,"lon":3.8041,"largura_km":163.555,"eixo_na_terra":true},{"t":0.67222,"lat":35.4209,"lon":3.9514,"largura_km":163.382,"eixo_na_terra":true},{"t":0.67778,"lat":35.4241,"lon":4.0991,"largura_km":163.202,"eixo_na_terra":true},{"t":0.68333,"lat":35.4279,"lon":4.2472,"largura_km":163.016,"eixo_na_terra":true},{"t":0.68889,"lat":35.4324,"lon":4.3956,"largura_km":162.823,"eixo_na_terra":true},{"t":0.69444,"lat":35.4375,"lon":4.5444,"largura_km":162.625,"eixo_na_terra":true},{"t":0.7,"lat":35.4433,"lon":4.6937,"largura_km":162.42,"eixo_na_terra":true},{"t":0.70556,"lat":35.4496,"lon":4.8433,"largura_km":162.209,"eixo_na_terra":true},{"t":0.71111,"lat":35.4566,"lon":4.9934,"largura_km":161.991,"eixo_na_terra":true}]},"features":[{"type":"Feature","properties":{},"geometry":{"type":"Polygon","coordinates":[[[0.20418364863041916,36.29798157986678],[0.6265046204532041,36.26218287021173],[0.91411659618052,36.24072810553689],[1.2023748500157296,36.22159641026037],[1.4913519696228263,36.204795909410386],[1.7811215259271478,36.1903361504233],[2.071758196301971,36.1782281322294],[2.3633378925674435,36.16848433855549],[2.6559378944336913,36.161118775663276],[2.94963698906804,36.15614701477389],[3.384244213726703,36.1532528268059],[3.6810329219669597,36.154301182748945],[3.979209594002839,36.15781061032769],[4.278861705868678,36.16380436668644],[4.580079152330654,36.17230760493529],[4.882954447351921,36.18334745583653],[5.187582938183027,36.19695311745649],[4.805858863824113,34.720575230227425],[4.363804093621752,34.701808598649734],[4.0710883986429,34.69239609694136],[3.7798627170053862,34.68543213109774],[3.4900440248598272,34.68089275785733],[3.2015514766953572,34.6787557806277],[2.9143062404504008,34.67900068260165],[2.6282313420889523,34.681608565804176],[2.193029393513541,34.69008211201786],[1.9095642842623022,34.69856676617026],[1.627011905507402,34.70936008031441],[1.3453019444322365,34.72244984368409],[1.0643652222927074,34.73782521807443],[0.7841335815086268,34.75547670706518],[0.504539776969068,34.77539612895466],[0.22551737105601433,34.79757659323777],[-0.06102475545651487,34.822736528738695],[-0.3390982726931213,34.84946450709242],[-0.7555250838416043,34.89377065233008],[-1.0327808118550479,34.92611523962259],[-1.4482805742084963,34.97884273650896],[-1.725117186161583,35.016803626622604],[-2.1402859179699476,35.07796628754816],[-2.417100256732624,35.12156220843939],[-2.8405367144183913,35.19256244676372],[-3.1177329174139743,35.2418728767933],[-3.53404233030156,35.32012484817762],[-3.8120204642287376,35.37516618331171],[-4.229810509561133,35.462069437900446],[-4.648789207396277,35.554225261086835],[-4.928882386053203,35.61860741374682],[-5.217730897352396,35.6873112615697],[-5.640410032094593,35.79201492764152],[-6.06507118155335,35.90218437999698],[-6.349403993313473,35.97870690441831],[-6.777933429090098,36.09817041864341],[-7.065088687602838,36.18097400714238],[-7.498229481870197,36.30999821428245],[-7.788718695629598,36.39927544400655],[-8.088915228374077,36.493826973399116],[-8.529896877622406,36.63684431715455],[-8.974744727322701,36.786051957121586],[-9.273622503737158,36.88903725332013],[-9.72566748156325,37.04890665438006],[-10.029675032922285,37.159156616315414],[-10.335930689170198,37.27240787480785],[-10.644553582064077,37.388719967101686],[-11.112199978280131,37.5690664157322],[-11.594491622695273,37.76012079563936],[-12.074782075225784,37.95532512034663],[-12.398855514490492,38.0897709761099],[-12.891189702094664,38.29812519248856],[-13.22381383623869,38.441624439720556],[-13.729814952103794,38.66402716158537],[-14.072149035487257,38.817228991407056],[-14.593686033695349,39.05473779922962],[-15.125566629938987,39.30189766695415],[-15.495593145483383,39.476712099955236],[-16.04679318482306,39.741215756674755],[-16.61085924850596,40.01684600184138],[-16.99461169491599,40.207112466373175],[-17.582738127660946,40.502837171944996],[-17.983757685247554,40.70723005088059],[-18.59984023765972,41.025371737762946],[-19.02101350485634,41.24561689467081],[-19.669894477888306,41.589077463738974],[-20.11484710166829,41.827351616249715],[-20.5705459700996,42.073579949272165],[-21.28707986967268,42.46505661695791],[-22.27439198395632,43.01218316431715],[-23.054756019031572,43.45043216709338],[-23.596701690692697,43.75751640596669],[-24.74091973438027,44.41243379413582],[-25.6610428337967,44.94477212330807],[-26.309520184116423,45.322581463858405],[-27.723855759877694,46.153118662857494],[-28.48657352040749,46.60387360111073],[-29.730853468650736,47.3426499645064],[-31.664402481208242,48.496763318429394],[-33.77876902519233,51.04038646612855],[-30.796153763303266,49.29400292449695],[-29.354286784821937,48.45317314791218],[-28.0913099627939,47.72009994706605],[-26.588344795299605,46.8542484454294],[-25.239440423062717,46.085149124452315],[-24.007719808202864,45.39122627285844],[-23.42780618590345,45.06776117244357],[-22.856806186927145,44.751642533412884],[-22.316625987604823,44.454712591204796],[-21.549063516861082,44.0367504463524],[-20.561824437867017,43.50695043090187],[-20.087724595659722,43.255858689928395],[-19.39827477258376,42.89488567223269],[-18.951912156672137,42.663973404112085],[-18.300478978305875,42.33114991441286],[-17.877341653342313,42.11775377712094],[-17.257960041467612,41.8095634123534],[-16.854525583582443,41.61161076583959],[-16.262481807176414,41.32528653056882],[-15.875934932567418,41.14112969344177],[-15.307422765347013,40.87445193619467],[-14.93546811536541,40.70275804439776],[-14.387356753731979,40.4539177916598],[-14.02809037660154,40.29359305565724],[-13.497762699370156,40.06109663042158],[-13.14958118945205,39.91123272905262],[-12.643638694395406,39.69750237483012],[-12.137203897706968,39.4885536767945],[-11.638551723170536,39.28780980563768],[-11.310152166128233,39.15838442412238],[-10.823202824437828,38.97064002397865],[-10.342581895852106,38.79033447837017],[-9.867813282756288,38.617226408775394],[-9.554331248175913,38.50571007200185],[-9.088341440442093,38.34411797658197],[-8.635394176716943,38.191920389851035],[-8.178435949427325,38.04338539268175],[-7.725470624063803,37.90117302524738],[-7.2761584208844,37.765139119195574],[-6.830175641382112,37.635152256065524],[-6.387212894526755,37.51109283829558],[-5.946973495615026,37.39285227460825],[-5.50917201289522,37.280332265897634],[-5.081611224466485,37.17540036263182],[-4.647847528746894,37.07399916182489],[-4.359597664057617,37.0094480365946],[-3.9284238142838888,36.91714842605457],[-3.4984702429812558,36.830230861008474],[-3.069492950136407,36.748645605861704],[-2.641251972426602,36.67235033292128],[-2.221522557998327,36.602612974062716],[-1.7940401954277547,36.53673672795177],[-1.366591755049626,36.476066101642985],[-0.9389450903294687,36.42058655928069],[-0.5108680307876057,36.37029028771987],[-0.08212759801506309,36.32517617842791],[0.20418364863041916,36.29798157986678]]]}}]}