{"type":"FeatureCollection","features":[{"type":"Feature","properties":{"t_inicio":-0.37777777777779065,"t_fim":0.7111111111110944},"geometry":{"type":"LineString","coordinates":[[-32.55835114704334,49.67586085917295],[-31.98148015385368,49.33436723820692],[-31.437726026339334,49.01266788748133],[-30.922402567190176,48.70804289232008],[-30.43181977187905,48.41834725203491],[-29.963010996781406,48.14185388391964],[-29.513549202633158,47.87714779734361],[-29.08141912884915,47.6230524188806],[-28.66492590944543,47.37857687897108],[-28.26262819030265,47.14287740105499],[-27.873288171612842,46.915228438722046],[-27.49583362067881,46.69500071153383],[-27.129328527817478,46.48164422511968],[-26.7729501184468,46.27467495902913],[-26.42597061664742,46.073664298068536],[-26.08774261319175,45.87823054613196],[-25.757687204434916,45.68803204189033],[-25.435284287051218,45.50276152155492],[-25.12006454862373,45.322141463223105],[-24.81160280571737,45.14592021163642],[-24.509512422566047,44.97386872916606],[-24.21344060377129,44.80577785360066],[-23.923064399504028,44.64145596932935],[-23.638087295810124,44.48072701820457],[-23.358236288679734,44.32342879141702],[-23.083259360641478,44.16941145532883],[-22.8129232942768,44.01853627324862],[-22.54701176931769,43.87067449222493],[-22.285323699682124,43.72570636954085],[-22.02767177452108,43.58352031806144],[-21.773881173534335,43.44401215316377],[-21.523788431801933,43.30708442687098],[-21.27724043342448,43.17264583715622],[-21.034093516570948,43.04061070229792],[-20.79421267523921,42.91089849173816],[-20.557470845273087,42.78343340619438],[-20.323748264027643,42.658144000847834],[-20.092931894618403,42.53496284632744],[-19.864914906977674,42.413826222957724],[-19.63959620902321,42.29467384436545],[-19.416880022156562,42.17744860707317],[-19.196675496080132,42.062096363154104],[-18.97889635857723,41.94856571340499],[-18.76346059645755,41.836807818819075],[-18.55029016434858,41.726776228418295],[-18.33931071842227,41.61842672174379],[-18.13045137249921,41.51171716450762],[-17.923644474276387,41.40660737608698],[-17.718825399687944,41.30305900769566],[-17.51593236363587,41.201035430199504],[-17.314906245528164,41.10050163066092],[-17.11569042823257,41.001424116795576],[-16.91823064920797,40.903770828616004],[-16.722474862706918,40.80751105661234],[-16.528373112059654,40.71261536588952],[-16.335877411153064,40.61905552573988],[-16.14494163430811,40.52680444418401],[-15.95552141383979,40.43583610705794],[-15.767574044654253,40.34612552126809],[-15.581058395300772,40.25764866187127],[-15.395934824952661,40.170382422669654],[-15.212165105840114,40.08430457004062],[-15.029712350703676,39.99939369974718],[-14.848540944875907,39.91562919649754],[-14.66861648263449,39.8329911960438],[-14.4899057075026,39.75146054962868],[-14.312376456200354,39.67101879060532],[-14.135997605977252,39.59164810307098],[-13.960739025078482,39.51333129236864],[-13.786571526119644,39.436051757323746],[-13.613466822162394,39.35979346409269],[-13.441397485301337,39.28454092151211],[-13.270336907587762,39.21027915784497],[-13.10025926412996,39.13699369882914],[-12.931139478222434,39.06467054694101],[-12.762953188368328,38.993296161794156],[-12.595676717069523,38.922857441597955],[-12.42928704126885,38.85334170560899],[-12.263761764337232,38.78473667751072],[-12.099079089507256,38.71703046966379],[-11.935217794661355,38.650211568171954],[-11.772157208389672,38.58426881871428],[-11.609877187239164,38.5191914130962],[-11.448358094080959,38.45496887647665],[-11.28758077752758,38.39159105523083],[-11.127526552337628,38.32904810541145],[-10.968177180748796,38.26733048177352],[-10.809514854684352,38.206428927330194],[-10.651522178782784,38.14633446340986],[-10.494182154202264,38.08703838018576],[-10.337478163155964,38.02853222765251],[-10.181393954136894,37.97080780702427],[-10.025913627792903,37.9138571625323],[-9.871021623416254,37.857672573600034],[-9.716702706013194,37.80224654737561],[-9.562941953922035,37.74757181160313],[-9.409724746950019,37.693641307815454],[-9.2570367550004,37.64044818483095],[-9.104863927164075,37.58798579254006],[-8.95319248125071,37.53624767596578],[-8.802008893736172,37.48522756958583],[-8.651299890104639,37.43491939190228],[-8.501052435564361,37.385317240247566],[-8.351253726118102,37.336415385815165],[-8.201891179970033,37.28820826890435],[-8.052952429251349,37.240690494368856],[-7.904425312048829,37.19385682726015],[-7.756297864720921,37.1477021886563],[-7.608558314486373,37.102221651668124],[-7.46119507227246,37.0574104376146],[-7.3141967258089835,37.013263912360095],[-7.167552032956365,36.96977758280649],[-7.021249915255851,36.926947093533386],[-6.875279451690744,36.88476822357988],[-6.729629872648587,36.84323688336312],[-6.584290554073533,36.802349111725874],[-6.439251011800309,36.76210107311053],[-6.294500896060242,36.72248905485197],[-6.15002998615077,36.6835094645866],[-6.005828185260697,36.64515882777162],[-5.861885515442879,36.607433785311294],[-5.718192112727223,36.570331091285716],[-5.57473822236696,36.53384761077833],[-5.43151419421136,36.49798031779893],[-5.288510478198106,36.46272629329849],[-5.145717619959839,36.428082723272766],[-5.00312625653828,36.39404689695151],[-4.860727112200465,36.36061620507079],[-4.718510994351902,36.32778813822532],[-4.5764687895409395,36.29556028529864],[-4.43459145954975,36.26393033196839],[-4.292870037566644,36.232896059284855],[-4.1512956244355905,36.20245534232023],[-4.00985938497783,36.17260614888697],[-3.8685525443816857,36.14334653832313],[-3.7273663846561647,36.11467466034298],[-3.586292241144264,36.08658875395126],[-3.445321499092074,36.05908714641969],[-3.3044455902699212,36.03216825232393],[-3.1636559896415406,36.00583057263986],[-3.022944212077988,35.98007269389818],[-2.882301809112562,35.95489328739559],[-2.741720365733272,35.93029110846198],[-2.6011914972094416,35.9062649957823],[-2.460706845949346,35.882813870772615],[-2.320258078385251,35.85993673700899],[-2.179836881883034,35.83763267970884],[-2.0394349616729244,35.815900865264055],[-1.8990440377986033,35.794740540824996],[-1.758655842080998,35.77415103393526],[-1.6182621150944954,35.75413175221653],[-1.477854603151826,35.73468218310293],[-1.3374250552951708,35.71580189362528],[-1.1969652202900818,35.697490530243876],[-1.0564668436195177,35.67974781873101],[-0.9159216644747232,35.66257356410189],[-0.7753214127404249,35.645967650594635],[-0.6346578059706474,35.629930041699126],[-0.49392254635287713,35.6144607802351],[-0.3531073176568498,35.59955998847902],[-0.21220378216543168,35.585227868340965],[-0.07120357758404339,35.571464701590635],[0.06990168607416081,35.55827085013411],[0.21112042963071076,35.545646756340766],[0.3524611079154454,35.53359294342163],[0.49393221297376044,35.52211001585919],[0.6355422773120267,35.51119865988996],[0.777299877183566,35.50085964404],[0.9192136359195047,35.49109381971455],[1.061292227307689,35.48190212184253],[1.2035443790236684,35.4732855695773],[1.3459788761173286,35.46524526705419],[1.4886045645593242,35.457782404206334],[1.6314303548513465,35.45089825764013],[1.774465225704489,35.44459419157178],[1.9177182277897202,35.43887165882592],[2.061198487565548,35.4337322018985],[2.2049152111871706,35.42917745408532],[2.3488776885018012,35.42520914067805],[2.4930952971357954,35.42182908022989],[2.637577506678298,35.41903918589244],[2.7823338829668103,35.416841466826675],[2.9273740924810454,35.415238029689895],[3.072707906850212,35.41423108020097],[3.218345207480212,35.41382292478715],[3.3642959903074257,35.414015972314694],[3.510570370685656,35.41481273590648],[3.6571785884131316,35.41621583484974],[3.804131012907476,35.4182279965973],[3.951438148535914,35.42085205886575],[4.099110640109188,35.42409097183441],[4.247159278547741,35.42794780044908],[4.395595006728911,35.432425726834644],[4.544428925525068,35.43752805282106],[4.693672300042209,35.44325820258781],[4.84333656606978,35.449619725430985],[4.993433336752844,35.45661629865946]]}}]}