{"type":"FeatureCollection","properties":{"largura_maxima_km":72.435,"largura_sobre_pt_km":49.023,"linha_central_sobre_pt":false,"desenhavel_como_area":true,"perfil_largura":[{"t":-2.02778,"lat":27.2347,"lon":-39.9506,"largura_km":72.435,"eixo_na_terra":true},{"t":-2.02222,"lat":27.3008,"lon":-39.5566,"largura_km":71.989,"eixo_na_terra":true},{"t":-2.01667,"lat":27.3648,"lon":-39.1703,"largura_km":71.553,"eixo_na_terra":true},{"t":-2.01111,"lat":27.4266,"lon":-38.7915,"largura_km":71.126,"eixo_na_terra":true},{"t":-2.00556,"lat":27.4865,"lon":-38.4195,"largura_km":70.707,"eixo_na_terra":true},{"t":-2.0,"lat":27.5445,"lon":-38.0542,"largura_km":70.295,"eixo_na_terra":true},{"t":-1.99444,"lat":27.6007,"lon":-37.6952,"largura_km":69.891,"eixo_na_terra":true},{"t":-1.98889,"lat":27.6552,"lon":-37.3423,"largura_km":69.494,"eixo_na_terra":true},{"t":-1.98333,"lat":27.708,"lon":-36.9951,"largura_km":69.105,"eixo_na_terra":true},{"t":-1.97778,"lat":27.7592,"lon":-36.6534,"largura_km":68.722,"eixo_na_terra":true},{"t":-1.97222,"lat":27.8089,"lon":-36.317,"largura_km":68.346,"eixo_na_terra":true},{"t":-1.96667,"lat":27.8572,"lon":-35.9856,"largura_km":67.975,"eixo_na_terra":true},{"t":-1.96111,"lat":27.904,"lon":-35.6591,"largura_km":67.61,"eixo_na_terra":true},{"t":-1.95556,"lat":27.9494,"lon":-35.3372,"largura_km":67.251,"eixo_na_terra":true},{"t":-1.95,"lat":27.9935,"lon":-35.0199,"largura_km":66.897,"eixo_na_terra":true},{"t":-1.94444,"lat":28.0363,"lon":-34.7068,"largura_km":66.548,"eixo_na_terra":true},{"t":-1.93889,"lat":28.078,"lon":-34.3979,"largura_km":66.205,"eixo_na_terra":true},{"t":-1.93333,"lat":28.1184,"lon":-34.0931,"largura_km":65.866,"eixo_na_terra":true},{"t":-1.92778,"lat":28.1576,"lon":-33.7921,"largura_km":65.532,"eixo_na_terra":true},{"t":-1.92222,"lat":28.1958,"lon":-33.4949,"largura_km":65.203,"eixo_na_terra":true},{"t":-1.91667,"lat":28.2328,"lon":-33.2013,"largura_km":64.878,"eixo_na_terra":true},{"t":-1.91111,"lat":28.2688,"lon":-32.9112,"largura_km":64.557,"eixo_na_terra":true},{"t":-1.90556,"lat":28.3038,"lon":-32.6245,"largura_km":64.241,"eixo_na_terra":true},{"t":-1.9,"lat":28.3377,"lon":-32.3411,"largura_km":63.929,"eixo_na_terra":true},{"t":-1.89444,"lat":28.3707,"lon":-32.0609,"largura_km":63.621,"eixo_na_terra":true},{"t":-1.88889,"lat":28.4028,"lon":-31.7837,"largura_km":63.318,"eixo_na_terra":true},{"t":-1.88333,"lat":28.4339,"lon":-31.5096,"largura_km":63.018,"eixo_na_terra":true},{"t":-1.87778,"lat":28.4641,"lon":-31.2384,"largura_km":62.722,"eixo_na_terra":true},{"t":-1.87222,"lat":28.4935,"lon":-30.9701,"largura_km":62.429,"eixo_na_terra":true},{"t":-1.86667,"lat":28.522,"lon":-30.7045,"largura_km":62.14,"eixo_na_terra":true},{"t":-1.86111,"lat":28.5497,"lon":-30.4416,"largura_km":61.854,"eixo_na_terra":true},{"t":-1.85556,"lat":28.5765,"lon":-30.1813,"largura_km":61.572,"eixo_na_terra":true},{"t":-1.85,"lat":28.6026,"lon":-29.9235,"largura_km":61.292,"eixo_na_terra":true},{"t":-1.84444,"lat":28.6279,"lon":-29.6683,"largura_km":61.016,"eixo_na_terra":true},{"t":-1.83889,"lat":28.6524,"lon":-29.4154,"largura_km":60.743,"eixo_na_terra":true},{"t":-1.83333,"lat":28.6762,"lon":-29.1649,"largura_km":60.473,"eixo_na_terra":true},{"t":-1.82778,"lat":28.6992,"lon":-28.9167,"largura_km":60.205,"eixo_na_terra":true},{"t":-1.82222,"lat":28.7216,"lon":-28.6708,"largura_km":59.941,"eixo_na_terra":true},{"t":-1.81667,"lat":28.7432,"lon":-28.427,"largura_km":59.68,"eixo_na_terra":true},{"t":-1.81111,"lat":28.7641,"lon":-28.1854,"largura_km":59.421,"eixo_na_terra":true},{"t":-1.80556,"lat":28.7844,"lon":-27.9459,"largura_km":59.165,"eixo_na_terra":true},{"t":-1.8,"lat":28.8041,"lon":-27.7084,"largura_km":58.912,"eixo_na_terra":true},{"t":-1.79444,"lat":28.8231,"lon":-27.4729,"largura_km":58.662,"eixo_na_terra":true},{"t":-1.78889,"lat":28.8414,"lon":-27.2394,"largura_km":58.414,"eixo_na_terra":true},{"t":-1.78333,"lat":28.8591,"lon":-27.0078,"largura_km":58.169,"eixo_na_terra":true},{"t":-1.77778,"lat":28.8763,"lon":-26.778,"largura_km":57.927,"eixo_na_terra":true},{"t":-1.77222,"lat":28.8928,"lon":-26.5501,"largura_km":57.687,"eixo_na_terra":true},{"t":-1.76667,"lat":28.9087,"lon":-26.324,"largura_km":57.449,"eixo_na_terra":true},{"t":-1.76111,"lat":28.9241,"lon":-26.0996,"largura_km":57.213,"eixo_na_terra":true},{"t":-1.75556,"lat":28.9389,"lon":-25.877,"largura_km":56.98,"eixo_na_terra":true},{"t":-1.75,"lat":28.9531,"lon":-25.656,"largura_km":56.749,"eixo_na_terra":true},{"t":-1.74444,"lat":28.9668,"lon":-25.4367,"largura_km":56.52,"eixo_na_terra":true},{"t":-1.73889,"lat":28.98,"lon":-25.2191,"largura_km":56.294,"eixo_na_terra":true},{"t":-1.73333,"lat":28.9926,"lon":-25.003,"largura_km":56.069,"eixo_na_terra":true},{"t":-1.72778,"lat":29.0047,"lon":-24.7884,"largura_km":55.846,"eixo_na_terra":true},{"t":-1.72222,"lat":29.0162,"lon":-24.5754,"largura_km":55.626,"eixo_na_terra":true},{"t":-1.71667,"lat":29.0273,"lon":-24.3639,"largura_km":55.408,"eixo_na_terra":true},{"t":-1.71111,"lat":29.0379,"lon":-24.1539,"largura_km":55.192,"eixo_na_terra":true},{"t":-1.70556,"lat":29.048,"lon":-23.9454,"largura_km":54.978,"eixo_na_terra":true},{"t":-1.7,"lat":29.0576,"lon":-23.7382,"largura_km":54.766,"eixo_na_terra":true},{"t":-1.69444,"lat":29.0667,"lon":-23.5325,"largura_km":54.555,"eixo_na_terra":true},{"t":-1.68889,"lat":29.0754,"lon":-23.3281,"largura_km":54.347,"eixo_na_terra":true},{"t":-1.68333,"lat":29.0835,"lon":-23.1251,"largura_km":54.14,"eixo_na_terra":true},{"t":-1.67778,"lat":29.0913,"lon":-22.9234,"largura_km":53.935,"eixo_na_terra":true},{"t":-1.67222,"lat":29.0986,"lon":-22.723,"largura_km":53.733,"eixo_na_terra":true},{"t":-1.66667,"lat":29.1054,"lon":-22.5238,"largura_km":53.532,"eixo_na_terra":true},{"t":-1.66111,"lat":29.1118,"lon":-22.326,"largura_km":53.333,"eixo_na_terra":true},{"t":-1.65556,"lat":29.1178,"lon":-22.1294,"largura_km":53.135,"eixo_na_terra":true},{"t":-1.65,"lat":29.1233,"lon":-21.934,"largura_km":52.939,"eixo_na_terra":true},{"t":-1.64444,"lat":29.1285,"lon":-21.7398,"largura_km":52.745,"eixo_na_terra":true},{"t":-1.63889,"lat":29.1332,"lon":-21.5468,"largura_km":52.553,"eixo_na_terra":true},{"t":-1.63333,"lat":29.1375,"lon":-21.355,"largura_km":52.362,"eixo_na_terra":true},{"t":-1.62778,"lat":29.1414,"lon":-21.1643,"largura_km":52.172,"eixo_na_terra":true},{"t":-1.62222,"lat":29.1449,"lon":-20.9747,"largura_km":51.985,"eixo_na_terra":true},{"t":-1.61667,"lat":29.148,"lon":-20.7863,"largura_km":51.799,"eixo_na_terra":true},{"t":-1.61111,"lat":29.1507,"lon":-20.5989,"largura_km":51.614,"eixo_na_terra":true},{"t":-1.60556,"lat":29.153,"lon":-20.4126,"largura_km":51.432,"eixo_na_terra":true},{"t":-1.6,"lat":29.1549,"lon":-20.2274,"largura_km":51.25,"eixo_na_terra":true},{"t":-1.59444,"lat":29.1565,"lon":-20.0432,"largura_km":51.07,"eixo_na_terra":true},{"t":-1.58889,"lat":29.1577,"lon":-19.8601,"largura_km":50.892,"eixo_na_terra":true},{"t":-1.58333,"lat":29.1585,"lon":-19.678,"largura_km":50.715,"eixo_na_terra":true},{"t":-1.57778,"lat":29.159,"lon":-19.4969,"largura_km":50.539,"eixo_na_terra":true},{"t":-1.57222,"lat":29.1591,"lon":-19.3167,"largura_km":50.365,"eixo_na_terra":true},{"t":-1.56667,"lat":29.1588,"lon":-19.1376,"largura_km":50.193,"eixo_na_terra":true},{"t":-1.56111,"lat":29.1582,"lon":-18.9594,"largura_km":50.022,"eixo_na_terra":true},{"t":-1.55556,"lat":29.1573,"lon":-18.7821,"largura_km":49.852,"eixo_na_terra":true},{"t":-1.55,"lat":29.156,"lon":-18.6058,"largura_km":49.684,"eixo_na_terra":true},{"t":-1.54444,"lat":29.1544,"lon":-18.4304,"largura_km":49.517,"eixo_na_terra":true},{"t":-1.53889,"lat":29.1524,"lon":-18.2559,"largura_km":49.351,"eixo_na_terra":true},{"t":-1.53333,"lat":29.1501,"lon":-18.0823,"largura_km":49.186,"eixo_na_terra":true},{"t":-1.52778,"lat":29.1475,"lon":-17.9096,"largura_km":49.023,"eixo_na_terra":true},{"t":-1.52222,"lat":29.1445,"lon":-17.7378,"largura_km":48.861,"eixo_na_terra":true},{"t":-1.51667,"lat":29.1412,"lon":-17.5669,"largura_km":48.701,"eixo_na_terra":true},{"t":-1.51111,"lat":29.1376,"lon":-17.3968,"largura_km":48.542,"eixo_na_terra":true},{"t":-1.50556,"lat":29.1337,"lon":-17.2275,"largura_km":48.384,"eixo_na_terra":true},{"t":-1.5,"lat":29.1295,"lon":-17.059,"largura_km":48.227,"eixo_na_terra":true},{"t":-1.49444,"lat":29.1249,"lon":-16.8914,"largura_km":48.072,"eixo_na_terra":true},{"t":-1.48889,"lat":29.1201,"lon":-16.7246,"largura_km":47.918,"eixo_na_terra":true},{"t":-1.48333,"lat":29.1149,"lon":-16.5586,"largura_km":47.764,"eixo_na_terra":true},{"t":-1.47778,"lat":29.1094,"lon":-16.3934,"largura_km":47.612,"eixo_na_terra":true},{"t":-1.47222,"lat":29.1037,"lon":-16.229,"largura_km":47.462,"eixo_na_terra":true},{"t":-1.46667,"lat":29.0976,"lon":-16.0653,"largura_km":47.312,"eixo_na_terra":true},{"t":-1.46111,"lat":29.0913,"lon":-15.9024,"largura_km":47.164,"eixo_na_terra":true},{"t":-1.45556,"lat":29.0846,"lon":-15.7402,"largura_km":47.017,"eixo_na_terra":true},{"t":-1.45,"lat":29.0777,"lon":-15.5788,"largura_km":46.871,"eixo_na_terra":true},{"t":-1.44444,"lat":29.0705,"lon":-15.4181,"largura_km":46.726,"eixo_na_terra":true},{"t":-1.43889,"lat":29.063,"lon":-15.2582,"largura_km":46.582,"eixo_na_terra":true},{"t":-1.43333,"lat":29.0552,"lon":-15.099,"largura_km":46.439,"eixo_na_terra":true},{"t":-1.42778,"lat":29.0472,"lon":-14.9404,"largura_km":46.298,"eixo_na_terra":true},{"t":-1.42222,"lat":29.0389,"lon":-14.7826,"largura_km":46.157,"eixo_na_terra":true},{"t":-1.41667,"lat":29.0302,"lon":-14.6255,"largura_km":46.018,"eixo_na_terra":true},{"t":-1.41111,"lat":29.0214,"lon":-14.4691,"largura_km":45.88,"eixo_na_terra":true},{"t":-1.40556,"lat":29.0122,"lon":-14.3133,"largura_km":45.743,"eixo_na_terra":true},{"t":-1.4,"lat":29.0028,"lon":-14.1582,"largura_km":45.607,"eixo_na_terra":true},{"t":-1.39444,"lat":28.9931,"lon":-14.0038,"largura_km":45.472,"eixo_na_terra":true},{"t":-1.38889,"lat":28.9832,"lon":-13.85,"largura_km":45.337,"eixo_na_terra":true},{"t":-1.38333,"lat":28.973,"lon":-13.6969,"largura_km":45.204,"eixo_na_terra":true},{"t":-1.37778,"lat":28.9625,"lon":-13.5444,"largura_km":45.072,"eixo_na_terra":true},{"t":-1.37222,"lat":28.9518,"lon":-13.3925,"largura_km":44.941,"eixo_na_terra":true},{"t":-1.36667,"lat":28.9409,"lon":-13.2413,"largura_km":44.811,"eixo_na_terra":true},{"t":-1.36111,"lat":28.9296,"lon":-13.0907,"largura_km":44.682,"eixo_na_terra":true},{"t":-1.35556,"lat":28.9182,"lon":-12.9407,"largura_km":44.554,"eixo_na_terra":true},{"t":-1.35,"lat":28.9065,"lon":-12.7914,"largura_km":44.427,"eixo_na_terra":true},{"t":-1.34444,"lat":28.8945,"lon":-12.6426,"largura_km":44.3,"eixo_na_terra":true},{"t":-1.33889,"lat":28.8823,"lon":-12.4944,"largura_km":44.175,"eixo_na_terra":true},{"t":-1.33333,"lat":28.8698,"lon":-12.3468,"largura_km":44.051,"eixo_na_terra":true},{"t":-1.32778,"lat":28.8571,"lon":-12.1998,"largura_km":43.928,"eixo_na_terra":true},{"t":-1.32222,"lat":28.8442,"lon":-12.0533,"largura_km":43.806,"eixo_na_terra":true},{"t":-1.31667,"lat":28.831,"lon":-11.9075,"largura_km":43.684,"eixo_na_terra":true},{"t":-1.31111,"lat":28.8176,"lon":-11.7622,"largura_km":43.564,"eixo_na_terra":true},{"t":-1.30556,"lat":28.804,"lon":-11.6174,"largura_km":43.445,"eixo_na_terra":true},{"t":-1.3,"lat":28.7901,"lon":-11.4733,"largura_km":43.326,"eixo_na_terra":true},{"t":-1.29444,"lat":28.776,"lon":-11.3296,"largura_km":43.209,"eixo_na_terra":true},{"t":-1.28889,"lat":28.7617,"lon":-11.1865,"largura_km":43.092,"eixo_na_terra":true},{"t":-1.28333,"lat":28.7471,"lon":-11.044,"largura_km":42.976,"eixo_na_terra":true},{"t":-1.27778,"lat":28.7323,"lon":-10.9019,"largura_km":42.861,"eixo_na_terra":true},{"t":-1.27222,"lat":28.7173,"lon":-10.7604,"largura_km":42.747,"eixo_na_terra":true},{"t":-1.26667,"lat":28.7021,"lon":-10.6194,"largura_km":42.633,"eixo_na_terra":true},{"t":-1.26111,"lat":28.6866,"lon":-10.479,"largura_km":42.521,"eixo_na_terra":true},{"t":-1.25556,"lat":28.6709,"lon":-10.339,"largura_km":42.409,"eixo_na_terra":true},{"t":-1.25,"lat":28.6551,"lon":-10.1996,"largura_km":42.299,"eixo_na_terra":true},{"t":-1.24444,"lat":28.6389,"lon":-10.0606,"largura_km":42.189,"eixo_na_terra":true},{"t":-1.23889,"lat":28.6226,"lon":-9.9222,"largura_km":42.08,"eixo_na_terra":true},{"t":-1.23333,"lat":28.6061,"lon":-9.7842,"largura_km":41.972,"eixo_na_terra":true},{"t":-1.22778,"lat":28.5893,"lon":-9.6468,"largura_km":41.865,"eixo_na_terra":true},{"t":-1.22222,"lat":28.5723,"lon":-9.5098,"largura_km":41.758,"eixo_na_terra":true},{"t":-1.21667,"lat":28.5552,"lon":-9.3733,"largura_km":41.653,"eixo_na_terra":true},{"t":-1.21111,"lat":28.5378,"lon":-9.2372,"largura_km":41.549,"eixo_na_terra":true},{"t":-1.20556,"lat":28.5202,"lon":-9.1016,"largura_km":41.445,"eixo_na_terra":true},{"t":-1.2,"lat":28.5024,"lon":-8.9665,"largura_km":41.342,"eixo_na_terra":true},{"t":-1.19444,"lat":28.4844,"lon":-8.8319,"largura_km":41.24,"eixo_na_terra":true},{"t":-1.18889,"lat":28.4662,"lon":-8.6977,"largura_km":41.138,"eixo_na_terra":true},{"t":-1.18333,"lat":28.4477,"lon":-8.564,"largura_km":41.037,"eixo_na_terra":true},{"t":-1.17778,"lat":28.4291,"lon":-8.4307,"largura_km":40.937,"eixo_na_terra":true},{"t":-1.17222,"lat":28.4103,"lon":-8.2978,"largura_km":40.838,"eixo_na_terra":true},{"t":-1.16667,"lat":28.3913,"lon":-8.1654,"largura_km":40.74,"eixo_na_terra":true},{"t":-1.16111,"lat":28.3721,"lon":-8.0335,"largura_km":40.642,"eixo_na_terra":true},{"t":-1.15556,"lat":28.3527,"lon":-7.9019,"largura_km":40.545,"eixo_na_terra":true},{"t":-1.15,"lat":28.333,"lon":-7.7708,"largura_km":40.449,"eixo_na_terra":true},{"t":-1.14444,"lat":28.3132,"lon":-7.6401,"largura_km":40.354,"eixo_na_terra":true},{"t":-1.13889,"lat":28.2932,"lon":-7.5098,"largura_km":40.26,"eixo_na_terra":true},{"t":-1.13333,"lat":28.2731,"lon":-7.38,"largura_km":40.166,"eixo_na_terra":true},{"t":-1.12778,"lat":28.2527,"lon":-7.2505,"largura_km":40.073,"eixo_na_terra":true},{"t":-1.12222,"lat":28.2321,"lon":-7.1215,"largura_km":39.981,"eixo_na_terra":true},{"t":-1.11667,"lat":28.2113,"lon":-6.9929,"largura_km":39.89,"eixo_na_terra":true},{"t":-1.11111,"lat":28.1904,"lon":-6.8647,"largura_km":39.799,"eixo_na_terra":true},{"t":-1.10556,"lat":28.1693,"lon":-6.7368,"largura_km":39.709,"eixo_na_terra":true},{"t":-1.1,"lat":28.1479,"lon":-6.6094,"largura_km":39.62,"eixo_na_terra":true},{"t":-1.09444,"lat":28.1264,"lon":-6.4823,"largura_km":39.532,"eixo_na_terra":true},{"t":-1.08889,"lat":28.1047,"lon":-6.3557,"largura_km":39.444,"eixo_na_terra":true},{"t":-1.08333,"lat":28.0828,"lon":-6.2294,"largura_km":39.357,"eixo_na_terra":true},{"t":-1.07778,"lat":28.0608,"lon":-6.1035,"largura_km":39.271,"eixo_na_terra":true},{"t":-1.07222,"lat":28.0385,"lon":-5.978,"largura_km":39.186,"eixo_na_terra":true},{"t":-1.06667,"lat":28.0161,"lon":-5.8528,"largura_km":39.101,"eixo_na_terra":true},{"t":-1.06111,"lat":27.9935,"lon":-5.7281,"largura_km":39.016,"eixo_na_terra":true},{"t":-1.05556,"lat":27.9707,"lon":-5.6037,"largura_km":38.933,"eixo_na_terra":true},{"t":-1.05,"lat":27.9478,"lon":-5.4796,"largura_km":38.85,"eixo_na_terra":true},{"t":-1.04444,"lat":27.9246,"lon":-5.3559,"largura_km":38.768,"eixo_na_terra":true},{"t":-1.03889,"lat":27.9013,"lon":-5.2326,"largura_km":38.687,"eixo_na_terra":true},{"t":-1.03333,"lat":27.8778,"lon":-5.1096,"largura_km":38.606,"eixo_na_terra":true},{"t":-1.02778,"lat":27.8542,"lon":-4.987,"largura_km":38.526,"eixo_na_terra":true},{"t":-1.02222,"lat":27.8303,"lon":-4.8647,"largura_km":38.447,"eixo_na_terra":true},{"t":-1.01667,"lat":27.8063,"lon":-4.7428,"largura_km":38.368,"eixo_na_terra":true},{"t":-1.01111,"lat":27.7821,"lon":-4.6212,"largura_km":38.291,"eixo_na_terra":true},{"t":-1.00556,"lat":27.7578,"lon":-4.5,"largura_km":38.214,"eixo_na_terra":true},{"t":-1.0,"lat":27.7332,"lon":-4.3791,"largura_km":38.138,"eixo_na_terra":true},{"t":-0.99444,"lat":27.7085,"lon":-4.2585,"largura_km":38.062,"eixo_na_terra":true},{"t":-0.98889,"lat":27.6837,"lon":-4.1383,"largura_km":37.987,"eixo_na_terra":true},{"t":-0.98333,"lat":27.6586,"lon":-4.0183,"largura_km":37.913,"eixo_na_terra":true},{"t":-0.97778,"lat":27.6334,"lon":-3.8988,"largura_km":37.839,"eixo_na_terra":true},{"t":-0.97222,"lat":27.6081,"lon":-3.7795,"largura_km":37.766,"eixo_na_terra":true},{"t":-0.96667,"lat":27.5825,"lon":-3.6605,"largura_km":37.693,"eixo_na_terra":true},{"t":-0.96111,"lat":27.5568,"lon":-3.5419,"largura_km":37.621,"eixo_na_terra":true},{"t":-0.95556,"lat":27.5309,"lon":-3.4236,"largura_km":37.55,"eixo_na_terra":true},{"t":-0.95,"lat":27.5049,"lon":-3.3056,"largura_km":37.48,"eixo_na_terra":true},{"t":-0.94444,"lat":27.4787,"lon":-3.1879,"largura_km":37.41,"eixo_na_terra":true},{"t":-0.93889,"lat":27.4524,"lon":-3.0705,"largura_km":37.34,"eixo_na_terra":true},{"t":-0.93333,"lat":27.4258,"lon":-2.9534,"largura_km":37.272,"eixo_na_terra":true},{"t":-0.92778,"lat":27.3992,"lon":-2.8366,"largura_km":37.204,"eixo_na_terra":true},{"t":-0.92222,"lat":27.3723,"lon":-2.7201,"largura_km":37.137,"eixo_na_terra":true},{"t":-0.91667,"lat":27.3453,"lon":-2.6039,"largura_km":37.07,"eixo_na_terra":true},{"t":-0.91111,"lat":27.3182,"lon":-2.488,"largura_km":37.004,"eixo_na_terra":true},{"t":-0.90556,"lat":27.2908,"lon":-2.3724,"largura_km":36.939,"eixo_na_terra":true},{"t":-0.9,"lat":27.2634,"lon":-2.2571,"largura_km":36.875,"eixo_na_terra":true},{"t":-0.89444,"lat":27.2357,"lon":-2.142,"largura_km":36.811,"eixo_na_terra":true},{"t":-0.88889,"lat":27.2079,"lon":-2.0273,"largura_km":36.748,"eixo_na_terra":true},{"t":-0.88333,"lat":27.18,"lon":-1.9128,"largura_km":36.685,"eixo_na_terra":true},{"t":-0.87778,"lat":27.1519,"lon":-1.7986,"largura_km":36.623,"eixo_na_terra":true},{"t":-0.87222,"lat":27.1236,"lon":-1.6847,"largura_km":36.562,"eixo_na_terra":true},{"t":-0.86667,"lat":27.0952,"lon":-1.571,"largura_km":36.501,"eixo_na_terra":true},{"t":-0.86111,"lat":27.0666,"lon":-1.4576,"largura_km":36.441,"eixo_na_terra":true},{"t":-0.85556,"lat":27.0379,"lon":-1.3445,"largura_km":36.381,"eixo_na_terra":true},{"t":-0.85,"lat":27.009,"lon":-1.2317,"largura_km":36.322,"eixo_na_terra":true},{"t":-0.84444,"lat":26.98,"lon":-1.1191,"largura_km":36.264,"eixo_na_terra":true},{"t":-0.83889,"lat":26.9508,"lon":-1.0068,"largura_km":36.206,"eixo_na_terra":true},{"t":-0.83333,"lat":26.9215,"lon":-0.8947,"largura_km":36.149,"eixo_na_terra":true},{"t":-0.82778,"lat":26.892,"lon":-0.7829,"largura_km":36.092,"eixo_na_terra":true},{"t":-0.82222,"lat":26.8624,"lon":-0.6714,"largura_km":36.036,"eixo_na_terra":true},{"t":-0.81667,"lat":26.8326,"lon":-0.5601,"largura_km":35.98,"eixo_na_terra":true},{"t":-0.81111,"lat":26.8027,"lon":-0.4491,"largura_km":35.926,"eixo_na_terra":true},{"t":-0.80556,"lat":26.7726,"lon":-0.3383,"largura_km":35.872,"eixo_na_terra":true},{"t":-0.8,"lat":26.7424,"lon":-0.2277,"largura_km":35.818,"eixo_na_terra":true},{"t":-0.79444,"lat":26.712,"lon":-0.1174,"largura_km":35.765,"eixo_na_terra":true},{"t":-0.78889,"lat":26.6815,"lon":-0.0073,"largura_km":35.713,"eixo_na_terra":true},{"t":-0.78333,"lat":26.6508,"lon":0.1025,"largura_km":35.662,"eixo_na_terra":true},{"t":-0.77778,"lat":26.62,"lon":0.2121,"largura_km":35.611,"eixo_na_terra":true},{"t":-0.77222,"lat":26.589,"lon":0.3214,"largura_km":35.561,"eixo_na_terra":true},{"t":-0.76667,"lat":26.5579,"lon":0.4305,"largura_km":35.511,"eixo_na_terra":true},{"t":-0.76111,"lat":26.5267,"lon":0.5394,"largura_km":35.462,"eixo_na_terra":true},{"t":-0.75556,"lat":26.4953,"lon":0.6481,"largura_km":35.413,"eixo_na_terra":true},{"t":-0.75,"lat":26.4638,"lon":0.7565,"largura_km":35.365,"eixo_na_terra":true},{"t":-0.74444,"lat":26.4321,"lon":0.8647,"largura_km":35.317,"eixo_na_terra":true},{"t":-0.73889,"lat":26.4003,"lon":0.9727,"largura_km":35.271,"eixo_na_terra":true},{"t":-0.73333,"lat":26.3683,"lon":1.0805,"largura_km":35.224,"eixo_na_terra":true},{"t":-0.72778,"lat":26.3362,"lon":1.188,"largura_km":35.178,"eixo_na_terra":true},{"t":-0.72222,"lat":26.3039,"lon":1.2953,"largura_km":35.133,"eixo_na_terra":true},{"t":-0.71667,"lat":26.2715,"lon":1.4024,"largura_km":35.089,"eixo_na_terra":true},{"t":-0.71111,"lat":26.239,"lon":1.5093,"largura_km":35.044,"eixo_na_terra":true},{"t":-0.70556,"lat":26.2063,"lon":1.616,"largura_km":35.001,"eixo_na_terra":true},{"t":-0.7,"lat":26.1735,"lon":1.7225,"largura_km":34.958,"eixo_na_terra":true},{"t":-0.69444,"lat":26.1406,"lon":1.8288,"largura_km":34.916,"eixo_na_terra":true},{"t":-0.68889,"lat":26.1075,"lon":1.9349,"largura_km":34.874,"eixo_na_terra":true},{"t":-0.68333,"lat":26.0742,"lon":2.0407,"largura_km":34.833,"eixo_na_terra":true},{"t":-0.67778,"lat":26.0409,"lon":2.1464,"largura_km":34.792,"eixo_na_terra":true},{"t":-0.67222,"lat":26.0074,"lon":2.2518,"largura_km":34.753,"eixo_na_terra":true},{"t":-0.66667,"lat":25.9737,"lon":2.3571,"largura_km":34.714,"eixo_na_terra":true},{"t":-0.66111,"lat":25.9399,"lon":2.4622,"largura_km":34.675,"eixo_na_terra":true},{"t":-0.65556,"lat":25.906,"lon":2.5671,"largura_km":34.637,"eixo_na_terra":true},{"t":-0.65,"lat":25.872,"lon":2.6718,"largura_km":34.599,"eixo_na_terra":true},{"t":-0.64444,"lat":25.8378,"lon":2.7762,"largura_km":34.563,"eixo_na_terra":true},{"t":-0.63889,"lat":25.8034,"lon":2.8806,"largura_km":34.526,"eixo_na_terra":true},{"t":-0.63333,"lat":25.769,"lon":2.9847,"largura_km":34.49,"eixo_na_terra":true},{"t":-0.62778,"lat":25.7344,"lon":3.0886,"largura_km":34.455,"eixo_na_terra":true},{"t":-0.62222,"lat":25.6996,"lon":3.1924,"largura_km":34.42,"eixo_na_terra":true},{"t":-0.61667,"lat":25.6648,"lon":3.296,"largura_km":34.386,"eixo_na_terra":true},{"t":-0.61111,"lat":25.6297,"lon":3.3994,"largura_km":34.352,"eixo_na_terra":true},{"t":-0.60556,"lat":25.5946,"lon":3.5026,"largura_km":34.319,"eixo_na_terra":true},{"t":-0.6,"lat":25.5593,"lon":3.6056,"largura_km":34.287,"eixo_na_terra":true},{"t":-0.59444,"lat":25.5239,"lon":3.7085,"largura_km":34.255,"eixo_na_terra":true},{"t":-0.58889,"lat":25.4884,"lon":3.8112,"largura_km":34.223,"eixo_na_terra":true},{"t":-0.58333,"lat":25.4527,"lon":3.9137,"largura_km":34.192,"eixo_na_terra":true},{"t":-0.57778,"lat":25.4169,"lon":4.0161,"largura_km":34.162,"eixo_na_terra":true},{"t":-0.57222,"lat":25.381,"lon":4.1183,"largura_km":34.132,"eixo_na_terra":true},{"t":-0.56667,"lat":25.3449,"lon":4.2203,"largura_km":34.103,"eixo_na_terra":true},{"t":-0.56111,"lat":25.3087,"lon":4.3222,"largura_km":34.074,"eixo_na_terra":true},{"t":-0.55556,"lat":25.2724,"lon":4.4239,"largura_km":34.046,"eixo_na_terra":true},{"t":-0.55,"lat":25.2359,"lon":4.5255,"largura_km":34.019,"eixo_na_terra":true},{"t":-0.54444,"lat":25.1993,"lon":4.6269,"largura_km":33.992,"eixo_na_terra":true},{"t":-0.53889,"lat":25.1626,"lon":4.7281,"largura_km":33.966,"eixo_na_terra":true},{"t":-0.53333,"lat":25.1257,"lon":4.8292,"largura_km":33.941,"eixo_na_terra":true},{"t":-0.52778,"lat":25.0887,"lon":4.9301,"largura_km":33.916,"eixo_na_terra":true}]},"features":[{"type":"Feature","properties":{},"geometry":{"type":"Polygon","coordinates":[[[2.0911655782037997,26.224297658932084],[2.4109135179045893,26.122157468059132],[2.830648290697127,25.985298544617354],[3.1434684829858384,25.88124842350121],[3.5580165041621967,25.740657018212673],[3.8670825900834416,25.63383081122988],[4.276803747745703,25.48956731173047],[4.58511400048792,25.37902637865531],[4.990338043180429,25.23114080749342],[4.8700853567030435,24.946536515185183],[4.567249931958031,25.05658135566919],[4.164023067688902,25.20047220864929],[3.550194487444685,25.413742031602087],[2.9301335987249217,25.622119787497027],[2.303449525407302,25.825536842832612],[1.6726544433325898,26.023015986096915],[1.0315561682325551,26.216286112470996],[0.38259907243786984,26.404350389439287],[-0.2746567696411262,26.587112984534222],[-0.9375335842119625,26.76363977883192],[-1.6127134574186925,26.935486689588924],[-2.297613820193476,27.101696100519263],[-2.8761620732187225,27.235804081802097],[-3.2234699050096083,27.31355572859463],[-3.5768458312392113,27.390579936136344],[-3.9330337561760302,27.466096328563214],[-4.292107234085108,27.540085223858092],[-4.654141859201502,27.612526186164697],[-5.019215382002528,27.68339799384088],[-5.631004452436741,27.79729447544713],[-6.255407128724244,27.90734795437989],[-6.761714890589133,27.992054400144966],[-7.274289985112375,28.07372811854062],[-7.793360501684504,28.152303618803796],[-8.447691910612775,28.24548318885303],[-8.982193677481007,28.316838974124707],[-9.524008216694256,28.38485809157493],[-10.073415999500469,28.44945796563732],[-10.626384946891847,28.510074282615406],[-11.191794938088037,28.567580879180802],[-11.765733063779692,28.62139054132245],[-12.348549693007499,28.671398843482056],[-12.940617034533204,28.717494677581485],[-13.537520951850638,28.759216187285247],[-14.149194522609605,28.797141777937085],[-14.771384035549147,28.83077620318194],[-15.564649241181485,28.866563537359358],[-16.207010741120712,28.88980362763967],[-16.866774453327707,28.908460887022457],[-17.53937174182198,28.922135122683333],[-18.225469066843914,28.930628361810914],[-18.925790531253256,28.93372602519413],[-19.6350691245633,28.93120857919135],[-20.366102692992115,28.92282940839821],[-21.11394873172975,28.908291617549562],[-21.879649676991562,28.887290087862677],[-22.664358682285126,28.859488550303308],[-23.462309520164126,28.82480749918916],[-24.288782652561054,28.782300726356105],[-24.92383735863291,28.74516928382677],[-25.792272079094346,28.688248918576946],[-26.460956805732053,28.639689024559704],[-27.369187213777025,28.567256768290992],[-28.076392569448444,28.50586278277798],[-28.80211789369696,28.438405150203835],[-29.547712959886155,28.364504193393863],[-30.314699308238062,28.283733505492062],[-31.104802453850255,28.195611325729512],[-31.919992276783034,28.09958974123587],[-32.75199714563735,27.996318738788748],[-33.62406580699104,27.882629091391355],[-34.52914073876087,27.758854098615885],[-35.47084973197508,27.62399992863038],[-36.121116885251524,27.527366337368335],[-37.13397843970495,27.37129442630059],[-37.83679966893493,27.259125400907134],[-38.937774305908135,27.077238121180486],[-39.69168442918789,26.948378256500224],[-40.23414946233578,27.51905355743362],[-39.4406393432854,27.648237832387597],[-38.677719421072254,27.768956610144745],[-37.9423489473254,27.881996771445877],[-37.21886764450875,27.990027075042114],[-36.5317246506425,28.089500585637172],[-35.53959448321484,28.227712736162996],[-34.90158206366738,28.31312787319088],[-33.97629968888964,28.432047134499843],[-33.37891352726524,28.505635746315033],[-32.49912960134321,28.609395593479185],[-31.65958822165345,28.70304848897267],[-30.84692075412505,28.78862293461051],[-30.318980353802942,28.84147614631003],[-29.546383882244754,28.914847941731924],[-28.795429583268458,28.981542805410882],[-28.056036680613147,29.04270408277378],[-27.344181390699873,29.097187299681224],[-26.649828095683347,29.14611410827886],[-25.97188648852739,29.18978197532129],[-25.091810199893303,29.240286275804564],[-24.441151772963792,29.27306985222896],[-23.811517222177145,29.30097605763664],[-23.19464239138165,29.324628178433933],[-22.39087212826246,29.34985786232205],[-21.801326039300307,29.364263751087783],[-21.02553333974015,29.377850375233255],[-20.46052655116847,29.383802450636075],[-19.72216285377874,29.386482662121168],[-19.179090780574825,29.38470160901941],[-18.468541647764027,29.37747613561782],[-17.76705528752848,29.364822569223293],[-17.085342774960168,29.34713033267342],[-16.416888374900793,29.3245274925611],[-15.761047902388157,29.297198426240712],[-15.117225643758218,29.265313935307816],[-14.479861738146099,29.228754720297392],[-13.858571346806855,29.18820589347001],[-13.247749285309851,29.143546531768624],[-12.646948781406138,29.09490512987243],[-12.051168469060826,29.041996584121257],[-11.469276904841365,28.98573059018912],[-10.754299083630656,28.91028775286388],[-10.191805711301754,28.84596554762698],[-9.495835795031951,28.760235045632328],[-8.951179154108729,28.688314378807913],[-8.280751689198382,28.59387032130526],[-7.752395358712363,28.514773120008325],[-7.097663655429585,28.410975301378496],[-6.584378511649049,28.325055951493358],[-5.951585768310508,28.21355318170404],[-5.328188703054138,28.09759920039529],[-4.710229106587917,27.97660145162371],[-4.224972262971619,27.877301496799866],[-3.6258567526533625,27.74943639252399],[-3.0346966391792307,27.617500477117648],[-2.4478495057829264,27.480802050839447],[-1.8716573690097675,27.3409707510203],[-1.302446749486137,27.197310701387504],[-0.739919146140835,27.049892934793583],[-0.1837867989725055,26.89878415566897],[0.36927072288494855,26.743194670753986],[0.913395165519546,26.58488289548888],[1.451934501695348,26.423056463646684],[2.0911655782037997,26.224297658932084]]]}}]}