{"type":"FeatureCollection","features":[{"type":"Feature","properties":{"t_inicio":-2.027777777777785,"t_fim":-0.5277777777777901},"geometry":{"type":"LineString","coordinates":[[-39.950578628618075,27.234685319419555],[-39.55658835456029,27.300819277071653],[-39.17034758521697,27.364768714381157],[-38.791450112175596,27.426640691317647],[-38.41952388778981,27.486533390385283],[-38.05422714047637,27.544537120198612],[-37.69524503980324,27.600735177483596],[-37.342286819181425,27.655204591193925],[-36.99508328170066,27.708016767883322],[-36.65338462855635,27.759238053905058],[-36.316958560506464,27.808930227187627],[-35.98558861155385,27.85715092908685],[-35.65907268106099,27.903954045012632],[-35.33722173617059,27.949390041073855],[-35.019858660992725,27.993506262803756],[-34.70681723277477,28.036347201064586],[-34.39794120834284,28.077954729438556],[-34.09308350664219,28.118368316759383],[-33.79210547530863,28.157625217897667],[-33.49487623095246,28.195760645462197],[-33.20127206430084,28.232807924702513],[-32.91117590257585,28.268798633581323],[-32.624476822519455,28.303762729717935],[-32.34106960835709,28.337728665678192],[-32.06085434973477,28.370723493893948],[-31.78373607530051,28.402772962331287],[-31.50962441814454,28.43390160188689],[-31.238433309777804,28.464132806371257],[-30.970080699731056,28.493488905834255],[-30.70448829820134,28.521991233899048],[-30.44158133947394,28.549660189692837],[-30.18128836410648,28.576515294896005],[-29.92354101808911,28.602575246372528],[-29.6682738673926,28.62785796479342],[-29.41542422648797,28.652380639620617],[-29.164931999572843,28.67615977077919],[-28.916739533373573,28.699211207311745],[-28.67079148050823,28.72155018327799],[-28.427034672499587,28.743191351136517],[-28.185418001619098,28.764148812821325],[-27.94589231082216,28.78443614870523],[-27.70841029110892,28.804066444623267],[-27.472926385707183,28.82305231711324],[-27.239396700532325,28.84140593701485],[-27.00777892042828,28.85913905155666],[-26.77803223074136,28.87626300504764],[-26.55011724381677,28.892788758279867],[-26.323995930046692,28.908726906739197],[-26.099631553129484,28.924087697712583],[-25.876988609231205,28.9388810463727],[-25.656032769764977,28.953116550913588],[-25.43673082752929,28.96680350680545],[-25.219050645967684,28.979950920230053],[-25.002961111331558,28.992567520754044],[-24.788432087545857,29.004661773292366],[-24.575434373593453,29.016241889409766],[-24.363939663248914,29.027315838004913],[-24.153920507004557,29.03789135541762],[-23.945350276046213,29.047975954997327],[-23.738203128144278,29.057576936167067],[-23.532453975337773,29.06670139301558],[-23.328078453297564,29.075356222447084],[-23.12505289226334,29.083548131916157],[-22.923354289456768,29.091283646773764],[-22.722960282880535,29.098569117247592],[-22.52384912641901,29.10541072507901],[-22.325999666161863,29.111814489837137],[-22.12939131787965,29.11778627492897],[-21.934004045581844,29.123331793323292],[-21.73981834109577,29.128456613004996],[-21.546815204607242,29.13316616217501],[-21.354976126108056,29.13746573421046],[-21.164283067699387,29.141360492398327],[-20.974718446703662,29.144855474455053],[-20.786265119539905,29.147955596844092],[-20.598906366320932,29.150665658902106],[-20.412625876133177,29.152990346784218],[-20.227407732963286,29.154934237238006],[-20.043236402235777,29.156501801215022],[-19.86009671793147,29.157697407328634],[-19.67797387025462,29.15852532516592],[-19.49685339382154,29.15898972846104],[-19.316721156344045,29.15909469813738],[-19.13756334778202,29.158844225224787],[-18.959366469942267,29.15824221365821],[-18.782117326501066,29.15729248296366],[-18.605803013429124,29.155998770836963],[-18.430410909800628,29.15436473562041],[-18.25592866896625,29.152393958682335],[-18.08234421007353,29.150089946704227],[-17.90964570991798,29.147456133879544],[-17.737821595108926,29.14449588402885],[-17.566860534535863,29.141212492634356],[-17.39675143212122,29.13760918879852],[-17.227483419845782,29.133689137129387],[-17.05904585103582,29.129455439556367],[-16.89142829389783,29.12491113707957],[-16.72462052529204,29.120059211455455],[-16.558612524732723,29.114902586821863],[-16.393394468605493,29.10944413126481],[-16.22895672459225,29.10368665832981],[-16.06528984629466,29.09763292847998],[-15.902384568047978,29.091285650503252],[-15.740231799916216,29.084647482870825],[-15.578822622861537,29.07772103504891],[-15.418148284081212,29.070508868765742],[-15.258200192502954,29.063013499235737],[-15.098969914434804,29.0552373963424],[-14.940449169361102,29.047182985781973],[-14.782629825879496,29.038852650168966],[-14.625503897773228,29.03024873010568],[-14.469063540212744,29.021373525216525],[-14.313301046082245,29.012229295149066],[-14.158208842425324,29.00281826054279],[-14.00377948700583,28.993142603966923],[-13.850005664978823,28.983204470828603],[-13.696880185667396,28.973005970252434],[-13.544395979441902,28.96254917593244],[-13.39254609469657,28.951836126957808],[-13.241323694921107,28.940868828612874],[-13.090722055862386,28.929649253152903],[-12.940734562773685,28.918179340556087],[-12.791354707748042,28.906460999252864],[-12.64257608713234,28.894496106833387],[-12.494392399019546,28.88228651073393],[-12.346797440815806,28.86983402890281],[-12.199785106879858,28.85714045044692],[-12.05334938623264,28.844207536259198],[-11.907484360333342,28.83103701962797],[-11.762184200921126,28.81763060682867],[-11.61744316791868,28.80398997769854],[-11.473255607396482,28.790116786195043],[-11.329615949595109,28.776012660938388],[-11.186518707003813,28.761679205738833],[-11.043958472493614,28.747118000109147],[-10.901929917501775,28.73233059976293],[-10.760427790268125,28.71731853709907],[-10.619446914119465,28.70208332167298],[-10.478982185801385,28.686626440654827],[-10.339028573855785,28.670949359275454],[-10.199581117042328,28.655053521260168],[-10.060634922802649,28.63894034925101],[-9.922185165765882,28.62261124521751],[-9.784227086293754,28.606067590856856],[-9.646755989064843,28.589310747983294],[-9.509767241695442,28.572342058907342],[-9.373256273397146,28.555162846805146],[-9.237218573668883,28.537774416078268],[-9.10164969102351,28.520178052704157],[-8.966545231746409,28.502375024577574],[-8.83190085868631,28.48436658184345],[-8.697712290076822,28.466153957221124],[-8.56397529838739,28.447738366320493],[-8.430685709203658,28.429121007950204],[-8.297839400135615,28.410303064418112],[-8.16543229975241,28.391285701824277],[-8.03346038654422,28.372070070346755],[-7.901919687908901,28.352657304520317],[-7.770806279163821,28.333048523508264],[-7.640116282581687,28.313244831367815],[-7.5098458664491545,28.29324731730889],[-7.3799912441483,28.273057055946694],[-7.250548673260369,28.252675107548217],[-7.121514454689816,28.23210251827296],[-6.992884931810295,28.211340320407707],[-6.864656489629169,28.19038953259601],[-6.7368255539727215,28.169251160062046],[-6.609388590689434,28.1479261948293],[-6.482342104872373,28.126415615934178],[-6.355682640098337,28.104720389634654],[-6.229406777685369,28.082841469613978],[-6.103511135966414,28.060779797179794],[-5.977992369579397,28.038536301458706],[-5.852847168773621,28.01611189958628],[-5.728072258731061,27.99350749689287],[-5.603664398902822,27.97072398708512],[-5.479620382360338,27.947762252423438],[-5.3559370351605935,27.924623163895397],[-5.232611215725399,27.901307581385417],[-5.1096398142334465,27.87781635384045],[-4.987019752026242,27.8541503194322],[-4.864747981026198,27.83031030571559],[-4.742821483167177,27.806297129783793],[-4.621237269837195,27.7821115984199],[-4.499992381332618,27.75775450824523],[-4.379083886323826,27.73322664586438],[-4.258508881332148,27.708528788007207],[-4.138264490217125,27.683661701667624],[-4.018347863674876,27.658626144239552],[-3.898756178746112,27.63342286364974],[-3.7794866383345607,27.60805259848797],[-3.6605364707346553,27.582516078134322],[-3.5419029291691118,27.556814022883774],[-3.4235832913354898,27.53094714406818],[-3.30557485896162,27.504916144175624],[-3.187874957369843,27.478721716967296],[-3.0704809350498294,27.452364547591877],[-2.9533901632396464,27.425845312697536],[-2.8366000355148913,27.399164680541585],[-2.7201079673856725,27.372323311097865],[-2.6039113959010933,27.34532185616181],[-2.4880077792618636,27.318160959453476],[-2.372394596438994,27.290841256718274],[-2.257069346801302,27.263363375825733],[-2.1420295497479174,27.23572793686621],[-2.0272727443491476,27.207935552245527],[-1.9127964889929103,27.179986826777768],[-1.7985983610382164,27.151882357776113],[-1.6846759564746208,27.123622735141844],[-1.5710268895875288,27.09520854145148],[-1.4576487926302093,27.066640352042185],[-1.34453931550064,27.03791873509545],[-1.2316961254249463,27.00904425171898],[-1.1191169066458997,26.980017456027035],[-1.006799360116645,26.95083889521904],[-0.8947412032000557,26.92150910965669],[-0.7829401693730347,26.892028632939383],[-0.6713940079358736,26.86239799197825],[-0.5601004837265577,26.832617707068593],[-0.4490573768396757,26.8026882919609],[-0.33826248234998957,26.772610253930456],[-0.22771361004078017,26.742384093845395],[-0.11740858413622846,26.712010306233626],[-0.007345243038855642,26.6814893793482],[0.10247856093002383,26.65082179523144],[0.2120649617845629,26.62000802977775],[0.32141608012523193,26.589048552795177],[0.43053402338563274,26.55794382806575],[0.5394208860754475,26.526694313404487],[0.6480787500198062,26.49530046071735],[0.7565096845946755,26.463762716057943],[0.8647157469591207,26.432081519683035],[0.9726989822838732,26.40025730610706],[1.0804614239762032,26.36829050415538],[1.1880050939024045,26.336181537016508],[1.29533200260596,26.303930822293335],[1.4024441495234896,26.27153877205318],[1.5093435231966623,26.239005792876906],[1.6160321014823467,26.206332285907],[1.7225118517587248,26.17351864689461],[1.8287847311290193,26.140565266245726],[1.9348526866227758,26.107472529066225],[2.0407176553935074,26.07424081520615],[2.1463815649147477,26.040870499302915],[2.251846333172864,26.007361950823785],[2.357113868857539,25.973715534107193],[2.4621860715499793,25.939931608403477],[2.5670648319081124,25.906010527914457],[2.6717520318503034,25.87195264183244],[2.776249544736231,25.837758294378165],[2.8805592355458316,25.803427824838035],[2.984682961055796,25.768961567600556],[3.0886225700139676,25.734359852191822],[3.1923799033123146,25.699623003310435],[3.295956794157064,25.664751340861518],[3.399355068237412,25.629745179989918],[3.5025765438921894,25.59460483111281],[3.6056230322745364,25.559330599951412],[3.708496337514987,25.52392278756207],[3.811198256883074,25.488381690366563],[3.9137305809463783,25.452707600181714],[4.016095093728836,25.416900804248332],[4.118293572866833,25.38096158525938],[4.220327789764156,25.344890221387615],[4.322199509745076,25.308686986312345],[4.4239104922062324,25.27235214924572],[4.525462490766927,25.235885974958222],[4.626857253417711,25.199288723803612],[4.728096522668693,25.162560651743156],[4.829182035695169,25.125702010369288],[4.930115524482858,25.088713046928568]]}}]}