{"type":"FeatureCollection","features":[{"type":"Feature","properties":{"magnitude":0.2,"de":0.2,"ate":0.5,"percentagem":20.0},"geometry":{"type":"Polygon","coordinates":[[[-3.552263687921155,44.39999999999969],[-3.5399999999988268,44.939999999999685],[-7.392672804928298,44.939999999999685],[-5.4599999999988995,44.6872929295008],[-3.552263687921155,44.39999999999969]]]}},{"type":"Feature","properties":{"magnitude":0.5,"de":0.5,"ate":0.8,"percentagem":50.0},"geometry":{"type":"Polygon","coordinates":[[[-7.259999999998968,34.6453046277097],[-3.5399999999988268,34.0293234154488],[-3.539999999998827,44.39803197995166],[-7.392672804928298,44.939999999999685],[-34.5,44.939999999999685],[-34.5,34.49423399392561],[-30.23999999999984,34.95636246546321],[-26.09999999999968,35.272698648111046],[-22.07999999999953,35.44131792950529],[-18.239999999999384,35.462202904739875],[-14.45999999999924,35.336271460905664],[-10.799999999999102,35.06322643218996],[-7.259999999998968,34.6453046277097]]]}},{"type":"Feature","properties":{"magnitude":0.8,"de":0.8,"ate":0.95,"percentagem":80.0},"geometry":{"type":"Polygon","coordinates":[[[-34.5,30.0],[-29.669841120166197,30.0],[-26.939999999999714,30.241184101759387],[-24.23999999999961,30.41567497683117],[-21.59999999999951,30.519777180025],[-19.079999999999416,30.5531217630386],[-16.619999999999322,30.518950162370672],[-14.15999999999923,30.41425521173945],[-11.759999999999138,30.239561437879544],[-9.455346341479407,30.0],[-3.5399999999988268,30.0],[-3.5399999999988268,34.0293234154488],[-5.279999999998893,34.34090889398264],[-7.019999999998959,34.611181613323886],[-8.819999999999027,34.84891790335399],[-10.619999999999095,35.04573139764812],[-12.479999999999166,35.20784547428685],[-14.339999999999236,35.329748086832836],[-18.11999999999938,35.460507287101166],[-22.019999999999527,35.442731299788996],[-26.039999999999683,35.27625219562762],[-30.179999999999836,34.96191489212446],[-34.5,34.49423399392561],[-34.5,30.0]]]}},{"type":"Feature","properties":{"magnitude":0.95,"de":0.95,"ate":0.99,"percentagem":95.0},"geometry":{"type":"Polygon","coordinates":[[[-29.669841120166197,30.0],[-29.639999999999816,30.0],[-9.455346341479407,30.0],[-11.759999999999138,30.239561437879548],[-14.159999999999231,30.41425521173945],[-16.619999999999322,30.518950162370672],[-19.079999999999416,30.5531217630386],[-21.59999999999951,30.519777180025002],[-24.23999999999961,30.41567497683117],[-26.939999999999714,30.241184101759387],[-29.669841120166197,30.0]]]}}]}