{"type":"FeatureCollection","properties":{"largura_maxima_km":109.39,"largura_sobre_pt_km":109.39,"linha_central_sobre_pt":false,"desenhavel_como_area":true,"perfil_largura":[{"t":1.94444,"lat":33.051,"lon":-39.932,"largura_km":88.637,"eixo_na_terra":true},{"t":1.95,"lat":33.0753,"lon":-39.6041,"largura_km":88.947,"eixo_na_terra":true},{"t":1.95556,"lat":33.0987,"lon":-39.2714,"largura_km":89.261,"eixo_na_terra":true},{"t":1.96111,"lat":33.1211,"lon":-38.9339,"largura_km":89.58,"eixo_na_terra":true},{"t":1.96667,"lat":33.1424,"lon":-38.5913,"largura_km":89.904,"eixo_na_terra":true},{"t":1.97222,"lat":33.1628,"lon":-38.2435,"largura_km":90.233,"eixo_na_terra":true},{"t":1.97778,"lat":33.182,"lon":-37.8903,"largura_km":90.567,"eixo_na_terra":true},{"t":1.98333,"lat":33.2001,"lon":-37.5315,"largura_km":90.907,"eixo_na_terra":true},{"t":1.98889,"lat":33.2171,"lon":-37.1668,"largura_km":91.253,"eixo_na_terra":true},{"t":1.99444,"lat":33.2328,"lon":-36.796,"largura_km":91.607,"eixo_na_terra":true},{"t":2.0,"lat":33.2473,"lon":-36.4189,"largura_km":91.967,"eixo_na_terra":true},{"t":2.00556,"lat":33.2605,"lon":-36.0352,"largura_km":92.334,"eixo_na_terra":true},{"t":2.01111,"lat":33.2723,"lon":-35.6446,"largura_km":92.708,"eixo_na_terra":true},{"t":2.01667,"lat":33.2826,"lon":-35.2467,"largura_km":93.088,"eixo_na_terra":true},{"t":2.02222,"lat":33.2914,"lon":-34.8413,"largura_km":93.476,"eixo_na_terra":true},{"t":2.02778,"lat":33.2987,"lon":-34.4279,"largura_km":93.872,"eixo_na_terra":true},{"t":2.03333,"lat":33.3043,"lon":-34.0062,"largura_km":94.277,"eixo_na_terra":true},{"t":2.03889,"lat":33.3081,"lon":-33.5757,"largura_km":94.692,"eixo_na_terra":true},{"t":2.04444,"lat":33.3101,"lon":-33.136,"largura_km":95.116,"eixo_na_terra":true},{"t":2.05,"lat":33.3102,"lon":-32.6864,"largura_km":95.551,"eixo_na_terra":true},{"t":2.05556,"lat":33.3082,"lon":-32.2265,"largura_km":95.995,"eixo_na_terra":true},{"t":2.06111,"lat":33.304,"lon":-31.7555,"largura_km":96.451,"eixo_na_terra":true},{"t":2.06667,"lat":33.2975,"lon":-31.2728,"largura_km":96.918,"eixo_na_terra":true},{"t":2.07222,"lat":33.2886,"lon":-30.7776,"largura_km":97.399,"eixo_na_terra":true},{"t":2.07778,"lat":33.2769,"lon":-30.2689,"largura_km":97.894,"eixo_na_terra":true},{"t":2.08333,"lat":33.2625,"lon":-29.7458,"largura_km":98.403,"eixo_na_terra":true},{"t":2.08889,"lat":33.245,"lon":-29.2072,"largura_km":98.927,"eixo_na_terra":true},{"t":2.09444,"lat":33.2241,"lon":-28.6516,"largura_km":99.469,"eixo_na_terra":true},{"t":2.1,"lat":33.1997,"lon":-28.0777,"largura_km":100.03,"eixo_na_terra":true},{"t":2.10556,"lat":33.1713,"lon":-27.4837,"largura_km":100.612,"eixo_na_terra":true},{"t":2.11111,"lat":33.1386,"lon":-26.8675,"largura_km":101.217,"eixo_na_terra":true},{"t":2.11667,"lat":33.1011,"lon":-26.2268,"largura_km":101.846,"eixo_na_terra":true},{"t":2.12222,"lat":33.0583,"lon":-25.5586,"largura_km":102.502,"eixo_na_terra":true},{"t":2.12778,"lat":33.0094,"lon":-24.8596,"largura_km":103.189,"eixo_na_terra":true},{"t":2.13333,"lat":32.9538,"lon":-24.1252,"largura_km":103.912,"eixo_na_terra":true},{"t":2.13889,"lat":32.8902,"lon":-23.3502,"largura_km":104.676,"eixo_na_terra":true},{"t":2.14444,"lat":32.8175,"lon":-22.5274,"largura_km":105.486,"eixo_na_terra":true},{"t":2.15,"lat":32.7337,"lon":-21.6475,"largura_km":106.351,"eixo_na_terra":true},{"t":2.15556,"lat":32.6366,"lon":-20.6977,"largura_km":107.284,"eixo_na_terra":true},{"t":2.16111,"lat":32.5225,"lon":-19.6593,"largura_km":108.296,"eixo_na_terra":true},{"t":2.16667,"lat":32.386,"lon":-18.5036,"largura_km":109.39,"eixo_na_terra":true},{"t":2.17222,"lat":31.9846,"lon":-15.5438,"largura_km":null,"eixo_na_terra":false},{"t":2.17778,"lat":31.8153,"lon":-14.4117,"largura_km":null,"eixo_na_terra":false},{"t":2.18333,"lat":31.6786,"lon":-13.6792,"largura_km":null,"eixo_na_terra":false},{"t":2.18889,"lat":31.5906,"lon":-13.1011,"largura_km":null,"eixo_na_terra":false},{"t":2.19444,"lat":31.4359,"lon":-12.3621,"largura_km":null,"eixo_na_terra":false},{"t":2.2,"lat":31.2655,"lon":-11.4471,"largura_km":null,"eixo_na_terra":false}]},"features":[{"type":"Feature","properties":{},"geometry":{"type":"Polygon","coordinates":[[[-9.627087122480646,30.49507522697826],[-10.238135124247497,30.610442442609955],[-10.245685298071379,30.601768531016667],[-11.00642010476372,30.737800156979425],[-11.55516733808372,30.83390672432004],[-13.501399472715244,31.16952753884392],[-14.716030346990834,31.35488547454982],[-15.135368506966472,31.420641602478607],[-15.591147149122158,31.49431714547995],[-15.982073993994788,31.546862024952063],[-16.501715013918982,31.619490079040776],[-16.823659883728283,31.666617110412595],[-17.164007136176775,31.71880911770894],[-17.648622861787317,31.77815847811752],[-18.201305366990653,31.852334848993905],[-18.582622758360003,31.908769783916394],[-18.887135633143778,31.957913681142298],[-18.909891809642943,31.940882694208316],[-20.02242953500567,32.074639421160114],[-21.0277296475613,32.18744386233551],[-21.950939211981847,32.284161118101345],[-22.808665606718478,32.36800911127893],[-23.612557786035865,32.44124848434321],[-24.371160722163296,32.50554007379037],[-25.090963265358113,32.562147033332295],[-25.777030787817125,32.612056944198834],[-26.433407581424547,32.65605953428814],[-27.063383831165595,32.694798274618044],[-27.669679024559684,32.72880584864363],[-28.254571702908805,32.75852926084406],[-28.819993578673063,32.78434806142464],[-29.339463494552234,32.805622738017405],[-29.87153368693086,32.82471293787053],[-30.3884010012967,32.840740181192366],[-30.891166981699797,32.853922175622884],[-31.380804507301605,32.86445149220009],[-31.85817793330321,32.87249947970725],[-32.32405935033381,32.87821942672143],[-32.77914183925884,32.88174914103944],[-33.224050373399166,32.88321307268149],[-34.063730091354955,32.88061924740807],[-34.89158322854044,32.87089915739936],[-35.68811961519188,32.854792701914356],[-36.45615017329584,32.83286463859399],[-37.17931170222235,32.80644046128304],[-37.541466347700464,32.790987219770734],[-38.24865512090989,32.75657505880229],[-38.934410008881656,32.71777124349854],[-39.26972475862357,32.69681897081659],[-39.92608249244108,32.65198748312647],[-39.91547386043263,33.45229143714933],[-39.2497401823546,33.502675876238634],[-38.90955691634878,33.5264432127763],[-38.21367571668594,33.570956640476396],[-37.85759128102404,33.59162770162046],[-37.495798748408845,33.61118760507307],[-36.734788832076674,33.64759010701701],[-35.96666405002691,33.678080518173424],[-35.57219962587857,33.69130428117543],[-34.76083390453175,33.71339505075885],[-34.34319748123454,33.72212103230228],[-33.45921679682465,33.73469791832876],[-32.55897621025272,33.73960717677978],[-32.093193390474596,33.73903494877027],[-31.616099002693318,33.73627947459578],[-31.12694993782813,33.73119976805476],[-30.59853247409825,33.723079148690225],[-30.081912197613065,33.712734190916684],[-29.550363100881157,33.69952204612897],[-29.002681692177163,33.68321583052944],[-28.437490651300806,33.66355629039196],[-27.85320142639725,33.64024487506459],[-27.21586006268484,33.61127517116509],[-26.58619739862729,33.57933577752005],[-25.930683791709328,33.54248062154176],[-25.24618094238116,33.50012373588647],[-24.528850987050333,33.45154965936587],[-23.73334689220016,33.39259119720424],[-22.932189105251894,33.32822699565976],[-22.078929926485245,33.25406673202241],[-21.1626999101413,33.16809735058774],[-20.113534959645563,33.06154661578342],[-19.011709637966874,32.94096641214927],[-17.769573312683434,32.79431030859714],[-17.797064914183352,32.77373527456379],[-17.571460458879784,32.75361887752601],[-17.27538161124903,32.72415700445071],[-16.967679949221065,32.690272769299796],[-16.64856203792624,32.65188001731229],[-16.148882169329653,32.58566484359655],[-15.801977001701545,32.535663989136616],[-15.574203984503063,32.501083649985375],[-15.139015776473542,32.44536472376247],[-14.501949341236667,32.35613381844953],[-14.041110116077078,32.28673349442609],[-13.42899297935884,32.18910044734924],[-12.824478183639428,32.100386207548354],[-12.12921158905786,31.99219009521269],[-11.260528963410025,31.849654754141948],[-10.696417312912843,31.75364427324526],[-9.905438609555574,31.615470220172543],[-9.898883388430542,31.602684986480998],[-9.44245373309829,31.524549879636417],[-9.479440209721815,31.482058483297315],[-9.139804498442487,31.419455297174814],[-9.59034864574324,31.048548889339155],[-9.515083945910192,30.895563842535136],[-9.538062412388841,30.898943585311763],[-9.325088403188403,30.483561338715255],[-9.644922898429723,30.54042281599628],[-9.627087122480646,30.49507522697826]]]}}]}