{"type":"FeatureCollection","features":[{"type":"Feature","properties":{"t_inicio":1.9444444444444233,"t_fim":2.1833333333333114},"geometry":{"type":"LineString","coordinates":[[-39.93204527091052,33.051041288548866],[-39.60407646456855,33.075334137445424],[-39.27140634429861,33.09868692616029],[-38.93387191921212,33.12106717225789],[-38.59130028510876,33.14244045700625],[-38.243507750353615,33.162770256937236],[-37.89029885998349,33.1820177559306],[-37.53146530317298,33.200141634987546],[-37.1667846865511,33.217097836358505],[-36.79601915266775,33.232839298082794],[-36.418913819022094,33.24731565426016],[-36.035195008314815,33.26047289547183],[-35.64456823474097,33.27225298265968],[-35.246715903911564,33.282593406400416],[-34.841294674990536,33.291426681804595],[-34.42793242235538,33.29867976713179],[-34.006224719855936,33.30427339151585],[-33.575730752645086,33.30812127376412],[-33.13596853835833,33.31012920980176],[-32.68640930942834,33.31019400065364],[-32.22647086919443,33.30820218545076],[-31.75550968291509,33.30402853419539],[-31.27281139614186,33.29753424203357],[-30.777579380441864,33.288564749301315],[-30.268920780334128,33.27694708777235],[-29.74582936094589,33.26248662059196],[-29.20716421125107,33.2449629971747],[-28.65162300888369,33.22412507847341],[-28.07770804603925,33.19968449243225],[-27.48368246597221,33.17130733792617],[-26.867513024188042,33.138603341335546],[-26.22679392648402,33.10111143769292],[-25.55864348422415,33.05828021836897],[-24.859560694823074,33.00944081443728],[-24.125220938398513,32.95376829367444],[-23.35017586092863,32.890224990435605],[-22.527396027743293,32.81747420235926],[-21.647542153332637,32.733742757520275],[-20.697737458395693,32.636589653909446],[-19.659346904620833,32.522487809659374],[-18.503559051602622,32.38599251706155],[-17.181331028038244,32.21785023750116],[-15.595195727847823,31.999699614674352],[-13.482554673826627,31.682152217382882]]}}]}