{"type":"FeatureCollection","features":[{"type":"Feature","properties":{"magnitude":0.5,"de":0.5,"ate":0.8,"percentagem":50.0},"geometry":{"type":"Polygon","coordinates":[[[-6.123403236067164,30.0],[-3.5399999999988268,30.0],[-3.5399999999988268,44.939999999999685],[-34.5,44.939999999999685],[-34.5,39.37758933716547],[-31.139999999999873,39.37904369365687],[-27.65999999999974,39.27720240629899],[-24.17999999999961,39.07645018869727],[-20.579999999999476,38.7706013982924],[-16.79999999999933,38.347960591380776],[-12.959999999999184,37.81804385305183],[-8.279999999999006,37.04339054891652],[-6.479999999998938,36.70893913180224],[-6.189852550357819,36.59999999999986],[-5.99999999999892,36.47091071747765],[-5.819999999998913,36.28694293271192],[-5.667135652756202,36.059999999999874],[-5.528118084806784,35.75999999999988],[-5.359855598193269,35.099999999999895],[-5.29608979248392,34.259999999999906],[-5.345523962032291,33.299999999999926],[-5.5089807420107935,32.219999999999956],[-5.7637667597523405,31.139999999999976],[-6.123403236067164,30.0]]]}},{"type":"Feature","properties":{"magnitude":0.8,"de":0.8,"ate":0.95,"percentagem":80.0},"geometry":{"type":"MultiPolygon","coordinates":[[[[-34.5,30.0],[-34.5,32.10232622998951],[-32.279999999999916,32.12114670313043],[-29.699999999999818,32.08171353193135],[-27.059999999999715,31.97699606953582],[-24.359999999999616,31.8064218793358],[-21.659999999999513,31.575250280472957],[-18.89999999999941,31.279752704463675],[-16.079999999999302,30.919393310527287],[-13.199999999999193,30.49374622581493],[-10.245724161155602,30.0],[-34.5,30.0]]],[[[-8.687860828507635,30.0],[-8.339999999999009,30.539772454091814],[-8.166940848161763,31.079999999999977],[-8.138693489455045,31.559999999999967],[-8.181232756808914,31.73999999999996],[-8.279999999999006,31.88737400598097],[-8.399999999999011,31.940010543154816],[-11.51999999999913,32.50681814611185],[-14.579999999999245,33.002169348182214],[-17.57999999999936,33.4261942086909],[-20.51999999999947,33.77918852824686],[-23.45999999999958,34.06677262598125],[-26.27999999999969,34.27769477782217],[-29.099999999999795,34.421401036776444],[-31.799999999999898,34.492345375800575],[-34.5,34.49416234797472],[-34.5,39.37758933716547],[-31.199999999999875,39.3798962124523],[-27.839999999999748,39.28494633231094],[-24.419999999999618,39.09335247157568],[-20.879999999999484,38.79976701551761],[-17.279999999999347,38.407191908316996],[-13.619999999999207,37.91608651193101],[-9.779999999999063,37.3065428549505],[-6.359999999998934,36.67486486532212],[-6.1199999999989245,36.558919324544476],[-5.939999999998918,36.41743385209709],[-5.759999999998911,36.207469780890364],[-5.604809073183444,35.93999999999987],[-5.399999999998897,35.316856808448165],[-5.3019790682065455,34.4999999999999],[-5.32358285843554,33.53999999999992],[-5.464236852184828,32.45999999999995],[-5.7154347591380565,31.319999999999975],[-6.0604022714451435,30.179999999999996],[-6.123403236067164,30.0],[-8.687860828507635,30.0]]]]}},{"type":"Feature","properties":{"magnitude":0.95,"de":0.95,"ate":0.99,"percentagem":95.0},"geometry":{"type":"Polygon","coordinates":[[[-13.799999999999216,30.587063572200147],[-10.245724161155602,30.0],[-8.687860828507635,30.0],[-8.397615752379362,30.41999999999999],[-8.193844816583422,30.95999999999998],[-8.13119675297989,31.43999999999997],[-8.159999999999002,31.676774782451925],[-8.219999999999004,31.818465194819915],[-8.339999999999009,31.92390582934792],[-8.759999999999025,32.008478916098134],[-11.399999999999125,32.486148163867654],[-14.039999999999225,32.91926697904018],[-17.819999999999368,33.457377900109094],[-21.479999999999507,33.88046204153673],[-24.839999999999634,34.178154167453656],[-28.13999999999976,34.380262966675495],[-31.37999999999988,34.48574680637348],[-34.5,34.49416234797472],[-34.5,32.10232622998951],[-31.739999999999895,32.118226453401846],[-28.91999999999979,32.057378220891074],[-26.03999999999968,31.919901409818618],[-23.039999999999566,31.70076408616283],[-20.039999999999452,31.4088481260074],[-16.919999999999334,31.032717011045712],[-13.799999999999216,30.587063572200147]]]}}]}