{"type":"FeatureCollection","properties":{"largura_maxima_km":189.854,"largura_sobre_pt_km":181.387,"linha_central_sobre_pt":true,"desenhavel_como_area":true,"perfil_largura":[{"t":-1.07778,"lat":43.6966,"lon":-17.8262,"largura_km":null,"eixo_na_terra":false},{"t":-1.07222,"lat":43.6169,"lon":-16.8367,"largura_km":null,"eixo_na_terra":false},{"t":-1.06667,"lat":43.5855,"lon":-15.8663,"largura_km":null,"eixo_na_terra":false},{"t":-1.06111,"lat":43.5577,"lon":-15.2024,"largura_km":null,"eixo_na_terra":false},{"t":-1.05556,"lat":43.5515,"lon":-14.7325,"largura_km":null,"eixo_na_terra":false},{"t":-1.05,"lat":43.5021,"lon":-13.9999,"largura_km":null,"eixo_na_terra":false},{"t":-1.04444,"lat":43.454,"lon":-13.322,"largura_km":null,"eixo_na_terra":false},{"t":-1.03889,"lat":43.3551,"lon":-12.37,"largura_km":null,"eixo_na_terra":false},{"t":-1.03333,"lat":42.8803,"lon":-9.0558,"largura_km":178.284,"eixo_na_terra":true},{"t":-1.02778,"lat":42.6973,"lon":-7.8536,"largura_km":179.539,"eixo_na_terra":true},{"t":-1.02222,"lat":42.5242,"lon":-6.7644,"largura_km":180.532,"eixo_na_terra":true},{"t":-1.01667,"lat":42.359,"lon":-5.7634,"largura_km":181.387,"eixo_na_terra":true},{"t":-1.01111,"lat":42.2001,"lon":-4.8338,"largura_km":182.154,"eixo_na_terra":true},{"t":-1.00556,"lat":42.0466,"lon":-3.9637,"largura_km":182.855,"eixo_na_terra":true},{"t":-1.0,"lat":41.8977,"lon":-3.1438,"largura_km":183.51,"eixo_na_terra":true},{"t":-0.99444,"lat":41.7527,"lon":-2.3674,"largura_km":184.125,"eixo_na_terra":true},{"t":-0.98889,"lat":41.6112,"lon":-1.6289,"largura_km":184.707,"eixo_na_terra":true},{"t":-0.98333,"lat":41.4728,"lon":-0.9239,"largura_km":185.261,"eixo_na_terra":true},{"t":-0.97778,"lat":41.3373,"lon":-0.2488,"largura_km":185.79,"eixo_na_terra":true},{"t":-0.97222,"lat":41.2042,"lon":0.3995,"largura_km":186.302,"eixo_na_terra":true},{"t":-0.96667,"lat":41.0735,"lon":1.0234,"largura_km":186.795,"eixo_na_terra":true},{"t":-0.96111,"lat":40.9449,"lon":1.6252,"largura_km":187.271,"eixo_na_terra":true},{"t":-0.95556,"lat":40.8182,"lon":2.2067,"largura_km":187.732,"eixo_na_terra":true},{"t":-0.95,"lat":40.6934,"lon":2.7696,"largura_km":188.179,"eixo_na_terra":true},{"t":-0.94444,"lat":40.5702,"lon":3.3152,"largura_km":188.614,"eixo_na_terra":true},{"t":-0.93889,"lat":40.4486,"lon":3.8448,"largura_km":189.037,"eixo_na_terra":true},{"t":-0.93333,"lat":40.3285,"lon":4.3595,"largura_km":189.449,"eixo_na_terra":true},{"t":-0.92778,"lat":40.2098,"lon":4.8603,"largura_km":189.854,"eixo_na_terra":true}]},"features":[{"type":"Feature","properties":{},"geometry":{"type":"Polygon","coordinates":[[[-7.619618050088434,43.4912088074726],[-6.540006365911779,43.323161552314446],[-5.545199584097304,43.16227052337027],[-4.548871637230889,42.995389246409154],[-3.6844644431484426,42.84560704729693],[-2.8687225622354617,42.70003278385604],[-2.095112968065621,42.558130345379084],[-1.299240949228306,42.408209971987475],[-0.5974023782345057,42.2726174021167],[0.07538636380860453,42.13961930974046],[0.7219893416144032,42.008978340824406],[1.3448307332647573,41.88049311549331],[1.9459840416427596,41.75399096888958],[2.52723930397093,41.62932247755108],[3.0901545898180416,41.50635726168126],[3.6831204399449575,41.37438868956966],[4.2122398847928935,41.25458473019801],[5.427394968380668,39.177670397685084],[4.462652738604561,39.41453534955626],[3.960743337323322,39.53502137216827],[3.4446129330083295,39.65698822127623],[2.413636029134693,39.89482200670714],[1.8493927826719414,40.02174366089828],[1.2660409908876318,40.15060081834179],[0.6618813287211651,40.28155055797366],[0.034948854199114976,40.41477409961376],[-0.6170490822647707,40.55048241067784],[-1.296814945590313,40.688923614185306],[-2.007571644448319,40.83039296163883],[-2.7532148152805007,40.975246549585684],[-3.5385277079557227,41.123920658698914],[-4.369493337508743,41.27695982310229],[-5.326705757622506,41.44818184778118],[-6.279115779851907,41.61267263649701],[-7.309669711863137,41.784469066994795],[-7.353686672203169,41.80611472061296],[-7.659215021745467,41.846947323784114],[-7.99408744538556,41.895641269561274],[-8.347207236213364,41.95064938788214],[-8.85642790745406,42.035402118423555],[-9.396095543815193,42.112511580733845],[-9.797769933215363,42.174103497762516],[-10.152625216773878,42.230900477774824],[-10.789481538778261,42.31785542580403],[-11.247729245105518,42.3844409913768],[-11.648957385890451,42.4448049611634],[-12.430107830458837,42.54571989834421],[-13.458010892632936,42.68691185542564],[-14.50222501659539,42.81261211956598],[-15.890986901793898,42.98490566210413],[-17.710841707365375,43.18155041798842],[-18.43697828059544,43.258436911909335],[-19.425212826843506,43.35970334204327],[-19.428062030258967,43.3709299569889],[-20.457706963867224,43.46675005771844],[-19.98662712529638,43.830985349677825],[-20.182710828151944,44.1139202576121],[-20.66708754843978,44.17600261256336],[-20.50464749016915,44.57845208000225],[-20.80853781296696,45.01694431189492],[-20.55294849186929,44.99564514518383],[-20.56434289047155,45.0158318800055],[-19.153971564035658,44.888941508939766],[-18.275708770655,44.80360846066571],[-18.016080417082268,44.77686191866795],[-17.463731987158496,44.72513383771306],[-16.944647608134346,44.6745453131893],[-16.466050289794282,44.62599162455114],[-15.596058004304098,44.532281503585494],[-15.19431788127531,44.48631890254495],[-14.637662529046152,44.4192461618743],[-14.134628250875721,44.36537054220454],[-13.825574217214239,44.330377982395206],[-13.522403436761579,44.29465385147805],[-12.932864843878747,44.22098721476033],[-12.364738788347324,44.14437350861964],[-12.002704814804561,44.0923024900989],[-12.036565755741435,44.108953848871586],[-10.242061874099932,43.87150159236893],[-8.901060748065845,43.68170624045352],[-7.619618050088434,43.4912088074726]]]}}]}