{"type":"FeatureCollection","features":[{"type":"Feature","properties":{"magnitude":0.2,"de":0.2,"ate":0.5,"percentagem":20.0},"geometry":{"type":"Polygon","coordinates":[[[-22.8922673798737,30.0],[-17.54764679970473,30.0],[-17.77860444962439,31.559999999999967],[-17.922645839251423,32.999999999999936],[-17.967583965028297,34.19999999999992],[-17.920937575378034,35.219999999999885],[-17.78292024662952,36.059999999999874],[-17.55530218042802,36.71999999999986],[-17.399999999999352,36.99737397596961],[-17.219999999999345,37.227485920783664],[-17.03999999999934,37.39237848586068],[-16.79999999999933,37.541521694532165],[-16.379999999999313,37.670335602141435],[-12.719999999999175,38.076980089859845],[-9.299999999999045,38.56405812976334],[-6.419999999998935,39.06309117934265],[-3.5399999999988268,39.649248527927405],[-3.5399999999988268,44.939999999999685],[-27.77073192340737,44.939999999999685],[-25.83081553448755,39.119999999999806],[-22.8922673798737,30.0]]]}},{"type":"Feature","properties":{"magnitude":0.5,"de":0.5,"ate":0.8,"percentagem":50.0},"geometry":{"type":"Polygon","coordinates":[[[-17.54764679970473,30.0],[-3.5399999999988268,30.0],[-3.5399999999988268,39.649248527927405],[-6.119928317087177,39.119999999999806],[-8.699999999999022,38.661116448457875],[-12.419999999999163,38.115331171384945],[-16.379999999999313,37.670335602141435],[-16.679999999999325,37.592993800162304],[-16.979999999999336,37.436323539164114],[-17.159999999999343,37.28856335364476],[-17.342244555175906,37.07999999999985],[-17.63322427697774,36.53999999999987],[-17.8233697384478,35.879999999999875],[-17.936930032465114,35.03999999999989],[-17.9665465989705,34.01999999999991],[-17.91385698190075,32.87999999999994],[-17.771002290062857,31.499999999999968],[-17.54764679970473,30.0]]]}}]}