{"type":"FeatureCollection","features":[{"type":"Feature","properties":{"t_inicio":-0.7166666666666783,"t_fim":0.4666666666666508},"geometry":{"type":"LineString","coordinates":[[-21.456953005751785,49.96468342844839],[-21.258848610861094,49.89384063879689],[-21.062002253025184,49.82278669631261],[-20.866401214963645,49.75152447918098],[-20.672032937507907,49.68005681350882],[-20.47888501671156,49.60838647438417],[-20.28694520103437,49.53651618690868],[-20.09620138859745,49.46444862720359],[-19.906641624506932,49.39218642339049],[-19.718254098244074,49.31973215654666],[-19.531027141119438,49.247088361637026],[-19.344949223788745,49.17425752842266],[-19.160008953828566,49.101242102346525],[-18.976195073369922,49.02804448539775],[-18.793496456787636,48.95466703695447],[-18.61190210844373,48.88111207460611],[-18.431401160483176,48.80738187495592],[-18.25198287068031,48.733478674403926],[-18.07363662033407,48.65940466991127],[-17.89635191221086,48.585162019746214],[-17.720118368533292,48.510752844212654],[-17.544925729013386,48.436179226361],[-17.3707638489291,48.36144321268297],[-17.197622697242565,48.286546813789535],[-17.025492354758853,48.211492005073644],[-16.85436301232417,48.136280727357175],[-16.684224969062228,48.0609148875233],[-16.51506863064762,47.98539635913428],[-16.346884507615016,47.90972698303507],[-16.179663213703577,47.83390856794335],[-16.013395464234947,47.7579428910262],[-15.848072074524254,47.681831698463824],[-15.683683958323314,47.60557670600048],[-15.520222126294613,47.52917959948344],[-15.35767768451558,47.45264203538975],[-15.196041833012458,47.37596564134138],[-15.03530586432251,47.29915201660911],[-14.875461162084036,47.22220273260537],[-14.716499199653526,47.14511933336625],[-14.558411538749027,47.06790333602305],[-14.401189828119243,46.99055623126365],[-14.24482580223733,46.91307948378393],[-14.089311280019274,46.835474532729464],[-13.934638163565637,46.757742792127694],[-13.780798436926432,46.67988565131101],[-13.627784164888482,46.601904475330755],[-13.475587491784637,46.523800605362496],[-13.324200640324165,46.445575359102655],[-13.173615910444084,46.36723003115692],[-13.0238256781806,46.288765893420354],[-12.87482239456051,46.21018419544978],[-12.726598584511578,46.13148616482814],[-12.579146845792025,46.052673007521484],[-12.43245984793802,45.973745908228544],[-12.286530331229386,45.89470603072287],[-12.141351105672612,45.81555451818833],[-11.996915050000837,45.736292493547275],[-11.853215110690712,45.65692105978228],[-11.7102443009953,45.57744130025131],[-11.567995699992991,45.497854278996165],[-11.426462451651815,45.41816104104514],[-11.285637763909023,45.33836261270909],[-11.14551490776546,45.258460001871754],[-11.006087216394235,45.17845419827431],[-10.867348084263739,45.09834617379382],[-10.72929096627442,45.01813688271652],[-10.591909376908916,44.93782726200548],[-10.455196889395694,44.8574182315627],[-10.319147134885384,44.77691069448626],[-10.183753801639682,44.69630553732225],[-10.049010634232872,44.61560363031169],[-9.91491143276528,44.53480582763246],[-9.781450052088388,44.45391296763659],[-9.648620401041853,44.37292587308276],[-9.51641644170158,44.291845351364145],[-9.384832188639024,44.21067219473204],[-9.253861708191181,44.12940718051465],[-9.12349911774129,44.04805107133201],[-8.993738585009964,43.966604615306295],[-8.864574327356365,43.885068546268315],[-8.736000611089338,43.803443583959805],[-8.60801175078845,43.721730434231716],[-8.480602108634343,43.639929789238685],[-8.353766093748618,43.55804232762978],[-8.227498161542798,43.476068714735305],[-8.101792813076088,43.39400960275015],[-7.976644594422282,43.3118656309134],[-7.852048096044911,43.22963742568465],[-7.727997952180914,43.147325600916524],[-7.604488840232733,43.06493075802429],[-7.481515480168213,42.98245348615166],[-7.359072633928548,42.899894362333804],[-7.237155104844106,42.81725395165681],[-7.115757737057578,42.734532807414276],[-6.9948754149546915,42.65173147126071],[-6.874503062602429,42.568850473361984],[-6.754635643194007,42.48589033254279],[-6.635268158501162,42.40285155643125],[-6.516395648333116,42.31973464160065],[-6.398013190002388,42.23654007370843],[-6.28011589779706,42.15326832763239],[-6.162698922459725,42.069919867604185],[-6.045757450672397,41.98649514734034],[-5.929286704547991,41.90299461017049],[-5.813281941127627,41.81941868916308],[-5.697738451884021,41.735767807248784],[-5.582651562230609,41.652042377341196],[-5.468016631036448,41.56824280245529],[-5.353829050146601,41.48436947582341],[-5.240084243908285,41.400422781009006],[-5.126777668701948,41.316403092018],[-5.013904812478074,41.232310773407995],[-4.901461194298719,41.14814618039514],[-4.789442363884461,41.06390965895899],[-4.677843901166028,40.979601545945066],[-4.566661415840912,40.895222169165365],[-4.455890546934569,40.81077184749684],[-4.345526962366591,40.72625089097783],[-4.235566358520913,40.6416596009024],[-4.126004459821019,40.556998269912775],[-4.016837018309019,40.472267182089894],[-3.9080598132293574,40.3874666130419],[-3.7996686506165247,40.302596829990875],[-3.6916593628867815,40.217658091857636],[-3.584027808434058,40.13265064934477],[-3.4767698712295783,40.04757474501784],[-3.3698814604254608,39.962430613384754],[-3.2633585099619324,39.877218480973475],[-3.157196978178291,39.79193856640809],[-3.0513928474273087,39.70659108048283],[-2.9459421236932997,39.6211762262349],[-2.840840836213374,39.535694199015204],[-2.7360850371022423,39.45014518655782],[-2.631670800980146,39.36452936904757],[-2.5275942246038596,39.27884691918614],[-2.423851426501102,39.193098002256676],[-2.320438546607562,39.10728277618678],[-2.21735174590728,39.02140139160987],[-2.11458720607547,38.935453991925286],[-2.012141129124501,38.849440713356636],[-1.9100097370524338,38.763361685008874],[-1.808189271494257,38.67721702892382],[-1.7066759933755122,38.5910068601343],[-1.6054661825688754,38.50473128671676],[-1.5045561375525836,38.41839040984264],[-1.4039421750717906,38.33198432382816],[-1.303620629801884,38.245513116182984],[-1.2035878540140175,38.15897686765725],[-1.1038402172431176,38.07237565228745],[-1.004374105957595,37.98570953744089],[-0.9051859232313859,37.898978583858835],[-0.8062720884177565,37.81218284569836],[-0.7076290368251819,37.72532237057295],[-0.6092532193949296,37.6383971995917],[-0.5111411023803214,37.55140736739735],[-0.41328916702801166,37.46435290220302],[-0.31569390926060237,37.377233825827645],[-0.21835183936082103,37.29005015373028],[-0.12125948165754608,37.20280189504302],[-0.024413374212826966,37.11548905260284],[0.07218993148941877,37.02811162298212],[0.1685538708534864,36.94066959651801],[0.2646818664807711,36.85316295734055],[0.36057732847731927,36.76559168339968],[0.45624365476047046,36.6779557464909],[0.5516842313642485,36.59025511228001],[0.6469024327439001,36.50248974032639],[0.7419016220793822,36.414659584105266],[0.8366851515780809,36.326764591028805],[0.9312563627767645,36.23880470246605],[1.025618586842512,36.15077985376165],[1.1197751448735005,36.06268997425345],[1.2137293481985978,35.97453498728899],[1.3074844986768142,35.886314810240776],[1.4010438889961279,35.79802935452047],[1.4944108029719132,35.709678525591954],[1.5875885158450274,35.62126222298313],[1.6805802945795563,35.53278034029675],[1.7733893981604467,35.44423276522004],[1.866019077890968,35.35561937953311],[1.958472577690003,35.266940059116315],[2.050753134389339,35.17819467395651],[2.142863978031187,35.08938308815212],[2.234808332165528,35.000505159917005],[2.326589414147975,34.91156074158329],[2.418210435437544,34.82254967960304],[2.5096746018950853,34.733471814548764],[2.6009851140818228,34.6443269811127],[2.692145167558664,34.55511500810517],[2.7831579531857358,34.46583571845147],[2.874026657422803,34.37648892918794],[2.9647544626301965,34.28707445145654],[3.0553445473705665,34.197592090498524],[3.1458000867116027,34.10804164564683],[3.2361242525292937,34.01842291031724],[3.326320213812778,33.92873567199845],[3.4163911369695654,33.83897971224094],[3.5063401861325474,33.749154806644555],[3.596170523467748,33.65926072484495],[3.685885309483723,33.569297230498805],[3.7754877033422076,33.479264081267864],[3.8649808631701603,33.389161028801624],[3.9543679463735657,33.29898781871885],[4.043652109952802,33.20874419058784],[4.132836510819658,33.11842987790547],[4.22192430611625,33.02804460807475],[4.3109186535359925,32.93758810238145],[4.399822711646323,32.84706007596898],[4.488639640213734,32.75646023781235],[4.577372600530879,32.66578829069058],[4.666024755746122,32.57504393115781],[4.754599271195275,32.48422684951308],[4.843099314736094,32.39333672976865],[4.931528057085103,32.302373249617055]]}}]}