{"type":"FeatureCollection","features":[{"type":"Feature","properties":{"magnitude":0.2,"de":0.2,"ate":0.5,"percentagem":20.0},"geometry":{"type":"Polygon","coordinates":[[[-34.5,30.0],[-34.44,30.0],[-19.78926972618768,30.0],[-21.479999999999507,31.038100075117427],[-23.219999999999573,32.009596272465146],[-24.95999999999964,32.88928516901892],[-26.759999999999707,33.709569351964745],[-28.619999999999777,34.468497468222644],[-30.53999999999985,35.16469051692935],[-32.519999999999925,35.79718851861703],[-34.5,36.349759215264164],[-34.5,30.0]]]}},{"type":"Feature","properties":{"magnitude":0.5,"de":0.5,"ate":0.8,"percentagem":50.0},"geometry":{"type":"Polygon","coordinates":[[[-21.551652749808618,31.079999999999977],[-19.78926972618768,30.0],[-3.5399999999988268,30.0],[-3.5399999999988268,30.439929791951656],[-5.527075993801529,32.27999999999995],[-7.499999999998977,33.981683712348826],[-9.479999999999052,35.559512403374576],[-11.459999999999127,37.00832070590471],[-13.499999999999204,38.37123304826309],[-15.539999999999281,39.60996236740062],[-17.63999999999936,40.76454109894017],[-19.859999999999445,41.862658270476246],[-21.779999999999514,42.71917869474159],[-23.759999999999593,43.519259944821954],[-25.79999999999967,44.26210844468884],[-27.876640165727903,44.939999999999685],[-34.5,44.939999999999685],[-34.5,36.349759215264164],[-32.519999999999925,35.79718851861703],[-30.53999999999985,35.16469051692935],[-28.67999999999978,34.491557654746096],[-26.81999999999971,33.73541998345818],[-25.01999999999964,32.91806005469497],[-23.279999999999575,32.04142244134837],[-21.551652749808618,31.079999999999977]]]}},{"type":"Feature","properties":{"magnitude":0.8,"de":0.8,"ate":0.95,"percentagem":80.0},"geometry":{"type":"MultiPolygon","coordinates":[[[[-3.5399999999988268,30.439929791951656],[-5.039999999998884,31.840351071835777],[-6.419999999998936,33.066047846342464],[-7.837668248822275,34.259999999999906],[-9.239999999999043,35.37519690259726],[-10.634890053584487,36.41999999999986],[-12.05999999999915,37.4225490710951],[-13.499999999999204,38.37123304826309],[-14.939999999999259,39.25801978227042],[-16.439999999999316,40.11920700156314],[-17.939999999999372,40.92005176327069],[-19.49999999999943,41.69268346327362],[-21.119999999999493,42.43403934627016],[-22.739999999999554,43.11723461248391],[-24.419999999999618,43.76832163427551],[-26.09999999999968,44.36477231324932],[-27.876640165727903,44.939999999999685],[-13.728054171300816,44.939999999999685],[-11.339999999999122,43.59208128384865],[-9.359999999999047,42.35944522532526],[-7.379999999998972,41.014656312115164],[-5.4599999999988995,39.597477421350604],[-3.5399999999988268,38.064852953704886],[-3.5399999999988268,30.439929791951656]]],[[[-3.5399999999988268,42.12252117706839],[-5.6045752698955,43.619999999999706],[-7.588346560779886,44.939999999999685],[-3.5399999999988268,44.939999999999685],[-3.5399999999988268,42.12252117706839]]]]}},{"type":"Feature","properties":{"magnitude":0.95,"de":0.95,"ate":0.99,"percentagem":95.0},"geometry":{"type":"Polygon","coordinates":[[[-6.01651775733023,40.01999999999978],[-3.5399999999988268,38.064852953704886],[-3.5399999999988268,42.12252117706839],[-4.919999999998879,43.13778281588977],[-6.299999999998931,44.095657302017635],[-7.588346560779886,44.939999999999685],[-13.728054171300816,44.939999999999685],[-11.086046990921883,43.43999999999971],[-8.519999999999015,41.80302775290862],[-6.01651775733023,40.01999999999978]],[[-6.658886416192029,42.41999999999973],[-6.66111127495048,42.41999999999973],[-6.659999999998944,42.420773492007484],[-6.658886416192029,42.41999999999973]],[[-5.398920108750936,41.519999999999754],[-5.401171837594522,41.519999999999754],[-5.399999999998897,41.52079253381711],[-5.398920108750936,41.519999999999754]],[[-5.157654640856287,41.33999999999976],[-5.162238535606125,41.339999999999755],[-5.159999999998888,41.34171625883185],[-5.157654640856287,41.33999999999976]],[[-4.918614453716528,41.15999999999976],[-4.921263395044117,41.15999999999976],[-4.919999999998879,41.161012180212026],[-4.918614453716528,41.15999999999976]],[[-4.677212460524983,40.97999999999976],[-4.682644815352455,40.97999999999976],[-4.67999999999887,40.9820794074176],[-4.677212460524983,40.97999999999976]],[[-4.437286585464123,40.79999999999977],[-4.442896253615445,40.79999999999977],[-4.439999999998861,40.80207273896294],[-4.437286585464123,40.79999999999977]],[[-3.896313728145323,40.37999999999978],[-3.9035153883433753,40.37999999999978],[-3.8999999999988404,40.3828463519944],[-3.896313728145323,40.37999999999978]]]}},{"type":"Feature","properties":{"magnitude":0.99,"de":0.99,"ate":2.0,"percentagem":99.0},"geometry":{"type":"MultiPolygon","coordinates":[[[[-3.8999999999988404,40.3828463519944],[-3.8999999999988404,40.377250504022285],[-3.9035153883433753,40.37999999999978],[-3.8999999999988404,40.3828463519944]]],[[[-4.437286585464122,40.79999999999977],[-4.442896253615445,40.79999999999977],[-4.439999999998861,40.802072738962934],[-4.437286585464122,40.79999999999977]]],[[[-4.677212460524983,40.97999999999976],[-4.682644815352455,40.97999999999976],[-4.67999999999887,40.982079407417594],[-4.677212460524983,40.97999999999976]]],[[[-4.918614453716528,41.15999999999976],[-4.921263395044117,41.15999999999976],[-4.919999999998879,41.16101218021202],[-4.918614453716528,41.15999999999976]]],[[[-5.157654640856286,41.33999999999976],[-5.162238535606125,41.33999999999976],[-5.159999999998888,41.34171625883185],[-5.157654640856286,41.33999999999976]]],[[[-5.398920108750936,41.519999999999754],[-5.401171837594522,41.519999999999754],[-5.399999999998897,41.5207925338171],[-5.398920108750936,41.519999999999754]]],[[[-6.658886416192029,42.41999999999973],[-6.66111127495048,42.41999999999973],[-6.659999999998945,42.420773492007484],[-6.658886416192029,42.41999999999973]]]]}}]}