{"type":"FeatureCollection","properties":{"largura_maxima_km":201.602,"largura_sobre_pt_km":195.866,"linha_central_sobre_pt":false,"desenhavel_como_area":true,"perfil_largura":[{"t":1.47778,"lat":36.5332,"lon":-39.9909,"largura_km":201.602,"eixo_na_terra":true},{"t":1.48333,"lat":36.4554,"lon":-39.5347,"largura_km":201.261,"eixo_na_terra":true},{"t":1.48889,"lat":36.3744,"lon":-39.07,"largura_km":200.912,"eixo_na_terra":true},{"t":1.49444,"lat":36.29,"lon":-38.5964,"largura_km":200.554,"eixo_na_terra":true},{"t":1.5,"lat":36.2021,"lon":-38.1134,"largura_km":200.187,"eixo_na_terra":true},{"t":1.50556,"lat":36.1104,"lon":-37.6205,"largura_km":199.811,"eixo_na_terra":true},{"t":1.51111,"lat":36.0147,"lon":-37.1169,"largura_km":199.426,"eixo_na_terra":true},{"t":1.51667,"lat":35.9148,"lon":-36.6019,"largura_km":199.03,"eixo_na_terra":true},{"t":1.52222,"lat":35.8104,"lon":-36.0749,"largura_km":198.621,"eixo_na_terra":true},{"t":1.52778,"lat":35.7012,"lon":-35.5348,"largura_km":198.2,"eixo_na_terra":true},{"t":1.53333,"lat":35.5869,"lon":-34.9806,"largura_km":197.765,"eixo_na_terra":true},{"t":1.53889,"lat":35.4669,"lon":-34.4113,"largura_km":197.317,"eixo_na_terra":true},{"t":1.54444,"lat":35.341,"lon":-33.8255,"largura_km":196.852,"eixo_na_terra":true},{"t":1.55,"lat":35.2085,"lon":-33.2218,"largura_km":196.369,"eixo_na_terra":true},{"t":1.55556,"lat":35.0689,"lon":-32.5982,"largura_km":195.866,"eixo_na_terra":true},{"t":1.56111,"lat":34.9214,"lon":-31.9528,"largura_km":195.341,"eixo_na_terra":true},{"t":1.56667,"lat":34.7651,"lon":-31.2832,"largura_km":194.792,"eixo_na_terra":true},{"t":1.57222,"lat":34.5992,"lon":-30.5862,"largura_km":194.214,"eixo_na_terra":true},{"t":1.57778,"lat":34.4223,"lon":-29.8584,"largura_km":193.601,"eixo_na_terra":true},{"t":1.58333,"lat":34.2329,"lon":-29.0953,"largura_km":192.947,"eixo_na_terra":true},{"t":1.58889,"lat":34.029,"lon":-28.291,"largura_km":192.241,"eixo_na_terra":true},{"t":1.59444,"lat":33.8082,"lon":-27.4383,"largura_km":191.47,"eixo_na_terra":true},{"t":1.6,"lat":33.567,"lon":-26.5271,"largura_km":190.613,"eixo_na_terra":true},{"t":1.60556,"lat":33.3007,"lon":-25.5434,"largura_km":189.623,"eixo_na_terra":true},{"t":1.61111,"lat":33.0022,"lon":-24.4667,"largura_km":188.39,"eixo_na_terra":true},{"t":1.61667,"lat":32.1572,"lon":-21.5151,"largura_km":null,"eixo_na_terra":false},{"t":1.62222,"lat":31.9281,"lon":-20.8067,"largura_km":null,"eixo_na_terra":false},{"t":1.62778,"lat":31.7414,"lon":-20.2876,"largura_km":null,"eixo_na_terra":false},{"t":1.63333,"lat":31.5301,"lon":-19.6974,"largura_km":null,"eixo_na_terra":false},{"t":1.63889,"lat":31.3707,"lon":-19.3095,"largura_km":null,"eixo_na_terra":false},{"t":1.64444,"lat":31.1569,"lon":-18.7459,"largura_km":null,"eixo_na_terra":false},{"t":1.65,"lat":30.8294,"lon":-17.9298,"largura_km":null,"eixo_na_terra":false},{"t":1.65556,"lat":30.5137,"lon":-16.9663,"largura_km":null,"eixo_na_terra":false}]},"features":[{"type":"Feature","properties":{},"geometry":{"type":"Polygon","coordinates":[[[-15.282093048975213,29.363043175280524],[-16.062732063850486,29.622258060967997],[-16.084951916728954,29.59991667891876],[-16.1682517970036,29.62610195787254],[-16.17775612623106,29.616170260978706],[-17.451649912056283,30.027538607667942],[-19.33753691513172,30.60878344122225],[-20.15859882079702,30.86447360004315],[-21.102146510224713,31.141271460576153],[-21.620304963670122,31.296539531843198],[-21.93841488707526,31.393756078167584],[-22.697254626080138,31.608344323854997],[-23.12618555957303,31.733688355648766],[-23.367152118816936,31.805879332786294],[-23.6277663561238,31.876222504494056],[-24.026060239399612,31.98640487879674],[-24.402234886750847,32.09392165980043],[-24.594771466099903,32.15053766590079],[-25.01216398507927,32.26064514955151],[-25.361331854351562,32.35651667458603],[-25.69278756979378,32.451286333845005],[-26.113680987122805,32.57824008801983],[-26.1548298880588,32.57021392784514],[-27.119758828066495,32.82558399302264],[-28.015053372210275,33.05721380394938],[-28.853846587432713,33.26948700972624],[-29.645601116669553,33.46556785762317],[-30.39740167005567,33.647829768269936],[-31.11471538840007,33.81810765077741],[-31.801865592072573,33.977855225417116],[-32.46234083375117,34.12824772962076],[-33.099004249975536,34.27025154194399],[-33.71423990899382,34.404672888657664],[-34.31005788406844,34.532192839252524],[-34.88817144434023,34.65339303431797],[-35.450054904649505,34.7687749811341],[-36.481977219113276,34.97425162827981],[-37.0030895931809,35.07492234796057],[-38.010001405794014,35.26338124989927],[-38.497285373332346,35.351680035082325],[-39.442671102997906,35.51750712870929],[-39.901858269711454,35.59541113757242],[-40.79557500245767,35.742017431206634],[-39.16799469340452,37.31808285638751],[-38.218620051603864,37.146393035407065],[-37.729984658499376,37.05517771143014],[-37.23129396387708,36.96011095242575],[-36.674388179598736,36.85175231492995],[-36.152764355226054,36.74793358817576],[-35.618862545049325,36.639470695828706],[-35.07177356889508,36.52604090871435],[-34.51046899756949,36.40727996668812],[-33.93377813179495,36.28277411600198],[-33.340358938788086,36.152050064363536],[-32.72866088803238,36.01456214596359],[-32.096876744076155,35.8696756854031],[-31.44287902151649,35.71664508532618],[-30.704653653759266,35.54035975345433],[-29.99604722291079,35.36742908889188],[-29.255602919700635,35.18299540000499],[-28.478578496980077,34.985410159085816],[-27.658923183124756,34.772574069437596],[-26.78870960553681,34.54174206856088],[-25.85720306009773,34.289204093887896],[-24.76497382312394,33.9861592867049],[-23.64983043613927,33.66909191169413],[-22.395433987734947,33.30349022368191],[-22.442996153448018,33.29421314576281],[-22.111830582942133,33.205575122439875],[-21.649916343893466,33.07663988886764],[-21.174331949891183,32.938108888134764],[-20.931321902229,32.86518596140228],[-20.434510868687568,32.7118648051711],[-20.05126131186853,32.58975023938061],[-19.407663004312155,32.39554276408965],[-18.769837257848167,32.19603471830276],[-18.431210643721556,32.087659079095964],[-17.809318781387937,31.884660532908427],[-17.297582294391816,31.723714256679283],[-16.79353133438687,31.562296383715967],[-16.211645203793807,31.37306734020479],[-15.488468144688426,31.134378312749487],[-14.335184008901962,30.74775384692622],[-14.347637553452111,30.73723879648589],[-14.333010246082381,30.7324212913161],[-14.358848224826449,30.711124722789783],[-14.022321016070407,30.595526071137925],[-14.267834579470824,30.42175281745995],[-14.145449786442015,29.617339013992375],[-15.029834819487604,29.882412916327265],[-15.295044810623864,29.694698631098586],[-15.361535675316505,29.714229470260666],[-15.282093048975213,29.363043175280524]]]}}]}