{"type":"FeatureCollection","features":[{"type":"Feature","properties":{"t_inicio":1.4777777777777583,"t_fim":1.6333333333333133},"geometry":{"type":"LineString","coordinates":[[-39.9909268611562,36.5331668995209],[-39.53467126019882,36.45536032214717],[-39.06999643627364,36.37435408725116],[-38.59642795470651,36.289980471161314],[-38.11344421194798,36.20205548742158],[-37.62046962929338,36.11037656106083],[-37.11686653161985,36.014719755597426],[-36.60192538680326,35.9148364427859],[-36.07485298250282,35.810449271614075],[-35.534757981447456,35.70124724720034],[-34.9806331081231,35.586879666584665],[-34.41133295435097,35.466948568688345],[-33.82554601073008,35.34099922714074],[-33.22175897521447,35.208508026973426],[-32.59821056178117,35.068866786519116],[-31.952830768963423,34.921362159538226],[-31.28315959158644,34.76514808583099],[-30.58623597538525,34.59920818500159],[-29.858442512735877,34.42230320101368],[-29.095282204601574,34.232895514333634],[-28.291047014022467,34.02903714753257],[-27.438306258097924,33.808197025099574],[-26.527078426856377,33.56698155604173],[-25.543408048373834,33.30065485115472],[-24.4667233973222,33.002248605826935],[-23.26438817997166,32.660728128713984],[-21.878626285486177,32.25659452700845],[-20.186418747003643,31.748407315900014],[-17.79477601180284,31.004045757486566]]}}]}