{"type":"FeatureCollection","properties":{"largura_maxima_km":283.297,"largura_sobre_pt_km":277.757,"linha_central_sobre_pt":false,"desenhavel_como_area":true,"perfil_largura":[{"t":-1.42222,"lat":33.88,"lon":-45.9066,"largura_km":null,"eixo_na_terra":false},{"t":-1.41667,"lat":34.2683,"lon":-45.3095,"largura_km":null,"eixo_na_terra":false},{"t":-1.38333,"lat":37.0589,"lon":-39.79,"largura_km":269.905,"eixo_na_terra":true},{"t":-1.37778,"lat":37.3694,"lon":-39.2591,"largura_km":270.29,"eixo_na_terra":true},{"t":-1.37222,"lat":37.6689,"lon":-38.7529,"largura_km":270.759,"eixo_na_terra":true},{"t":-1.36667,"lat":37.9588,"lon":-38.2683,"largura_km":271.285,"eixo_na_terra":true},{"t":-1.36111,"lat":38.2401,"lon":-37.8028,"largura_km":271.818,"eixo_na_terra":true},{"t":-1.35556,"lat":38.5136,"lon":-37.3546,"largura_km":272.361,"eixo_na_terra":true},{"t":-1.35,"lat":38.7801,"lon":-36.9219,"largura_km":272.9,"eixo_na_terra":true},{"t":-1.34444,"lat":39.0403,"lon":-36.5032,"largura_km":273.427,"eixo_na_terra":true},{"t":-1.33889,"lat":39.2946,"lon":-36.0972,"largura_km":273.936,"eixo_na_terra":true},{"t":-1.33333,"lat":39.5436,"lon":-35.703,"largura_km":274.433,"eixo_na_terra":true},{"t":-1.32778,"lat":39.7875,"lon":-35.3196,"largura_km":274.912,"eixo_na_terra":true},{"t":-1.32222,"lat":40.0269,"lon":-34.9462,"largura_km":275.371,"eixo_na_terra":true},{"t":-1.31667,"lat":40.262,"lon":-34.582,"largura_km":275.812,"eixo_na_terra":true},{"t":-1.31111,"lat":40.493,"lon":-34.2263,"largura_km":276.237,"eixo_na_terra":true},{"t":-1.30556,"lat":40.7203,"lon":-33.8787,"largura_km":276.644,"eixo_na_terra":true},{"t":-1.3,"lat":40.944,"lon":-33.5385,"largura_km":277.032,"eixo_na_terra":true},{"t":-1.29444,"lat":41.1644,"lon":-33.2053,"largura_km":277.403,"eixo_na_terra":true},{"t":-1.28889,"lat":41.3817,"lon":-32.8787,"largura_km":277.757,"eixo_na_terra":true},{"t":-1.28333,"lat":41.596,"lon":-32.5583,"largura_km":278.098,"eixo_na_terra":true},{"t":-1.27778,"lat":41.8074,"lon":-32.2437,"largura_km":278.422,"eixo_na_terra":true},{"t":-1.27222,"lat":42.0162,"lon":-31.9346,"largura_km":278.732,"eixo_na_terra":true},{"t":-1.26667,"lat":42.2224,"lon":-31.6308,"largura_km":279.026,"eixo_na_terra":true},{"t":-1.26111,"lat":42.4262,"lon":-31.3318,"largura_km":279.307,"eixo_na_terra":true},{"t":-1.25556,"lat":42.6276,"lon":-31.0375,"largura_km":279.574,"eixo_na_terra":true},{"t":-1.25,"lat":42.8269,"lon":-30.7477,"largura_km":279.828,"eixo_na_terra":true},{"t":-1.24444,"lat":43.024,"lon":-30.462,"largura_km":280.072,"eixo_na_terra":true},{"t":-1.23889,"lat":43.2191,"lon":-30.1804,"largura_km":280.303,"eixo_na_terra":true},{"t":-1.23333,"lat":43.4122,"lon":-29.9026,"largura_km":280.523,"eixo_na_terra":true},{"t":-1.22778,"lat":43.6034,"lon":-29.6284,"largura_km":280.732,"eixo_na_terra":true},{"t":-1.22222,"lat":43.7928,"lon":-29.3578,"largura_km":280.929,"eixo_na_terra":true},{"t":-1.21667,"lat":43.9805,"lon":-29.0904,"largura_km":281.116,"eixo_na_terra":true},{"t":-1.21111,"lat":44.1665,"lon":-28.8262,"largura_km":281.293,"eixo_na_terra":true},{"t":-1.20556,"lat":44.3509,"lon":-28.565,"largura_km":281.461,"eixo_na_terra":true},{"t":-1.2,"lat":44.5338,"lon":-28.3068,"largura_km":281.619,"eixo_na_terra":true},{"t":-1.19444,"lat":44.7151,"lon":-28.0513,"largura_km":281.767,"eixo_na_terra":true},{"t":-1.18889,"lat":44.8949,"lon":-27.7984,"largura_km":281.908,"eixo_na_terra":true},{"t":-1.18333,"lat":45.0734,"lon":-27.5482,"largura_km":282.039,"eixo_na_terra":true},{"t":-1.17778,"lat":45.2505,"lon":-27.3003,"largura_km":282.163,"eixo_na_terra":true},{"t":-1.17222,"lat":45.4262,"lon":-27.0549,"largura_km":282.279,"eixo_na_terra":true},{"t":-1.16667,"lat":45.6007,"lon":-26.8116,"largura_km":282.387,"eixo_na_terra":true},{"t":-1.16111,"lat":45.774,"lon":-26.5706,"largura_km":282.488,"eixo_na_terra":true},{"t":-1.15556,"lat":45.946,"lon":-26.3316,"largura_km":282.581,"eixo_na_terra":true},{"t":-1.15,"lat":46.1168,"lon":-26.0946,"largura_km":282.668,"eixo_na_terra":true},{"t":-1.14444,"lat":46.2865,"lon":-25.8595,"largura_km":282.748,"eixo_na_terra":true},{"t":-1.13889,"lat":46.4551,"lon":-25.6263,"largura_km":282.822,"eixo_na_terra":true},{"t":-1.13333,"lat":46.6226,"lon":-25.3948,"largura_km":282.89,"eixo_na_terra":true},{"t":-1.12778,"lat":46.789,"lon":-25.165,"largura_km":282.951,"eixo_na_terra":true},{"t":-1.12222,"lat":46.9545,"lon":-24.9369,"largura_km":283.007,"eixo_na_terra":true},{"t":-1.11667,"lat":47.1189,"lon":-24.7103,"largura_km":283.059,"eixo_na_terra":true},{"t":-1.11111,"lat":47.2823,"lon":-24.4853,"largura_km":283.104,"eixo_na_terra":true},{"t":-1.10556,"lat":47.4448,"lon":-24.2617,"largura_km":283.145,"eixo_na_terra":true},{"t":-1.1,"lat":47.6064,"lon":-24.0395,"largura_km":283.18,"eixo_na_terra":true},{"t":-1.09444,"lat":47.767,"lon":-23.8186,"largura_km":283.21,"eixo_na_terra":true},{"t":-1.08889,"lat":47.9268,"lon":-23.599,"largura_km":283.236,"eixo_na_terra":true},{"t":-1.08333,"lat":48.0857,"lon":-23.3807,"largura_km":283.257,"eixo_na_terra":true},{"t":-1.07778,"lat":48.2438,"lon":-23.1636,"largura_km":283.273,"eixo_na_terra":true},{"t":-1.07222,"lat":48.401,"lon":-22.9476,"largura_km":283.286,"eixo_na_terra":true},{"t":-1.06667,"lat":48.5574,"lon":-22.7327,"largura_km":283.293,"eixo_na_terra":true},{"t":-1.06111,"lat":48.713,"lon":-22.5189,"largura_km":283.297,"eixo_na_terra":true},{"t":-1.05556,"lat":48.8679,"lon":-22.3061,"largura_km":283.297,"eixo_na_terra":true},{"t":-1.05,"lat":49.022,"lon":-22.0942,"largura_km":283.294,"eixo_na_terra":true},{"t":-1.04444,"lat":49.1753,"lon":-21.8833,"largura_km":283.286,"eixo_na_terra":true},{"t":-1.03889,"lat":49.3279,"lon":-21.6733,"largura_km":283.275,"eixo_na_terra":true},{"t":-1.03333,"lat":49.4798,"lon":-21.4641,"largura_km":283.26,"eixo_na_terra":true},{"t":-1.02778,"lat":49.631,"lon":-21.2558,"largura_km":283.242,"eixo_na_terra":true},{"t":-1.02222,"lat":49.7815,"lon":-21.0482,"largura_km":283.221,"eixo_na_terra":true},{"t":-1.01667,"lat":49.9313,"lon":-20.8414,"largura_km":283.197,"eixo_na_terra":true}]},"features":[{"type":"Feature","properties":{},"geometry":{"type":"Polygon","coordinates":[[[-40.21518700152865,35.37870819871221],[-40.370624006310095,35.28989675468979],[-40.45601412701177,35.243947821884355],[-40.64204118130493,35.14905181783232],[-40.84826096933648,35.05026066361666],[-41.074504543144656,34.947677089334704],[-41.320602298336155,34.84137865709238],[-41.45104505560994,34.78685304742421],[-41.72662276761616,34.675065682066375],[-42.021679204883355,34.55962745924252],[-42.50057358657858,34.37953243968388],[-42.84398710375041,34.25470794450263],[-43.2067767492174,34.12589391679238],[-43.589113084481255,33.99285949170141],[-43.99132165181305,33.855287852771326],[-44.85781833305583,33.564678411712656],[-46.603804210509054,32.98867954086628],[-47.471683389098246,32.700433733180404],[-48.45602182758438,32.366928517064736],[-49.22080298245709,32.100275075783514],[-49.65991729004941,31.94325854659068],[-50.16461404598442,31.758587928211877],[-50.795047038193786,31.52065480277837],[-52.06132821599425,31.012428060069073],[-51.76921182482616,31.765214673040546],[-52.22301565069546,32.06469410389007],[-51.519578661907815,32.381136630154295],[-49.94786386000345,33.10108126355072],[-49.3388172839758,33.37828063037901],[-48.507946691150835,33.74995848374246],[-47.989438595240074,33.97670120498466],[-47.491353291553935,34.18993833764851],[-47.248751559654465,34.29200398783335],[-47.00999909541582,34.39122224008481],[-46.54311343265766,34.58151538210064],[-46.314637650619545,34.67274146782241],[-45.86703565738247,34.84762628094376],[-45.64775794533085,34.93136414100821],[-45.21802315277165,35.09157567119613],[-44.79992856978157,35.24223701916092],[-44.595245651637185,35.31402434642239],[-44.194688042128746,35.45056808426168],[-43.998866810862296,35.51534241020203],[-43.61631575760049,35.637934453809116],[-43.4296702581218,35.69576630281283],[-43.065877162386585,35.80453665077728],[-42.71509769467758,35.904165337294046],[-42.54472717043194,35.95057184713343],[-42.214316300490054,36.03661529653428],[-42.054395840106,36.07627294858092],[-41.745429382935924,36.14891825905148],[-41.59650613972866,36.1819318964644],[-41.31008640442582,36.24141319830172],[-41.17271180800145,36.26791259569399],[-40.90993386004328,36.3145155408897],[-40.784648543144044,36.33465666414047],[-40.546573056555815,36.368719290781456],[-40.43389459803501,36.38268400464471],[-40.221525621415196,36.40459491781192],[-40.026815760911745,36.418643861912074],[-39.85015221151184,36.42503699882958],[-39.768701038297934,36.42543020387287],[-39.619769717169675,36.420750637466284],[-39.552367492280666,36.41573588048379],[-39.48972270967096,36.408977328011126],[-39.43186906396005,36.40050518151277],[-39.3788380638494,36.39035003270902],[-39.33065899552571,36.378542813859944],[-39.28735889066212,36.36511474753991],[-39.248962498914864,36.35009729605011],[-39.215492264819886,36.33352211060916],[-39.186968308993016,36.3154209804559],[-39.163408413539344,36.295825781991546],[-39.144828011579705,36.274768428082375],[-39.13124018080248,36.25228081763635],[-39.122655640952075,36.22839478556216],[-39.119082755166176,36.20314205321083],[-39.120527535076974,36.17655417939412],[-39.12699364959417,36.14866251206681],[-39.13848243729029,36.11949814075255],[-39.154992922315785,36.089091849785866],[-39.17652183377106,36.057474072435426],[-39.20306362847475,36.02467484596546],[-39.23461051706835,35.990723767684756],[-39.271152493409716,35.95564995202404],[-39.31267736721304,35.91948198867334],[-39.359170799907076,35.882247901803055],[-39.41061634369083,35.84397511038143],[-39.46699548378348,35.804690389592295],[-39.59447043481299,35.723188817861306],[-39.741408003455774,35.637943114382644],[-39.82210842304431,35.59397527697314],[-39.90759071827193,35.54914061550307],[-40.081761462336445,35.4623484489282],[-40.21518700152865,35.37870819871221]]]}},{"type":"Feature","properties":{},"geometry":{"type":"Polygon","coordinates":[[[-42.434501920353284,37.01199721163158],[-41.82722190294572,37.361927157171706],[-41.255726126714364,37.69588724098298],[-40.17178711547609,38.343711876826106],[-39.68094955994388,38.641421894474426],[-39.2102695225139,38.929984050090894],[-38.295478217972686,39.5009461571405],[-37.874176870369524,39.76692745300114],[-37.070065036408835,40.28107233180347],[-36.68513344780814,40.53016659921868],[-35.94517130700797,41.01430757272854],[-34.877886554279996,41.725623744678565],[-34.54470425812434,41.950161674901366],[-33.89796477032729,42.38970419851194],[-32.97140467317092,43.027607564372985],[-32.37912131454675,43.44018808324081],[-31.80477182903121,43.84367296601788],[-31.24661835906528,44.23882349433757],[-30.70315118176103,44.626299815093184],[-30.173048087365146,45.006678776561074],[-29.400435620094015,45.56503370862603],[-28.16478578803185,46.466549905233926],[-26.966086525518733,47.3496222430692],[-25.82932661766222,48.191740540580014],[-23.02641085642705,50.27511290967785],[-18.765929246349003,49.53318879081237],[-20.210912487299595,48.507658948908535],[-23.693238625327126,46.02559562750926],[-24.61925664711714,45.36865050413099],[-25.57514875744556,44.69400976474136],[-26.566036973445023,43.99954875054828],[-27.598141125604286,43.2826624330147],[-28.4038307317295,42.72835631288535],[-29.26299257350456,42.14370186549493],[-29.841348787118193,41.75327245042276],[-30.437539166098986,41.35404251719789],[-31.369653852996237,40.736823700350485],[-32.01978863029473,40.31159845906068],[-33.07206752413856,39.634037037019105],[-33.7961117062207,39.174278936780425],[-34.171708883553094,38.93815948155643],[-34.983790413708164,38.43473176066895],[-35.8144549897861,37.92648501146747],[-36.73619133308961,37.374169748547985],[-43.86169763970878,36.20419544210239],[-43.119673355265206,36.620783232186035],[-42.434501920353284,37.01199721163158]]]}}]}