{"type":"FeatureCollection","features":[{"type":"Feature","properties":{"t_inicio":-1.3833333333333426,"t_fim":-1.0166666666666773},"geometry":{"type":"LineString","coordinates":[[-39.78996279357182,37.05887808019797],[-39.25910549583358,37.36936080303383],[-38.752861108771356,37.66890339743106],[-38.268251644061536,37.95878889549701],[-37.80284263141289,38.24006694121975],[-37.35461365856287,38.5136092651239],[-36.92186603097696,38.78014927094772],[-36.50315531917448,39.0403109660648],[-36.09724105731391,39.29463054552182],[-35.703048547364745,39.54357278903853],[-35.31963938868893,39.7875437179799],[-34.946188414545816,40.026900505106155],[-34.5819654116284,40.2619593326784],[-34.22632046376697,40.493001695452456],[-33.878672078775594,40.72027950901643],[-33.5384974787367,40.94401928914971],[-33.2053245907436,41.16442560074807],[-32.87872538782534,41.381683926571625],[-32.55831031196635,41.595963070849564],[-32.243723571843304,41.8074171867509],[-31.93463915328624,42.01618749727191],[-31.6307574147649,42.22240376438196],[-31.331802166384193,42.4261855500378],[-31.03751815105113,42.62764330401827],[-30.747668862163664,42.826879306797544],[-30.4620346444687,43.02398849039691],[-30.18041103445097,43.219059155982684],[-29.902607304343007,43.4121736036587],[-29.628445180039705,43.6034086872417],[-29.35775770819089,43.79283630466282],[-29.09038825179499,43.98052383289807],[-28.82618959691939,44.166534514910985],[-28.565023155882045,44.35092780492545],[-28.306758254461613,44.533759677386705],[-28.05127149255236,44.7150829041722],[-27.79844616922105,44.89494730395186],[-27.54817176440821,45.07339996704362],[-27.300343470596715,45.25048545864444],[-27.054861768681064,45.42624600292576],[-26.811632043040106,45.60072165015026],[-26.570564231470428,45.773950428685204],[-26.331572506194163,45.945968483547475],[-26.094574982631684,46.11681020291043],[-25.859493453037146,46.28650833382611],[-25.626253142447638,46.45509408826512],[-25.394782484698112,46.62259724044603],[-25.165012916519117,46.789046216311796],[-24.93687868795837,46.95446817591419],[-24.710316687569332,47.11888908937967],[-24.485266280979488,47.282333807057945],[-24.261669161603663,47.4448261243865],[-24.039469212399183,47.60638884194993],[-23.818612377677596,47.76704382116059],[-23.59904654408672,47.92681203594392],[-23.380721429971743,48.08571362077248],[-23.163588482398723,48.24376791535826],[-22.947600781199128,48.40099350628208],[-22.732712949454083,48.55740826581202],[-22.51888106989304,48.713029388138494],[-22.306062606732382,48.867873423232176],[-22.09421633252333,49.02195630851161],[-21.883302259617153,49.17529339849052],[-21.6732815758931,49.327899492558814],[-21.46411658442412,49.47978886103866],[-21.255770646786402,49.63097526964285],[-21.048208129741795,49.78147200245364],[-20.84139435504818,49.931291883528175]]}}]}