{"type":"FeatureCollection","properties":{"largura_maxima_km":182.953,"largura_sobre_pt_km":163.216,"linha_central_sobre_pt":true,"desenhavel_como_area":true,"perfil_largura":[{"t":-1.41667,"lat":32.744,"lon":-30.2392,"largura_km":null,"eixo_na_terra":false},{"t":-1.41111,"lat":32.7716,"lon":-29.4502,"largura_km":null,"eixo_na_terra":false},{"t":-1.40556,"lat":32.8107,"lon":-28.7992,"largura_km":null,"eixo_na_terra":false},{"t":-1.4,"lat":32.8614,"lon":-28.4486,"largura_km":null,"eixo_na_terra":false},{"t":-1.39444,"lat":32.9116,"lon":-27.8957,"largura_km":null,"eixo_na_terra":false},{"t":-1.38889,"lat":32.9639,"lon":-27.3919,"largura_km":null,"eixo_na_terra":false},{"t":-1.38333,"lat":32.9936,"lon":-26.7502,"largura_km":null,"eixo_na_terra":false},{"t":-1.37778,"lat":33.0382,"lon":-26.2501,"largura_km":null,"eixo_na_terra":false},{"t":-1.37222,"lat":33.0893,"lon":-25.844,"largura_km":null,"eixo_na_terra":false},{"t":-1.36667,"lat":32.8117,"lon":-23.2768,"largura_km":182.953,"eixo_na_terra":true},{"t":-1.36111,"lat":32.7834,"lon":-22.4651,"largura_km":173.897,"eixo_na_terra":true},{"t":-1.35556,"lat":32.7625,"lon":-21.7235,"largura_km":170.663,"eixo_na_terra":true},{"t":-1.35,"lat":32.7474,"lon":-21.0375,"largura_km":168.737,"eixo_na_terra":true},{"t":-1.34444,"lat":32.7371,"lon":-20.397,"largura_km":167.355,"eixo_na_terra":true},{"t":-1.33889,"lat":32.7308,"lon":-19.7945,"largura_km":166.27,"eixo_na_terra":true},{"t":-1.33333,"lat":32.728,"lon":-19.2245,"largura_km":165.361,"eixo_na_terra":true},{"t":-1.32778,"lat":32.7282,"lon":-18.6827,"largura_km":164.567,"eixo_na_terra":true},{"t":-1.32222,"lat":32.731,"lon":-18.1655,"largura_km":163.86,"eixo_na_terra":true},{"t":-1.31667,"lat":32.7362,"lon":-17.6701,"largura_km":163.216,"eixo_na_terra":true},{"t":-1.31111,"lat":32.7435,"lon":-17.1943,"largura_km":162.617,"eixo_na_terra":true},{"t":-1.30556,"lat":32.7527,"lon":-16.7361,"largura_km":162.059,"eixo_na_terra":true},{"t":-1.3,"lat":32.7637,"lon":-16.2938,"largura_km":161.534,"eixo_na_terra":true},{"t":-1.29444,"lat":32.7763,"lon":-15.8661,"largura_km":161.034,"eixo_na_terra":true},{"t":-1.28889,"lat":32.7903,"lon":-15.4517,"largura_km":160.556,"eixo_na_terra":true},{"t":-1.28333,"lat":32.8058,"lon":-15.0495,"largura_km":160.096,"eixo_na_terra":true},{"t":-1.27778,"lat":32.8225,"lon":-14.6587,"largura_km":159.651,"eixo_na_terra":true},{"t":-1.27222,"lat":32.8404,"lon":-14.2785,"largura_km":159.225,"eixo_na_terra":true},{"t":-1.26667,"lat":32.8594,"lon":-13.908,"largura_km":158.811,"eixo_na_terra":true},{"t":-1.26111,"lat":32.8795,"lon":-13.5468,"largura_km":158.409,"eixo_na_terra":true},{"t":-1.25556,"lat":32.9005,"lon":-13.1941,"largura_km":158.018,"eixo_na_terra":true},{"t":-1.25,"lat":32.9225,"lon":-12.8495,"largura_km":157.636,"eixo_na_terra":true},{"t":-1.24444,"lat":32.9454,"lon":-12.5124,"largura_km":157.261,"eixo_na_terra":true},{"t":-1.23889,"lat":32.9691,"lon":-12.1825,"largura_km":156.896,"eixo_na_terra":true},{"t":-1.23333,"lat":32.9936,"lon":-11.8594,"largura_km":156.54,"eixo_na_terra":true},{"t":-1.22778,"lat":33.0189,"lon":-11.5427,"largura_km":156.19,"eixo_na_terra":true},{"t":-1.22222,"lat":33.0449,"lon":-11.2321,"largura_km":155.845,"eixo_na_terra":true},{"t":-1.21667,"lat":33.0716,"lon":-10.9273,"largura_km":155.506,"eixo_na_terra":true},{"t":-1.21111,"lat":33.099,"lon":-10.628,"largura_km":155.173,"eixo_na_terra":true},{"t":-1.20556,"lat":33.127,"lon":-10.3339,"largura_km":154.844,"eixo_na_terra":true},{"t":-1.2,"lat":33.1557,"lon":-10.0448,"largura_km":154.52,"eixo_na_terra":true},{"t":-1.19444,"lat":33.1849,"lon":-9.7605,"largura_km":154.2,"eixo_na_terra":true},{"t":-1.18889,"lat":33.2147,"lon":-9.4808,"largura_km":153.886,"eixo_na_terra":true},{"t":-1.18333,"lat":33.2451,"lon":-9.2054,"largura_km":153.576,"eixo_na_terra":true},{"t":-1.17778,"lat":33.276,"lon":-8.9343,"largura_km":153.269,"eixo_na_terra":true},{"t":-1.17222,"lat":33.3074,"lon":-8.6672,"largura_km":152.966,"eixo_na_terra":true},{"t":-1.16667,"lat":33.3394,"lon":-8.404,"largura_km":152.666,"eixo_na_terra":true},{"t":-1.16111,"lat":33.3718,"lon":-8.1445,"largura_km":152.369,"eixo_na_terra":true},{"t":-1.15556,"lat":33.4046,"lon":-7.8886,"largura_km":152.074,"eixo_na_terra":true},{"t":-1.15,"lat":33.438,"lon":-7.6361,"largura_km":151.783,"eixo_na_terra":true},{"t":-1.14444,"lat":33.4718,"lon":-7.387,"largura_km":151.494,"eixo_na_terra":true},{"t":-1.13889,"lat":33.506,"lon":-7.1411,"largura_km":151.208,"eixo_na_terra":true},{"t":-1.13333,"lat":33.5406,"lon":-6.8983,"largura_km":150.924,"eixo_na_terra":true},{"t":-1.12778,"lat":33.5756,"lon":-6.6585,"largura_km":150.644,"eixo_na_terra":true},{"t":-1.12222,"lat":33.6111,"lon":-6.4216,"largura_km":150.366,"eixo_na_terra":true},{"t":-1.11667,"lat":33.6469,"lon":-6.1875,"largura_km":150.09,"eixo_na_terra":true},{"t":-1.11111,"lat":33.6832,"lon":-5.9561,"largura_km":149.817,"eixo_na_terra":true},{"t":-1.10556,"lat":33.7197,"lon":-5.7274,"largura_km":149.545,"eixo_na_terra":true},{"t":-1.1,"lat":33.7567,"lon":-5.5012,"largura_km":149.274,"eixo_na_terra":true},{"t":-1.09444,"lat":33.794,"lon":-5.2774,"largura_km":149.006,"eixo_na_terra":true},{"t":-1.08889,"lat":33.8317,"lon":-5.0561,"largura_km":148.739,"eixo_na_terra":true},{"t":-1.08333,"lat":33.8697,"lon":-4.8371,"largura_km":148.473,"eixo_na_terra":true},{"t":-1.07778,"lat":33.908,"lon":-4.6203,"largura_km":148.209,"eixo_na_terra":true},{"t":-1.07222,"lat":33.9467,"lon":-4.4057,"largura_km":147.947,"eixo_na_terra":true},{"t":-1.06667,"lat":33.9857,"lon":-4.1932,"largura_km":147.685,"eixo_na_terra":true},{"t":-1.06111,"lat":34.025,"lon":-3.9828,"largura_km":147.425,"eixo_na_terra":true},{"t":-1.05556,"lat":34.0646,"lon":-3.7745,"largura_km":147.167,"eixo_na_terra":true},{"t":-1.05,"lat":34.1045,"lon":-3.568,"largura_km":146.91,"eixo_na_terra":true},{"t":-1.04444,"lat":34.1447,"lon":-3.3635,"largura_km":146.655,"eixo_na_terra":true},{"t":-1.03889,"lat":34.1852,"lon":-3.1608,"largura_km":146.402,"eixo_na_terra":true},{"t":-1.03333,"lat":34.226,"lon":-2.96,"largura_km":146.149,"eixo_na_terra":true},{"t":-1.02778,"lat":34.2671,"lon":-2.7609,"largura_km":145.898,"eixo_na_terra":true},{"t":-1.02222,"lat":34.3084,"lon":-2.5635,"largura_km":145.647,"eixo_na_terra":true},{"t":-1.01667,"lat":34.3501,"lon":-2.3677,"largura_km":145.397,"eixo_na_terra":true},{"t":-1.01111,"lat":34.392,"lon":-2.1736,"largura_km":145.149,"eixo_na_terra":true},{"t":-1.00556,"lat":34.4342,"lon":-1.9811,"largura_km":144.901,"eixo_na_terra":true},{"t":-1.0,"lat":34.4766,"lon":-1.7901,"largura_km":144.654,"eixo_na_terra":true},{"t":-0.99444,"lat":34.5193,"lon":-1.6007,"largura_km":144.409,"eixo_na_terra":true},{"t":-0.98889,"lat":34.5623,"lon":-1.4127,"largura_km":144.164,"eixo_na_terra":true},{"t":-0.98333,"lat":34.6055,"lon":-1.2261,"largura_km":143.92,"eixo_na_terra":true},{"t":-0.97778,"lat":34.6489,"lon":-1.041,"largura_km":143.676,"eixo_na_terra":true},{"t":-0.97222,"lat":34.6927,"lon":-0.8572,"largura_km":143.434,"eixo_na_terra":true},{"t":-0.96667,"lat":34.7366,"lon":-0.6748,"largura_km":143.193,"eixo_na_terra":true},{"t":-0.96111,"lat":34.7808,"lon":-0.4936,"largura_km":142.953,"eixo_na_terra":true},{"t":-0.95556,"lat":34.8252,"lon":-0.3138,"largura_km":142.714,"eixo_na_terra":true},{"t":-0.95,"lat":34.8699,"lon":-0.1352,"largura_km":142.477,"eixo_na_terra":true},{"t":-0.94444,"lat":34.9148,"lon":0.0422,"largura_km":142.24,"eixo_na_terra":true},{"t":-0.93889,"lat":34.9599,"lon":0.2184,"largura_km":142.004,"eixo_na_terra":true},{"t":-0.93333,"lat":35.0053,"lon":0.3934,"largura_km":141.768,"eixo_na_terra":true},{"t":-0.92778,"lat":35.0509,"lon":0.5673,"largura_km":141.534,"eixo_na_terra":true},{"t":-0.92222,"lat":35.0967,"lon":0.74,"largura_km":141.3,"eixo_na_terra":true},{"t":-0.91667,"lat":35.1427,"lon":0.9117,"largura_km":141.067,"eixo_na_terra":true},{"t":-0.91111,"lat":35.1889,"lon":1.0823,"largura_km":140.834,"eixo_na_terra":true},{"t":-0.90556,"lat":35.2354,"lon":1.2519,"largura_km":140.602,"eixo_na_terra":true},{"t":-0.9,"lat":35.2821,"lon":1.4204,"largura_km":140.371,"eixo_na_terra":true},{"t":-0.89444,"lat":35.329,"lon":1.588,"largura_km":140.14,"eixo_na_terra":true},{"t":-0.88889,"lat":35.3761,"lon":1.7545,"largura_km":139.91,"eixo_na_terra":true},{"t":-0.88333,"lat":35.4234,"lon":1.9201,"largura_km":139.681,"eixo_na_terra":true},{"t":-0.87778,"lat":35.4709,"lon":2.0848,"largura_km":139.452,"eixo_na_terra":true},{"t":-0.87222,"lat":35.5186,"lon":2.2485,"largura_km":139.224,"eixo_na_terra":true},{"t":-0.86667,"lat":35.5665,"lon":2.4113,"largura_km":138.997,"eixo_na_terra":true},{"t":-0.86111,"lat":35.6146,"lon":2.5733,"largura_km":138.77,"eixo_na_terra":true},{"t":-0.85556,"lat":35.663,"lon":2.7344,"largura_km":138.544,"eixo_na_terra":true},{"t":-0.85,"lat":35.7115,"lon":2.8946,"largura_km":138.319,"eixo_na_terra":true},{"t":-0.84444,"lat":35.7602,"lon":3.054,"largura_km":138.094,"eixo_na_terra":true},{"t":-0.83889,"lat":35.8091,"lon":3.2126,"largura_km":137.871,"eixo_na_terra":true},{"t":-0.83333,"lat":35.8583,"lon":3.3705,"largura_km":137.649,"eixo_na_terra":true},{"t":-0.82778,"lat":35.9076,"lon":3.5275,"largura_km":137.427,"eixo_na_terra":true},{"t":-0.82222,"lat":35.9571,"lon":3.6838,"largura_km":137.205,"eixo_na_terra":true},{"t":-0.81667,"lat":36.0068,"lon":3.8393,"largura_km":136.985,"eixo_na_terra":true},{"t":-0.81111,"lat":36.0566,"lon":3.9941,"largura_km":136.765,"eixo_na_terra":true},{"t":-0.80556,"lat":36.1067,"lon":4.1481,"largura_km":136.545,"eixo_na_terra":true},{"t":-0.8,"lat":36.157,"lon":4.3015,"largura_km":136.327,"eixo_na_terra":true},{"t":-0.79444,"lat":36.2074,"lon":4.4542,"largura_km":136.109,"eixo_na_terra":true},{"t":-0.78889,"lat":36.2581,"lon":4.6062,"largura_km":135.892,"eixo_na_terra":true},{"t":-0.78333,"lat":36.3089,"lon":4.7576,"largura_km":135.676,"eixo_na_terra":true},{"t":-0.77778,"lat":36.3599,"lon":4.9083,"largura_km":135.461,"eixo_na_terra":true}]},"features":[{"type":"Feature","properties":{},"geometry":{"type":"Polygon","coordinates":[[[-32.0426160714332,32.80287422552855],[-31.464816340417684,33.330432769214184],[-31.484664979705883,33.41444381097303],[-31.386421854059588,33.4020106513696],[-31.373639276628623,33.413681750492785],[-31.438544287030897,33.59832396783591],[-31.81470111158785,33.64663280232552],[-31.01780819068955,34.12434403195867],[-28.72430349063211,33.916115695631035],[-27.917990883385585,33.8381447923613],[-27.27643372401167,33.771151654219615],[-26.96797198148016,33.75235417654668],[-25.443567206040484,33.66604225946531],[-24.288754960186793,33.60738432401987],[-23.32951223943843,33.56459817156495],[-22.47339132218542,33.53275082380186],[-21.694271327054707,33.50906299384859],[-20.975457516670303,33.491757652551605],[-20.335712593710582,33.47904888315155],[-19.73392638957648,33.470533199022505],[-19.137393853397953,33.46648057019359],[-18.59728480296235,33.464809474061724],[-18.081629309521645,33.46588224832334],[-17.587650316286272,33.46940018030134],[-17.113055240737424,33.47511650646928],[-16.65592538200883,33.48282457604948],[-16.21463580331499,33.492349272888475],[-15.374205217776591,33.51626919346025],[-14.563159149171838,33.547319117815704],[-14.18402592829898,33.56407980736717],[-13.81461856279202,33.58199743424837],[-13.102494090815526,33.6210344920813],[-12.42241327608815,33.66395724593989],[-11.770796873189624,33.71037830056397],[-11.144670942826906,33.759975698057175],[-10.541532540049388,33.812478459150554],[-9.959251423920136,33.86765599421736],[-9.675350108009184,33.896184797603645],[-9.120999780852344,33.955011489641166],[-8.597119842183531,34.01413623073488],[-8.074553394665259,34.07724751941579],[-7.566287901944463,34.14232457020916],[-6.828498373689229,34.24338856956663],[-6.351748445833152,34.31292432737181],[-5.6573426519603345,34.42025925625424],[-5.207218436628125,34.493730039718045],[-4.549730978892171,34.606645819774755],[-4.122414344693254,34.68364572167819],[-3.496735749853201,34.801601634639965],[-2.888111001214952,34.922368690254615],[-2.2952263493932037,35.045810528004665],[-1.7169089162896967,35.17180653211308],[-1.1618064295579984,35.29784017385252],[-0.6093757269212006,35.428618367400546],[-0.06866194691161809,35.56166344322886],[0.4611195123526386,35.696898709904055],[0.9806856677585643,35.83425524122398],[1.4906942755035288,35.973670971299605],[2.156878369603703,36.162665858981505],[2.6468620384843575,36.30667802425335],[3.2882632831341425,36.50163158966224],[3.9089766497390883,36.69715637857055],[4.373007546212023,36.84791217577898],[5.412146016391489,35.880236115017155],[4.817672997919999,35.67524308733794],[4.365113751499962,35.52332686130449],[3.9064082750011835,35.3730057337467],[3.4328769866299353,35.22180894378857],[2.801535392440769,35.026136620367495],[2.319292261605824,34.88136109691043],[1.82902790526839,34.73832437591049],[1.3302234883752817,34.5970692739973],[0.8223187784815309,34.45764308515963],[0.3047069015825059,34.32009810235922],[-0.23279760866785182,34.18222773195064],[-0.7720515824520362,34.04863900743054],[-1.323193137187559,33.91712573252689],[-1.8870897277366794,33.78776755516526],[-2.4646991757336423,33.660653481228465],[-2.857910284459024,33.57720627612352],[-3.471815303707217,33.45204585532631],[-3.883195882555526,33.371364932882585],[-4.515225731101282,33.252548744463745],[-4.947226630285684,33.174873215572724],[-5.612487578416676,33.060787737271916],[-6.080958680159313,32.984680610768976],[-6.785310060610584,32.87588718688806],[-7.269397744580374,32.80527106473146],[-7.766064613646336,32.736279909530715],[-8.276243213224177,32.66900561655804],[-8.815713292478392,32.60211457876201],[-9.356615521297272,32.53863117183839],[-9.914628113421145,32.47721980124837],[-10.491283511621361,32.41803215742711],[-11.08834543931124,32.361242921085754],[-11.725529497858531,32.30601196502255],[-12.370599667879219,32.25472202343308],[-13.043446646264897,32.20656001539126],[-13.76793464462719,32.16121687794464],[-14.13342547127695,32.14033859576965],[-14.893494813636664,32.10174437377529],[-15.312628379616854,32.08391943740524],[-16.142431997971187,32.05277969621555],[-16.603536742690665,32.03952308092557],[-17.05498129558788,32.02779638575503],[-17.523308853960145,32.01783254305449],[-18.54888059050967,32.00471056880867],[-19.114373125166196,32.002514163155034],[-19.710710801965433,32.00360578142671],[-20.342839649356904,32.00847259426161],[-21.017180204821557,32.017745962748585],[-21.024844098085918,32.019436463333626],[-21.15945000767414,32.014128773192695],[-21.295965154766805,32.01349744117466],[-21.52660760823443,32.01997008757903],[-21.719597704303766,32.03081466206781],[-21.851312121746332,32.02709652579964],[-21.922836920825375,32.02674631232886],[-22.077309390516632,32.02910496994104],[-22.247022998326827,32.03559795051067],[-22.461531261476136,32.04836786981885],[-22.600166978656887,32.04577635570552],[-22.759925557445058,32.04728465419815],[-23.031704143323395,32.05763552845977],[-23.273640085249387,32.07289277464212],[-23.421201206262026,32.071658056500155],[-23.5070036322673,32.07262662045493],[-23.693285293212853,32.07796401311894],[-23.8995430310884,32.08793062419202],[-24.178096317885238,32.10655285975319],[-24.33779609606563,32.10703334774531],[-24.537152405272877,32.112248083213935],[-24.880956545130744,32.129455687661],[-25.211951308665096,32.15295951392619],[-25.389488853535568,32.155774059689364],[-25.502516292059852,32.15930455672168],[-25.75087817104361,32.17053713311551],[-26.031062494395883,32.1875921968145],[-26.446465555006384,32.21905213980055],[-26.653941969025595,32.22547867198516],[-26.79470193218725,32.231653413734655],[-27.108823485835842,32.24919260041407],[-27.472435348450574,32.274296638126486],[-28.06024702403507,32.322206817837106],[-28.334844995919582,32.336057277067596],[-28.541083998180852,32.34853681728518],[-29.026066319754193,32.38258520101536],[-29.65005482252019,32.43293118653473],[-30.047351804092955,32.46746385986302],[-31.222878863240414,32.575999784912305],[-31.396934493433832,32.59037559565914],[-31.40607642166391,32.73715093147686],[-32.0426160714332,32.80287422552855]]]}}]}