{"type":"FeatureCollection","features":[{"type":"Feature","properties":{"magnitude":0.9,"percentagem":90.0,"territorio":"continente"},"geometry":{"type":"LineString","coordinates":[[-5.540000000000106,38.7852910960176],[-5.580000000000105,38.77721047519563],[-5.620000000000104,38.769153689743376],[-5.660000000000103,38.76112073271503],[-5.665597053233109,38.75999999999994],[-5.700000000000102,38.7531190714212],[-5.7400000000001015,38.74514241865267],[-5.780000000000101,38.73718955132291],[-5.8200000000001,38.72926046199079],[-5.860000000000099,38.72135514310285],[-5.866877269114866,38.71999999999994],[-5.900000000000099,38.71348066806708],[-5.940000000000097,38.70563139644144],[-5.980000000000096,38.69780585035292],[-6.0200000000000955,38.690004021764956],[-6.060000000000095,38.682225902531385],[-6.07148157417512,38.67999999999994],[-6.100000000000094,38.67447748211471],[-6.140000000000093,38.66675514701516],[-6.180000000000092,38.65905647449497],[-6.220000000000091,38.65138145593703],[-6.26000000000009,38.64373008261716],[-6.279560103103648,38.639999999999944],[-6.3000000000000895,38.636106573543216],[-6.34000000000009,38.6285107153125],[-6.380000000000088,38.62093845373058],[-6.420000000000087,38.61338977961457],[-6.460000000000086,38.6058646836771],[-6.4912715736365,38.59999999999995],[-6.500000000000085,38.59836493171555],[-6.5400000000000835,38.590895076118045],[-6.580000000000084,38.58344874834897],[-6.620000000000083,38.57602593867427],[-6.660000000000082,38.56862663725813],[-6.700000000000081,38.56125083416322],[-6.706804795454678,38.559999999999945],[-6.74000000000008,38.55390513658024],[-6.780000000000079,38.546584251461766],[-6.820000000000078,38.53928681227341],[-6.860000000000078,38.53201280864542],[-6.900000000000077,38.524762230109154],[-6.92635686139309,38.519999999999946],[-6.940000000000076,38.517537738706906],[-6.980000000000075,38.51034179149519],[-7.020000000000073,38.503169215338346],[-7.060000000000073,38.49601999934721],[-7.1000000000000725,38.48889413253643],[-7.140000000000072,38.48179160382475],[-7.150122730763622,38.47999999999995],[-7.180000000000071,38.47471813465812],[-7.22000000000007,38.46766990102892],[-7.260000000000069,38.4606449495555],[-7.300000000000068,38.45364326875011],[-7.340000000000067,38.446664847031734],[-7.378330192853293,38.43999999999995],[-7.3800000000000665,38.43970998738489],[-7.420000000000066,38.43278556317712],[-7.460000000000065,38.42588434058038],[-7.500000000000064,38.41900630761887],[-7.540000000000063,38.412151452225984],[-7.580000000000062,38.40531976224483],[-7.611253031497515,38.39999999999995],[-7.620000000000061,38.39851283869875],[-7.6600000000000605,38.39173479725743],[-7.700000000000059,38.38497986197768],[-7.740000000000059,38.37824802032155],[-7.780000000000058,38.37153925966335],[-7.820000000000057,38.36485356728992],[-7.849138476144539,38.35999999999995],[-7.860000000000056,38.3581928903264],[-7.900000000000055,38.35156049100209],[-7.940000000000055,38.344951099008554],[-7.980000000000054,38.338364701265284],[-8.020000000000053,38.33180128460689],[-8.060000000000052,38.32526083578341],[-8.092287034441302,38.31999999999995],[-8.100000000000051,38.318744702552394],[-8.14000000000005,38.312257185092434],[-8.18000000000005,38.30579257287921],[-8.220000000000049,38.299350852308834],[-8.260000000000048,38.292932009695484],[-8.300000000000047,38.28653603127168],[-8.340000000000046,38.2801629031889],[-8.341026041463591,38.27999999999995],[-8.380000000000045,38.27381931218194],[-8.420000000000044,38.26749869759723],[-8.460000000000043,38.261200868940186],[-8.500000000000043,38.25492581202353],[-8.540000000000042,38.248673512581334],[-8.580000000000041,38.242443956269405],[-8.59574939523062,38.23999999999995],[-8.62000000000004,38.23624120221104],[-8.66000000000004,38.23006378527538],[-8.700000000000038,38.22390904556899],[-8.740000000000038,38.21777696842207],[-8.780000000000037,38.21166753908893],[-8.820000000000036,38.20558074274838],[-8.856810977657387,38.19999999999995],[-8.860000000000035,38.19951708764041],[-8.900000000000034,38.19348205135302],[-8.940000000000033,38.18746958073627],[-8.980000000000032,38.181479660656336],[-9.020000000000032,38.17551227590638],[-9.06000000000003,38.16956741120678],[-9.10000000000003,38.16364505120564],[-9.124711997962763,38.159999999999954],[-9.140000000000029,38.157747619732135],[-9.180000000000028,38.151876582237925],[-9.220000000000027,38.146027980537184],[-9.260000000000026,38.14020179898013],[-9.300000000000026,38.134398021846934],[-9.340000000000025,38.12861663334833],[-9.380000000000024,38.122857617625826],[-9.399924486933624,38.119999999999955],[-9.420000000000023,38.11712407216035],[-9.460000000000022,38.11141593494373],[-9.500000000000021,38.105730100100786],[-9.54000000000002,38.10006655148961],[-9.58000000000002,38.09442527290133],[-9.620000000000019,38.088806248060706],[-9.660000000000018,38.08320946062643],[-9.683028484945542,38.079999999999956],[-9.700000000000017,38.07763745075451],[-9.740000000000016,38.072091091821235],[-9.780000000000015,38.066566898478484],[-9.820000000000014,38.061064854115656],[-9.860000000000014,38.05558494205826],[-9.900000000000013,38.05012714556843],[-9.940000000000012,38.04469144784532],[-9.974663660587709,38.03999999999996],[-9.980000000000011,38.03927861228095],[-10.02000000000001,38.0338928874913],[-10.06000000000001,38.02852918832152],[-10.100000000000009,38.02318749771526],[-10.140000000000008,38.017867798555436],[-10.180000000000007,38.012570073664534],[-10.220000000000006,38.00729430580508],[-10.260000000000005,38.002040477679884],[-10.27559941420678,37.99999999999996],[-10.300000000000004,37.99681201862919],[-10.340000000000003,37.99160764563785],[-10.380000000000003,37.9864251378012],[-10.420000000000002,37.98126447758204],[-10.46,37.97612564738567],[-10.5,37.97100862956036]]}},{"type":"Feature","properties":{"magnitude":0.9,"percentagem":90.0,"territorio":"acores"},"geometry":{"type":"LineString","coordinates":[[-24.04000000000017,37.36275777374075],[-24.08000000000017,37.363808119912875],[-24.120000000000168,37.364872674970236],[-24.160000000000167,37.3659514177768],[-24.200000000000166,37.367044327212454],[-24.240000000000165,37.36815138217313],[-24.280000000000165,37.36927256157075],[-24.320000000000164,37.37040784433347],[-24.360000000000163,37.37155720940561],[-24.400000000000162,37.372720635747726],[-24.44000000000016,37.373898102336796],[-24.48000000000016,37.37508958816616],[-24.52000000000016,37.3762950722456],[-24.56000000000016,37.377514533601484],[-24.600000000000158,37.378747951276736],[-24.640000000000157,37.37999530433096],[-24.680000000000156,37.38125657184044],[-24.720000000000155,37.3825317328983],[-24.760000000000154,37.38382076661446],[-24.800000000000153,37.38512365211578],[-24.840000000000153,37.38644036854606],[-24.88000000000015,37.38777089506611],[-24.920000000000147,37.38911521085388],[-24.96000000000015,37.390473295104385],[-25.00000000000015,37.39184512702988],[-25.04000000000015,37.39323068585989],[-25.080000000000148,37.39462995084126],[-25.120000000000147,37.39604290123811],[-25.16000000000015,37.39746951633213],[-25.200000000000145,37.398909775422396],[-25.229993756246902,37.39999999999997],[-25.240000000000144,37.40036403797421],[-25.280000000000143,37.40183305678044],[-25.320000000000142,37.40331567133691],[-25.36000000000014,37.40481186098359],[-25.40000000000014,37.406321605078254],[-25.44000000000014,37.40784488299642],[-25.48000000000014,37.40938167413153],[-25.520000000000138,37.41093195789492],[-25.560000000000137,37.41249571371588],[-25.600000000000136,37.414072921041736],[-25.640000000000136,37.415663559337915],[-25.680000000000135,37.4172676080879],[-25.720000000000134,37.418885046793385],[-25.760000000000133,37.42051585497428],[-25.800000000000132,37.42216001216875],[-25.84000000000013,37.423817497933356],[-25.880000000000127,37.42548829184286],[-25.92000000000013,37.42717237349063],[-25.96000000000013,37.42886972248836],[-26.000000000000128,37.43058031846631],[-26.040000000000127,37.43230414107328],[-26.080000000000126,37.4340411699767],[-26.120000000000125,37.43579138486259],[-26.160000000000124,37.43755476543572],[-26.200000000000124,37.43933129141956],[-26.214944744965685,37.43999999999997],[-26.240000000000123,37.44112211182366],[-26.280000000000122,37.44292674787927],[-26.32000000000012,37.444744481692524],[-26.36000000000012,37.446575293032744],[-26.40000000000012,37.448419161688165],[-26.44000000000012,37.45027606746611],[-26.480000000000118,37.4521459901929],[-26.520000000000117,37.45402890971397],[-26.560000000000116,37.45592480589387],[-26.600000000000115,37.45783365861631],[-26.640000000000114,37.45975544778425],[-26.680000000000113,37.461690153319864],[-26.720000000000113,37.46363775516467],[-26.76000000000011,37.46559823327942],[-26.80000000000011,37.46757156764436],[-26.84000000000011,37.46955773825906],[-26.88000000000011,37.471556725142584],[-26.92000000000011,37.473568508333415],[-26.960000000000107,37.4755930678896],[-27.000000000000107,37.477630383888794],[-27.040000000000106,37.47968043642811],[-27.04619601222275,37.47999999999997],[-27.080000000000105,37.481745020837685],[-27.120000000000104,37.4838226473817],[-27.160000000000103,37.485912963369195],[-27.200000000000102,37.488015948946675],[-27.2400000000001,37.49013158428042],[-27.2800000000001,37.492259849556575],[-27.3200000000001,37.4944007249811],[-27.3600000000001,37.49655419077988],[-27.400000000000098,37.49872022719866],[-27.440000000000097,37.5008988145032],[-27.480000000000096,37.50308993297922],[-27.520000000000095,37.505293562932444],[-27.560000000000095,37.507509684688685],[-27.600000000000094,37.509738278593765],[-27.640000000000093,37.51197932501372],[-27.680000000000092,37.514232804334625],[-27.72000000000009,37.51649869696279],[-27.76000000000009,37.51877698332469],[-27.781355093919018,37.51999999999997],[-27.80000000000009,37.52106875407759],[-27.84000000000009,37.523374163512194],[-27.880000000000088,37.525691920094744],[-27.920000000000087,37.52802200430353],[-27.960000000000086,37.53036439663734],[-28.000000000000085,37.53271907761526],[-28.040000000000084,37.53508602777682],[-28.080000000000084,37.53746522768204],[-28.120000000000083,37.53985665791137],[-28.160000000000082,37.542260299065795],[-28.20000000000008,37.5446761317668],[-28.24000000000008,37.54710413665642],[-28.28000000000008,37.54954429439731],[-28.32000000000008,37.55199658567267],[-28.360000000000078,37.55446099118639],[-28.400000000000077,37.55693749166296],[-28.440000000000076,37.55942606784762],[-28.449179532535922,37.55999999999997],[-28.480000000000075,37.561928701385845],[-28.520000000000074,37.564443979909754],[-28.560000000000073,37.56697128806495],[-28.600000000000072,37.56951060665054],[-28.64000000000007,37.57206191648649],[-28.68000000000007,37.57462519841359],[-28.72000000000007,37.57720043329351],[-28.76000000000007,37.579787602008764],[-28.800000000000068,37.58238668546278],[-28.840000000000067,37.58499766457996],[-28.880000000000067,37.58762052030556],[-28.920000000000066,37.59025523360591],[-28.96000000000006,37.592901785468214],[-29.000000000000064,37.5955601569008],[-29.040000000000067,37.59823032893293],[-29.066392411113924,37.599999999999966],[-29.080000000000062,37.600913229025025],[-29.12000000000006,37.60360973924203],[-29.16000000000006,37.606318004446244],[-29.20000000000006,37.60903800572249],[-29.24000000000006,37.61176972417672],[-29.280000000000058,37.61451314093607],[-29.320000000000057,37.61726823714881],[-29.360000000000056,37.62003499398446],[-29.400000000000055,37.62281339263376],[-29.440000000000055,37.625603414308664],[-29.480000000000054,37.62840504024234],[-29.520000000000053,37.63121825168929],[-29.560000000000052,37.634043029925216],[-29.60000000000005,37.636879356247206],[-29.64000000000005,37.6397272119736],[-29.643815541810376,37.63999999999997],[-29.68000000000005,37.64258925877606],[-29.72000000000005,37.645463091225245],[-29.760000000000048,37.648348407947395],[-29.800000000000047,37.65124519031778],[-29.840000000000046,37.654153419733056],[-29.880000000000045,37.65707307761126],[-29.920000000000044,37.66000414539194],[-29.960000000000047,37.66294660453606],[-30.000000000000043,37.66590043652604],[-30.040000000000042,37.668865622865795],[-30.08000000000004,37.67184214508071],[-30.12000000000004,37.67482998471773],[-30.16000000000004,37.677829123345255],[-30.188843624735064,37.679999999999964],[-30.20000000000004,37.68084041182036],[-30.240000000000038,37.683865221133175],[-30.280000000000037,37.68690128472767],[-30.320000000000036,37.68994858423013],[-30.360000000000035,37.69300710128849],[-30.400000000000034,37.696076817572305],[-30.440000000000033,37.69915771477271],[-30.480000000000032,37.70224977460248],[-30.52000000000003,37.70535297879604],[-30.56000000000003,37.70846730910948],[-30.600000000000026,37.71159274732053],[-30.64000000000003,37.71472927522859],[-30.680000000000028,37.717876874654756],[-30.70688512937074,37.71999999999996],[-30.720000000000027,37.72103659871169],[-30.760000000000026,37.72420956498117],[-30.800000000000026,37.72739355849186],[-30.840000000000025,37.73058856112367],[-30.880000000000024,37.73379455477817],[-30.920000000000023,37.73701152137879],[-30.960000000000022,37.7402394428706],[-31.00000000000002,37.743478301220556],[-31.04000000000002,37.746728078417256],[-31.08000000000002,37.749988756471225],[-31.12000000000002,37.75326031741466],[-31.160000000000018,37.756542743301665],[-31.20000000000002,37.75983601620801],[-31.201984927583435,37.75999999999996],[-31.240000000000016,37.76314336379295],[-31.280000000000015,37.766461701970634],[-31.320000000000014,37.76979084333111],[-31.360000000000014,37.77313077000977],[-31.400000000000013,37.776481464163865],[-31.440000000000012,37.77984290797245],[-31.48000000000001,37.78321508363651],[-31.52000000000001,37.7865979733789],[-31.56000000000001,37.78999155944433],[-31.60000000000001,37.79339582409938],[-31.640000000000004,37.7968107496325],[-31.677240143996656,37.79999999999996],[-31.680000000000007,37.800236562472996],[-31.720000000000006,37.80367630557771],[-31.760000000000005,37.807126666095],[-31.800000000000004,37.810587626373405],[-31.840000000000003,37.81405916878343],[-31.880000000000003,37.81754127571746],[-31.92,37.82103392958986],[-31.96,37.82453711283691],[-32.0,37.82805080791684]]}},{"type":"Feature","properties":{"magnitude":0.95,"percentagem":95.0,"territorio":"madeira"},"geometry":{"type":"LineString","coordinates":[[-18.0,30.935687396855787],[-17.96,30.935586922980512],[-17.92,30.9355017231054],[-17.880000000000003,30.935431819496443],[-17.840000000000003,30.93537723443672],[-17.800000000000004,30.9353379902265],[-17.760000000000005,30.9353141091829],[-17.720000000000006,30.935305613640033],[-17.680000000000007,30.93531252594883],[-17.640000000000008,30.93533486847697],[-17.60000000000001,30.935372663608774],[-17.56000000000001,30.935425933745194],[-17.52000000000001,30.935494701303714],[-17.48000000000001,30.93557898871817],[-17.440000000000012,30.935678818438863],[-17.400000000000013,30.93579421293227],[-17.360000000000014,30.93592519468106],[-17.320000000000014,30.93607178618407],[-17.280000000000015,30.936234009956088],[-17.240000000000016,30.93641188852787],[-17.200000000000017,30.936605444445995],[-17.160000000000018,30.936814700272805],[-17.12000000000002,30.937039678586334],[-17.08000000000002,30.937280401980185],[-17.04000000000002,30.937536893063456],[-17.00000000000002,30.93780917446067],[-16.960000000000022,30.938097268811628],[-16.920000000000023,30.9384011987714],[-16.880000000000024,30.93872098701018],[-16.840000000000025,30.939056656213207],[-16.800000000000026,30.939408229080648],[-16.760000000000026,30.93977572832757],[-16.736603590492685,30.939999999999973],[-16.720000000000027,30.94015931099212],[-16.680000000000028,30.94055906827785],[-16.64000000000003,30.940974833757057],[-16.60000000000003,30.94140663022685],[-16.56000000000003,30.941854480498737],[-16.52000000000003,30.942318407398353],[-16.480000000000032,30.94279843376564],[-16.440000000000033,30.943294582454538],[-16.400000000000034,30.943806876332953],[-16.360000000000035,30.944335338282638],[-16.320000000000036,30.944879991199116],[-16.280000000000037,30.945440857991603],[-16.240000000000038,30.946017961582843],[-16.20000000000004,30.946611324909004],[-16.16000000000004,30.947220970919616],[-16.12000000000004,30.947846922577483],[-16.08000000000004,30.948489202858514],[-16.040000000000042,30.94914783475167],[-16.000000000000043,30.949822841258754],[-15.960000000000043,30.950514245394523],[-15.920000000000043,30.951222070186304],[-15.880000000000045,30.951946338674084],[-15.840000000000046,30.95268707391037],[-15.800000000000047,30.95344429895993],[-15.760000000000046,30.954218036899903],[-15.720000000000049,30.955008310819508],[-15.68000000000005,30.955815143820047],[-15.64000000000005,30.956638559014664],[-15.600000000000051,30.95747857952842],[-15.560000000000052,30.958335228497994],[-15.520000000000053,30.959208529071603],[-15.480000000000054,30.960098504409025],[-15.440000000000055,30.961005177681265],[-15.400000000000055,30.96192857207063],[-15.360000000000056,30.962868710770465],[-15.320000000000057,30.96382561698512],[-15.280000000000058,30.9647993139298],[-15.240000000000059,30.965789824830427],[-15.20000000000006,30.966797172923556],[-15.16000000000006,30.967821381456204],[-15.120000000000061,30.968862473685768],[-15.080000000000062,30.969920472879867],[-15.040000000000063,30.970995402316227]]}}]}