{"type":"FeatureCollection","features":[{"type":"Feature","properties":{"magnitude":0.2,"de":0.2,"ate":0.5,"percentagem":20.0},"geometry":{"type":"Polygon","coordinates":[[[-9.988765391557234,30.0],[-4.640552513132502,30.0],[-3.5399999999988268,34.14585826517624],[-3.5399999999988268,44.939999999999685],[-8.438524047494298,44.939999999999685],[-8.389490566841264,43.79999999999971],[-8.410613264522226,42.41999999999973],[-8.503945911735677,40.79999999999977],[-8.671488001216982,38.93999999999981],[-8.90821163301377,36.89999999999985],[-9.205267332493806,34.739999999999895],[-9.571365359290041,32.39999999999995],[-9.988765391557234,30.0]]]}},{"type":"Feature","properties":{"magnitude":0.5,"de":0.5,"ate":0.8,"percentagem":50.0},"geometry":{"type":"Polygon","coordinates":[[[-34.5,30.0],[-9.988765391557234,30.0],[-9.571365359290041,32.39999999999995],[-9.205267332493806,34.739999999999895],[-8.90821163301377,36.89999999999985],[-8.671488001216982,38.93999999999981],[-8.503945911735677,40.79999999999977],[-8.410613264522228,42.41999999999973],[-8.389490566841264,43.799999999999706],[-8.438524047494298,44.939999999999685],[-34.5,44.939999999999685],[-34.5,30.0]]]}}]}