{"type":"FeatureCollection","properties":{"largura_maxima_km":135.425,"largura_sobre_pt_km":135.425,"linha_central_sobre_pt":false,"desenhavel_como_area":true,"perfil_largura":[{"t":0.36667,"lat":28.5596,"lon":-39.9514,"largura_km":135.425,"eixo_na_terra":true},{"t":0.37222,"lat":28.4613,"lon":-39.8408,"largura_km":135.413,"eixo_na_terra":true},{"t":0.37778,"lat":28.3631,"lon":-39.7297,"largura_km":135.398,"eixo_na_terra":true},{"t":0.38333,"lat":28.265,"lon":-39.6182,"largura_km":135.38,"eixo_na_terra":true},{"t":0.38889,"lat":28.167,"lon":-39.5062,"largura_km":135.359,"eixo_na_terra":true},{"t":0.39444,"lat":28.0692,"lon":-39.3936,"largura_km":135.335,"eixo_na_terra":true},{"t":0.4,"lat":27.9714,"lon":-39.2806,"largura_km":135.309,"eixo_na_terra":true},{"t":0.40556,"lat":27.8738,"lon":-39.1671,"largura_km":135.28,"eixo_na_terra":true},{"t":0.41111,"lat":27.7763,"lon":-39.0531,"largura_km":135.247,"eixo_na_terra":true},{"t":0.41667,"lat":27.6788,"lon":-38.9385,"largura_km":135.212,"eixo_na_terra":true},{"t":0.42222,"lat":27.5815,"lon":-38.8234,"largura_km":135.173,"eixo_na_terra":true},{"t":0.42778,"lat":27.4843,"lon":-38.7078,"largura_km":135.132,"eixo_na_terra":true},{"t":0.43333,"lat":27.3872,"lon":-38.5916,"largura_km":135.087,"eixo_na_terra":true},{"t":0.43889,"lat":27.2902,"lon":-38.4748,"largura_km":135.039,"eixo_na_terra":true},{"t":0.44444,"lat":27.1933,"lon":-38.3575,"largura_km":134.989,"eixo_na_terra":true},{"t":0.45,"lat":27.0965,"lon":-38.2396,"largura_km":134.936,"eixo_na_terra":true},{"t":0.45556,"lat":26.9998,"lon":-38.121,"largura_km":134.88,"eixo_na_terra":true},{"t":0.46111,"lat":26.9032,"lon":-38.0019,"largura_km":134.82,"eixo_na_terra":true},{"t":0.46667,"lat":26.8067,"lon":-37.8822,"largura_km":134.757,"eixo_na_terra":true},{"t":0.47222,"lat":26.7103,"lon":-37.7618,"largura_km":134.691,"eixo_na_terra":true},{"t":0.47778,"lat":26.6141,"lon":-37.6408,"largura_km":134.621,"eixo_na_terra":true},{"t":0.48333,"lat":26.5179,"lon":-37.5191,"largura_km":134.547,"eixo_na_terra":true},{"t":0.48889,"lat":26.4218,"lon":-37.3967,"largura_km":134.47,"eixo_na_terra":true},{"t":0.49444,"lat":26.3258,"lon":-37.2737,"largura_km":134.389,"eixo_na_terra":true},{"t":0.5,"lat":26.2299,"lon":-37.15,"largura_km":134.305,"eixo_na_terra":true},{"t":0.50556,"lat":26.1342,"lon":-37.0256,"largura_km":134.216,"eixo_na_terra":true},{"t":0.51111,"lat":26.0385,"lon":-36.9004,"largura_km":134.124,"eixo_na_terra":true},{"t":0.51667,"lat":25.9429,"lon":-36.7746,"largura_km":134.028,"eixo_na_terra":true},{"t":0.52222,"lat":25.8474,"lon":-36.648,"largura_km":133.927,"eixo_na_terra":true},{"t":0.52778,"lat":25.7521,"lon":-36.5206,"largura_km":133.823,"eixo_na_terra":true},{"t":0.53333,"lat":25.6568,"lon":-36.3924,"largura_km":133.715,"eixo_na_terra":true},{"t":0.53889,"lat":25.5616,"lon":-36.2635,"largura_km":133.603,"eixo_na_terra":true},{"t":0.54444,"lat":25.4665,"lon":-36.1338,"largura_km":133.486,"eixo_na_terra":true},{"t":0.55,"lat":25.3716,"lon":-36.0032,"largura_km":133.365,"eixo_na_terra":true},{"t":0.55556,"lat":25.2767,"lon":-35.8718,"largura_km":133.24,"eixo_na_terra":true},{"t":0.56111,"lat":25.1819,"lon":-35.7396,"largura_km":133.11,"eixo_na_terra":true},{"t":0.56667,"lat":25.0872,"lon":-35.6065,"largura_km":132.977,"eixo_na_terra":true}]},"features":[{"type":"Feature","properties":{},"geometry":{"type":"Polygon","coordinates":[[[-39.37631160311719,28.914792532735454],[-39.041168374295694,28.61824301978472],[-38.81531439638343,28.421079052811297],[-38.47270914335539,28.126127259559233],[-38.241642828577966,27.930016863776498],[-37.89084662497643,27.63662868887998],[-37.65994559202446,27.446400413305607],[-37.17901114686569,27.057416840874854],[-36.81145810122294,26.766731868323525],[-36.56297386452036,26.573437656083428],[-36.31160829186922,26.38053680240123],[-36.05725159073975,26.188026643738144],[-35.799789159659554,25.995904633852845],[-35.53910124066593,25.804168347275592],[-35.27506254044633,25.612815483215748],[-35.00754181658803,25.421843869948173],[-36.1928443607199,24.74500585949191],[-36.46247860325383,24.937518813891124],[-36.72237815514319,25.12591469550625],[-36.979077921488454,25.314716268743474],[-37.23269519654144,25.50392499061145],[-37.483342262549286,25.693542473597738],[-37.73112672431705,25.883570479795683],[-37.976151816885476,26.074010915607925],[-38.338731473713096,26.360449387434087],[-38.8134072053129,26.74383107239633],[-39.16914454902775,27.037367733775227],[-39.399549504346936,27.230351544943804],[-39.62781747577279,27.423764700631658],[-39.966380033618265,27.714695895202848],[-40.18963645381774,27.909195481108526],[-40.5210206423491,28.201771081713073],[-39.37631160311719,28.914792532735454]]]}}]}