{"type":"FeatureCollection","features":[{"type":"Feature","properties":{"t_inicio":0.36666666666665115,"t_fim":0.5666666666666504},"geometry":{"type":"LineString","coordinates":[[-39.95143896211627,28.559554357186013],[-39.84081848837155,28.461264135891653],[-39.72973704990548,28.36308333651199],[-39.618185894525936,28.265011507320104],[-39.506156136811654,28.167048203164686],[-39.39363875401369,28.06919298549391],[-39.28062458182015,27.971445422381944],[-39.16710430997733,27.873805088558772],[-39.05306847776143,27.77627156544291],[-38.938507469293484,27.678844441177507],[-38.82341150869138,27.581523310669663],[-38.70777065505024,27.48430777563328],[-38.59157479724422,27.38719744463535],[-38.474813648541044,27.290191933146204],[-38.357476741020434,27.19329086359323],[-38.239553419787484,27.09649386541891],[-38.12103283697084,26.99980057514279],[-38.0019039454958,26.903210636427847],[-37.88215549262125,26.80672370015127],[-37.76177601322894,26.710339424479965],[-37.6407538228529,26.614057474950794],[-37.51907701043663,26.517877524556056],[-37.39673343080355,26.42179925383409],[-37.273710696827436,26.325822350965396],[-37.1499961712868,26.229946511874612],[-37.025576958387234,26.13417144033843],[-36.90043989493515,26.03849684809984],[-36.77457154114353,25.942922454988924],[-36.64795817105207,25.847447989050618],[-36.52058576253964,25.752073186679677],[-36.3924399869083,25.656797792763204],[-36.26350619801559,25.561621560831252],[-36.13376942092967,25.466544253215698],[-36.003214340082536,25.371565641218005],[-35.87182528689206,25.276685505286157],[-35.739586226823576,25.1819036352015],[-35.60648074585944,25.0872198302757]]}}]}