{"type":"FeatureCollection","features":[{"type":"Feature","properties":{"magnitude":0.6,"percentagem":60.0,"territorio":"continente"},"geometry":{"type":"LineString","coordinates":[[-5.540000000000106,41.18969180788361],[-5.580000000000105,41.19894117976338],[-5.584557807164492,41.19999999999989],[-5.620000000000104,41.208253582305936],[-5.660000000000103,41.21761365206436],[-5.700000000000102,41.227019148608],[-5.7400000000001015,41.236470119567194],[-5.754870668424134,41.23999999999989],[-5.780000000000101,41.245979537594266],[-5.8200000000001,41.255542271273484],[-5.860000000000099,41.26515072156059],[-5.900000000000098,41.2748049356219],[-5.921425564586375,41.27999999999989],[-5.940000000000097,41.28451474217234],[-5.980000000000096,41.29428178693655],[-6.0200000000000955,41.30409483692583],[-6.060000000000095,41.31395393881721],[-6.084418245638888,41.31999999999989],[-6.100000000000094,41.323867537999995],[-6.140000000000093,41.333840541465776],[-6.180000000000092,41.34385983745162],[-6.220000000000092,41.35392547211937],[-6.244031487620587,41.359999999999886],[-6.26000000000009,41.36404629872856],[-6.3000000000000895,41.37422690846867],[-6.340000000000089,41.384454096581905],[-6.380000000000088,41.39472790868858],[-6.400436145282207,41.399999999999885],[-6.420000000000087,41.40505942779041],[-6.460000000000086,41.41544929082191],[-6.500000000000085,41.42588601651492],[-6.540000000000084,41.43636964992125],[-6.553792103834424,41.439999999999884],[-6.580000000000084,41.446915356412504],[-6.620000000000083,41.45751611866929],[-6.660000000000082,41.46816402618534],[-6.700000000000081,41.47885912341632],[-6.7042491408882015,41.47999999999988],[-6.74000000000008,41.48962254155357],[-6.780000000000079,41.50043584734258],[-6.820000000000078,41.51129657916889],[-6.851916814225419,41.51999999999988],[-6.860000000000078,41.52220963383779],[-6.900000000000077,41.53318946376263],[-6.940000000000076,41.54421695520385],[-6.980000000000075,41.555292151508596],[-6.996932733511182,41.559999999999874],[-7.020000000000074,41.56642924743943],[-7.060000000000073,41.57762462495802],[-7.1000000000000725,41.58886794140814],[-7.139436028193462,41.59999999999988],[-7.140000000000072,41.600159591514156],[-7.180000000000071,41.61152398281658],[-7.22000000000007,41.62293654612533],[-7.260000000000069,41.634397323584615],[-7.279474808498051,41.63999999999988],[-7.300000000000068,41.64591944361123],[-7.340000000000067,41.657502381463246],[-7.3800000000000665,41.669133764933434],[-7.41721419986673,41.67999999999988],[-7.420000000000066,41.68081544209794],[-7.460000000000065,41.692569882937555],[-7.500000000000064,41.704372999712646],[-7.540000000000063,41.71622483326674],[-7.552691172605757,41.71999999999988],[-7.580000000000062,41.728143505227905],[-7.620000000000061,41.740119483072874],[-7.6600000000000605,41.75214440620211],[-7.686027282949972,41.75999999999988],[-7.70000000000006,41.76422772160886],[-7.740000000000059,41.776377688534566],[-7.780000000000058,41.78857682793526],[-7.817305794908092,41.799999999999876],[-7.820000000000057,41.80082702335869],[-7.860000000000056,41.813152107391254],[-7.900000000000055,41.82552658970029],[-7.940000000000054,41.83795050909033],[-7.946573703820898,41.839999999999876],[-7.980000000000054,41.85044724809128],[-8.020000000000053,41.862998199647805],[-8.060000000000052,41.87559881196378],[-8.07391866379556,41.87999999999988],[-8.100000000000051,41.88826763559715],[-8.14000000000005,41.9009961821979],[-8.18000000000005,41.91377461167251],[-8.199413757499753,41.919999999999874],[-8.220000000000049,41.92661781072262],[-8.260000000000048,41.939525077371286],[-8.300000000000047,41.95248244736459],[-8.32311991441308,41.95999999999987],[-8.340000000000046,41.96550232944671],[-8.380000000000045,41.97858944009701],[-8.420000000000044,41.99172687283814],[-8.445095516433755,41.99999999999987],[-8.460000000000043,42.00492576220492],[-8.500000000000043,42.01819383949713],[-8.540000000000042,42.03151245581938],[-8.565396528530352,42.03999999999987],[-8.580000000000041,42.04489269315627],[-8.62000000000004,42.0583428581477],[-8.66000000000004,42.07184377721728],[-8.684076621422665,42.07999999999987],[-8.700000000000038,42.085407719427224],[-8.740000000000038,42.099041091315826],[-8.780000000000037,42.112725430354146],[-8.801187286858099,42.11999999999987],[-8.820000000000036,42.12647545033048],[-8.860000000000035,42.140293146172425],[-8.900000000000034,42.15416202017174],[-8.916777945995802,42.15999999999987],[-8.940000000000033,42.16810050655994],[-8.980000000000032,42.18210364098009],[-9.020000000000032,42.19615816241285],[-9.030896051377074,42.19999999999987],[-9.06000000000003,42.2102875193601],[-9.10000000000003,42.2244772042563],[-9.140000000000029,42.23871848277753],[-9.143587182919452,42.23999999999987],[-9.180000000000028,42.253041129670706],[-9.220000000000027,42.26741847391101],[-9.254879103717723,42.279999999999866],[-9.260000000000026,42.28185184845975],[-9.300000000000026,42.29636598724524],[-9.340000000000025,42.31093209635867],[-9.364814896410987,42.319999999999865],[-9.380000000000024,42.32556294447461],[-9.420000000000023,42.34026674974385],[-9.460000000000022,42.355022725604236],[-9.473446638687838,42.359999999999864],[-9.500000000000021,42.36985350955692],[-9.54000000000002,42.3847480817999],[-9.580000000000018,42.39969502230278],[-9.580813484208448,42.399999999999864],[-9.620000000000019,42.41472821856354],[-9.660000000000018,42.42981465405988],[-9.686913457864952,42.43999999999986],[-9.700000000000017,42.44496509082707],[-9.740000000000016,42.460191751712586],[-9.780000000000015,42.475471142196554],[-9.791817117612759,42.47999999999986],[-9.820000000000014,42.4908282811828],[-9.860000000000014,42.506248793576546],[-9.895548759849673,42.51999999999986],[-9.900000000000013,42.52172621833002],[-9.940000000000012,42.53728858356733],[-9.98000000000001,42.55290403204752],[-9.998117274871298,42.55999999999986],[-10.02000000000001,42.56859249857183],[-10.06000000000001,42.58435069361933],[-10.099589858016955,42.59999999999986],[-10.100000000000009,42.60016253466492],[-10.140000000000008,42.61606420725986],[-10.180000000000005,42.63201930850636],[-10.199943143733307,42.63999999999986],[-10.220000000000006,42.64804657910793],[-10.260000000000005,42.66414604809206],[-10.29925942179689,42.67999999999986],[-10.300000000000004,42.68029982468507],[-10.340000000000003,42.696544391918536],[-10.380000000000003,42.71284272441802],[-10.397509887836353,42.71999999999986],[-10.420000000000002,42.729216365057844],[-10.46,42.74566068169607],[-10.494766574571115,42.759999999999856],[-10.5,42.762164001651264]]}},{"type":"Feature","properties":{"magnitude":0.8,"percentagem":80.0,"territorio":"acores"},"geometry":{"type":"LineString","coordinates":[[-30.256404211530523,36.0],[-30.280000000000037,36.019301643477526],[-30.305269480216307,36.04],[-30.320000000000036,36.0520818284434],[-30.35399342578919,36.08],[-30.360000000000035,36.08493961591101],[-30.400000000000034,36.117878102225625],[-30.402573368047495,36.12],[-30.440000000000033,36.15090124110942],[-30.451005643825802,36.16],[-30.480000000000032,36.18400225440692],[-30.499299719555765,36.199999999999996],[-30.52000000000003,36.21718126397772],[-30.547456538363104,36.239999999999995],[-30.56000000000003,36.250438390169414],[-30.595477036780615,36.279999999999994],[-30.60000000000003,36.28377375179854],[-30.64000000000003,36.31719139858056],[-30.643357444200994,36.319999999999986],[-30.680000000000028,36.350692683641356],[-30.691097281967203,36.35999999999999],[-30.720000000000027,36.384272445615125],[-30.738703801462563,36.39999999999999],[-30.760000000000026,36.41793079663229],[-30.786177910815702,36.43999999999999],[-30.800000000000026,36.451667847203574],[-30.8335205118532,36.47999999999999],[-30.840000000000025,36.48548370620114],[-30.880000000000024,36.51937935007413],[-30.88073148822236,36.51999999999999],[-30.920000000000023,36.553361575909115],[-30.92780399200616,36.55999999999999],[-30.960000000000022,36.5874228195687],[-30.97474787414035,36.59999999999999],[-31.00000000000002,36.62156318284225],[-31.02156400931245,36.639999999999986],[-31.04000000000002,36.65578276579244],[-31.06825326618353,36.679999999999986],[-31.08000000000002,36.69008166673654],[-31.1148165074375,36.719999999999985],[-31.12000000000002,36.724459982227536],[-31.16000000000002,36.75891932096933],[-31.161252880904755,36.759999999999984],[-31.200000000000017,36.79346439155749],[-31.207558076888784,36.79999999999998],[-31.240000000000016,36.82808904668555],[-31.25374001371069,36.83999999999998],[-31.280000000000015,36.86279337536341],[-31.299799528327668,36.87999999999998],[-31.320000000000014,36.89757746474946],[-31.34573745197929,36.91999999999998],[-31.360000000000014,36.9324414001323],[-31.391554610233147,36.95999999999998],[-31.400000000000013,36.96738526491221],[-31.43725182303069,36.99999999999998],[-31.440000000000012,37.00240914058267],[-31.48000000000001,37.03751658635862],[-31.482826112114658,37.03999999999998],[-31.52000000000001,37.07270746030147],[-31.528278577979393,37.07999999999998],[-31.56000000000001,37.10797846744047],[-31.57361371270651,37.119999999999976],[-31.60000000000001,37.14332968120739],[-31.618832312037433,37.15999999999997],[-31.640000000000008,37.17876117304212],[-31.66393516632922,37.199999999999974],[-31.680000000000007,37.21427301237432],[-31.708923060597485,37.239999999999974],[-31.720000000000006,37.24986526660543],[-31.753796774559156,37.27999999999997],[-31.760000000000005,37.285538001090636],[-31.798557082674346,37.31999999999997],[-31.800000000000004,37.32129127912101],[-31.840000000000003,37.35712918415689],[-31.843200537556605,37.35999999999997],[-31.880000000000003,37.39304944773663],[-31.887730390269137,37.39999999999997],[-31.92,37.42905032016673],[-31.932149300306676,37.43999999999997],[-31.959999999999997,37.46513185611002],[-31.976458019536082,37.47999999999997],[-32.0,37.5012941080829]]}}]}