{"type":"FeatureCollection","properties":{"largura_maxima_km":122.16,"largura_sobre_pt_km":101.2,"linha_central_sobre_pt":true,"desenhavel_como_area":true,"perfil_largura":[{"t":0.97778,"lat":26.965,"lon":-39.9135,"largura_km":82.729,"eixo_na_terra":true},{"t":0.98333,"lat":27.071,"lon":-39.8039,"largura_km":82.827,"eixo_na_terra":true},{"t":0.98889,"lat":27.1773,"lon":-39.6937,"largura_km":82.927,"eixo_na_terra":true},{"t":0.99444,"lat":27.284,"lon":-39.583,"largura_km":83.028,"eixo_na_terra":true},{"t":1.0,"lat":27.3912,"lon":-39.4716,"largura_km":83.13,"eixo_na_terra":true},{"t":1.00556,"lat":27.4988,"lon":-39.3596,"largura_km":83.233,"eixo_na_terra":true},{"t":1.01111,"lat":27.6067,"lon":-39.247,"largura_km":83.338,"eixo_na_terra":true},{"t":1.01667,"lat":27.7151,"lon":-39.1337,"largura_km":83.445,"eixo_na_terra":true},{"t":1.02222,"lat":27.824,"lon":-39.0199,"largura_km":83.553,"eixo_na_terra":true},{"t":1.02778,"lat":27.9332,"lon":-38.9053,"largura_km":83.662,"eixo_na_terra":true},{"t":1.03333,"lat":28.0429,"lon":-38.7901,"largura_km":83.773,"eixo_na_terra":true},{"t":1.03889,"lat":28.1531,"lon":-38.6742,"largura_km":83.885,"eixo_na_terra":true},{"t":1.04444,"lat":28.2637,"lon":-38.5577,"largura_km":83.998,"eixo_na_terra":true},{"t":1.05,"lat":28.3747,"lon":-38.4404,"largura_km":84.113,"eixo_na_terra":true},{"t":1.05556,"lat":28.4862,"lon":-38.3225,"largura_km":84.23,"eixo_na_terra":true},{"t":1.06111,"lat":28.5981,"lon":-38.2038,"largura_km":84.348,"eixo_na_terra":true},{"t":1.06667,"lat":28.7105,"lon":-38.0843,"largura_km":84.467,"eixo_na_terra":true},{"t":1.07222,"lat":28.8234,"lon":-37.9642,"largura_km":84.588,"eixo_na_terra":true},{"t":1.07778,"lat":28.9367,"lon":-37.8432,"largura_km":84.711,"eixo_na_terra":true},{"t":1.08333,"lat":29.0505,"lon":-37.7215,"largura_km":84.836,"eixo_na_terra":true},{"t":1.08889,"lat":29.1648,"lon":-37.599,"largura_km":84.961,"eixo_na_terra":true},{"t":1.09444,"lat":29.2796,"lon":-37.4757,"largura_km":85.089,"eixo_na_terra":true},{"t":1.1,"lat":29.3949,"lon":-37.3516,"largura_km":85.218,"eixo_na_terra":true},{"t":1.10556,"lat":29.5107,"lon":-37.2267,"largura_km":85.349,"eixo_na_terra":true},{"t":1.11111,"lat":29.627,"lon":-37.1009,"largura_km":85.481,"eixo_na_terra":true},{"t":1.11667,"lat":29.7438,"lon":-36.9742,"largura_km":85.615,"eixo_na_terra":true},{"t":1.12222,"lat":29.8612,"lon":-36.8467,"largura_km":85.75,"eixo_na_terra":true},{"t":1.12778,"lat":29.979,"lon":-36.7183,"largura_km":85.888,"eixo_na_terra":true},{"t":1.13333,"lat":30.0974,"lon":-36.5889,"largura_km":86.026,"eixo_na_terra":true},{"t":1.13889,"lat":30.2163,"lon":-36.4587,"largura_km":86.167,"eixo_na_terra":true},{"t":1.14444,"lat":30.3358,"lon":-36.3275,"largura_km":86.309,"eixo_na_terra":true},{"t":1.15,"lat":30.4558,"lon":-36.1953,"largura_km":86.453,"eixo_na_terra":true},{"t":1.15556,"lat":30.5764,"lon":-36.0622,"largura_km":86.599,"eixo_na_terra":true},{"t":1.16111,"lat":30.6975,"lon":-35.9281,"largura_km":86.747,"eixo_na_terra":true},{"t":1.16667,"lat":30.8192,"lon":-35.7929,"largura_km":86.896,"eixo_na_terra":true},{"t":1.17222,"lat":30.9415,"lon":-35.6568,"largura_km":87.047,"eixo_na_terra":true},{"t":1.17778,"lat":31.0644,"lon":-35.5195,"largura_km":87.2,"eixo_na_terra":true},{"t":1.18333,"lat":31.1879,"lon":-35.3812,"largura_km":87.355,"eixo_na_terra":true},{"t":1.18889,"lat":31.312,"lon":-35.2418,"largura_km":87.511,"eixo_na_terra":true},{"t":1.19444,"lat":31.4367,"lon":-35.1013,"largura_km":87.67,"eixo_na_terra":true},{"t":1.2,"lat":31.562,"lon":-34.9597,"largura_km":87.83,"eixo_na_terra":true},{"t":1.20556,"lat":31.688,"lon":-34.8168,"largura_km":87.993,"eixo_na_terra":true},{"t":1.21111,"lat":31.8146,"lon":-34.6728,"largura_km":88.157,"eixo_na_terra":true},{"t":1.21667,"lat":31.9418,"lon":-34.5276,"largura_km":88.324,"eixo_na_terra":true},{"t":1.22222,"lat":32.0697,"lon":-34.3812,"largura_km":88.493,"eixo_na_terra":true},{"t":1.22778,"lat":32.1983,"lon":-34.2335,"largura_km":88.664,"eixo_na_terra":true},{"t":1.23333,"lat":32.3275,"lon":-34.0845,"largura_km":88.837,"eixo_na_terra":true},{"t":1.23889,"lat":32.4575,"lon":-33.9342,"largura_km":89.012,"eixo_na_terra":true},{"t":1.24444,"lat":32.5881,"lon":-33.7826,"largura_km":89.189,"eixo_na_terra":true},{"t":1.25,"lat":32.7195,"lon":-33.6296,"largura_km":89.369,"eixo_na_terra":true},{"t":1.25556,"lat":32.8515,"lon":-33.4752,"largura_km":89.551,"eixo_na_terra":true},{"t":1.26111,"lat":32.9843,"lon":-33.3193,"largura_km":89.735,"eixo_na_terra":true},{"t":1.26667,"lat":33.1179,"lon":-33.1621,"largura_km":89.921,"eixo_na_terra":true},{"t":1.27222,"lat":33.2522,"lon":-33.0033,"largura_km":90.11,"eixo_na_terra":true},{"t":1.27778,"lat":33.3873,"lon":-32.843,"largura_km":90.301,"eixo_na_terra":true},{"t":1.28333,"lat":33.5231,"lon":-32.6811,"largura_km":90.495,"eixo_na_terra":true},{"t":1.28889,"lat":33.6598,"lon":-32.5177,"largura_km":90.691,"eixo_na_terra":true},{"t":1.29444,"lat":33.7972,"lon":-32.3526,"largura_km":90.889,"eixo_na_terra":true},{"t":1.3,"lat":33.9355,"lon":-32.1859,"largura_km":91.09,"eixo_na_terra":true},{"t":1.30556,"lat":34.0746,"lon":-32.0174,"largura_km":91.293,"eixo_na_terra":true},{"t":1.31111,"lat":34.2146,"lon":-31.8472,"largura_km":91.499,"eixo_na_terra":true},{"t":1.31667,"lat":34.3555,"lon":-31.6753,"largura_km":91.707,"eixo_na_terra":true},{"t":1.32222,"lat":34.4972,"lon":-31.5015,"largura_km":91.918,"eixo_na_terra":true},{"t":1.32778,"lat":34.6398,"lon":-31.3258,"largura_km":92.132,"eixo_na_terra":true},{"t":1.33333,"lat":34.7834,"lon":-31.1482,"largura_km":92.348,"eixo_na_terra":true},{"t":1.33889,"lat":34.9279,"lon":-30.9686,"largura_km":92.567,"eixo_na_terra":true},{"t":1.34444,"lat":35.0733,"lon":-30.787,"largura_km":92.789,"eixo_na_terra":true},{"t":1.35,"lat":35.2197,"lon":-30.6034,"largura_km":93.014,"eixo_na_terra":true},{"t":1.35556,"lat":35.3672,"lon":-30.4176,"largura_km":93.242,"eixo_na_terra":true},{"t":1.36111,"lat":35.5156,"lon":-30.2297,"largura_km":93.474,"eixo_na_terra":true},{"t":1.36667,"lat":35.6651,"lon":-30.0395,"largura_km":93.709,"eixo_na_terra":true},{"t":1.37222,"lat":35.8156,"lon":-29.847,"largura_km":93.948,"eixo_na_terra":true},{"t":1.37778,"lat":35.9672,"lon":-29.6522,"largura_km":94.189,"eixo_na_terra":true},{"t":1.38333,"lat":36.1199,"lon":-29.4549,"largura_km":94.434,"eixo_na_terra":true},{"t":1.38889,"lat":36.2738,"lon":-29.2552,"largura_km":94.682,"eixo_na_terra":true},{"t":1.39444,"lat":36.4288,"lon":-29.0529,"largura_km":94.934,"eixo_na_terra":true},{"t":1.4,"lat":36.585,"lon":-28.8479,"largura_km":95.189,"eixo_na_terra":true},{"t":1.40556,"lat":36.7424,"lon":-28.6403,"largura_km":95.448,"eixo_na_terra":true},{"t":1.41111,"lat":36.901,"lon":-28.4298,"largura_km":95.711,"eixo_na_terra":true},{"t":1.41667,"lat":37.0609,"lon":-28.2165,"largura_km":95.977,"eixo_na_terra":true},{"t":1.42222,"lat":37.2221,"lon":-28.0002,"largura_km":96.247,"eixo_na_terra":true},{"t":1.42778,"lat":37.3847,"lon":-27.7809,"largura_km":96.52,"eixo_na_terra":true},{"t":1.43333,"lat":37.5486,"lon":-27.5584,"largura_km":96.798,"eixo_na_terra":true},{"t":1.43889,"lat":37.7139,"lon":-27.3327,"largura_km":97.08,"eixo_na_terra":true},{"t":1.44444,"lat":37.8807,"lon":-27.1036,"largura_km":97.367,"eixo_na_terra":true},{"t":1.45,"lat":38.049,"lon":-26.8711,"largura_km":97.658,"eixo_na_terra":true},{"t":1.45556,"lat":38.2187,"lon":-26.6349,"largura_km":97.955,"eixo_na_terra":true},{"t":1.46111,"lat":38.3901,"lon":-26.3951,"largura_km":98.255,"eixo_na_terra":true},{"t":1.46667,"lat":38.5631,"lon":-26.1514,"largura_km":98.561,"eixo_na_terra":true},{"t":1.47222,"lat":38.7377,"lon":-25.9037,"largura_km":98.871,"eixo_na_terra":true},{"t":1.47778,"lat":38.9141,"lon":-25.6519,"largura_km":99.188,"eixo_na_terra":true},{"t":1.48333,"lat":39.0922,"lon":-25.3959,"largura_km":99.509,"eixo_na_terra":true},{"t":1.48889,"lat":39.2721,"lon":-25.1354,"largura_km":99.836,"eixo_na_terra":true},{"t":1.49444,"lat":39.4539,"lon":-24.8703,"largura_km":100.168,"eixo_na_terra":true},{"t":1.5,"lat":39.6377,"lon":-24.6004,"largura_km":100.506,"eixo_na_terra":true},{"t":1.50556,"lat":39.8235,"lon":-24.3256,"largura_km":100.85,"eixo_na_terra":true},{"t":1.51111,"lat":40.0114,"lon":-24.0455,"largura_km":101.2,"eixo_na_terra":true},{"t":1.51667,"lat":40.2015,"lon":-23.76,"largura_km":101.558,"eixo_na_terra":true},{"t":1.52222,"lat":40.3937,"lon":-23.4689,"largura_km":101.923,"eixo_na_terra":true},{"t":1.52778,"lat":40.5884,"lon":-23.172,"largura_km":102.294,"eixo_na_terra":true},{"t":1.53333,"lat":40.7854,"lon":-22.8688,"largura_km":102.673,"eixo_na_terra":true},{"t":1.53889,"lat":40.985,"lon":-22.5592,"largura_km":103.059,"eixo_na_terra":true},{"t":1.54444,"lat":41.1872,"lon":-22.2429,"largura_km":103.452,"eixo_na_terra":true},{"t":1.55,"lat":41.3922,"lon":-21.9194,"largura_km":103.854,"eixo_na_terra":true},{"t":1.55556,"lat":41.6,"lon":-21.5885,"largura_km":104.264,"eixo_na_terra":true},{"t":1.56111,"lat":41.8108,"lon":-21.2497,"largura_km":104.683,"eixo_na_terra":true},{"t":1.56667,"lat":42.0247,"lon":-20.9027,"largura_km":105.113,"eixo_na_terra":true},{"t":1.57222,"lat":42.242,"lon":-20.547,"largura_km":105.554,"eixo_na_terra":true},{"t":1.57778,"lat":42.4627,"lon":-20.182,"largura_km":106.006,"eixo_na_terra":true},{"t":1.58333,"lat":42.687,"lon":-19.8072,"largura_km":106.468,"eixo_na_terra":true},{"t":1.58889,"lat":42.9152,"lon":-19.422,"largura_km":106.942,"eixo_na_terra":true},{"t":1.59444,"lat":43.1475,"lon":-19.0257,"largura_km":107.427,"eixo_na_terra":true},{"t":1.6,"lat":43.3841,"lon":-18.6177,"largura_km":107.926,"eixo_na_terra":true},{"t":1.60556,"lat":43.6253,"lon":-18.197,"largura_km":108.438,"eixo_na_terra":true},{"t":1.61111,"lat":43.8714,"lon":-17.7627,"largura_km":108.968,"eixo_na_terra":true},{"t":1.61667,"lat":44.1228,"lon":-17.3139,"largura_km":109.513,"eixo_na_terra":true},{"t":1.62222,"lat":44.3797,"lon":-16.8493,"largura_km":110.075,"eixo_na_terra":true},{"t":1.62778,"lat":44.6427,"lon":-16.3676,"largura_km":110.655,"eixo_na_terra":true},{"t":1.63333,"lat":44.9122,"lon":-15.8674,"largura_km":111.255,"eixo_na_terra":true},{"t":1.63889,"lat":45.1888,"lon":-15.3468,"largura_km":111.878,"eixo_na_terra":true},{"t":1.64444,"lat":45.4731,"lon":-14.8039,"largura_km":112.525,"eixo_na_terra":true},{"t":1.65,"lat":45.766,"lon":-14.2362,"largura_km":113.199,"eixo_na_terra":true},{"t":1.65556,"lat":46.0683,"lon":-13.6411,"largura_km":113.9,"eixo_na_terra":true},{"t":1.66111,"lat":46.381,"lon":-13.0151,"largura_km":114.635,"eixo_na_terra":true},{"t":1.66667,"lat":46.7055,"lon":-12.3541,"largura_km":115.408,"eixo_na_terra":true},{"t":1.67222,"lat":47.0433,"lon":-11.6532,"largura_km":116.219,"eixo_na_terra":true},{"t":1.67778,"lat":47.3965,"lon":-10.906,"largura_km":117.079,"eixo_na_terra":true},{"t":1.68333,"lat":47.7677,"lon":-10.1043,"largura_km":117.99,"eixo_na_terra":true},{"t":1.68889,"lat":48.1601,"lon":-9.2373,"largura_km":118.964,"eixo_na_terra":true},{"t":1.69444,"lat":48.5785,"lon":-8.2902,"largura_km":120.0,"eixo_na_terra":true},{"t":1.7,"lat":49.0294,"lon":-7.2415,"largura_km":121.093,"eixo_na_terra":true},{"t":1.70556,"lat":49.5232,"lon":-6.0583,"largura_km":122.16,"eixo_na_terra":true},{"t":1.71111,"lat":50.8495,"lon":-2.7002,"largura_km":null,"eixo_na_terra":false},{"t":1.71667,"lat":51.0562,"lon":-2.045,"largura_km":null,"eixo_na_terra":false},{"t":1.72222,"lat":51.4031,"lon":-0.9724,"largura_km":null,"eixo_na_terra":false},{"t":1.72778,"lat":51.5516,"lon":-0.4195,"largura_km":null,"eixo_na_terra":false}]},"features":[{"type":"Feature","properties":{},"geometry":{"type":"Polygon","coordinates":[[[-39.798543300171644,27.629068631262832],[-39.00504493317993,28.394534917011555],[-38.292100090942824,29.074210914929616],[-37.5581176341945,29.765389908214825],[-36.92350695696092,30.35550473185545],[-36.26591062135992,30.959319971485904],[-35.583080790237545,31.577738456274087],[-34.87246642174219,32.21177958125437],[-34.28202528829013,32.73103355718577],[-33.66181280872368,33.268910493648754],[-33.026469560407406,33.81192541542159],[-32.36570675808855,34.367946450381304],[-31.677068174082507,34.937924943061155],[-31.321431448936096,35.22848075106488],[-30.95773762530564,35.52294356976346],[-30.385719356634183,35.980531144774034],[-29.999701819717984,36.285634427921174],[-29.60398401220121,36.59526768799182],[-28.990987904857747,37.068672850076716],[-28.352807458354903,37.55352533737553],[-27.687047448916985,38.05071189686308],[-26.977811742183917,38.57069360697482],[-26.247497902059536,39.096074766219914],[-25.740114863861436,39.45507323074515],[-25.479804332913716,39.63736383587034],[-24.945071949063333,40.00784046407251],[-24.390229335546593,40.38663908184868],[-24.104732849335534,40.57934852648621],[-23.499639924464304,40.98278230116782],[-22.885616855596368,41.385603038893926],[-22.244130745234912,41.7993332011646],[-21.572311502679298,42.224969306424086],[-21.22399548123491,42.442608315240435],[-20.846484162147732,42.676003757744134],[-20.102083165900837,43.12963882444768],[-19.71421135488879,43.362395220692655],[-19.31498066935012,43.59942014549168],[-18.903614647835383,43.84097604918568],[-18.47924836795977,44.087354314568366],[-18.015797310504468,44.35297386594583],[-17.561497728611243,44.61036841423076],[-17.090830970591867,44.87371269140716],[-16.602383042166593,45.14347664509497],[-16.094532153850764,45.420197424147695],[-15.56540364078387,45.7044937714101],[-14.980845794009156,46.013593818296336],[-14.400617653309837,46.315914332068076],[-13.791087218493573,46.62844089824703],[-13.148512415531826,46.95239115404087],[-12.428610328260277,47.30835418010968],[-11.702329691918408,47.660936976995686],[-10.924899521099519,48.03079108373037],[-10.03716645195243,48.44330834909235],[-9.120055181921714,48.85977313407026],[-8.048666111128341,49.33290250197335],[-6.838252979583615,49.85126505923123],[-5.431101976688922,50.43309916843325],[-3.5101397842228153,51.190325299338014],[-3.520854298066633,51.18195500441339],[-3.1276213728134508,51.33849026101565],[-2.883525437468279,51.43360908083312],[-2.3726264351211626,51.6282148631329],[-1.8280613918290385,51.82952105463734],[-1.5414376776316772,51.93315696105393],[-0.9908710748329508,52.12803374028621],[-0.6783576526620436,52.2430083937646],[-0.2850579838738838,52.385271087879104],[0.14328458846429726,52.53756232714109],[0.6177852386206268,52.70331429724403],[1.1575753324446794,52.88845355779889],[1.801097823226911,53.10491318589304],[2.6532026997415983,53.38527306162839],[2.6678447792471762,53.37459539469067],[3.145497700880128,53.532939603732004],[3.2143827494900346,53.49985478015194],[3.329383441197365,53.53592583696663],[3.6552633417087597,53.288104089577104],[4.607967029164342,52.83052970936525],[4.216477772901756,52.70363932547958],[4.338017018938018,52.64373516019604],[3.0815029114757237,52.239063245228614],[2.304214918616026,51.979061229991274],[1.6950105410520848,51.77048544491514],[1.1804876108589326,51.59132572217644],[0.32398300375226086,51.28782528536845],[-0.3855548233779018,51.03253640082166],[-2.0166648990979184,50.441323633947405],[-2.582535451687208,50.239034031738775],[-3.424118691770474,49.915064028084025],[-3.791091087642826,49.77608223858683],[-4.21222335201469,49.61966096329188],[-4.921718435898384,49.33382798722818],[-5.225843787636023,49.214395298735866],[-5.5631227893237485,49.08517185911845],[-5.910869208119038,48.93837885654356],[-6.321872003931645,48.769208012730076],[-6.577653751013827,48.666940698595006],[-6.899294889264818,48.542680414276816],[-6.926881583640181,48.52112938813758],[-8.0164629960438,48.05768262448949],[-8.997822373153241,47.628666020436015],[-9.847294042332862,47.2487173897487],[-10.634908941330082,46.888568867435815],[-11.370607575199756,46.54516981277409],[-12.061954594505607,46.21619053970415],[-12.71486349875434,45.89980349356351],[-13.334059881885906,45.59454315747789],[-13.923389994791961,45.29921259290726],[-14.486033407404705,45.01281892734412],[-15.024653850543984,44.73452752467804],[-15.541508869771917,44.46362861794223],[-16.038531249726674,44.19951249382938],[-16.51739060933656,43.94165069140546],[-16.97954076553748,43.68958152244485],[-17.426256686812394,43.44289875678339],[-17.85866370175094,43.201242665217464],[-18.27776085737173,42.9642928453388],[-18.684439797547128,42.731762414318496],[-19.07950016809224,42.50339326278461],[-19.4636622983534,42.27895214172266],[-20.201837990711454,41.8410263118033],[-20.90350253888036,41.416504986988436],[-21.55421644322803,41.01562537068235],[-22.194445706480735,40.61402314620682],[-22.807807325951813,40.22264444537813],[-23.105164277226834,40.030537869497934],[-23.682556875831324,39.65304490319494],[-24.238425040731215,39.28398218216727],[-24.508821594309666,39.10243116051692],[-25.035496765696564,38.74496386749864],[-25.792764078018706,38.22197696672452],[-26.501412612784208,37.722880051599454],[-27.191341902076232,37.22764014989203],[-27.8519876543877,36.74478828124105],[-28.485941557289607,36.27341180813105],[-29.095462117705694,35.81270969763875],[-29.682531130699488,35.36197416936142],[-30.062309939393856,35.066707250508976],[-30.423407358565612,34.78334032421824],[-30.964895896075916,34.35334285101963],[-31.660094574498828,33.79257199278185],[-32.327230409743436,33.24521724786428],[-32.968754005627744,32.71037168308029],[-33.58681925592728,32.18723260672547],[-33.88765889569859,31.92982664642892],[-34.329293921802105,31.548689824447013],[-34.89370808374605,31.056042515499282],[-35.58377509985942,30.445229807099896],[-36.24825164763655,29.848524661982964],[-36.88939646352901,29.265059599941683],[-37.50921312082079,28.694061738682514],[-38.22734331596024,28.024351828142823],[-38.92006830852608,27.37053730374531],[-39.69935666335488,26.626592491148187],[-40.12933610228612,27.30740323691503],[-39.798543300171644,27.629068631262832]]]}}]}