{"type":"FeatureCollection","features":[{"type":"Feature","properties":{"t_inicio":0.9777777777777601,"t_fim":1.7055555555555353},"geometry":{"type":"LineString","coordinates":[[-39.913528678422495,26.965029150535095],[-39.80392309896848,27.0709635539523],[-39.69373627876962,27.177299896432366],[-39.58295857582718,27.284042006576023],[-39.47158016500714,27.39119378661554],[-39.359591032881724,27.498759214307622],[-39.24698097238911,27.606742344891096],[-39.13373957730357,27.71514731311186],[-39.019856236507735,27.823978335318593],[-38.90532012805778,27.93323971163146],[-38.79012021303339,28.042935828187684],[-38.67424522916167,28.153071159466688],[-38.557683684205756,28.26365027069888],[-38.44042384910691,28.374677820361388],[-38.322453750868874,28.48615856276466],[-38.20376116517292,28.59809735073419],[-38.084333608710466,28.710499138391558],[-37.96415833122066,28.823368984039284],[-37.843222307218355,28.936712053154455],[-37.72151222739802,29.05053362149587],[-37.599014489698305,29.164839078330424],[-37.47571519000982,29.27963392978413],[-37.3516001125096,29.39492380232357],[-37.22665471960357,29.510714446374568],[-37.100864141457066,29.627011740084175],[-36.974213165093204,29.7438216932334],[-36.8466862230369,29.86115045130805],[-36.71826738148127,29.979004299735273],[-36.58894032795217,30.097389668294866],[-36.45868835844374,30.216313135713246],[-36.32749436399837,30.335781434450542],[-36.195340816700394,30.45580145568995],[-36.06220975505309,30.57638025454047],[-35.928082768704826,30.697525055464016],[-35.79294098248897,30.81924325793918],[-35.65676503974032,30.94154244237414],[-35.519535084846325,31.064430376282328],[-35.3812307449918,31.187915020735627],[-35.241831111049635,31.31200453711001],[-35.10131471756952,31.436707294140557],[-34.95965952181166,31.56203187530325],[-34.81684288177013,31.687987086542034],[-34.67284153312502,31.814581964361597],[-34.52763156506046,31.941825784307145],[-34.381188394878535,32.069728069853966],[-34.23348674133655,32.19829860173158],[-34.084500596627606,32.32754742770878],[-33.93420319692058,32.45748487286756],[-33.78256699136756,32.588121550396714],[-33.6295636094809,32.71946837293729],[-33.47516382677472,32.851536564515094],[-33.319337528556446,32.98433767309807],[-33.162053671746605,33.11788358381884],[-33.00328024459367,33.252186532906556],[-32.84298422414241,33.38725912237503],[-32.68113153129963,33.52311433551813],[-32.517686983332,33.65976555326795],[-32.35261424361374,33.79722657147481],[-32.1858757684287,33.93551161917414],[-32.01743275061341,34.07463537791017],[-31.84724505981049,34.21461300219217],[-31.67527117908068,34.35546014116628],[-31.501468137599403,34.49719296159229],[-31.325791439140346,34.63982817222317],[-31.148194986019575,34.78338304969425],[-30.968630998145642,34.92787546603781],[-30.787049926785897,35.07332391795058],[-30.603400362624,35.21974755795267],[-30.417628937640927,35.36716622759061],[-30.229680220307785,35.51560049285101],[-30.039496603526146,35.66507168196845],[-29.847018184696424,35.81560192582915],[-29.652182637229487,35.96721420119228],[-29.454925072747102,36.11993237697434],[-29.25517789313642,36.27378126386643],[-29.052870631533438,36.42878666758441],[-28.84792978121004,36.584975446083085],[-28.640278611225085,36.74237557110297],[-28.42983696757122,36.90101619445883],[-28.216521058402463,37.060927719525914],[-28.000243221763924,37.22214187843283],[-27.78091167405387,37.38469181553028],[-27.558430237236678,37.54861217777214],[-27.332698042577732,37.71393921272548],[-27.103609208391163,37.88071087501357],[-26.87105248896873,38.04896694209985],[-26.634910891487408,38.218749140437616],[-26.395061257262995,38.390101283147565],[-26.15137380322261,38.563069420541325],[-25.903711618892146,38.73770200499268],[-25.65193011352443,38.91405007186938],[-25.395876407210466,39.09216743848741],[-25.135388658897966,39.27211092333848],[-24.87029532316319,39.453940588182746],[-24.600414326307032,39.63772000600104],[-24.325552150838462,39.82351655827542],[-24.045502815614782,40.01140176563247],[-23.760046736765446,40.20145165655733],[-23.468949451958395,40.39374717969469],[-23.171960187473672,40.58837466622321],[-22.8688102438052,40.785426349966656],[-22.559211170956843,40.98500095433192],[-22.242852699031175,41.18720435690898],[-21.91940038286242,41.39215034471082],[-21.588492910978516,41.59996147567985],[-21.249739018639616,41.810770065379394],[-20.902713931503342,42.024719321909835],[-20.54695524981662,42.241964657282985],[-20.181958161876054,42.46267521008213],[-19.807169848395688,42.687035622676724],[-19.421982904406065,42.91524812715389],[-19.025727559659032,43.147535008322166],[-18.61766241841687,43.384141530807675],[-18.196963359549812,43.62533944207756],[-17.762710130273945,43.871431196587615],[-17.313870020287652,44.12275509166104],[-16.84927780068267,44.37969156835258],[-16.367610828452,44.642671018250674],[-15.86735781370254,44.91218356192449],[-15.346779161636789,45.18879144535639],[-14.803855936787556,45.47314496741182],[-14.236223191165465,45.76600325388226],[-13.641081376948392,46.068261816027096],[-13.015076348960434,46.38098982088679],[-12.354133183556257,46.70548162343111],[-11.65322005646226,47.04332987015805],[-10.906002476899403,47.396532377264464],[-10.104318442376751,47.76765410344524],[-9.237346257506033,48.16008355774524],[-8.290211669324009,48.5784612718199],[-7.241489685526432,49.02944704586829],[-6.058293232680853,49.52322586716719]]}}]}