{"type":"FeatureCollection","features":[{"type":"Feature","properties":{"magnitude":0.8,"percentagem":80.0,"territorio":"continente"},"geometry":{"type":"LineString","coordinates":[[-10.5,39.93156885656254],[-10.46,39.951702888796575],[-10.443498902046384,39.959999999999916],[-10.420000000000002,39.97181489018419],[-10.380000000000003,39.991903974545366],[-10.363862837095823,39.999999999999915],[-10.340000000000003,40.01197113465215],[-10.300000000000004,40.032015389729445],[-10.284049339328146,40.039999999999914],[-10.260000000000005,40.05203780383939],[-10.220000000000006,40.072037347880055],[-10.204057641278345,40.07999999999991],[-10.180000000000007,40.09201511085725],[-10.140000000000008,40.111970061766435],[-10.123886971811736,40.11999999999991],[-10.100000000000009,40.131903268054884],[-10.06000000000001,40.15181374339542],[-10.043536556108082,40.15999999999991],[-10.02000000000001,40.17170248701901],[-9.980000000000011,40.191568604011096],[-9.9630056156453,40.19999999999991],[-9.940000000000012,40.21141297857331],[-9.900000000000013,40.23123485409432],[-9.882293368182914,40.23999999999991],[-9.860000000000014,40.251034952778234],[-9.820000000000014,40.27081270336248],[-9.801399027745555,40.27999999999991],[-9.780000000000015,40.290568618930656],[-9.740000000000016,40.310302360769256],[-9.720321804606273,40.31999999999991],[-9.700000000000017,40.33001418556371],[-9.660000000000018,40.34970403450442],[-9.639060905269703,40.35999999999991],[-9.620000000000019,40.36937186044656],[-9.58000000000002,40.38901793199364],[-9.557615532455056,40.399999999999906],[-9.54000000000002,40.40864185058435],[-9.500000000000021,40.428244259898435],[-9.47598488507887,40.439999999999905],[-9.460000000000022,40.447824362218014],[-9.420000000000023,40.467383224116055],[-9.3941681582378,40.479999999999905],[-9.380000000000024,40.48691960082438],[-9.340000000000025,40.506435029779595],[-9.312164543191177,40.519999999999904],[-9.300000000000026,40.525927771116095],[-9.260000000000026,40.5453998812579],[-9.229973227343308,40.5599999999999],[-9.220000000000027,40.564849077041735],[-9.180000000000028,40.5842779821557],[-9.147593394225689,40.5999999999999],[-9.140000000000029,40.603683721785856],[-9.10000000000003,40.62306953531382],[-9.065024223479284,40.6399999999999],[-9.06000000000003,40.642431907769264],[-9.020000000000032,40.661774742809214],[-8.982264890836221,40.6799999999999],[-8.980000000000032,40.68109383664909],[-8.940000000000033,40.7003938059553],[-8.900000000000034,40.719669797984075],[-8.899314154443317,40.7199999999999],[-8.860000000000035,40.73892692530218],[-8.820000000000036,40.75816022084285],[-8.81617010895989,40.7599999999999],[-8.780000000000037,40.777374300636936],[-8.740000000000038,40.796565011580576],[-8.732833281509034,40.7999999999999],[-8.700000000000038,40.81573613098399],[-8.66000000000004,40.834884368878235],[-8.64930283087157,40.8399999999999],[-8.62000000000004,40.85401261460545],[-8.580000000000041,40.87311849065472],[-8.56557791182235,40.879999999999896],[-8.540000000000042,40.892203949001605],[-8.500000000000043,40.911267574067146],[-8.481657675111013,40.919999999999895],[-8.460000000000043,40.93031033091127],[-8.420000000000044,40.94933181551148],[-8.397541267442904,40.959999999999894],[-8.380000000000045,40.968331956312426],[-8.340000000000046,40.987311410622866],[-8.313227831459459,40.999999999999886],[-8.300000000000047,41.00626902042263],[-8.260000000000048,41.02520655427636],[-8.228716505718833,41.03999999999989],[-8.220000000000049,41.04412171769968],[-8.18000000000005,41.0630174405874],[-8.1440064246761,41.07999999999989],[-8.14000000000005,41.08189024184219],[-8.100000000000051,41.10074426291247],[-8.060000000000052,41.11957490197355],[-8.059096162981115,41.11999999999989],[-8.020000000000053,41.13838721384978],[-7.980000000000054,41.15717631488226],[-7.973982807926589,41.15999999999989],[-7.940000000000055,41.17594648523992],[-7.900000000000055,41.19469415653446],[-7.888667940666841,41.19999999999989],[-7.860000000000056,41.21342226816655],[-7.820000000000057,41.23212861767281],[-7.803150677862254,41.23999999999989],[-7.780000000000058,41.25081475295732],[-7.740000000000059,41.26947988828405],[-7.717430131963527,41.27999999999989],[-7.70000000000006,41.288124129184425],[-7.6600000000000605,41.30674815759994],[-7.631505411191215,41.31999999999989],[-7.620000000000061,41.32535058566562],[-7.580000000000062,41.34393361409809],[-7.545375619514573,41.359999999999886],[-7.540000000000063,41.362494310464946],[-7.500000000000064,41.38103644550276],[-7.460000000000065,41.399555613814016],[-7.4590392580043625,41.399999999999885],[-7.420000000000066,41.41805683878581],[-7.3800000000000665,41.43653527361844],[-7.3724925320322825,41.439999999999884],[-7.340000000000067,41.45499498016759],[-7.300000000000068,41.47343278725856],[-7.28573787722493,41.47999999999988],[-7.260000000000069,41.49185105511793],[-7.22000000000007,41.51024833986576],[-7.198774379113255,41.51999999999988],[-7.180000000000071,41.52862524835706],[-7.140000000000072,41.54698211582232],[-7.111601118863872,41.55999999999988],[-7.1000000000000725,41.56531774385666],[-7.060000000000073,41.583634298762306],[-7.0242171732568535,41.59999999999988],[-7.020000000000074,41.601928724840896],[-6.980000000000075,41.62020507157275],[-6.940000000000076,41.638458804407115],[-6.936619484156564,41.63999999999988],[-6.900000000000077,41.65669461639463],[-6.860000000000078,41.6749082976409],[-6.848806444500721,41.67999999999988],[-6.820000000000078,41.69310311462405],[-6.780000000000079,41.71127684782377],[-6.760779771467207,41.71999999999988],[-6.74000000000008,41.72943074691327],[-6.700000000000081,41.74756463527255],[-6.672538522809895,41.75999999999988],[-6.660000000000083,41.76567769317188],[-6.620000000000083,41.78377183956184],[-6.584081751776893,41.79999999999988],[-6.580000000000084,41.80184413256796],[-6.540000000000084,41.819898639525235],[-6.500000000000085,41.83793082642682],[-6.49540558382958,41.839999999999876],[-6.460000000000086,41.855945213256625],[-6.420000000000087,41.873937914515416],[-6.406509234855481,41.879999999999875],[-6.380000000000088,41.89191173811126],[-6.340000000000089,41.90986505542668],[-6.317394337526511,41.919999999999874],[-6.300000000000089,41.927798390707075],[-6.26000000000009,41.94571242544595],[-6.2280599255459945,41.95999999999987],[-6.220000000000091,41.96360534692599],[-6.180000000000092,41.9814802001231],[-6.140000000000093,41.99933297102002],[-6.138504068790508,41.99999999999987],[-6.100000000000094,42.01716855427371],[-6.060000000000095,42.03498229514754],[-6.048721425437303,42.03999999999987],[-6.0200000000000955,42.052777661980556],[-5.980000000000096,42.07055247303526],[-5.95871617671528,42.07999999999987],[-5.940000000000097,42.088307696594825],[-5.900000000000098,42.10604367770428],[-5.868487336345614,42.11999999999988],[-5.860000000000099,42.12375883073753],[-5.8200000000001,42.14145608144614],[-5.780000000000101,42.15913148409004],[-5.778032642154167,42.15999999999987],[-5.7400000000001015,42.17678985582418],[-5.700000000000102,42.19442667733313],[-5.687346722868013,42.19999999999987],[-5.660000000000103,42.21204517167493],[-5.620000000000104,42.22964351076938],[-5.5964340550297775,42.23999999999987],[-5.580000000000104,42.24722219910947],[-5.540000000000106,42.26478215418258]]}},{"type":"Feature","properties":{"magnitude":0.9,"percentagem":90.0,"territorio":"acores"},"geometry":{"type":"LineString","coordinates":[[-24.129103456502698,36.0],[-24.120000000000168,36.00641423351562],[-24.08000000000017,36.034572296544795],[-24.072282757429925,36.04],[-24.04000000000017,36.06270019664264]]}},{"type":"Feature","properties":{"magnitude":0.9,"percentagem":90.0,"territorio":"acores"},"geometry":{"type":"LineString","coordinates":[[-29.299977174989365,40.479999999999905],[-29.320000000000057,40.46535326525233],[-29.35462508109689,40.439999999999905],[-29.360000000000056,40.436063745808724],[-29.400000000000055,40.40674532133419],[-29.409194519066382,40.399999999999906],[-29.440000000000055,40.3773967876214],[-29.463686505001434,40.35999999999991],[-29.480000000000054,40.34801649090265],[-29.518102328943105,40.31999999999991],[-29.520000000000053,40.31860442738296],[-29.560000000000052,40.289164410446126],[-29.572439822559023,40.27999999999991],[-29.60000000000005,40.25969317312621],[-29.62670128519896,40.23999999999991],[-29.64000000000005,40.230190129268465],[-29.68000000000005,40.20065554768342],[-29.6808871446219,40.19999999999991],[-29.72000000000005,40.17109320906271],[-29.734995298520737,40.15999999999991],[-29.760000000000048,40.14149902495417],[-29.78902851307624,40.11999999999991],[-29.800000000000047,40.111872991977144],[-29.840000000000046,40.08221602379781],[-29.842986459316243,40.07999999999991],[-29.880000000000045,40.052530542311914],[-29.89686790516618,40.039999999999914],[-29.920000000000044,40.022813174052786],[-29.950675131567877,39.999999999999915],[-29.960000000000043,39.99306391589412],[-30.000000000000043,39.96328411818725],[-30.004407559601262,39.959999999999916],[-30.040000000000042,39.933475261312054],[-30.058064546535324,39.919999999999916],[-30.080000000000044,39.90363447775349],[-30.111648029635095,39.87999999999992],[-30.120000000000044,39.87376176466543],[-30.16000000000004,39.84385870300916],[-30.165157310868562,39.83999999999992],[-30.20000000000004,39.813926244734986],[-30.218592073072983,39.79999999999992],[-30.240000000000038,39.783961821346146],[-30.271954042842587,39.75999999999992],[-30.280000000000037,39.75396543030333],[-30.320000000000036,39.723938679168214],[-30.325242525288438,39.71999999999992],[-30.360000000000035,39.693882400413266],[-30.378457282199953,39.67999999999992],[-30.400000000000034,39.663794119697826],[-30.43159995392753,39.63999999999992],[-30.44000000000003,39.633673834816676],[-30.480000000000032,39.60352297795671],[-30.484669962375154,39.59999999999992],[-30.52000000000003,39.573342666992104],[-30.53766691887563,39.559999999999924],[-30.56000000000003,39.54313031891627],[-30.590592493359694,39.519999999999925],[-30.600000000000033,39.5128859318861],[-30.64000000000003,39.48261056273995],[-30.64344632954332,39.479999999999926],[-30.680000000000028,39.4523060156267],[-30.696227676152326,39.43999999999993],[-30.720000000000027,39.42196939805907],[-30.748938339893648,39.39999999999993],[-30.760000000000026,39.391600708585074],[-30.800000000000026,39.36120043068797],[-30.801578282656795,39.35999999999993],[-30.840000000000025,39.33077145172558],[-30.854146195721746,39.31999999999993],[-30.880000000000024,39.300310370889235],[-30.906644121113114,39.27999999999993],[-30.920000000000023,39.26981718714762],[-30.959072278189776,39.23999999999993],[-30.960000000000022,39.2392918995507],[-31.00000000000002,39.20873801674128],[-31.011429068453772,39.19999999999993],[-31.04000000000002,39.17815228767787],[-31.06371641396754,39.15999999999993],[-31.080000000000023,39.14753442678332],[-31.115934681366102,39.119999999999926],[-31.12000000000002,39.116884433566646],[-31.160000000000018,39.08620479000811],[-31.16808283492752,39.079999999999934],[-31.200000000000017,39.055494237054674],[-31.220161745301276,39.039999999999935],[-31.240000000000016,39.02475152554019],[-31.2721722639518,38.999999999999936],[-31.28000000000002,38.993976655464344],[-31.320000000000014,38.963170890628774],[-31.324113985955314,38.95999999999994],[-31.360000000000014,38.93233534790705],[-31.375986592375764,38.91999999999994],[-31.400000000000013,38.90146762221657],[-31.427791489719418,38.87999999999994],[-31.440000000000012,38.87056771408025],[-31.47952889379129,38.83999999999994],[-31.48000000000001,38.83963562412817],[-31.52000000000001,38.80867479132816],[-31.531197383384207,38.79999999999994],[-31.56000000000001,38.777681898322086],[-31.58279877355488,38.75999999999995],[-31.60000000000001,38.74665680147087],[-31.634333348382,38.71999999999994],[-31.64000000000001,38.71559950196956],[-31.680000000000007,38.68451178261525],[-31.685800497960194,38.67999999999994],[-31.720000000000006,38.65339358008883],[-31.737200481964003,38.639999999999944],[-31.760000000000005,38.622243154937095],[-31.788534324950398,38.599999999999945],[-31.800000000000004,38.59106050895447],[-31.839802240384792,38.559999999999945],[-31.840000000000003,38.559845644062165],[-31.880000000000003,38.5286019405332],[-31.891002933572615,38.519999999999946],[-31.92,38.49732605909921],[-31.94213812923336,38.47999999999995],[-31.96,38.46601794144529],[-31.993208067139363,38.43999999999995],[-32.0,38.4346775901363]]}},{"type":"Feature","properties":{"magnitude":0.95,"percentagem":95.0,"territorio":"acores"},"geometry":{"type":"LineString","coordinates":[[-27.27572819930033,36.0],[-27.2400000000001,36.026764233360566],[-27.222314673005478,36.04],[-27.200000000000102,36.05669653630219],[-27.168825970318395,36.08],[-27.160000000000103,36.08659614464987],[-27.120000000000104,36.1164640672792],[-27.115260644421635,36.12],[-27.080000000000105,36.146301196137074],[-27.061617380503286,36.16],[-27.040000000000106,36.17610568495679],[-27.00789822052175,36.19999999999999],[-27.000000000000107,36.2058775447616],[-26.960000000000107,36.235618030164595],[-26.95410139659273,36.239999999999995],[-26.92000000000011,36.26532759477297],[-26.90022612210324,36.279999999999994],[-26.88000000000011,36.29500458605245],[-26.846274227786363,36.31999999999999],[-26.84000000000011,36.32464901529087],[-26.80000000000011,36.35426253082545],[-26.792243431521847,36.35999999999999],[-26.76000000000011,36.38384485267744],[-26.73813385879139,36.39999999999999],[-26.72000000000011,36.41339466922594],[-26.683946938320126,36.43999999999999],[-26.68000000000011,36.442911991997335],[-26.640000000000114,36.47239901303536],[-26.629679671423467,36.47999999999999],[-26.600000000000115,36.50185441954571],[-26.57533349789199,36.51999999999999],[-26.560000000000116,36.531277389991814],[-26.520909244500487,36.55999999999999],[-26.520000000000117,36.560667936113326],[-26.480000000000118,36.590028945670994],[-26.466402984527363,36.59999999999999],[-26.44000000000012,36.61935776977662],[-26.411817892574387,36.639999999999986],[-26.40000000000012,36.64865422817174],[-26.36000000000012,36.67791893497141],[-26.357153202887808,36.679999999999986],[-26.32000000000012,36.70715382116303],[-26.30240618457979,36.719999999999985],[-26.280000000000122,36.736356400935136],[-26.247579841351957,36.759999999999984],[-26.240000000000123,36.76552668636862],[-26.200000000000124,36.7946662414531],[-26.19267190435812,36.79999999999998],[-26.160000000000124,36.82377515399135],[-26.13768203033638,36.83999999999998],[-26.120000000000125,36.85285183225891],[-26.082612087572613,36.87999999999998],[-26.080000000000126,36.881896288484455],[-26.040000000000127,36.91091119397414],[-26.027458314208815,36.91999999999998],[-26.000000000000128,36.939894479223916],[-25.97222322504681,36.95999999999998],[-25.96000000000013,36.96884560320843],[-25.92000000000013,36.997765234240745],[-25.916906440576287,36.99999999999997],[-25.88000000000013,37.026655342645384],[-25.861505095364144,37.03999999999998],[-25.84000000000013,37.05551335109819],[-25.806022415930613,37.07999999999998],[-25.800000000000132,37.08433927205922],[-25.760000000000133,37.11313514420562],[-25.75045542492078,37.119999999999976],[-25.720000000000134,37.141900255716955],[-25.694804854366943,37.159999999999975],[-25.680000000000135,37.17063334164453],[-25.640000000000136,37.199334611581186],[-25.63907192468226,37.199999999999974],[-25.600000000000136,37.22800704651769],[-25.583252339241483,37.239999999999974],[-25.560000000000137,37.25664751823211],[-25.527350140839506,37.27999999999997],[-25.520000000000138,37.28525603935064],[-25.48000000000014,37.31383445854589],[-25.47136256005292,37.31999999999997],[-25.44000000000014,37.34238253850758],[-25.4152896918866,37.35999999999997],[-25.40000000000014,37.370898730721514],[-25.36000000000014,37.399383232148516],[-25.35913319070053,37.39999999999997],[-25.320000000000142,37.427839144359226],[-25.302888514657862,37.43999999999997],[-25.280000000000143,37.45626323204506],[-25.246559933366274,37.47999999999997],[-25.240000000000144,37.48465550793698],[-25.200000000000145,37.51301808259554],[-25.190144261319716,37.51999999999997],[-25.160000000000146,37.541350291542],[-25.133642197116167,37.55999999999996],[-25.12000000000015,37.56965075230167],[-25.080000000000148,37.597920104669214],[-25.07705456826266,37.599999999999966],[-25.04000000000015,37.62616066198349],[-25.020377868452492,37.639999999999965],[-25.00000000000015,37.654369535018354],[-24.963615957263812,37.67999999999997],[-24.96000000000015,37.68254673655153],[-24.92000000000015,37.71069510042341],[-24.90676456175638,37.71999999999996],[-24.88000000000015,37.73881261433718],[-24.849826319406596,37.75999999999996],[-24.840000000000153,37.766898520944245],[-24.800000000000153,37.79495436793668],[-24.79279987544896,37.79999999999996],[-24.760000000000154,37.82298075244056],[-24.73568413441633,37.83999999999996],[-24.720000000000155,37.850975594062646],[-24.680000000000156,37.878939229363596],[-24.678481391916712,37.87999999999996],[-24.640000000000157,37.906874715189566],[-24.621186978417377,37.91999999999996],[-24.600000000000158,37.93477872275964],[-24.563805490606995,37.95999999999996],[-24.56000000000016,37.96265126483901],[-24.52000000000016,37.99049527187609],[-24.506332411382303,37.99999999999996],[-24.48000000000016,38.0183086772351],[-24.448770525844267,38.03999999999996],[-24.44000000000016,38.04609068188823],[-24.400000000000162,38.07384319498067],[-24.391117977053636,38.079999999999956],[-24.360000000000163,38.101566230795655],[-24.333374504822153,38.119999999999955],[-24.320000000000164,38.12925793082572],[-24.280000000000165,38.15691925993601],[-24.27554120286419,38.159999999999954],[-24.240000000000165,38.18455215962007],[-24.217614948566126,38.19999999999996],[-24.200000000000166,38.21215378854973],[-24.160000000000167,38.23972424489605],[-24.159599599856158,38.23999999999995],[-24.120000000000168,38.26726724253034],[-24.101489361668257,38.27999999999995],[-24.08000000000017,38.29477903452427],[-24.043289603141282,38.31999999999995],[-24.04000000000017,38.322259633485075]]}},{"type":"Feature","properties":{"magnitude":0.95,"percentagem":95.0,"territorio":"acores"},"geometry":{"type":"LineString","coordinates":[[-25.89496195139441,40.479999999999905],[-25.92000000000013,40.46287681962609],[-25.953416058817,40.439999999999905],[-25.96000000000013,40.43549194981962],[-26.000000000000128,40.40807928732175],[-26.01177779325817,40.399999999999906],[-26.040000000000127,40.380637432004875],[-26.070048909543125,40.35999999999991],[-26.080000000000126,40.35316464811721],[-26.120000000000125,40.32566308735288],[-26.128229224095985,40.31999999999991],[-26.160000000000124,40.29813316456067],[-26.186318556089745,40.2799999999999],[-26.200000000000124,40.270572259424284],[-26.240000000000123,40.24298149778349],[-26.244318737497284,40.23999999999991],[-26.280000000000122,40.215363300940076],[-26.302227485452974,40.19999999999991],[-26.32000000000012,40.18771406810084],[-26.36000000000012,40.160033804271016],[-26.360048810420405,40.15999999999991],[-26.40000000000012,40.13232712756427],[-26.417778168045487,40.11999999999991],[-26.44000000000012,40.10458936135797],[-26.475420666119074,40.07999999999991],[-26.480000000000118,40.07682049782873],[-26.520000000000117,40.04902393385393],[-26.532973057786293,40.039999999999914],[-26.560000000000116,40.0211974294844],[-26.590437900260856,39.999999999999915],[-26.600000000000115,39.993339774459365],[-26.640000000000114,39.965453012459335],[-26.647814592189313,39.959999999999916],[-26.680000000000113,39.93753756607876],[-26.705102957240165,39.919999999999916],[-26.720000000000113,39.90959091592113],[-26.76000000000011,39.88161365949594],[-26.762305192450157,39.87999999999992],[-26.80000000000011,39.8536090682867],[-26.819418251868882,39.83999999999992],[-26.84000000000011,39.82557322041827],[-26.87644633258234,39.79999999999992],[-26.88000000000011,39.79750610805587],[-26.92000000000011,39.769411237044224],[-26.933386182771194,39.75999999999992],[-26.960000000000107,39.74128599002995],[-26.990240662112775,39.71999999999992],[-27.000000000000107,39.713129425936316],[-27.040000000000106,39.684943377326164],[-27.047009132466787,39.67999999999992],[-27.080000000000105,39.65672853096095],[-27.10369116709201,39.63999999999992],[-27.1200000000001,39.62848231523886],[-27.160000000000103,39.60020479840067],[-27.160289467452966,39.59999999999992],[-27.200000000000102,39.57190015379793],[-27.21680020778889,39.559999999999924],[-27.2400000000001,39.54356408789938],[-27.273227820836954,39.519999999999925],[-27.280000000000104,39.5151965929679],[-27.3200000000001,39.48680017377177],[-27.32957012857332,39.479999999999926],[-27.3600000000001,39.458374060589385],[-27.385828121935024,39.43999999999993],[-27.400000000000098,39.42991646686791],[-27.440000000000097,39.401427911025785],[-27.442003257994855,39.39999999999993],[-27.480000000000096,39.37291155498642],[-27.49809276734166,39.35999999999993],[-27.520000000000095,39.34436366731458],[-27.5541004477659,39.31999999999993],[-27.560000000000095,39.315784240400234],[-27.600000000000094,39.287175898050315],[-27.610024063783573,39.27999999999993],[-27.640000000000093,39.25853752293075],[-27.665864914335444,39.23999999999993],[-27.68000000000009,39.2298675580099],[-27.72000000000009,39.20116642230579],[-27.72162430236121,39.19999999999993],[-27.76000000000009,39.17243736800281],[-27.777299444219306,39.15999999999993],[-27.80000000000009,39.14367667383093],[-27.83289404160255,39.11999999999993],[-27.84000000000009,39.11488433236853],[-27.880000000000088,39.08606254277154],[-27.888406306988553,39.079999999999934],[-27.920000000000087,39.05721093000154],[-27.943836829749383,39.039999999999935],[-27.960000000000086,39.02832762051552],[-27.999187563276706,38.999999999999936],[-28.000000000000085,38.99941260701248],[-28.040000000000084,38.97046967501577],[-28.05445531185405,38.95999999999994],[-28.080000000000084,38.94149521073419],[-28.1096435933092,38.91999999999994],[-28.120000000000083,38.91248899371638],[-28.160000000000082,38.88345226402952],[-28.164751720801323,38.87999999999994],[-28.20000000000008,38.85438646032471],[-28.219778648954833,38.83999999999994],[-28.24000000000008,38.82528885578762],[-28.274727050920927,38.79999999999994],[-28.28000000000008,38.79615944340881],[-28.32000000000008,38.767000733671296],[-28.329594942019007,38.75999999999994],[-28.360000000000078,38.73781155990184],[-28.384383593765225,38.71999999999994],[-28.400000000000077,38.7085905310178],[-28.43909446228328,38.67999999999994],[-28.440000000000072,38.67933764019188],[-28.480000000000075,38.650056480253106],[-28.493724655605984,38.639999999999944],[-28.520000000000074,38.62074365626777],[-28.54827736581978,38.59999999999994],[-28.560000000000073,38.59139892396043],[-28.600000000000072,38.56202299888473],[-28.602752412280076,38.559999999999945],[-28.64000000000007,38.532618203761004],[-28.657148041180164,38.519999999999946],[-28.68000000000007,38.50318145470152],[-28.71146712928742,38.47999999999995],[-28.72000000000007,38.47371274528306],[-28.76000000000007,38.44421356640535],[-28.765708643546336,38.439999999999955],[-28.800000000000068,38.41468462804123],[-28.81987222336643,38.39999999999995],[-28.840000000000067,38.385123684723965],[-28.873959993536705,38.35999999999995],[-28.880000000000063,38.355530730279376],[-28.920000000000066,38.32590784838052],[-28.927970448270642,38.31999999999995],[-28.960000000000065,38.29625450231552],[-28.981904272355926,38.279999999999944],[-29.000000000000064,38.26656910162408],[-29.035763013692577,38.239999999999945],[-29.040000000000067,38.23685164040686],[-29.080000000000062,38.207104614597895],[-29.08954485770192,38.19999999999995],[-29.12000000000006,38.177326602739484],[-29.14325120445657,38.159999999999954],[-29.16000000000006,38.14751648802887],[-29.19688319118476,38.119999999999955],[-29.20000000000006,38.117674264868036],[-29.24000000000006,38.08780266296925],[-29.250438849562187,38.079999999999956],[-29.280000000000058,38.0578997340055],[-29.30391998263576,38.03999999999996],[-29.32000000000006,38.027964655517785],[-29.357327474288024,37.99999999999996],[-29.360000000000056,37.99799742223656],[-29.400000000000055,37.96800082116648],[-29.410659348583163,37.95999999999996],[-29.440000000000055,37.93797273099058],[-29.463917517054718,37.91999999999996],[-29.480000000000054,37.907912446282275],[-29.517102758654556,37.87999999999996],[-29.520000000000053,37.8778199621287],[-29.560000000000052,37.84769794830336],[-29.570213227035307,37.83999999999996],[-29.60000000000005,37.81754446044985],[-29.62325066559541,37.79999999999996],[-29.640000000000054,37.787358734831514],[-29.67621588783859,37.75999999999996],[-29.68000000000005,37.75714076692093],[-29.72000000000005,37.72689293666358],[-29.729107305249002,37.71999999999996],[-29.760000000000048,37.69661382275684],[-29.781926234379565,37.679999999999964],[-29.80000000000005,37.66630242974459],[-29.83467365381374,37.639999999999965],[-29.840000000000046,37.63595875351465],[-29.880000000000045,37.60558471347567],[-29.887348352128313,37.599999999999966],[-29.920000000000044,37.57517975369085],[-29.939950978280823,37.55999999999997],[-29.960000000000043,37.54474247547053],[-29.992482797482737,37.51999999999997],[-30.000000000000043,37.51427287514827],[-30.040000000000042,37.483772242736094],[-30.044943085657707,37.47999999999997],[-30.08000000000004,37.45324122627231],[-30.097331601429197,37.43999999999997],[-30.12000000000004,37.42267785417607],[-30.149650009180526,37.39999999999998],[-30.16000000000004,37.39208212325802],[-30.20000000000004,37.36145452708057],[-30.2018981734018,37.35999999999997],[-30.240000000000038,37.330797252647116],[-30.25407475770914,37.31999999999997],[-30.280000000000037,37.30010758764276],[-30.306181929170204,37.27999999999997],[-30.320000000000032,37.26938552938759],[-30.358219906720684,37.23999999999998],[-30.360000000000035,37.23863107530634],[-30.400000000000034,37.20784688602005],[-30.410187051250787,37.199999999999974],[-30.440000000000033,37.17703073921351],[-30.462085148132562,37.159999999999975],[-30.480000000000032,37.14618216714767],[-30.51391474155024,37.119999999999976],[-30.52000000000003,37.115301167798314],[-30.56000000000003,37.084389222638485],[-30.565675036914463,37.07999999999998],[-30.60000000000003,37.05344641578911],[-30.61736620764916,37.03999999999998],[-30.64000000000003,37.02247115422595],[-30.668989561745008,36.99999999999998],[-30.680000000000028,36.99146343650993],[-30.720000000000027,36.96042340382676],[-30.72054522076937,36.95999999999998],[-30.760000000000026,36.92935376987624],[-30.772031600679277,36.91999999999998],[-30.800000000000026,36.89825165444802],[-30.823450847211518,36.87999999999998],[-30.840000000000025,36.86711705672338],[-30.87480317599225,36.83999999999999],[-30.880000000000024,36.835949976016806],[-30.920000000000023,36.80475200168641],[-30.926087772030762,36.79999999999998],[-30.960000000000022,36.77352287989018],[-30.977305029872113,36.759999999999984],[-31.00000000000002,36.742261252520905],[-31.028456048750396,36.719999999999985],[-31.04000000000002,36.71096711955874],[-31.079541043054416,36.679999999999986],[-31.08000000000002,36.67964048112846],[-31.12000000000002,36.6482840930443],[-31.130558494128508,36.639999999999986],[-31.160000000000018,36.61689529896322],[-31.18151030582535,36.59999999999999],[-31.200000000000017,36.58547397972719],[-31.232396767364037,36.55999999999999],[-31.240000000000016,36.554020136173385],[-31.280000000000015,36.522534609035645],[-31.28321757732034,36.51999999999999],[-31.320000000000014,36.491018524321234],[-31.33397227205716,36.47999999999999],[-31.360000000000014,36.459469898088],[-31.384662287695235,36.43999999999999],[-31.400000000000013,36.427888731923986],[-31.43528783650312,36.39999999999999],[-31.440000000000012,36.39627502758366],[-31.48000000000001,36.364630312361065],[-31.48584822583977,36.35999999999999],[-31.52000000000001,36.33295427229662],[-31.536343870160767,36.31999999999999],[-31.56000000000001,36.301245680078836],[-31.586775714512676,36.279999999999994],[-31.60000000000001,36.269504538262446],[-31.63714397001744,36.239999999999995],[-31.640000000000008,36.237730849581325],[-31.680000000000007,36.20592655845118],[-31.687447735035697,36.199999999999996],[-31.720000000000006,36.17409045139152],[-31.73768793416858,36.16],[-31.760000000000005,36.142221786899576],[-31.787865207215805,36.12],[-31.800000000000004,36.110320568560496],[-31.837979764185405,36.07999999999999],[-31.840000000000007,36.07838680015146],[-31.880000000000003,36.04642257809228],[-31.88803065844516,36.04],[-31.92,36.014426321169445],[-31.938018993214328,36.0]]}}]}