{"type":"FeatureCollection","properties":{"largura_maxima_km":199.851,"largura_sobre_pt_km":180.734,"linha_central_sobre_pt":false,"desenhavel_como_area":true,"perfil_largura":[{"t":-0.96667,"lat":50.1813,"lon":-46.8703,"largura_km":null,"eixo_na_terra":false},{"t":-0.93333,"lat":47.5465,"lon":-39.5868,"largura_km":199.851,"eixo_na_terra":true},{"t":-0.92778,"lat":47.3088,"lon":-38.9523,"largura_km":198.857,"eixo_na_terra":true},{"t":-0.92222,"lat":47.0795,"lon":-38.3474,"largura_km":197.957,"eixo_na_terra":true},{"t":-0.91667,"lat":46.8577,"lon":-37.7689,"largura_km":197.123,"eixo_na_terra":true},{"t":-0.91111,"lat":46.6428,"lon":-37.2142,"largura_km":196.352,"eixo_na_terra":true},{"t":-0.90556,"lat":46.434,"lon":-36.6809,"largura_km":195.622,"eixo_na_terra":true},{"t":-0.9,"lat":46.231,"lon":-36.1673,"largura_km":194.936,"eixo_na_terra":true},{"t":-0.89444,"lat":46.0332,"lon":-35.6716,"largura_km":194.285,"eixo_na_terra":true},{"t":-0.88889,"lat":45.8402,"lon":-35.1924,"largura_km":193.661,"eixo_na_terra":true},{"t":-0.88333,"lat":45.6518,"lon":-34.7284,"largura_km":193.065,"eixo_na_terra":true},{"t":-0.87778,"lat":45.4675,"lon":-34.2785,"largura_km":192.497,"eixo_na_terra":true},{"t":-0.87222,"lat":45.2871,"lon":-33.8417,"largura_km":191.95,"eixo_na_terra":true},{"t":-0.86667,"lat":45.1104,"lon":-33.4172,"largura_km":191.422,"eixo_na_terra":true},{"t":-0.86111,"lat":44.9372,"lon":-33.0041,"largura_km":190.912,"eixo_na_terra":true},{"t":-0.85556,"lat":44.7672,"lon":-32.6018,"largura_km":190.419,"eixo_na_terra":true},{"t":-0.85,"lat":44.6003,"lon":-32.2096,"largura_km":189.946,"eixo_na_terra":true},{"t":-0.84444,"lat":44.4364,"lon":-31.8269,"largura_km":189.487,"eixo_na_terra":true},{"t":-0.83889,"lat":44.2752,"lon":-31.4533,"largura_km":189.042,"eixo_na_terra":true},{"t":-0.83333,"lat":44.1166,"lon":-31.0881,"largura_km":188.609,"eixo_na_terra":true},{"t":-0.82778,"lat":43.9606,"lon":-30.731,"largura_km":188.189,"eixo_na_terra":true},{"t":-0.82222,"lat":43.807,"lon":-30.3816,"largura_km":187.78,"eixo_na_terra":true},{"t":-0.81667,"lat":43.6556,"lon":-30.0394,"largura_km":187.383,"eixo_na_terra":true},{"t":-0.81111,"lat":43.5065,"lon":-29.7042,"largura_km":186.995,"eixo_na_terra":true},{"t":-0.80556,"lat":43.3594,"lon":-29.3757,"largura_km":186.62,"eixo_na_terra":true},{"t":-0.8,"lat":43.2144,"lon":-29.0534,"largura_km":186.255,"eixo_na_terra":true},{"t":-0.79444,"lat":43.0713,"lon":-28.7372,"largura_km":185.899,"eixo_na_terra":true},{"t":-0.78889,"lat":42.9301,"lon":-28.4267,"largura_km":185.552,"eixo_na_terra":true},{"t":-0.78333,"lat":42.7906,"lon":-28.1218,"largura_km":185.213,"eixo_na_terra":true},{"t":-0.77778,"lat":42.6529,"lon":-27.8222,"largura_km":184.882,"eixo_na_terra":true},{"t":-0.77222,"lat":42.5169,"lon":-27.5277,"largura_km":184.559,"eixo_na_terra":true},{"t":-0.76667,"lat":42.3825,"lon":-27.2381,"largura_km":184.243,"eixo_na_terra":true},{"t":-0.76111,"lat":42.2497,"lon":-26.9533,"largura_km":183.935,"eixo_na_terra":true},{"t":-0.75556,"lat":42.1183,"lon":-26.673,"largura_km":183.633,"eixo_na_terra":true},{"t":-0.75,"lat":41.9885,"lon":-26.397,"largura_km":183.338,"eixo_na_terra":true},{"t":-0.74444,"lat":41.86,"lon":-26.1253,"largura_km":183.05,"eixo_na_terra":true},{"t":-0.73889,"lat":41.7329,"lon":-25.8576,"largura_km":182.769,"eixo_na_terra":true},{"t":-0.73333,"lat":41.6072,"lon":-25.5939,"largura_km":182.495,"eixo_na_terra":true},{"t":-0.72778,"lat":41.4827,"lon":-25.334,"largura_km":182.227,"eixo_na_terra":true},{"t":-0.72222,"lat":41.3595,"lon":-25.0777,"largura_km":181.964,"eixo_na_terra":true},{"t":-0.71667,"lat":41.2376,"lon":-24.825,"largura_km":181.708,"eixo_na_terra":true},{"t":-0.71111,"lat":41.1168,"lon":-24.5757,"largura_km":181.456,"eixo_na_terra":true},{"t":-0.70556,"lat":40.9972,"lon":-24.3298,"largura_km":181.21,"eixo_na_terra":true},{"t":-0.7,"lat":40.8787,"lon":-24.0871,"largura_km":180.97,"eixo_na_terra":true},{"t":-0.69444,"lat":40.7613,"lon":-23.8475,"largura_km":180.734,"eixo_na_terra":true},{"t":-0.68889,"lat":40.645,"lon":-23.611,"largura_km":180.503,"eixo_na_terra":true},{"t":-0.68333,"lat":40.5297,"lon":-23.3774,"largura_km":180.277,"eixo_na_terra":true},{"t":-0.67778,"lat":40.4155,"lon":-23.1467,"largura_km":180.056,"eixo_na_terra":true},{"t":-0.67222,"lat":40.3022,"lon":-22.9187,"largura_km":179.839,"eixo_na_terra":true},{"t":-0.66667,"lat":40.19,"lon":-22.6935,"largura_km":179.627,"eixo_na_terra":true},{"t":-0.66111,"lat":40.0786,"lon":-22.4708,"largura_km":179.419,"eixo_na_terra":true},{"t":-0.65556,"lat":39.9682,"lon":-22.2508,"largura_km":179.216,"eixo_na_terra":true},{"t":-0.65,"lat":39.8588,"lon":-22.0332,"largura_km":179.017,"eixo_na_terra":true},{"t":-0.64444,"lat":39.7502,"lon":-21.8181,"largura_km":178.821,"eixo_na_terra":true},{"t":-0.63889,"lat":39.6425,"lon":-21.6053,"largura_km":178.63,"eixo_na_terra":true},{"t":-0.63333,"lat":39.5356,"lon":-21.3948,"largura_km":178.443,"eixo_na_terra":true},{"t":-0.62778,"lat":39.4296,"lon":-21.1865,"largura_km":178.26,"eixo_na_terra":true},{"t":-0.62222,"lat":39.3244,"lon":-20.9804,"largura_km":178.08,"eixo_na_terra":true},{"t":-0.61667,"lat":39.2199,"lon":-20.7765,"largura_km":177.906,"eixo_na_terra":true},{"t":-0.61111,"lat":39.1163,"lon":-20.5746,"largura_km":177.735,"eixo_na_terra":true},{"t":-0.60556,"lat":39.0135,"lon":-20.3748,"largura_km":177.567,"eixo_na_terra":true},{"t":-0.6,"lat":38.9114,"lon":-20.1769,"largura_km":177.403,"eixo_na_terra":true},{"t":-0.59444,"lat":38.81,"lon":-19.981,"largura_km":177.243,"eixo_na_terra":true},{"t":-0.58889,"lat":38.7094,"lon":-19.7869,"largura_km":177.085,"eixo_na_terra":true},{"t":-0.58333,"lat":38.6095,"lon":-19.5947,"largura_km":176.932,"eixo_na_terra":true},{"t":-0.57778,"lat":38.5103,"lon":-19.4043,"largura_km":176.781,"eixo_na_terra":true},{"t":-0.57222,"lat":38.4118,"lon":-19.2156,"largura_km":176.634,"eixo_na_terra":true},{"t":-0.56667,"lat":38.314,"lon":-19.0287,"largura_km":176.49,"eixo_na_terra":true},{"t":-0.56111,"lat":38.2168,"lon":-18.8434,"largura_km":176.349,"eixo_na_terra":true},{"t":-0.55556,"lat":38.1203,"lon":-18.6598,"largura_km":176.211,"eixo_na_terra":true},{"t":-0.55,"lat":38.0245,"lon":-18.4778,"largura_km":176.077,"eixo_na_terra":true},{"t":-0.54444,"lat":37.9292,"lon":-18.2974,"largura_km":175.945,"eixo_na_terra":true},{"t":-0.53889,"lat":37.8346,"lon":-18.1185,"largura_km":175.816,"eixo_na_terra":true},{"t":-0.53333,"lat":37.7407,"lon":-17.9411,"largura_km":175.69,"eixo_na_terra":true},{"t":-0.52778,"lat":37.6473,"lon":-17.7652,"largura_km":175.567,"eixo_na_terra":true},{"t":-0.52222,"lat":37.5545,"lon":-17.5907,"largura_km":175.447,"eixo_na_terra":true},{"t":-0.51667,"lat":37.4623,"lon":-17.4177,"largura_km":175.33,"eixo_na_terra":true},{"t":-0.51111,"lat":37.3707,"lon":-17.246,"largura_km":175.215,"eixo_na_terra":true},{"t":-0.50556,"lat":37.2796,"lon":-17.0757,"largura_km":175.103,"eixo_na_terra":true},{"t":-0.5,"lat":37.1892,"lon":-16.9067,"largura_km":174.994,"eixo_na_terra":true},{"t":-0.49444,"lat":37.0992,"lon":-16.7391,"largura_km":174.888,"eixo_na_terra":true},{"t":-0.48889,"lat":37.0098,"lon":-16.5727,"largura_km":174.784,"eixo_na_terra":true},{"t":-0.48333,"lat":36.921,"lon":-16.4075,"largura_km":174.683,"eixo_na_terra":true},{"t":-0.47778,"lat":36.8327,"lon":-16.2436,"largura_km":174.584,"eixo_na_terra":true},{"t":-0.47222,"lat":36.7449,"lon":-16.0809,"largura_km":174.488,"eixo_na_terra":true},{"t":-0.46667,"lat":36.6576,"lon":-15.9194,"largura_km":174.394,"eixo_na_terra":true},{"t":-0.46111,"lat":36.5708,"lon":-15.759,"largura_km":174.303,"eixo_na_terra":true},{"t":-0.45556,"lat":36.4845,"lon":-15.5998,"largura_km":174.214,"eixo_na_terra":true},{"t":-0.45,"lat":36.3988,"lon":-15.4417,"largura_km":174.128,"eixo_na_terra":true},{"t":-0.44444,"lat":36.3135,"lon":-15.2847,"largura_km":174.044,"eixo_na_terra":true},{"t":-0.43889,"lat":36.2287,"lon":-15.1288,"largura_km":173.962,"eixo_na_terra":true},{"t":-0.43333,"lat":36.1443,"lon":-14.9739,"largura_km":173.883,"eixo_na_terra":true},{"t":-0.42778,"lat":36.0605,"lon":-14.8201,"largura_km":173.806,"eixo_na_terra":true},{"t":-0.42222,"lat":35.9771,"lon":-14.6672,"largura_km":173.732,"eixo_na_terra":true},{"t":-0.41667,"lat":35.8941,"lon":-14.5154,"largura_km":173.659,"eixo_na_terra":true},{"t":-0.41111,"lat":35.8117,"lon":-14.3646,"largura_km":173.589,"eixo_na_terra":true},{"t":-0.40556,"lat":35.7296,"lon":-14.2147,"largura_km":173.521,"eixo_na_terra":true},{"t":-0.4,"lat":35.648,"lon":-14.0658,"largura_km":173.455,"eixo_na_terra":true},{"t":-0.39444,"lat":35.5669,"lon":-13.9178,"largura_km":173.392,"eixo_na_terra":true},{"t":-0.38889,"lat":35.4862,"lon":-13.7707,"largura_km":173.33,"eixo_na_terra":true},{"t":-0.38333,"lat":35.4059,"lon":-13.6245,"largura_km":173.271,"eixo_na_terra":true},{"t":-0.37778,"lat":35.326,"lon":-13.4792,"largura_km":173.214,"eixo_na_terra":true},{"t":-0.37222,"lat":35.2465,"lon":-13.3347,"largura_km":173.159,"eixo_na_terra":true},{"t":-0.36667,"lat":35.1675,"lon":-13.1911,"largura_km":173.106,"eixo_na_terra":true},{"t":-0.36111,"lat":35.0889,"lon":-13.0484,"largura_km":173.055,"eixo_na_terra":true},{"t":-0.35556,"lat":35.0107,"lon":-12.9065,"largura_km":173.006,"eixo_na_terra":true},{"t":-0.35,"lat":34.9328,"lon":-12.7654,"largura_km":172.959,"eixo_na_terra":true},{"t":-0.34444,"lat":34.8554,"lon":-12.625,"largura_km":172.914,"eixo_na_terra":true},{"t":-0.33889,"lat":34.7784,"lon":-12.4855,"largura_km":172.871,"eixo_na_terra":true},{"t":-0.33333,"lat":34.7017,"lon":-12.3467,"largura_km":172.83,"eixo_na_terra":true},{"t":-0.32778,"lat":34.6255,"lon":-12.2087,"largura_km":172.791,"eixo_na_terra":true},{"t":-0.32222,"lat":34.5496,"lon":-12.0715,"largura_km":172.754,"eixo_na_terra":true},{"t":-0.31667,"lat":34.4741,"lon":-11.9349,"largura_km":172.719,"eixo_na_terra":true},{"t":-0.31111,"lat":34.399,"lon":-11.7991,"largura_km":172.685,"eixo_na_terra":true},{"t":-0.30556,"lat":34.3242,"lon":-11.664,"largura_km":172.654,"eixo_na_terra":true},{"t":-0.3,"lat":34.2498,"lon":-11.5296,"largura_km":172.624,"eixo_na_terra":true},{"t":-0.29444,"lat":34.1758,"lon":-11.3959,"largura_km":172.597,"eixo_na_terra":true},{"t":-0.28889,"lat":34.1021,"lon":-11.2629,"largura_km":172.571,"eixo_na_terra":true},{"t":-0.28333,"lat":34.0288,"lon":-11.1305,"largura_km":172.547,"eixo_na_terra":true},{"t":-0.27778,"lat":33.9558,"lon":-10.9987,"largura_km":172.524,"eixo_na_terra":true},{"t":-0.27222,"lat":33.8832,"lon":-10.8676,"largura_km":172.504,"eixo_na_terra":true},{"t":-0.26667,"lat":33.8109,"lon":-10.7372,"largura_km":172.485,"eixo_na_terra":true},{"t":-0.26111,"lat":33.739,"lon":-10.6074,"largura_km":172.468,"eixo_na_terra":true},{"t":-0.25556,"lat":33.6674,"lon":-10.4781,"largura_km":172.453,"eixo_na_terra":true},{"t":-0.25,"lat":33.5962,"lon":-10.3495,"largura_km":172.439,"eixo_na_terra":true},{"t":-0.24444,"lat":33.5252,"lon":-10.2215,"largura_km":172.427,"eixo_na_terra":true},{"t":-0.23889,"lat":33.4547,"lon":-10.094,"largura_km":172.417,"eixo_na_terra":true},{"t":-0.23333,"lat":33.3844,"lon":-9.9672,"largura_km":172.408,"eixo_na_terra":true},{"t":-0.22778,"lat":33.3145,"lon":-9.8408,"largura_km":172.402,"eixo_na_terra":true},{"t":-0.22222,"lat":33.2449,"lon":-9.7151,"largura_km":172.396,"eixo_na_terra":true},{"t":-0.21667,"lat":33.1756,"lon":-9.5899,"largura_km":172.393,"eixo_na_terra":true},{"t":-0.21111,"lat":33.1066,"lon":-9.4652,"largura_km":172.391,"eixo_na_terra":true},{"t":-0.20556,"lat":33.0379,"lon":-9.3411,"largura_km":172.39,"eixo_na_terra":true},{"t":-0.2,"lat":32.9696,"lon":-9.2175,"largura_km":172.392,"eixo_na_terra":true},{"t":-0.19444,"lat":32.9016,"lon":-9.0944,"largura_km":172.394,"eixo_na_terra":true},{"t":-0.18889,"lat":32.8338,"lon":-8.9718,"largura_km":172.399,"eixo_na_terra":true},{"t":-0.18333,"lat":32.7664,"lon":-8.8496,"largura_km":172.405,"eixo_na_terra":true},{"t":-0.17778,"lat":32.6993,"lon":-8.728,"largura_km":172.412,"eixo_na_terra":true},{"t":-0.17222,"lat":32.6325,"lon":-8.6069,"largura_km":172.422,"eixo_na_terra":true},{"t":-0.16667,"lat":32.566,"lon":-8.4862,"largura_km":172.432,"eixo_na_terra":true},{"t":-0.16111,"lat":32.4998,"lon":-8.3661,"largura_km":172.444,"eixo_na_terra":true},{"t":-0.15556,"lat":32.4338,"lon":-8.2463,"largura_km":172.458,"eixo_na_terra":true},{"t":-0.15,"lat":32.3682,"lon":-8.127,"largura_km":172.473,"eixo_na_terra":true},{"t":-0.14444,"lat":32.3029,"lon":-8.0082,"largura_km":172.49,"eixo_na_terra":true},{"t":-0.13889,"lat":32.2378,"lon":-7.8898,"largura_km":172.508,"eixo_na_terra":true},{"t":-0.13333,"lat":32.173,"lon":-7.7718,"largura_km":172.528,"eixo_na_terra":true},{"t":-0.12778,"lat":32.1086,"lon":-7.6543,"largura_km":172.549,"eixo_na_terra":true},{"t":-0.12222,"lat":32.0444,"lon":-7.5372,"largura_km":172.571,"eixo_na_terra":true},{"t":-0.11667,"lat":31.9804,"lon":-7.4204,"largura_km":172.595,"eixo_na_terra":true},{"t":-0.11111,"lat":31.9168,"lon":-7.3041,"largura_km":172.62,"eixo_na_terra":true},{"t":-0.10556,"lat":31.8534,"lon":-7.1882,"largura_km":172.647,"eixo_na_terra":true},{"t":-0.1,"lat":31.7903,"lon":-7.0727,"largura_km":172.675,"eixo_na_terra":true},{"t":-0.09444,"lat":31.7275,"lon":-6.9576,"largura_km":172.705,"eixo_na_terra":true},{"t":-0.08889,"lat":31.665,"lon":-6.8428,"largura_km":172.736,"eixo_na_terra":true},{"t":-0.08333,"lat":31.6027,"lon":-6.7284,"largura_km":172.768,"eixo_na_terra":true},{"t":-0.07778,"lat":31.5407,"lon":-6.6144,"largura_km":172.802,"eixo_na_terra":true},{"t":-0.07222,"lat":31.479,"lon":-6.5007,"largura_km":172.836,"eixo_na_terra":true},{"t":-0.06667,"lat":31.4175,"lon":-6.3874,"largura_km":172.873,"eixo_na_terra":true},{"t":-0.06111,"lat":31.3563,"lon":-6.2745,"largura_km":172.91,"eixo_na_terra":true},{"t":-0.05556,"lat":31.2953,"lon":-6.1619,"largura_km":172.949,"eixo_na_terra":true},{"t":-0.05,"lat":31.2346,"lon":-6.0496,"largura_km":172.989,"eixo_na_terra":true},{"t":-0.04444,"lat":31.1742,"lon":-5.9377,"largura_km":173.031,"eixo_na_terra":true},{"t":-0.03889,"lat":31.114,"lon":-5.8261,"largura_km":173.074,"eixo_na_terra":true},{"t":-0.03333,"lat":31.0541,"lon":-5.7148,"largura_km":173.118,"eixo_na_terra":true},{"t":-0.02778,"lat":30.9944,"lon":-5.6038,"largura_km":173.163,"eixo_na_terra":true},{"t":-0.02222,"lat":30.935,"lon":-5.4931,"largura_km":173.209,"eixo_na_terra":true},{"t":-0.01667,"lat":30.8759,"lon":-5.3828,"largura_km":173.257,"eixo_na_terra":true},{"t":-0.01111,"lat":30.8169,"lon":-5.2727,"largura_km":173.306,"eixo_na_terra":true},{"t":-0.00556,"lat":30.7583,"lon":-5.1629,"largura_km":173.356,"eixo_na_terra":true},{"t":-0.0,"lat":30.6999,"lon":-5.0535,"largura_km":173.408,"eixo_na_terra":true},{"t":0.00556,"lat":30.6417,"lon":-4.9443,"largura_km":173.46,"eixo_na_terra":true},{"t":0.01111,"lat":30.5838,"lon":-4.8354,"largura_km":173.514,"eixo_na_terra":true},{"t":0.01667,"lat":30.5261,"lon":-4.7268,"largura_km":173.569,"eixo_na_terra":true},{"t":0.02222,"lat":30.4686,"lon":-4.6184,"largura_km":173.625,"eixo_na_terra":true},{"t":0.02778,"lat":30.4114,"lon":-4.5103,"largura_km":173.682,"eixo_na_terra":true},{"t":0.03333,"lat":30.3545,"lon":-4.4025,"largura_km":173.741,"eixo_na_terra":true},{"t":0.03889,"lat":30.2978,"lon":-4.2949,"largura_km":173.8,"eixo_na_terra":true},{"t":0.04444,"lat":30.2413,"lon":-4.1876,"largura_km":173.861,"eixo_na_terra":true},{"t":0.05,"lat":30.185,"lon":-4.0805,"largura_km":173.923,"eixo_na_terra":true},{"t":0.05556,"lat":30.129,"lon":-3.9737,"largura_km":173.986,"eixo_na_terra":true},{"t":0.06111,"lat":30.0732,"lon":-3.8671,"largura_km":174.05,"eixo_na_terra":true},{"t":0.06667,"lat":30.0177,"lon":-3.7607,"largura_km":174.115,"eixo_na_terra":true},{"t":0.07222,"lat":29.9624,"lon":-3.6546,"largura_km":174.181,"eixo_na_terra":true},{"t":0.07778,"lat":29.9073,"lon":-3.5487,"largura_km":174.249,"eixo_na_terra":true},{"t":0.08333,"lat":29.8525,"lon":-3.443,"largura_km":174.318,"eixo_na_terra":true},{"t":0.08889,"lat":29.7978,"lon":-3.3375,"largura_km":174.388,"eixo_na_terra":true},{"t":0.09444,"lat":29.7434,"lon":-3.2323,"largura_km":174.458,"eixo_na_terra":true},{"t":0.1,"lat":29.6893,"lon":-3.1272,"largura_km":174.53,"eixo_na_terra":true},{"t":0.10556,"lat":29.6353,"lon":-3.0224,"largura_km":174.603,"eixo_na_terra":true},{"t":0.11111,"lat":29.5816,"lon":-2.9177,"largura_km":174.677,"eixo_na_terra":true},{"t":0.11667,"lat":29.5281,"lon":-2.8133,"largura_km":174.752,"eixo_na_terra":true},{"t":0.12222,"lat":29.4749,"lon":-2.709,"largura_km":174.828,"eixo_na_terra":true},{"t":0.12778,"lat":29.4218,"lon":-2.6049,"largura_km":174.905,"eixo_na_terra":true},{"t":0.13333,"lat":29.369,"lon":-2.5011,"largura_km":174.983,"eixo_na_terra":true},{"t":0.13889,"lat":29.3164,"lon":-2.3974,"largura_km":175.062,"eixo_na_terra":true},{"t":0.14444,"lat":29.264,"lon":-2.2938,"largura_km":175.141,"eixo_na_terra":true},{"t":0.15,"lat":29.2118,"lon":-2.1905,"largura_km":175.222,"eixo_na_terra":true},{"t":0.15556,"lat":29.1599,"lon":-2.0873,"largura_km":175.304,"eixo_na_terra":true},{"t":0.16111,"lat":29.1082,"lon":-1.9843,"largura_km":175.386,"eixo_na_terra":true},{"t":0.16667,"lat":29.0566,"lon":-1.8814,"largura_km":175.47,"eixo_na_terra":true},{"t":0.17222,"lat":29.0053,"lon":-1.7787,"largura_km":175.554,"eixo_na_terra":true},{"t":0.17778,"lat":28.9543,"lon":-1.6761,"largura_km":175.639,"eixo_na_terra":true},{"t":0.18333,"lat":28.9034,"lon":-1.5737,"largura_km":175.725,"eixo_na_terra":true},{"t":0.18889,"lat":28.8528,"lon":-1.4715,"largura_km":175.812,"eixo_na_terra":true},{"t":0.19444,"lat":28.8023,"lon":-1.3693,"largura_km":175.899,"eixo_na_terra":true},{"t":0.2,"lat":28.7521,"lon":-1.2674,"largura_km":175.988,"eixo_na_terra":true},{"t":0.20556,"lat":28.7021,"lon":-1.1655,"largura_km":176.077,"eixo_na_terra":true},{"t":0.21111,"lat":28.6523,"lon":-1.0638,"largura_km":176.168,"eixo_na_terra":true},{"t":0.21667,"lat":28.6027,"lon":-0.9622,"largura_km":176.259,"eixo_na_terra":true},{"t":0.22222,"lat":28.5533,"lon":-0.8608,"largura_km":176.352,"eixo_na_terra":true},{"t":0.22778,"lat":28.5041,"lon":-0.7594,"largura_km":176.445,"eixo_na_terra":true},{"t":0.23333,"lat":28.4552,"lon":-0.6582,"largura_km":176.539,"eixo_na_terra":true},{"t":0.23889,"lat":28.4064,"lon":-0.5571,"largura_km":176.634,"eixo_na_terra":true},{"t":0.24444,"lat":28.3578,"lon":-0.4561,"largura_km":176.729,"eixo_na_terra":true},{"t":0.25,"lat":28.3095,"lon":-0.3552,"largura_km":176.825,"eixo_na_terra":true},{"t":0.25556,"lat":28.2614,"lon":-0.2544,"largura_km":176.922,"eixo_na_terra":true},{"t":0.26111,"lat":28.2134,"lon":-0.1537,"largura_km":177.02,"eixo_na_terra":true},{"t":0.26667,"lat":28.1657,"lon":-0.0531,"largura_km":177.118,"eixo_na_terra":true},{"t":0.27222,"lat":28.1182,"lon":0.0474,"largura_km":177.217,"eixo_na_terra":true},{"t":0.27778,"lat":28.0709,"lon":0.1478,"largura_km":177.318,"eixo_na_terra":true},{"t":0.28333,"lat":28.0238,"lon":0.2481,"largura_km":177.419,"eixo_na_terra":true},{"t":0.28889,"lat":27.9768,"lon":0.3483,"largura_km":177.521,"eixo_na_terra":true},{"t":0.29444,"lat":27.9301,"lon":0.4485,"largura_km":177.623,"eixo_na_terra":true},{"t":0.3,"lat":27.8836,"lon":0.5486,"largura_km":177.727,"eixo_na_terra":true},{"t":0.30556,"lat":27.8373,"lon":0.6486,"largura_km":177.83,"eixo_na_terra":true},{"t":0.31111,"lat":27.7912,"lon":0.7485,"largura_km":177.935,"eixo_na_terra":true},{"t":0.31667,"lat":27.7453,"lon":0.8484,"largura_km":178.04,"eixo_na_terra":true},{"t":0.32222,"lat":27.6996,"lon":0.9482,"largura_km":178.145,"eixo_na_terra":true},{"t":0.32778,"lat":27.6541,"lon":1.048,"largura_km":178.252,"eixo_na_terra":true},{"t":0.33333,"lat":27.6088,"lon":1.1477,"largura_km":178.358,"eixo_na_terra":true},{"t":0.33889,"lat":27.5637,"lon":1.2473,"largura_km":178.466,"eixo_na_terra":true},{"t":0.34444,"lat":27.5188,"lon":1.3469,"largura_km":178.574,"eixo_na_terra":true},{"t":0.35,"lat":27.4741,"lon":1.4464,"largura_km":178.682,"eixo_na_terra":true},{"t":0.35556,"lat":27.4296,"lon":1.5459,"largura_km":178.791,"eixo_na_terra":true},{"t":0.36111,"lat":27.3853,"lon":1.6454,"largura_km":178.901,"eixo_na_terra":true},{"t":0.36667,"lat":27.3412,"lon":1.7448,"largura_km":179.01,"eixo_na_terra":true},{"t":0.37222,"lat":27.2973,"lon":1.8442,"largura_km":179.121,"eixo_na_terra":true},{"t":0.37778,"lat":27.2535,"lon":1.9436,"largura_km":179.232,"eixo_na_terra":true},{"t":0.38333,"lat":27.21,"lon":2.0429,"largura_km":179.343,"eixo_na_terra":true},{"t":0.38889,"lat":27.1667,"lon":2.1422,"largura_km":179.455,"eixo_na_terra":true},{"t":0.39444,"lat":27.1236,"lon":2.2415,"largura_km":179.567,"eixo_na_terra":true},{"t":0.4,"lat":27.0806,"lon":2.3407,"largura_km":179.68,"eixo_na_terra":true},{"t":0.40556,"lat":27.0379,"lon":2.44,"largura_km":179.793,"eixo_na_terra":true},{"t":0.41111,"lat":26.9953,"lon":2.5392,"largura_km":179.907,"eixo_na_terra":true},{"t":0.41667,"lat":26.953,"lon":2.6384,"largura_km":180.022,"eixo_na_terra":true},{"t":0.42222,"lat":26.9108,"lon":2.7376,"largura_km":180.137,"eixo_na_terra":true},{"t":0.42778,"lat":26.8689,"lon":2.8368,"largura_km":180.252,"eixo_na_terra":true},{"t":0.43333,"lat":26.8271,"lon":2.9361,"largura_km":180.368,"eixo_na_terra":true},{"t":0.43889,"lat":26.7855,"lon":3.0353,"largura_km":180.485,"eixo_na_terra":true},{"t":0.44444,"lat":26.7442,"lon":3.1345,"largura_km":180.603,"eixo_na_terra":true},{"t":0.45,"lat":26.703,"lon":3.2337,"largura_km":180.721,"eixo_na_terra":true},{"t":0.45556,"lat":26.662,"lon":3.333,"largura_km":180.839,"eixo_na_terra":true},{"t":0.46111,"lat":26.6212,"lon":3.4322,"largura_km":180.958,"eixo_na_terra":true},{"t":0.46667,"lat":26.5806,"lon":3.5315,"largura_km":181.077,"eixo_na_terra":true},{"t":0.47222,"lat":26.5402,"lon":3.6308,"largura_km":181.196,"eixo_na_terra":true},{"t":0.47778,"lat":26.5,"lon":3.7301,"largura_km":181.315,"eixo_na_terra":true},{"t":0.48333,"lat":26.46,"lon":3.8294,"largura_km":181.435,"eixo_na_terra":true},{"t":0.48889,"lat":26.4201,"lon":3.9288,"largura_km":181.554,"eixo_na_terra":true},{"t":0.49444,"lat":26.3805,"lon":4.0282,"largura_km":181.675,"eixo_na_terra":true},{"t":0.5,"lat":26.341,"lon":4.1277,"largura_km":181.795,"eixo_na_terra":true},{"t":0.50556,"lat":26.3018,"lon":4.2272,"largura_km":181.915,"eixo_na_terra":true},{"t":0.51111,"lat":26.2627,"lon":4.3267,"largura_km":182.036,"eixo_na_terra":true},{"t":0.51667,"lat":26.2239,"lon":4.4263,"largura_km":182.157,"eixo_na_terra":true},{"t":0.52222,"lat":26.1852,"lon":4.5259,"largura_km":182.278,"eixo_na_terra":true},{"t":0.52778,"lat":26.1467,"lon":4.6256,"largura_km":182.399,"eixo_na_terra":true},{"t":0.53333,"lat":26.1084,"lon":4.7253,"largura_km":182.521,"eixo_na_terra":true},{"t":0.53889,"lat":26.0703,"lon":4.8251,"largura_km":182.642,"eixo_na_terra":true},{"t":0.54444,"lat":26.0324,"lon":4.925,"largura_km":182.764,"eixo_na_terra":true}]},"features":[{"type":"Feature","properties":{},"geometry":{"type":"Polygon","coordinates":[[[2.9599526031230994,27.72209927387792],[3.5626896842314864,27.471390049656165],[4.165976340983946,27.22794684272316],[4.770510355067273,26.99174123032821],[5.275747551678052,26.80042131206949],[4.58591322664563,25.279984063636928],[4.19176079766649,25.43286297229635],[3.7001329544750376,25.6281185629086],[3.307446698251482,25.78765290477013],[2.817045039461874,25.991243413633033],[2.414216571024042,26.16195519599026],[1.9238165733215453,26.373997095809365],[1.5311390096640594,26.547013351870156],[1.039527509110144,26.76754042426311],[0.6453883812891661,26.947391989821295],[0.15132714018812976,27.176531584064637],[-0.3553573570213473,27.415595336111327],[-0.8536886376645896,27.654567498604997],[-1.3547471637543254,27.898516797575223],[-1.8589553052921701,28.147515034637586],[-2.366748573639825,28.40164164019384],[-2.981468403385037,28.71348677001009],[-3.8115443721771953,29.141256586685266],[-4.666748446834617,29.589076777431863],[-5.635617497578039,30.10385413900552],[-6.62821307019297,30.63800215506603],[-7.533494555968048,31.129862243316154],[-8.581621163244108,31.70344405868905],[-12.367677047984103,33.788755146278255],[-14.047097746692828,34.70903898486796],[-14.932416733953914,35.19070224285261],[-15.852628384415027,35.68805982016395],[-16.648996077815156,36.115374603672095],[-17.47502227730274,36.5552155976891],[-18.333743031594707,37.00849010143272],[-19.228653124243834,37.47623903657],[-20.16380994360975,37.959665927492985],[-20.944081152020516,38.35863102102869],[-21.755966869814273,38.76935489944455],[-22.60273228651289,39.19279203849498],[-23.48817770711355,39.63004746711993],[-24.41676917520286,40.08241241530618],[-25.393812859858315,40.55141170814201],[-26.162183494947527,40.91516040459433],[-26.964564224872902,41.29018986444153],[-27.804696526908515,41.67755659311829],[-28.687010186146296,42.07850461218164],[-29.616813110615254,42.49451610895491],[-30.60055392257121,42.92738127814458],[-31.290201283690408,43.2263854605292],[-32.3825182521264,43.692486355404114],[-33.15438288487189,44.01633993962267],[-33.96613816395694,44.35203945830111],[-34.82306102887554,44.70101209871522],[-35.73165646521295,45.0650093123268],[-36.700096397403684,45.44622136104228],[-37.259253900019814,45.66410215894062],[-38.342094869483105,46.07780342338547],[-39.78340214817857,47.41157307568113],[-39.76443280722589,47.383880609006646],[-39.737656690675095,47.33979849975627],[-39.71570300629884,47.297836111011726],[-39.69854345316904,47.25802395958421],[-39.686149609685174,47.22039158816478],[-39.67849296546976,47.18496754752922],[-39.67554495301209,47.15177937937074],[-39.67727697903652,47.12085359974166],[-39.68366045557448,47.092215683087595],[-39.69466683072676,47.06589004685891],[-39.710267619103206,47.041900036685874],[-39.73043443193393,47.02026791210617],[-39.7551390068478,47.00101483283429],[-39.78435323731682,46.98416084556418],[-39.81804920176967,46.96972487129847],[-39.856199192379336,46.957724693198365],[-39.898775743532696,46.94817694495092],[-39.945751659993164,46.941097099650804],[-39.997100044770235,46.936499459196476],[-40.052794326712046,46.93439714420162],[-40.11280828784106,46.93480208442465],[-40.177116090455314,46.93772500972093],[-40.24569230402156,46.94317544152432],[-40.318511931890754,46.95116168486672],[-40.3955504378693,46.96169082094604],[-40.47678377268559,46.974768700255694],[-40.65174132477691,47.008587899852664],[-40.74542011577046,47.029334713961234],[-40.9450685676517,47.07850712103346],[-41.05099643918237,47.106930684545404],[-41.274960012994484,47.17143800162108],[-41.514943067091224,47.246124796073246],[-41.64089813688014,47.287267968799505],[-41.904654908598474,47.37710777378056],[-42.04242700850878,47.4257822004799],[-42.329691498505326,47.530575225128004],[-42.789717112678375,47.70614350703821],[-43.11571151127822,47.83523299393175],[-43.633542456902575,48.04651658847599],[-43.99795474088231,48.19886247505373],[-44.5733798577084,48.44409017865215],[-44.97626614253642,48.61837927085295],[-45.609724747869365,48.89540263445822],[-47.98241892799368,49.94325900191726],[-49.052882842545586,50.41107824560994],[-49.617685951672854,50.654720613704036],[-50.20452941178783,50.9048743880292],[-50.81617700742197,51.16181147134258],[-51.456861746857385,51.42618332923577],[-52.133454175521194,51.69933318479992],[-52.488662256420014,51.83996281451607],[-52.85805838052315,51.983987367987574],[-53.24505183543096,52.13225039483143],[-53.65485080335023,52.28607276431696],[-54.0960081283408,52.447662817870516],[-54.58416863055456,52.621110367598675],[-55.153648374031604,52.81545744411116],[-55.91671885724497,53.06041906865212],[-55.68713214634795,53.59079441002824],[-54.82450730407035,53.37277628108639],[-53.17197903440572,52.95830563451078],[-52.2898495977218,52.731816473825404],[-51.48498475270671,52.51893710652798],[-51.103035082190445,52.41535679778736],[-50.37131550926554,52.211635023186226],[-50.01937505230805,52.1109465334961],[-49.33975043425485,51.911053595525644],[-49.01109908401207,51.811634727699584],[-48.374423855479534,51.613522478999364],[-48.06592016985101,51.51475510627692],[-47.4677113113857,51.317712986835375],[-46.89376173271913,51.12132653970761],[-46.3433885820767,50.92568977350857],[-46.076892379750404,50.828204365003145],[-45.56106412809078,50.63403647392734],[-45.06790973097969,50.441155286239635],[-44.59723768607469,50.24985088124569],[-44.148903810884576,50.060440321542856],[-43.72279213067421,49.87326069343018],[-43.3188016197991,49.68866372912942],[-42.936836976398695,49.50701153332836],[-42.576802230184285,49.328673100910876],[-42.23859637266986,49.15402141564256],[-41.92211045053412,48.98343098560953],[-41.62722572877365,48.81727571450656],[-41.353812642276665,48.65592703682455],[-41.10173033146404,48.49975226469191],[-40.870826611597465,48.3491131077576],[-40.76326613525407,48.27598055593953],[-40.56648528463568,48.13622946094295],[-41.99077548155108,49.45425169588745],[-41.17753151481972,49.15993422647431],[-40.35411038670179,48.85891290710703],[-39.5830966806939,48.57256014627767],[-38.91500074009903,48.31982347906324],[-37.62280542316984,47.82303004106729],[-37.04679554236398,47.59717683968762],[-35.91602859519347,47.147618281078756],[-35.40618455957477,46.9414367906618],[-34.438224970386756,46.544655867054374],[-33.97745348342775,46.35330888902513],[-33.05723175813256,45.96706889456319],[-32.63657634834746,45.78806616142843],[-31.82842225701043,45.44038825428939],[-31.43960255022614,45.27133581590606],[-30.689621592976522,44.94198545542829],[-29.94027601622517,44.60911788339037],[-29.59430209214787,44.453751858549886],[-28.59801848795209,44.001210957936884],[-27.965433974329784,43.709913623180995],[-27.355633227923988,43.42620245118334],[-26.766781132438723,43.14953820152792],[-26.17038114703044,42.86698693601662],[-25.08530321905289,42.34541195650995],[-24.566520152897738,42.092920566404274],[-23.815148710114386,41.72368780171726],[-23.33080343036619,41.48347773817269],[-22.627166429201623,41.13148420659519],[-21.948903563161736,40.78884423339581],[-21.29393944893704,40.45492507485885],[-20.63998775028537,40.118838777246296],[-20.02691583777198,39.80097576529795],[-19.432209254278092,39.490315667893704],[-18.665627061569694,39.08662199825659],[-18.108982029854104,38.79128148678142],[-17.38924830482395,38.40679782273181],[-16.693226418642013,38.032333657629735],[-16.019011785757982,37.667290105296],[-14.72940013408757,36.963381448686896],[-13.36063346451391,36.20950688964232],[-12.066016820977325,35.49186175387846],[-8.775451864870064,33.66215629396904],[-7.918296545209273,33.187898205617124],[-7.083766979733213,32.72862119476417],[-6.154613485470634,32.22115566455223],[-5.360672391374379,31.791659735704105],[-4.582450793611315,31.37514949823924],[-3.818135179640933,30.97113602224714],[-3.2797763807313345,30.68996440519764],[-2.853194272540975,30.46936249786982],[-2.0097903935464387,30.03943901767459],[-1.4885065847392411,29.77820264563304],[-1.0743100709594842,29.573262174561325],[-0.6733771756555029,29.377236893608938],[-0.263394977453828,29.17928184623851],[0.1448020386748965,28.984787912565444],[0.5514411103781356,28.793717267404308],[0.956744970364042,28.60603544228696],[1.3609324413426975,28.42171121530467],[1.764219006041742,28.24071651503285],[2.166817356416999,28.06302633775342],[2.5689379259179645,27.88861867732053],[2.9599526031230994,27.72209927387792]]]}}]}