{"type":"FeatureCollection","features":[{"type":"Feature","properties":{"t_inicio":-0.9333333333333442,"t_fim":0.5444444444444283},"geometry":{"type":"LineString","coordinates":[[-39.58679236206879,47.54648040491128],[-38.952285963305116,47.308775356352946],[-38.34738278895594,47.07947250070378],[-37.768896574463355,46.857711245256944],[-37.214165957397995,46.64277097261535],[-36.68094115092265,46.434040996002075],[-36.167300232740274,46.23099834042288],[-35.671586109675616,46.03319099228235],[-35.19235824177545,45.84022505624078],[-34.728355111642884,45.65175475918911],[-34.27846465427248,45.467474565384144],[-33.84170067716849,45.287112881663724],[-33.41718385196879,45.11042697722801],[-33.00412623949654,44.93719884303137],[-32.601818577661874,44.767231786532456],[-32.20961975263339,44.60034760806244],[-31.826948012081942,44.43638424169328],[-31.45327358090873,44.27519377039433],[-31.088112415405504,44.116640745279916],[-30.731020888587068,43.96060075380836],[-30.381591242586637,43.806959193240274],[-30.039447677114282,43.65561021445392],[-29.704242968610885,43.506455808023645],[-29.3756555347492,43.35940500978806],[-29.05338687468594,43.21437320732557],[-28.737159327962587,43.07128153207753],[-28.4267141049271,42.9300563245176],[-28.121809549566137,42.79062866190055],[-27.82221960212263,42.652933939853924],[-27.52773243414717,42.51691150048224],[-27.23814923294873,42.3825043008059],[-26.953283115956253,42.249658616304984],[-26.672958158437666,42.11832377512111],[-26.3970085204559,41.98845191912299],[-26.125277660974206,41.8599977885836],[-25.857617628722636,41.73291852767329],[-25.5938884208706,41.60717350835665],[-25.333957401757004,41.482724170603944],[-25.077698774954825,41.35953387710412],[-24.824993102817473,41.23756778089911],[-24.575726868397908,41.11679270455938],[-24.329792075268642,40.99717702969129],[-24.087085881316398,40.87869059571498],[-23.847510263058155,40.761304606977],[-23.61097170743045,40.644991547372285],[-23.377380928358576,40.52972510174508],[-23.146652605717037,40.41548008342084],[-22.918705144561017,40.30223236729314],[-22.69346045274071,40.189958827953106],[-22.470843735215112,40.078637282402816],[-22.250783303560866,39.96824643694408],[-22.03321039932871,39.85876583787518],[-21.818059030039336,39.750175825666865],[-21.605265816732725,39.642457492320545],[-21.394769852093958,39.53559264164319],[-21.186512568273372,39.42956375219716],[-20.980437613606085,39.32435394270822],[-20.776490737510358,39.21994693973442],[-20.574619682912896,39.11632704741758],[-20.374774085609346,39.013479119155235],[-20.17690538002242,38.911388531045645],[-19.98096671086867,38.81004115697209],[-19.786912850288417,38.70942334520372],[-19.594700120032115,38.6095218964015],[-19.404286318332368,38.51032404292747],[-19.215630651121757,38.411817429363566],[-19.028693667285836,38.313990094154455],[-18.84343719766622,38.21683045229658],[-18.659824297552575,38.120327279000186],[-18.4778191924228,38.02446969425912],[-18.297387226710782,37.92924714826685],[-18.118494815398236,37.83464940762263],[-17.94110939824293,37.74066654227594],[-17.765199396470564,37.647288913161496],[-17.590734171770237,37.5545071604805],[-17.41768398744614,37.462312192587184],[-17.246019971588566,37.37069517544285],[-17.075714082137893,37.27964752260215],[-16.906739073724054,37.18916088569939],[-16.739068466172824,37.09922714540437],[-16.572676514577978,37.00983840281943],[-16.407538180844995,36.92098697129227],[-16.24362910661975,36.83266536861962],[-16.080925587519857,36.744866309619304],[-15.919404548594144,36.6575826990498],[-15.759043520938718,36.570807624857316],[-15.59982061940434,36.48453435173209],[-15.441714521333239,36.398756314956934],[-15.284704446268648,36.31346711453167],[-15.128770136582148,36.228660509558686],[-14.973891838970076,36.144330412875334],[-14.820050286770737,36.06047088592039],[-14.667226683059084,35.97707613382151],[-14.515402684477351,35.89414050069309],[-14.364560385762843,35.81165846513265],[-14.214682304936673,35.72962463590635],[-14.065751369119283,35.64803374781347],[-13.917750900940547,35.56688065772121],[-13.770664605514469,35.48616034076108],[-13.624476557950032,35.405867886679054],[-13.479171191371336,35.32599849633186],[-13.334733285422203,35.246547478322285],[-13.19114795523123,35.16751024576701],[-13.048400640815146,35.08888231319042],[-12.906477096899124,35.01065929353837],[-12.765363383134599,34.93283689530693],[-12.625045854695344,34.85541091977964],[-12.485511153234341,34.778377258369574],[-12.346746198184348,34.70173189006016],[-12.20873817838688,34.62547087894147],[-12.071474544033975,34.549590371836786],[-11.934942998908667,34.47408659601581],[-11.79913149291113,34.398955856990845],[-11.66402821485724,34.32419453639191],[-11.529621585537598,34.2497990899176],[-11.395900251025807,34.17576604535863],[-11.262853076224673,34.102092000690405],[-11.130469138640592,34.02877362223225],[-10.998737722375694,33.955807642870234],[-10.86764831232901,33.883190860340804],[-10.737190588597258,33.81092013557306],[-10.607354421067555,33.73899239108708],[-10.478129864193193,33.66740460944571],[-10.349507151945659,33.596153831758436],[-10.221476692935227,33.52523715623433],[-10.094029065693206,33.454651736782736],[-9.967155014109665,33.38439478165964],[-9.840845443019901,33.31446355215784],[-9.715091413934033,33.24485536133936],[-9.589884140903763,33.175567572808276],[-9.465214986521374,33.106597599522665],[-9.341075458045083,33.03794290264404],[-9.217457203646376,32.96960099042257],[-9.094352008774479,32.90156941711758],[-8.971751792633256,32.83384578195088],[-8.8496486047666,32.76642772809268],[-8.728034621747781,32.69931294167842],[-8.606902143969137,32.6324991508554],[-8.48624359252841,32.56598412485827],[-8.366051506207697,32.49976567311225],[-8.246318538542084,32.4338416443632],[-8.127037454974328,32.36820992583332],[-8.008201130092687,32.302868442401994],[-7.889802544948566,32.23781515581057],[-7.771834784451528,32.17304806389026],[-7.654291034838394,32.10856519981252],[-7.537164581214114,32.04436463136114],[-7.420448805161925,31.98044446022519],[-7.30413718242005,31.916802821311958],[-7.18822328062268,31.853437882079838],[-7.072700757103291,31.790347841889623],[-6.957563356757731,31.727530931374353],[-6.842804909965309,31.6649854118267],[-6.728419330565572,31.602709574603455],[-6.61440061388933,31.54070174054642],[-6.500742834841532,31.478960259419498],[-6.387440146034862,31.41748350936099],[-6.274486775971496,31.35626989635116],[-6.161877027272482,31.295317853694076],[-6.049605274952171,31.234625841513648],[-5.937665964736738,31.17419234626317],[-5.826053611425294,31.114015880248292],[-5.7147627972919395,31.05409498116244],[-5.603788170527679,30.994428211634894],[-5.493124443720774,30.93501415879093],[-5.382766392374265,30.87585143382342],[-5.272708853459591,30.816938671575834],[-5.1629467240048825,30.758274530136447],[-5.053474959717136,30.699857690442844],[-4.944288573636925,30.64168685589705],[-4.835382634824782,30.583760751990642],[-4.726752267078041,30.526078125939563],[-4.618392647677467,30.468637746328465],[-4.510299006162512,30.411438402764404],[-4.402466623134188,30.354478905539157],[-4.294890829085148,30.297758085300657],[-4.187567003255566,30.241274792732575],[-4.080490572514435,30.185027898242385],[-3.973657010265157,30.129016291657084],[-3.8670618353750115,30.07323888192727],[-3.760700611127504,30.017694596838222],[-3.6545689441969103,29.962382382728713],[-3.548662483644506,29.90730120421692],[-3.442976919935546,29.852450043933363],[-3.337507983976593,29.797827902260547],[-3.2322514461724836,29.743433797079458],[-3.1272031155021978,29.68926676352236],[-3.022358838613286,29.635325853731914],[-2.9177144989340604,29.5816101366266],[-2.813266015803265,29.52811869767193],[-2.709009343616259,29.474850638657742],[-2.6049404709876285,29.42180507748101],[-2.501055419929685,29.368981147934324],[-2.397350245045942,29.31637799949975],[-2.2938210327396007,29.26399479714816],[-2.1904639004363275,29.21183072114355],[-2.0872749958209056,29.159884966852495],[-1.9842504960873555,29.1081567445587],[-1.8813866072021597,29.05664527928209],[-1.778679563179935,29.00534981060297],[-1.676125625371668,28.954269592490597],[-1.573721081764404,28.90340389313633],[-1.4714622462927025,28.852751994791184],[-1.3693454581611206,28.80231319360785],[-1.2673670811773832,28.75208679948679],[-1.165523503095983,28.702072135926564],[-1.0638111349718997,28.65226853987831],[-0.9622264105240106,28.602675361603975],[-0.8607657855078514,28.55329196453878],[-0.7594257370976152,28.504117725157325],[-0.658202763276762,28.45515203284334],[-0.5570933822373547,28.40639428976343],[-0.45609413178738123,28.357843910744275],[-0.35520156876600595,28.30950032315331],[-0.25441226846672294,28.261362966782997],[-0.15372282406744375,28.21343129373858],[-0.053129846068145525,28.16570476832912],[0.04737003826508612,28.118182866961757],[0.14778018544907923,28.070865078039514],[0.24810393632645855,28.023750901862044],[0.34834461660236116,27.976839850529586],[0.44850553737538235,27.930131447850115],[0.5485899956628941,27.883625229249596],[0.6486012749208498,27.837320741684927],[0.748542645558615,27.79121754356035],[0.8484173654488814,27.74531520464635],[0.9482286804326918,27.69961330600172],[1.0479798248201178,27.654111439898337],[1.1476740218866723,27.60880920974889],[1.2473144843655462,27.563706230037198],[1.3469044149361196,27.51880212625148],[1.446447006708695,27.474096534820216],[1.5459454437058753,27.429589103050734],[1.645402901340674,27.38527948907049],[1.7448225468913563,27.341167361770953],[1.844207539973894,27.29725240075408],[1.9435610330111501,27.253534296281376],[2.0428861717001325,27.210012749225687],[2.1421860954764895,27.166687471025178],[2.2414639379773007,27.12355818364025],[2.3407228275016507,27.080624619512594],[2.4399658874695547,27.03788652152712],[2.5391962368794623,26.995343642975914],[2.638416990764199,26.952995747525037],[2.7376312606458555,26.910842609183604],[2.83684215498954,26.868884012275306],[2.9360527796564497,26.82711975141237],[3.0352662383562006,26.78554963147199],[3.1344856330987056,26.744173467575063],[3.2337140646456817,26.70299108506744],[3.332954632962327,26.662002319503532],[3.4322104376686013,26.621207016632308],[3.5314845784912734,26.58060503238574],[3.630780155715996,26.540196232869505],[3.730100270640065,26.49998049435628],[3.829448026026199,26.45995770328134],[3.92882652655706,26.420127756240493],[4.02823887929091,26.380490559990516],[4.127688194118747,26.34104603145205],[4.2271775842229715,26.301794097714748],[4.3267101665374526,26.262734696044955],[4.426289062210003,26.223867773895908],[4.525917397066422,26.185193288920203],[4.625598302077208,26.14671120898489],[4.7253349138265435,26.108421512189],[4.825130374983871,26.070324186883397],[4.924987834778648,26.032419231693503]]}}]}