{"type":"FeatureCollection","features":[{"type":"Feature","properties":{"magnitude":0.5,"de":0.5,"ate":0.8,"percentagem":50.0},"geometry":{"type":"MultiPolygon","coordinates":[[[[-34.5,30.0],[-34.5,37.789707179576034],[-30.659999999999854,36.07221287530033],[-26.81999999999971,34.23131239877578],[-22.91999999999956,32.23777592672006],[-18.783754562666577,30.0],[-34.5,30.0]]],[[[-3.5399999999988268,39.433986404515366],[-5.912550481871898,40.67999999999978],[-13.929651227759706,44.939999999999685],[-3.5399999999988268,44.939999999999685],[-3.5399999999988268,39.433986404515366]]]]}},{"type":"Feature","properties":{"magnitude":0.8,"de":0.8,"ate":0.95,"percentagem":80.0},"geometry":{"type":"MultiPolygon","coordinates":[[[[-18.783754562666577,30.0],[-22.979999999999563,32.269348311827756],[-26.81999999999971,34.23131239877578],[-30.659999999999854,36.07221287530033],[-34.5,37.789707179576034],[-34.5,44.26908326232389],[-31.499999999999886,42.982322580589624],[-28.43999999999977,41.597401482793416],[-25.439999999999657,40.16846587131117],[-22.31999999999954,38.60944554630022],[-19.559999999999434,37.17227162863108],[-16.55999999999932,35.55626880750019],[-6.571355494291366,30.0],[-18.783754562666577,30.0]]],[[[-3.5399999999988268,31.447450216252214],[-6.839999999998952,33.198229660281015],[-15.059999999999263,37.6677274686292],[-19.49999999999943,39.99645798223077],[-22.199999999999534,41.35411796830049],[-24.77999999999963,42.60385303080014],[-27.35999999999973,43.804544990415316],[-29.90544347869182,44.939999999999685],[-13.929651227759706,44.939999999999685],[-3.5399999999988268,39.433986404515366],[-3.5399999999988268,31.447450216252214]]]]}},{"type":"Feature","properties":{"magnitude":0.95,"de":0.95,"ate":0.99,"percentagem":95.0},"geometry":{"type":"Polygon","coordinates":[[[-16.55999999999932,35.55626880750019],[-6.571355494291366,30.0],[-3.5399999999988268,30.0],[-3.5399999999988268,31.447450216252214],[-6.7799999999989495,33.16582530291719],[-15.059999999999263,37.667727468629195],[-19.49999999999943,39.99645798223077],[-22.199999999999534,41.35411796830049],[-24.77999999999963,42.60385303080014],[-27.35999999999973,43.804544990415316],[-29.90544347869182,44.939999999999685],[-34.5,44.939999999999685],[-34.5,44.26908326232389],[-31.499999999999886,42.982322580589624],[-28.43999999999977,41.597401482793416],[-25.439999999999657,40.16846587131117],[-22.37999999999954,38.64009674272281],[-19.559999999999434,37.17227162863108],[-16.55999999999932,35.55626880750019]]]}}]}