{"type":"FeatureCollection","properties":{"largura_maxima_km":109.24,"largura_sobre_pt_km":91.949,"linha_central_sobre_pt":false,"desenhavel_como_area":true,"perfil_largura":[{"t":1.51667,"lat":25.0954,"lon":-20.1665,"largura_km":84.623,"eixo_na_terra":true},{"t":1.52222,"lat":25.2059,"lon":-19.9436,"largura_km":84.893,"eixo_na_terra":true},{"t":1.52778,"lat":25.3173,"lon":-19.7179,"largura_km":85.167,"eixo_na_terra":true},{"t":1.53333,"lat":25.4297,"lon":-19.4894,"largura_km":85.444,"eixo_na_terra":true},{"t":1.53889,"lat":25.5431,"lon":-19.2579,"largura_km":85.725,"eixo_na_terra":true},{"t":1.54444,"lat":25.6576,"lon":-19.0234,"largura_km":86.01,"eixo_na_terra":true},{"t":1.55,"lat":25.7732,"lon":-18.7857,"largura_km":86.299,"eixo_na_terra":true},{"t":1.55556,"lat":25.8899,"lon":-18.5449,"largura_km":86.592,"eixo_na_terra":true},{"t":1.56111,"lat":26.0077,"lon":-18.3007,"largura_km":86.889,"eixo_na_terra":true},{"t":1.56667,"lat":26.1267,"lon":-18.053,"largura_km":87.191,"eixo_na_terra":true},{"t":1.57222,"lat":26.2469,"lon":-17.8018,"largura_km":87.496,"eixo_na_terra":true},{"t":1.57778,"lat":26.3683,"lon":-17.5469,"largura_km":87.807,"eixo_na_terra":true},{"t":1.58333,"lat":26.4911,"lon":-17.2881,"largura_km":88.122,"eixo_na_terra":true},{"t":1.58889,"lat":26.6151,"lon":-17.0254,"largura_km":88.442,"eixo_na_terra":true},{"t":1.59444,"lat":26.7406,"lon":-16.7586,"largura_km":88.767,"eixo_na_terra":true},{"t":1.6,"lat":26.8674,"lon":-16.4875,"largura_km":89.097,"eixo_na_terra":true},{"t":1.60556,"lat":26.9958,"lon":-16.212,"largura_km":89.432,"eixo_na_terra":true},{"t":1.61111,"lat":27.1256,"lon":-15.9319,"largura_km":89.773,"eixo_na_terra":true},{"t":1.61667,"lat":27.257,"lon":-15.647,"largura_km":90.119,"eixo_na_terra":true},{"t":1.62222,"lat":27.3901,"lon":-15.357,"largura_km":90.472,"eixo_na_terra":true},{"t":1.62778,"lat":27.5248,"lon":-15.0619,"largura_km":90.831,"eixo_na_terra":true},{"t":1.63333,"lat":27.6613,"lon":-14.7613,"largura_km":91.197,"eixo_na_terra":true},{"t":1.63889,"lat":27.7997,"lon":-14.455,"largura_km":91.57,"eixo_na_terra":true},{"t":1.64444,"lat":27.9399,"lon":-14.1428,"largura_km":91.949,"eixo_na_terra":true},{"t":1.65,"lat":28.0822,"lon":-13.8243,"largura_km":92.336,"eixo_na_terra":true},{"t":1.65556,"lat":28.2265,"lon":-13.4993,"largura_km":92.731,"eixo_na_terra":true},{"t":1.66111,"lat":28.3731,"lon":-13.1673,"largura_km":93.134,"eixo_na_terra":true},{"t":1.66667,"lat":28.5219,"lon":-12.8282,"largura_km":93.545,"eixo_na_terra":true},{"t":1.67222,"lat":28.6731,"lon":-12.4814,"largura_km":93.964,"eixo_na_terra":true},{"t":1.67778,"lat":28.8269,"lon":-12.1265,"largura_km":94.393,"eixo_na_terra":true},{"t":1.68333,"lat":28.9833,"lon":-11.763,"largura_km":94.832,"eixo_na_terra":true},{"t":1.68889,"lat":29.1426,"lon":-11.3905,"largura_km":95.281,"eixo_na_terra":true},{"t":1.69444,"lat":29.3048,"lon":-11.0084,"largura_km":95.742,"eixo_na_terra":true},{"t":1.7,"lat":29.4702,"lon":-10.616,"largura_km":96.214,"eixo_na_terra":true},{"t":1.70556,"lat":29.639,"lon":-10.2127,"largura_km":96.699,"eixo_na_terra":true},{"t":1.71111,"lat":29.8113,"lon":-9.7975,"largura_km":97.197,"eixo_na_terra":true},{"t":1.71667,"lat":29.9875,"lon":-9.3698,"largura_km":97.71,"eixo_na_terra":true},{"t":1.72222,"lat":30.1678,"lon":-8.9285,"largura_km":98.238,"eixo_na_terra":true},{"t":1.72778,"lat":30.3526,"lon":-8.4724,"largura_km":98.781,"eixo_na_terra":true},{"t":1.73333,"lat":30.5422,"lon":-8.0003,"largura_km":99.342,"eixo_na_terra":true},{"t":1.73889,"lat":30.737,"lon":-7.5106,"largura_km":99.923,"eixo_na_terra":true},{"t":1.74444,"lat":30.9376,"lon":-7.0018,"largura_km":100.523,"eixo_na_terra":true},{"t":1.75,"lat":31.1444,"lon":-6.4717,"largura_km":101.149,"eixo_na_terra":true},{"t":1.75556,"lat":31.3583,"lon":-5.918,"largura_km":101.799,"eixo_na_terra":true},{"t":1.76111,"lat":31.5799,"lon":-5.3378,"largura_km":102.478,"eixo_na_terra":true},{"t":1.76667,"lat":31.8103,"lon":-4.7276,"largura_km":103.187,"eixo_na_terra":true},{"t":1.77222,"lat":32.0507,"lon":-4.0831,"largura_km":103.931,"eixo_na_terra":true},{"t":1.77778,"lat":32.3027,"lon":-3.3989,"largura_km":104.715,"eixo_na_terra":true},{"t":1.78333,"lat":32.5681,"lon":-2.668,"largura_km":105.545,"eixo_na_terra":true},{"t":1.78889,"lat":32.8497,"lon":-1.881,"largura_km":106.422,"eixo_na_terra":true},{"t":1.79444,"lat":33.1511,"lon":-1.0248,"largura_km":107.353,"eixo_na_terra":true},{"t":1.8,"lat":33.4776,"lon":-0.0809,"largura_km":108.323,"eixo_na_terra":true},{"t":1.80556,"lat":33.8372,"lon":0.9801,"largura_km":109.24,"eixo_na_terra":true},{"t":1.81111,"lat":34.7792,"lon":3.8139,"largura_km":null,"eixo_na_terra":false},{"t":1.81667,"lat":35.0712,"lon":4.803,"largura_km":null,"eixo_na_terra":false},{"t":1.82222,"lat":35.1961,"lon":5.3095,"largura_km":null,"eixo_na_terra":false},{"t":1.82778,"lat":35.3414,"lon":5.8962,"largura_km":null,"eixo_na_terra":false},{"t":1.83333,"lat":35.5282,"lon":6.6333,"largura_km":null,"eixo_na_terra":false}]},"features":[{"type":"Feature","properties":{},"geometry":{"type":"Polygon","coordinates":[[[-19.744283363021054,25.741634828669515],[-18.803434437353104,26.2066575755248],[-18.063259197940596,26.567502129325966],[-17.02424291126914,27.066571356150455],[-16.20087692831072,27.45584606747598],[-15.334486454343164,27.85952525050081],[-14.403067036583764,28.286629763112387],[-13.430809055849977,28.72509913349179],[-12.747086038869867,29.028889744636345],[-11.659922382802876,29.50423525482071],[-10.888050318543009,29.83602128449823],[-10.050589057004174,30.190549846163087],[-9.183177627500726,30.552132806853425],[-8.256714413308401,30.931890039383557],[-7.260080191096591,31.333059537181086],[-6.730955921268503,31.542978771014504],[-6.1486239293381,31.77137377348446],[-5.5679572751436694,31.99680109002386],[-4.957166143329005,32.231224719593456],[-4.311903785481917,32.47589770895201],[-3.6266800894813116,32.7324001348206],[-2.854510618790698,33.017109998853094],[-2.0623310767919065,33.30507485010452],[-1.1996569208590415,33.61362677786328],[-0.1940101284218656,33.96639248070611],[0.8867818242889882,34.33820705852941],[2.2172794029212355,34.784610783656404],[2.186582630550514,34.756073809407596],[2.48618822141151,34.863480066352054],[2.8121380434587024,34.97678062215489],[3.3291438587022526,35.149763536181354],[3.8813477451762424,35.326489514275565],[4.3958453191658595,35.48454958659093],[4.806298115495963,35.61876931425403],[5.309127710340903,35.778752658898696],[5.868846923936729,35.952081794082495],[6.509693839289014,36.145528745403325],[7.222089791971693,36.355665797690946],[8.08489313076268,36.61602315990556],[9.01443936796366,36.888691447976804],[9.01579896925008,36.871464361680545],[9.502523669402052,37.010169517317934],[9.299225127367464,36.06287557675737],[9.136857736478406,36.01363249691045],[9.192021403021897,35.81265142416727],[7.521723250794331,35.3435330709242],[5.725192018356751,34.80616714607173],[4.883764954366239,34.558074737579496],[3.9488783144805097,34.26193092384414],[3.6033936696671844,34.1552139673593],[3.1904801558630846,34.030928253731474],[2.7462654488313945,33.88341818044898],[2.4538436923829465,33.78855830813557],[2.1784939658064673,33.70131589714797],[1.8541850601329588,33.60188149043203],[1.471745711687845,33.470692637733265],[1.1075618586751546,33.350316929106576],[0.7698664847046928,33.243740503856976],[0.4607086654134854,33.15163083067992],[0.43490145433790417,33.127639392459535],[-0.5865903431446213,32.78136614165516],[-1.460046623958874,32.480163417414936],[-2.301861252767196,32.18449452829322],[-3.041473375299489,31.920989223574104],[-3.733040970068771,31.671099296050027],[-4.3839051369015465,31.432794850183992],[-4.9997196955832806,31.204510056055266],[-5.584948433300696,30.985006709684594],[-6.143188491168104,30.773285436237227],[-6.677388868143197,30.568525649994797],[-7.683097186267588,30.17726253235364],[-8.617522219307205,29.80690273692133],[-9.49205394334416,29.454255417996922],[-10.31537417544908,29.116881013876636],[-10.710011689089526,28.953306465073705],[-11.468818102746127,28.635372352989332],[-12.172703765062607,28.336534760024403],[-13.197038181788514,27.894452155558145],[-14.158529485649353,27.471903443112414],[-15.065722174290642,27.066444166269132],[-15.925431589647673,26.67611656838061],[-16.74319633382723,26.29932330037237],[-17.523589146651062,25.934740457590422],[-18.512506141185924,25.46572655959868],[-19.219584011490355,25.125593456107136],[-20.12123062292045,24.68611404954632],[-20.196767063363666,25.515478020096296],[-19.744283363021054,25.741634828669515]]]}}]}