{"type":"FeatureCollection","features":[{"type":"Feature","properties":{"magnitude":0.2,"de":0.2,"ate":0.5,"percentagem":20.0},"geometry":{"type":"Polygon","coordinates":[[[-34.5,44.939999999999685],[-34.5,38.4235005595026],[-30.659999999999854,40.424542914528715],[-27.11999999999972,42.20495773745495],[-24.23999999999961,43.59861232449826],[-21.357341514909365,44.939999999999685],[-34.5,44.939999999999685]]]}},{"type":"Feature","properties":{"magnitude":0.5,"de":0.5,"ate":0.8,"percentagem":50.0},"geometry":{"type":"Polygon","coordinates":[[[-34.5,30.0],[-25.16717744844911,30.0],[-22.439999999999543,31.360400045359796],[-19.799999999999443,32.625916878369324],[-17.09999999999934,33.86629253851289],[-14.45999999999924,35.02603937371386],[-11.759999999999138,36.15835247591923],[-9.059999999999036,37.237310503582925],[-6.299999999998931,38.2865649633629],[-3.5399999999988268,39.28327506371345],[-3.5399999999988268,44.939999999999685],[-21.357341514909365,44.939999999999685],[-25.49999999999966,42.99529055373988],[-29.75999999999982,40.88371149851549],[-34.5,38.4235005595026],[-34.5,30.0]]]}},{"type":"Feature","properties":{"magnitude":0.8,"de":0.8,"ate":0.95,"percentagem":80.0},"geometry":{"type":"MultiPolygon","coordinates":[[[[-5.939999999998918,30.004641830753798],[-4.739999999998872,30.46972672381264],[-3.5399999999988268,30.924066254399815],[-3.5399999999988268,30.0],[-5.939999999998918,30.004641830753798]]],[[[-25.16717744844911,30.0],[-22.439999999999543,31.360400045359793],[-19.73999999999944,32.654076241983844],[-17.09999999999934,33.86629253851289],[-14.399999999999238,35.05178953368119],[-11.759999999999138,36.15835247591922],[-9.059999999999036,37.237310503582925],[-6.299999999998931,38.28656496336289],[-3.5399999999988268,39.28327506371345],[-3.5399999999988268,33.58455158271599],[-8.159999999999002,31.846894814351053],[-12.664084289618708,30.000000000000004],[-25.16717744844911,30.0]]]]}},{"type":"Feature","properties":{"magnitude":0.95,"de":0.95,"ate":0.99,"percentagem":95.0},"geometry":{"type":"Polygon","coordinates":[[[-12.664084289618708,30.000000000000004],[-5.951831392785715,30.0],[-3.5399999999988268,30.924066254399815],[-3.5399999999988268,33.58455158271599],[-8.159999999999002,31.846894814351053],[-12.664084289618708,30.000000000000004]]]}}]}