{"type":"FeatureCollection","features":[{"type":"Feature","properties":{"t_inicio":-1.6277777777777862,"t_fim":-1.1944444444444544},"geometry":{"type":"LineString","coordinates":[[-39.45754853488131,38.305952089044304],[-38.76849389353609,38.013339838941654],[-38.11874615098324,37.73184309966092],[-37.50324663880025,37.460089033888586],[-36.91792673171153,37.19697089098903],[-36.35945638009338,36.941580699025685],[-35.825069228643656,36.693162409868286],[-35.31243760983432,36.45107837398454],[-34.819581058342834,36.214784780964116],[-34.34479797541945,35.9838132965816],[-33.88661366330146,35.75775708496155],[-33.44374017832263,35.53625999907157],[-33.01504487518011,35.31900810289628],[-32.59952544818549,35.10572293796605],[-32.1962899013422,34.89615611422185],[-31.804540307654662,34.69008491979559],[-31.423559516927924,34.487308724240165],[-31.05270018324137,34.28764600647127],[-30.691375635854882,34.09093187954611],[-30.339052228705185,33.897016014254085],[-29.995242886019412,33.70576088557858],[-29.65950162320769,33.517040282621494],[-29.33141886881606,33.33073803509436],[-29.010617448940877,33.14674691904437],[-28.696749122980776,32.964967711865626],[-28.389491580976767,32.78530837239141],[-28.088545829559763,32.60768332637272],[-27.79363390677807,32.43201284121554],[-27.504496876630412,32.25822247668973],[-27.220893062587862,32.0862426006015],[-26.94259648621096,31.91600796025928],[-26.669395482505394,31.74745730205739],[-26.401091468178265,31.58053303271943],[-26.137497842664914,31.41518091674588],[-25.878439004854954,31.251349805435186],[-25.623749470978993,31.088991393532737],[-25.373273081229883,30.92806000013358],[-25.12686228445358,30.768512370939874],[-24.884377491729396,30.610307499377985],[-24.645686490906172,30.453406464415462],[-24.410663915219118,30.297772283206942],[-24.17919076000939,30.14336977693973],[-23.95115394233369,29.99016544845832],[-23.72644589890632,29.83812737042449],[-23.504964218376102,29.687225082921923],[-23.28661130442515,29.537429499545564],[-23.07129406659257,29.388712821129392],[-22.858923636087525,29.24104845636462],[-22.649415104168952,29.09441094864515],[-22.44268728094238,28.94877590855147],[-22.23866247266173,28.804119951449298],[-22.037266275831485,28.660420639735623],[-21.838427386588364,28.51765642931449],[-21.642077424000007,28.375806619928724],[-21.44815076606062,28.23485130901261],[-21.2565843972873,28.09477134876326],[-21.067317766930984,27.955548306160804],[-20.880292656913213,27.81716442569131],[-20.69545305868712,27.679602594552804],[-20.512745058296986,27.542846310143393],[-20.332116728980225,27.406879649651465],[-20.153518030716498,27.271687241582775],[-19.97690071618277,27.137254239075652],[-19.80221824262361,27.003566294868456],[-19.62942568918814,26.870609537794923],[-19.458479679325904,26.73837055069521],[-19.289338307868974,26.60683634963894],[-19.121961072459328,26.475994364365885],[-18.95630880900967,26.345832419858176],[-18.792343630912427,26.21633871896413],[-18.630028871734055,26.0875018260016],[-18.469329031154274,25.95931065127337],[-18.310209723929006,25.831754436433577],[-18.152637631672775,25.704822740648023],[-17.99658045727324,25.578505427496335],[-17.842006881764462,25.452792652567812],[-17.688886523499292,25.327674851706128],[-17.537189899472622,25.203142729861995],[-17.386888388659486,25.079187250515442]]}}]}