{"type":"FeatureCollection","features":[{"type":"Feature","properties":{"magnitude":0.2,"de":0.2,"ate":0.5,"percentagem":20.0},"geometry":{"type":"Polygon","coordinates":[[[-6.130735884077618,38.87999999999981],[-3.5399999999988268,36.558000745628455],[-3.5399999999988268,44.939999999999685],[-13.872109130631939,44.939999999999685],[-11.27999999999912,43.052899034977386],[-8.699999999999022,41.03478129328993],[-6.130735884077618,38.87999999999981]]]}},{"type":"Feature","properties":{"magnitude":0.5,"de":0.5,"ate":0.8,"percentagem":50.0},"geometry":{"type":"Polygon","coordinates":[[[-15.873981427336108,31.979999999999954],[-13.411412562725756,30.0],[-3.5399999999988268,30.0],[-3.5399999999988268,36.558000745628455],[-6.059999999998922,38.81859091221752],[-8.519999999999015,40.88859638161779],[-11.039999999999111,42.87116997752344],[-13.559999999999206,44.71997276890057],[-13.872109130631939,44.939999999999685],[-34.5,44.939999999999685],[-34.5,43.06671866664692],[-31.61999999999989,41.723065175789586],[-28.799999999999784,40.294066306153894],[-26.03999999999968,38.776585912530074],[-23.39999999999958,37.20471452360263],[-20.81999999999948,35.54450234801794],[-18.299999999999386,33.79431648867152],[-15.873981427336108,31.979999999999954]]]}},{"type":"Feature","properties":{"magnitude":0.8,"de":0.8,"ate":0.95,"percentagem":80.0},"geometry":{"type":"MultiPolygon","coordinates":[[[[-34.5,30.0],[-34.5,34.974583959023015],[-32.279999999999916,33.82829998547957],[-30.05999999999983,32.601497128466086],[-27.89999999999975,31.32448393769944],[-25.803074306577606,30.000000000000004],[-34.5,30.0]]],[[[-22.15112090710704,30.0],[-25.139999999999645,31.984756435488748],[-28.13999999999976,33.80077615785289],[-31.259999999999877,35.52056239401971],[-34.5,37.14254498986253],[-34.5,43.06671866664692],[-31.55999999999989,41.69386309189223],[-28.73999999999978,40.26236483358058],[-25.979999999999677,38.74220913367874],[-23.339999999999577,37.167540336494994],[-20.75999999999948,35.50434819732659],[-18.239999999999384,33.75101383166211],[-15.79667137277881,31.91999999999996],[-13.411412562725756,30.0],[-22.15112090710704,30.0]]]]}},{"type":"Feature","properties":{"magnitude":0.95,"de":0.95,"ate":0.99,"percentagem":95.0},"geometry":{"type":"Polygon","coordinates":[[[-27.959999999999752,31.36112362153459],[-25.803074306577606,30.000000000000004],[-22.15112090710704,30.0],[-25.079999999999643,31.94669590369692],[-28.10407494056811,33.779999999999916],[-31.259999999999877,35.52056239401971],[-34.5,37.14254498986253],[-34.5,34.974583959023015],[-32.279999999999916,33.82829998547957],[-30.119999999999834,32.6357661366901],[-27.959999999999752,31.36112362153459]]]}}]}