{"type":"FeatureCollection","features":[{"type":"Feature","properties":{"magnitude":0.2,"de":0.2,"ate":0.5,"percentagem":20.0},"geometry":{"type":"Polygon","coordinates":[[[-28.117567347735477,30.0],[-6.142371630012457,30.0],[-3.5399999999988268,32.82196831042301],[-3.5399999999988268,44.939999999999685],[-12.416160507535,44.939999999999685],[-14.911653512197713,42.05999999999975],[-16.96616850090681,39.77999999999979],[-18.848123577272773,37.799999999999834],[-20.699999999999477,35.973717892425746],[-22.506006088362277,34.31999999999991],[-24.359999999999612,32.757152289818215],[-26.22721227697943,31.319999999999972],[-28.117567347735477,30.0]]]}},{"type":"Feature","properties":{"magnitude":0.5,"de":0.5,"ate":0.8,"percentagem":50.0},"geometry":{"type":"Polygon","coordinates":[[[-34.5,30.0],[-28.117567347735477,30.0],[-27.759380829791823,30.239999999999995],[-25.919999999999675,31.547190088562886],[-24.119999999999607,32.95177337801825],[-22.31999999999954,34.48436025915192],[-20.51999999999947,36.14554613622922],[-18.73074706596835,37.91999999999983],[-16.855438431940463,39.89999999999979],[-14.858777548182427,42.11999999999974],[-12.416160507535,44.939999999999685],[-34.5,44.939999999999685],[-34.5,30.0]]]}}]}