{"type":"FeatureCollection","features":[{"type":"Feature","properties":{"magnitude":0.2,"de":0.2,"ate":0.5,"percentagem":20.0},"geometry":{"type":"Polygon","coordinates":[[[-34.5,30.0],[-21.319353430182904,30.0],[-19.079999999999416,31.279843266053025],[-16.85999999999933,32.48108580026416],[-14.661872122473245,33.59999999999992],[-12.479999999999166,34.639786319112616],[-10.319999999999084,35.599990128081586],[-8.099999999999,36.51687257703945],[-5.819999999998912,37.387390085354674],[-3.5399999999988268,38.189132701271475],[-3.5399999999988268,44.939999999999685],[-19.00819003524495,44.939999999999685],[-21.239999999999498,43.89247599206166],[-24.17999999999961,42.42171001441486],[-27.23999999999973,40.78768111401686],[-30.479999999999848,38.95956951348777],[-34.5,36.597985394608116],[-34.5,30.0]]]}},{"type":"Feature","properties":{"magnitude":0.5,"de":0.5,"ate":0.8,"percentagem":50.0},"geometry":{"type":"Polygon","coordinates":[[[-21.319353430182904,30.0],[-3.5399999999988268,30.0],[-3.5399999999988268,38.189132701271475],[-5.819999999998913,37.387390085354674],[-8.099999999999,36.51687257703945],[-10.319999999999084,35.599990128081586],[-12.479999999999166,34.639786319112616],[-14.661872122473245,33.59999999999992],[-16.85999999999933,32.48108580026416],[-19.079999999999416,31.279843266053028],[-21.319353430182904,30.0]]]}}]}