{"type":"FeatureCollection","features":[{"type":"Feature","properties":{"magnitude":0.2,"percentagem":20.0,"territorio":"continente"},"geometry":{"type":"LineString","coordinates":[[-10.5,42.44882213912293],[-10.49116924704857,42.43999999999986],[-10.46,42.408830752951296],[-10.451160606595666,42.399999999999864],[-10.420000000000002,42.3688393934042],[-10.380000000000003,42.36884213356456],[-10.371149191379706,42.359999999999864],[-10.340000000000003,42.32885080862016],[-10.331140489460047,42.319999999999865],[-10.300000000000004,42.28885951053982],[-10.291131760571428,42.279999999999866],[-10.260000000000005,42.24886823942844],[-10.220000000000006,42.248871006495804],[-10.211120229558594,42.23999999999987],[-10.180000000000007,42.20887977044128],[-10.171111438400253,42.19999999999987],[-10.140000000000008,42.16888856159962],[-10.131102619922238,42.15999999999986],[-10.100000000000009,42.12889738007763],[-10.06000000000001,42.128900174417694],[-10.05109097158481,42.11999999999987],[-10.02000000000001,42.088909028415074],[-10.011082090019388,42.07999999999987],[-9.980000000000011,42.048917909980496],[-9.971073180777136,42.03999999999988],[-9.940000000000012,42.00892681922275],[-9.900000000000013,42.008929641207956],[-9.89106141355932,41.99999999999987],[-9.860000000000014,41.968938586440565],[-9.851052440396916,41.95999999999987],[-9.820000000000014,41.92894755960297],[-9.811043439193941,41.919999999999874],[-9.780000000000015,41.88895656080595],[-9.740000000000016,41.88895941081559],[-9.731031551511244,41.879999999999875],[-9.700000000000017,41.84896844848865],[-9.691022485539975,41.839999999999876],[-9.660000000000018,41.808977514459926],[-9.651013391157651,41.799999999999876],[-9.620000000000019,41.76898660884225],[-9.58000000000002,41.76898948726266],[-9.571001381396208,41.75999999999988],[-9.54000000000002,41.72899861860369],[-9.530992221381693,41.71999999999988],[-9.500000000000021,41.689007778618205],[-9.490983032578757,41.67999999999988],[-9.460000000000022,41.64901696742114],[-9.450973814871821,41.63999999999988],[-9.420000000000023,41.60902618512808],[-9.380000000000024,41.609029100905246],[-9.370961643779523,41.59999999999988],[-9.340000000000025,41.56903835622038],[-9.330952359291544,41.559999999999874],[-9.300000000000026,41.529047640708356],[-9.290943045512986,41.51999999999988],[-9.260000000000026,41.48905695448693],[-9.220000000000027,41.48905989958976],[-9.210930748513475,41.479999999999876],[-9.180000000000028,41.449069251486435],[-9.17092136705232,41.439999999999884],[-9.140000000000029,41.40907863294759],[-9.130911955906742,41.399999999999885],[-9.10000000000003,41.369088044093175],[-9.06000000000003,41.369091018932366],[-9.050899531284319,41.359999999999886],[-9.020000000000032,41.329100468715595],[-9.010890051537608,41.31999999999989],[-8.980000000000032,41.28910994846231],[-8.970880541705194,41.27999999999989],[-8.940000000000033,41.24911945829473],[-8.930871001664162,41.23999999999989],[-8.900000000000034,41.20912899833576],[-8.860000000000035,41.209132012288165],[-8.850858408342283,41.19999999999989],[-8.820000000000036,41.16914159165764],[-8.810848798478228,41.15999999999989],[-8.780000000000037,41.1291512015217],[-8.770839157994336,41.11999999999989],[-8.740000000000038,41.08916084200559],[-8.700000000000038,41.08916388666742],[-8.690826432977666,41.07999999999989],[-8.66000000000004,41.049173567022265],[-8.650816721711578,41.03999999999989],[-8.62000000000004,41.009183278288354],[-8.610806979406604,40.99999999999989],[-8.580000000000041,40.96919302059333],[-8.570797205934367,40.959999999999894],[-8.540000000000042,40.92920279406557],[-8.500000000000043,40.92920587913039],[-8.490784306804859,40.919999999999895],[-8.460000000000043,40.889215693195084],[-8.4507744612742,40.879999999999896],[-8.420000000000044,40.84922553872574],[-8.410764584146738,40.8399999999999],[-8.380000000000045,40.8092354158532],[-8.370754675290883,40.7999999999999],[-8.340000000000046,40.76924532470906],[-8.300000000000047,40.76924845093045],[-8.290741598881565,40.7599999999999],[-8.260000000000048,40.72925840111838],[-8.250731616659014,40.7199999999999],[-8.220000000000049,40.68926838334093],[-8.210721602267709,40.6799999999999],[-8.18000000000005,40.64927839773224],[-8.14000000000005,40.649281556273294],[-8.13070838742222,40.6399999999999],[-8.100000000000051,40.609291612577735],[-8.090698298636871,40.5999999999999],[-8.060000000000052,40.56930170136308],[-8.05068817723388,40.5599999999999],[-8.020000000000053,40.529311822766076],[-8.010678023075714,40.519999999999904],[-7.980000000000054,40.489321976924245],[-7.940000000000055,40.48932517800337],[-7.930664625152233,40.479999999999905],[-7.900000000000055,40.44933537484773],[-7.890654395232604,40.4399999999999],[-7.860000000000056,40.40934560476735],[-7.8506441320974885,40.399999999999906],[-7.820000000000057,40.36935586790248],[-7.810633835605849,40.35999999999991],[-7.780000000000058,40.329366164394116],[-7.740000000000059,40.32936940881898],[-7.730620251210363,40.31999999999991],[-7.70000000000006,40.28937974878961],[-7.690609877554925,40.27999999999991],[-7.6600000000000605,40.24939012244504],[-7.6505994700708655,40.23999999999991],[-7.620000000000061,40.209400529929106],[-7.610589028613529,40.19999999999991],[-7.580000000000062,40.16941097138644],[-7.540000000000063,40.1694142599854],[-7.530575254265096,40.15999999999991],[-7.500000000000064,40.12942474573488],[-7.4905647342056,40.11999999999991],[-7.460000000000065,40.08943526579438],[-7.450554179688575,40.07999999999991],[-7.420000000000066,40.049445820311405],[-7.410543590565629,40.039999999999914],[-7.3800000000000665,40.00945640943435],[-7.340000000000067,40.009459743057135],[-7.330529622693591,39.999999999999915],[-7.300000000000068,39.96947037730639],[-7.290518953492945,39.959999999999916],[-7.260000000000069,39.92948104650704],[-7.250508249189576,39.919999999999916],[-7.22000000000007,39.88949175081041],[-7.210497509631241,39.879999999999924],[-7.180000000000072,39.84950249036875],[-7.140000000000072,39.849505869887125],[-7.1304833445723474,39.83999999999992],[-7.1000000000000725,39.80951665542764],[-7.090472523422395,39.79999999999992],[-7.060000000000073,39.76952747657759],[-7.05046166650772,39.75999999999992],[-7.020000000000074,39.72953833349227],[-7.0104507736721,39.71999999999992],[-6.980000000000075,39.6895492263279],[-6.940000000000075,39.68955265263642],[-6.930436407667514,39.67999999999992],[-6.900000000000077,39.649563592332484],[-6.89042543168674,39.63999999999992],[-6.860000000000078,39.609574568313256],[-6.850414419261891,39.59999999999992],[-6.820000000000078,39.56958558073811],[-6.810403370232636,39.55999999999992],[-6.780000000000079,39.52959662976737],[-6.7703922844376745,39.519999999999925],[-6.74000000000008,39.489607715562336],[-6.700000000000081,39.48961120057519],[-6.690377665655958,39.479999999999926],[-6.660000000000082,39.44962233434405],[-6.650366494745747,39.43999999999993],[-6.620000000000083,39.40963350525426],[-6.610355286529615,39.39999999999993],[-6.580000000000084,39.3696447134704],[-6.570344040841986,39.35999999999993],[-6.540000000000084,39.32965595915803],[-6.500000000000085,39.32965949304092],[-6.490329212366647,39.31999999999993],[-6.460000000000086,39.28967078763337],[-6.450317879917067,39.27999999999993],[-6.420000000000087,39.24968212008295],[-6.4103065094414,39.239999999999924],[-6.380000000000088,39.20969349055862],[-6.370295100769651,39.19999999999993],[-6.340000000000089,39.169704899230375],[-6.330283653730781,39.15999999999993],[-6.3000000000000895,39.12971634626924],[-6.26000000000009,39.129719941488965],[-6.250268561386671,39.11999999999993],[-6.220000000000091,39.089731438613356],[-6.210257025496761,39.079999999999934],[-6.180000000000092,39.04974297450327],[-6.170245450666771,39.039999999999935],[-6.140000000000093,39.00975454933326],[-6.1302338367210645,38.999999999999936],[-6.100000000000094,38.96976616327896],[-6.0600000000000955,38.96976980957437],[-6.050218525406895,38.95999999999994],[-6.0200000000000955,38.92978147459314],[-6.010206820863254,38.91999999999994],[-5.980000000000096,38.88979317913678],[-5.970195076615469,38.87999999999994],[-5.940000000000097,38.84980492338457],[-5.930183292483151,38.83999999999994],[-5.900000000000098,38.80981670751689],[-5.890171468284784,38.79999999999994],[-5.860000000000099,38.769828531715255],[-5.8200000000001,38.769832242140424],[-5.810155881335126,38.759999999999934],[-5.780000000000101,38.729844118664914],[-5.770143964321688,38.71999999999994],[-5.7400000000001015,38.68985603567835],[-5.7301320066339985,38.67999999999994],[-5.700000000000102,38.649867993366044],[-5.690120008085591,38.639999999999944],[-5.660000000000103,38.60987999191446],[-5.650107968488822,38.599999999999945],[-5.620000000000104,38.56989203151123],[-5.580000000000105,38.56989580767932],[-5.570092099102484,38.559999999999945],[-5.540000000000106,38.52990790089757]]}},{"type":"Feature","properties":{"magnitude":0.4,"percentagem":40.0,"territorio":"continente"},"geometry":{"type":"LineString","coordinates":[[-10.5,42.45764427824599],[-10.48233849409714,42.43999999999986],[-10.46,42.41766150590273],[-10.442321213191331,42.399999999999864],[-10.420000000000002,42.37767878680853],[-10.380000000000003,42.37768426712926],[-10.362298382759413,42.359999999999864],[-10.340000000000003,42.337701617240455],[-10.32228097892009,42.319999999999865],[-10.300000000000004,42.29771902107978],[-10.28226352114285,42.279999999999866],[-10.260000000000005,42.25773647885702],[-10.220000000000006,42.257742012991734],[-10.202240459117181,42.23999999999987],[-10.180000000000007,42.217759540882696],[-10.1622228768005,42.19999999999987],[-10.140000000000008,42.17777712319938],[-10.122205239844469,42.15999999999987],[-10.100000000000009,42.13779476015541],[-10.06000000000001,42.13780034883554],[-10.04218194316961,42.11999999999988],[-10.02000000000001,42.09781805683028],[-10.002164180038765,42.07999999999987],[-9.980000000000011,42.05783581996111],[-9.962146361554257,42.03999999999987],[-9.940000000000012,42.01785363844563],[-9.900000000000013,42.017859282416026],[-9.882122827118629,41.99999999999987],[-9.860000000000014,41.97787717288126],[-9.842104880793823,41.95999999999987],[-9.820000000000014,41.93789511920606],[-9.802086878387867,41.919999999999874],[-9.780000000000015,41.89791312161203],[-9.740000000000016,41.89791882163131],[-9.722063103022471,41.879999999999875],[-9.700000000000017,41.85793689697742],[-9.68204497107993,41.839999999999876],[-9.660000000000018,41.81795502891997],[-9.642026782315282,41.799999999999876],[-9.620000000000019,41.77797321768462],[-9.58000000000002,41.77797897452545],[-9.562002762792392,41.75999999999988],[-9.54000000000002,41.73799723720751],[-9.521984442763365,41.71999999999988],[-9.500000000000021,41.69801555723653],[-9.481966065157494,41.67999999999988],[-9.460000000000022,41.65803393484241],[-9.44194762974362,41.63999999999988],[-9.420000000000023,41.61805237025628],[-9.380000000000024,41.6180582018106],[-9.361923287559023,41.59999999999988],[-9.340000000000025,41.57807671244088],[-9.321904718583067,41.559999999999874],[-9.300000000000026,41.53809528141684],[-9.281886091025942,41.51999999999988],[-9.260000000000026,41.49811390897396],[-9.220000000000027,41.49811979917962],[-9.201861497026922,41.47999999999988],[-9.180000000000028,41.458138502972986],[-9.161842734104614,41.439999999999884],[-9.140000000000029,41.4181572658953],[-9.121823911813454,41.39999999999989],[-9.10000000000003,41.378176088186464],[-9.06000000000003,41.378182037864846],[-9.041799062568609,41.359999999999886],[-9.020000000000032,41.33820093743131],[-9.001780103075184,41.31999999999988],[-8.980000000000032,41.298219896924735],[-8.961761083410355,41.27999999999989],[-8.940000000000033,41.25823891658957],[-8.92174200332829,41.23999999999989],[-8.900000000000034,41.21825799667163],[-8.860000000000035,41.21826402457644],[-8.841716816684533,41.19999999999989],[-8.820000000000036,41.17828318331539],[-8.80169759695642,41.1599999999999],[-8.780000000000037,41.13830240304351],[-8.761678315988636,41.11999999999989],[-8.740000000000038,41.09832168401129],[-8.700000000000038,41.09832777333496],[-8.681652865955295,41.07999999999989],[-8.66000000000004,41.05834713404464],[-8.64163344342312,41.03999999999989],[-8.62000000000004,41.01836655657681],[-8.601613958813168,40.99999999999989],[-8.580000000000041,40.978386041186766],[-8.561594411868693,40.959999999999894],[-8.540000000000042,40.93840558813124],[-8.500000000000043,40.938411758260884],[-8.481568613609673,40.9199999999999],[-8.460000000000043,40.89843138639027],[-8.441548922548357,40.879999999999896],[-8.420000000000044,40.85845107745159],[-8.401529168293434,40.8399999999999],[-8.380000000000045,40.818470831706506],[-8.36150935058172,40.7999999999999],[-8.340000000000046,40.77849064941823],[-8.300000000000047,40.778496901861],[-8.281483197763084,40.759999999999906],[-8.260000000000048,40.738516802236866],[-8.24146323331798,40.7199999999999],[-8.220000000000049,40.69853676668197],[-8.20144320453537,40.67999999999991],[-8.18000000000005,40.658556795464584],[-8.14000000000005,40.65856311254669],[-8.12141677484439,40.6399999999999],[-8.100000000000051,40.61858322515556],[-8.081396597273693,40.5999999999999],[-8.060000000000052,40.57860340272626],[-8.04137635446771,40.5599999999999],[-8.020000000000053,40.53862364553224],[-8.001356046151377,40.51999999999991],[-7.980000000000055,40.498643953848585],[-7.9400000000000555,40.498650356006834],[-7.921329250304412,40.479999999999905],[-7.900000000000055,40.45867074969555],[-7.8813087904651535,40.439999999999905],[-7.860000000000056,40.41869120953481],[-7.841288264194921,40.399999999999906],[-7.820000000000057,40.37871173580504],[-7.801267671211638,40.359999999999914],[-7.780000000000058,40.33873232878833],[-7.740000000000059,40.338738817638045],[-7.721240502420668,40.31999999999991],[-7.70000000000006,40.2987594975793],[-7.6812197551097885,40.27999999999991],[-7.6600000000000605,40.258780244890175],[-7.64119894014167,40.23999999999991],[-7.620000000000062,40.21880105985831],[-7.601178057226997,40.19999999999991],[-7.580000000000062,40.17882194277298],[-7.540000000000063,40.17882851997089],[-7.521150508530129,40.15999999999991],[-7.500000000000064,40.13884949146985],[-7.481129468411138,40.11999999999991],[-7.460000000000065,40.098870531588844],[-7.441108359377084,40.07999999999991],[-7.420000000000066,40.05889164062289],[-7.401087181131192,40.039999999999914],[-7.3800000000000665,40.018912818868785],[-7.340000000000067,40.01891948611435],[-7.321059245387113,39.999999999999915],[-7.300000000000068,39.978940754612864],[-7.281037906985821,39.959999999999916],[-7.260000000000069,39.93896209301416],[-7.241016498379082,39.919999999999916],[-7.22000000000007,39.898983501620904],[-7.200995019262411,39.87999999999992],[-7.180000000000071,39.85900498073758],[-7.140000000000072,39.85901173977433],[-7.120966689144623,39.83999999999992],[-7.1000000000000725,39.819033310855374],[-7.080945046844718,39.79999999999992],[-7.060000000000073,39.779054953155274],[-7.0409233330153675,39.75999999999992],[-7.020000000000074,39.73907666698463],[-7.000901547344128,39.71999999999992],[-6.980000000000075,39.69909845265587],[-6.940000000000076,39.69910530527292],[-6.920872815334953,39.67999999999992],[-6.900000000000077,39.659127184665046],[-6.880850863373405,39.63999999999992],[-6.860000000000078,39.61914913662659],[-6.840828838523704,39.59999999999992],[-6.820000000000078,39.579171161476296],[-6.800806740465194,39.55999999999992],[-6.780000000000079,39.539193259534805],[-6.760784568875268,39.519999999999925],[-6.74000000000008,39.49921543112474],[-6.700000000000081,39.49922240115045],[-6.680755331311834,39.479999999999926],[-6.660000000000082,39.45924466868817],[-6.640732989491413,39.43999999999993],[-6.620000000000083,39.4192670105086],[-6.600710573059148,39.399999999999935],[-6.580000000000084,39.379289426940865],[-6.560688081683887,39.35999999999993],[-6.540000000000084,39.33931191831613],[-6.500000000000085,39.33931898608191],[-6.480658424733209,39.31999999999993],[-6.460000000000086,39.29934157526681],[-6.4406357598340485,39.27999999999993],[-6.420000000000087,39.259364240165965],[-6.400613018882712,39.239999999999924],[-6.380000000000088,39.2193869811173],[-6.360590201539214,39.19999999999993],[-6.340000000000089,39.17940979846081],[-6.3205673074614745,39.15999999999993],[-6.3000000000000895,39.13943269253855],[-6.26000000000009,39.139439882977996],[-6.240537122773251,39.11999999999993],[-6.220000000000091,39.09946287722677],[-6.20051405099343,39.079999999999934],[-6.180000000000092,39.0594859490066],[-6.16049090133345,39.039999999999935],[-6.140000000000093,39.019509098666575],[-6.120467673442034,38.99999999999993],[-6.100000000000094,38.979532326557994],[-6.060000000000095,38.979539619148795],[-6.040437050813695,38.95999999999994],[-6.0200000000000955,38.93956294918634],[-6.0004136417264125,38.919999999999945],[-5.980000000000096,38.89958635827362],[-5.9603901532308425,38.87999999999994],[-5.940000000000097,38.85960984676919],[-5.920366584966205,38.83999999999994],[-5.900000000000098,38.819633415033834],[-5.880342936569469,38.79999999999994],[-5.860000000000099,38.77965706343058],[-5.8200000000001,38.779664484280914],[-5.800311762670151,38.75999999999994],[-5.780000000000101,38.73968823732989],[-5.760287928643276,38.71999999999994],[-5.7400000000001015,38.69971207135677],[-5.720264013267896,38.67999999999994],[-5.700000000000102,38.659735986732144],[-5.680240016171078,38.639999999999944],[-5.660000000000103,38.61975998382897],[-5.64021593697754,38.599999999999945],[-5.620000000000104,38.57978406302251],[-5.580000000000105,38.5797916153587],[-5.560184198204864,38.559999999999945],[-5.540000000000106,38.539815801795186]]}},{"type":"Feature","properties":{"magnitude":0.6,"percentagem":60.0,"territorio":"continente"},"geometry":{"type":"LineString","coordinates":[[-10.5,42.46646641736906],[-10.47350774114571,42.43999999999986],[-10.46,42.426492258854154],[-10.433481819786994,42.399999999999864],[-10.420000000000002,42.386518180212875],[-10.380000000000003,42.38652640069396],[-10.353447574139118,42.359999999999864],[-10.340000000000003,42.34655242586075],[-10.313421468380135,42.319999999999865],[-10.300000000000004,42.306578531619735],[-10.273395281714274,42.279999999999866],[-10.260000000000005,42.2666047182856],[-10.220000000000006,42.26661301948767],[-10.193360688675767,42.23999999999987],[-10.180000000000007,42.22663931132411],[-10.153334315200748,42.19999999999987],[-10.140000000000008,42.186665684799124],[-10.113307859766701,42.15999999999987],[-10.100000000000009,42.14669214023317],[-10.06000000000001,42.14670052325337],[-10.03327291475441,42.11999999999987],[-10.02000000000001,42.10672708524547],[-9.993246270058144,42.07999999999987],[-9.980000000000011,42.06675372994174],[-9.953219542331382,42.03999999999987],[-9.940000000000012,42.0267804576685],[-9.900000000000013,42.02678892362411],[-9.873184240677936,41.99999999999987],[-9.860000000000014,41.98681575932195],[-9.833157321190727,41.95999999999987],[-9.820000000000014,41.94684267880916],[-9.793130317581792,41.919999999999874],[-9.780000000000015,41.9068696824181],[-9.740000000000016,41.90687823244703],[-9.713094654533698,41.879999999999875],[-9.700000000000017,41.86690534546619],[-9.673067456619886,41.839999999999876],[-9.660000000000018,41.82693254338001],[-9.633040173472914,41.799999999999876],[-9.620000000000019,41.78695982652698],[-9.58000000000002,41.786968461788234],[-9.553004144188579,41.75999999999988],[-9.54000000000002,41.74699585581132],[-9.512976664145038,41.71999999999988],[-9.500000000000021,41.70702333585486],[-9.472949097736231,41.67999999999988],[-9.460000000000022,41.66705090226367],[-9.432921444615417,41.63999999999988],[-9.420000000000023,41.627078555384486],[-9.380000000000024,41.627087302715964],[-9.352884931338522,41.59999999999988],[-9.340000000000025,41.58711506866138],[-9.312857077874588,41.55999999999988],[-9.300000000000026,41.54714292212532],[-9.272829136538903,41.51999999999988],[-9.260000000000026,41.507170863461006],[-9.220000000000027,41.50717969876949],[-9.192792245540367,41.47999999999988],[-9.180000000000028,41.467207754459544],[-9.152764101156908,41.439999999999884],[-9.140000000000029,41.42723589884301],[-9.112735867720167,41.399999999999885],[-9.10000000000003,41.387264132279746],[-9.06000000000003,41.387273056797326],[-9.0326985938529,41.359999999999886],[-9.020000000000032,41.34730140614702],[-8.99267015461276,41.31999999999989],[-8.980000000000032,41.30732984538716],[-8.952641625115517,41.27999999999989],[-8.940000000000033,41.2673583748844],[-8.912613004992417,41.23999999999989],[-8.900000000000034,41.22738699500751],[-8.860000000000035,41.22739603686472],[-8.832575225026781,41.19999999999989],[-8.820000000000036,41.187424774973145],[-8.79254639543461,41.15999999999989],[-8.780000000000037,41.14745360456532],[-8.752517473982936,41.11999999999989],[-8.740000000000038,41.107482526016994],[-8.700000000000038,41.107491660002495],[-8.672479298932922,41.07999999999989],[-8.66000000000004,41.06752070106701],[-8.63245016513466,41.03999999999989],[-8.62000000000004,41.02754983486527],[-8.59242093821973,40.99999999999989],[-8.580000000000041,40.9875790617802],[-8.55239161780302,40.959999999999894],[-8.540000000000042,40.94760838219692],[-8.500000000000043,40.94761763739138],[-8.472352920414487,40.919999999999895],[-8.460000000000043,40.90764707958545],[-8.432323383822514,40.879999999999896],[-8.420000000000044,40.86767661617743],[-8.392293752440128,40.8399999999999],[-8.380000000000045,40.82770624755982],[-8.352264025872557,40.7999999999999],[-8.340000000000046,40.787735974127386],[-8.300000000000047,40.787745352791546],[-8.272224796644602,40.7599999999999],[-8.260000000000048,40.747775203355346],[-8.232194849976946,40.7199999999999],[-8.220000000000049,40.707805150023006],[-8.192164806803028,40.6799999999999],[-8.18000000000005,40.66783519319692],[-8.14000000000005,40.66784466882008],[-8.112125162266558,40.6399999999999],[-8.100000000000051,40.627874837733394],[-8.072094895910514,40.5999999999999],[-8.060000000000052,40.587905104089444],[-8.03206453170154,40.5599999999999],[-8.020000000000053,40.54793546829842],[-7.992034069227039,40.519999999999904],[-7.980000000000054,40.50796593077292],[-7.940000000000055,40.5079755340103],[-7.91199387545659,40.479999999999905],[-7.900000000000055,40.46800612454337],[-7.871963185697702,40.439999999999905],[-7.860000000000056,40.42803681430226],[-7.831932396292353,40.399999999999906],[-7.820000000000057,40.38806760370761],[-7.791901506817429,40.35999999999991],[-7.780000000000058,40.34809849318253],[-7.740000000000059,40.34810822645712],[-7.711860753630972,40.31999999999991],[-7.70000000000006,40.308139246368995],[-7.671829632664654,40.27999999999991],[-7.6600000000000605,40.268170367335316],[-7.631798410212474,40.23999999999991],[-7.620000000000061,40.2282015897875],[-7.591767085840465,40.19999999999991],[-7.580000000000062,40.18823291415951],[-7.540000000000063,40.18824277995638],[-7.511725762795162,40.15999999999991],[-7.500000000000064,40.14827423720482],[-7.471694202616674,40.11999999999991],[-7.460000000000065,40.1083057973833],[-7.431662539065594,40.07999999999991],[-7.420000000000066,40.06833746093439],[-7.3916307716967555,40.039999999999914],[-7.3800000000000665,40.02836922830323],[-7.340000000000067,40.02837922917156],[-7.311588868080637,39.999999999999915],[-7.300000000000068,39.98841113191935],[-7.2715568604786975,39.959999999999916],[-7.260000000000069,39.94844313952129],[-7.231524747568589,39.919999999999916],[-7.22000000000007,39.9084752524314],[-7.191492528893582,39.87999999999992],[-7.180000000000071,39.86850747110641],[-7.140000000000072,39.868517609661545],[-7.111450033716897,39.83999999999992],[-7.1000000000000725,39.82854996628309],[-7.07141757026704,39.79999999999992],[-7.060000000000073,39.78858242973295],[-7.031384999523014,39.75999999999992],[-7.020000000000074,39.74861500047698],[-6.991352321016154,39.71999999999992],[-6.980000000000075,39.70864767898384],[-6.940000000000076,39.70865795790942],[-6.911309223002392,39.67999999999992],[-6.900000000000077,39.66869077699761],[-6.871276295060069,39.63999999999992],[-6.860000000000078,39.62872370493993],[-6.831243257785518,39.59999999999992],[-6.820000000000078,39.588756742214485],[-6.791210110697751,39.559999999999924],[-6.780000000000079,39.54878988930225],[-6.751176853312862,39.519999999999925],[-6.74000000000008,39.50882314668714],[-6.700000000000081,39.50883360172571],[-6.67113299696771,39.479999999999926],[-6.660000000000082,39.4688670030323],[-6.631099484237079,39.43999999999993],[-6.620000000000083,39.42890051576293],[-6.591065859588681,39.39999999999993],[-6.580000000000084,39.38893414041133],[-6.551032122525788,39.35999999999993],[-6.540000000000084,39.34896787747422],[-6.500000000000085,39.348978479122906],[-6.470987637099769,39.31999999999993],[-6.460000000000086,39.30901236290025],[-6.43095363975103,39.27999999999993],[-6.420000000000087,39.26904636024899],[-6.390919528324025,39.23999999999993],[-6.380000000000088,39.22908047167599],[-6.350885302308777,39.19999999999993],[-6.340000000000089,39.189114697691245],[-6.310850961192168,39.15999999999993],[-6.3000000000000895,39.149149038807856],[-6.26000000000009,39.149159824467034],[-6.230805684159831,39.11999999999993],[-6.220000000000091,39.1091943158402],[-6.190771076490099,39.079999999999934],[-6.180000000000092,39.069228923509925],[-6.150736352000128,39.039999999999935],[-6.140000000000093,39.0292636479999],[-6.110701510163007,38.999999999999936],[-6.100000000000094,38.989298489837026],[-6.060000000000095,38.98930942872323],[-6.030655576220496,38.95999999999994],[-6.0200000000000955,38.949344423779536],[-5.990620462589571,38.91999999999994],[-5.980000000000096,38.90937953741046],[-5.950585229846215,38.87999999999994],[-5.940000000000097,38.869414770153824],[-5.910549877449259,38.83999999999994],[-5.900000000000098,38.82945012255078],[-5.870514404854154,38.79999999999994],[-5.860000000000099,38.789485595145884],[-5.8200000000001,38.7894967264214],[-5.790467644005176,38.75999999999994],[-5.780000000000101,38.749532355994866],[-5.750431892964864,38.71999999999994],[-5.7400000000001015,38.70956810703518],[-5.710396019901794,38.67999999999994],[-5.700000000000102,38.66960398009825],[-5.670360024256566,38.639999999999944],[-5.660000000000103,38.62963997574348],[-5.630323905466259,38.599999999999945],[-5.620000000000104,38.589676094533786],[-5.580000000000105,38.589687423038086],[-5.550276297307243,38.559999999999945],[-5.540000000000106,38.54972370269281]]}},{"type":"Feature","properties":{"magnitude":0.8,"percentagem":80.0,"territorio":"continente"},"geometry":{"type":"LineString","coordinates":[[-10.5,42.475288556492124],[-10.46467698819428,42.43999999999986],[-10.46,42.43532301180558],[-10.424642426382661,42.399999999999864],[-10.420000000000002,42.395357573617204],[-10.380000000000003,42.39536853425866],[-10.344596765518821,42.359999999999864],[-10.340000000000003,42.355403234481045],[-10.304561957840178,42.319999999999865],[-10.300000000000004,42.31543804215969],[-10.264527042285696,42.279999999999866],[-10.260000000000005,42.27547295771417],[-10.220000000000006,42.2754840259836],[-10.184480918234355,42.23999999999987],[-10.180000000000007,42.235519081765524],[-10.144445753600996,42.199999999999875],[-10.140000000000008,42.195554246398885],[-10.104410479688932,42.15999999999987],[-10.100000000000009,42.15558952031095],[-10.06000000000001,42.155600697671204],[-10.02436388633921,42.11999999999987],[-10.02000000000001,42.11563611366067],[-9.984328360077523,42.07999999999987],[-9.980000000000011,42.07567163992236],[-9.944292723108505,42.03999999999987],[-9.940000000000012,42.03570727689138],[-9.900000000000013,42.035718564832194],[-9.864245654237244,41.99999999999987],[-9.860000000000014,41.99575434576264],[-9.82420976158763,41.95999999999987],[-9.820000000000014,41.955790238412256],[-9.784173756775719,41.919999999999874],[-9.780000000000015,41.915826243224174],[-9.740000000000016,41.91583764326275],[-9.704126206044926,41.879999999999875],[-9.700000000000017,41.875873793954966],[-9.664089942159842,41.839999999999876],[-9.660000000000018,41.835910057840046],[-9.624053564630547,41.79999999999987],[-9.620000000000019,41.795946435369345],[-9.58000000000002,41.79595794905102],[-9.544005525584765,41.75999999999988],[-9.54000000000002,41.75599447441513],[-9.50396888552671,41.71999999999988],[-9.500000000000021,41.71603111447319],[-9.463932130314967,41.67999999999988],[-9.460000000000022,41.676067869684935],[-9.423895259487217,41.63999999999989],[-9.420000000000023,41.63610474051269],[-9.380000000000024,41.63611640362132],[-9.343846575118024,41.59999999999988],[-9.340000000000025,41.596153424881884],[-9.303809437166109,41.55999999999988],[-9.300000000000026,41.5561905628338],[-9.263772182051861,41.51999999999988],[-9.260000000000026,41.51622781794805],[-9.220000000000027,41.51623959835936],[-9.183722994053815,41.47999999999988],[-9.180000000000028,41.476277005946095],[-9.1436854682092,41.439999999999884],[-9.140000000000029,41.436314531790714],[-9.10364782362688,41.399999999999885],[-9.10000000000003,41.396352176373036],[-9.06000000000003,41.39636407572981],[-9.023598125137188,41.359999999999886],[-9.020000000000032,41.356401874862726],[-8.983560206150338,41.31999999999989],[-8.980000000000032,41.31643979384958],[-8.943522166820678,41.27999999999989],[-8.940000000000033,41.27647783317924],[-8.903484006656546,41.23999999999989],[-8.900000000000034,41.236515993343374],[-8.860000000000035,41.236528049152994],[-8.823433633369032,41.19999999999989],[-8.820000000000036,41.1965663666309],[-8.7833951939128,41.15999999999989],[-8.780000000000037,41.156604806087124],[-8.743356631977237,41.11999999999989],[-8.740000000000038,41.11664336802269],[-8.700000000000038,41.11665554667003],[-8.663305731910551,41.07999999999989],[-8.66000000000004,41.07669426808938],[-8.6232668868462,41.03999999999989],[-8.62000000000004,41.03673311315373],[-8.583227917626294,40.99999999999989],[-8.580000000000041,40.996772082373646],[-8.543188823737346,40.959999999999894],[-8.540000000000042,40.95681117626259],[-8.500000000000043,40.95682351652187],[-8.463137227219303,40.919999999999895],[-8.460000000000043,40.91686277278063],[-8.423097845096672,40.879999999999896],[-8.420000000000044,40.87690215490327],[-8.383058336586824,40.8399999999999],[-8.380000000000045,40.83694166341312],[-8.343018701163395,40.7999999999999],[-8.340000000000046,40.79698129883655],[-8.300000000000047,40.7969938037221],[-8.26296639552612,40.7599999999999],[-8.260000000000048,40.757033604473826],[-8.222926466635911,40.7199999999999],[-8.220000000000049,40.71707353336404],[-8.182886409070688,40.6799999999999],[-8.18000000000005,40.67711359092926],[-8.14000000000005,40.67712622509348],[-8.102833549688729,40.6399999999999],[-8.100000000000051,40.63716645031122],[-8.062793194547336,40.5999999999999],[-8.060000000000052,40.59720680545262],[-8.022752708935368,40.5599999999999],[-8.020000000000053,40.55724729106459],[-7.9827120923027,40.519999999999904],[-7.980000000000054,40.51728790769726],[-7.940000000000055,40.517300712013764],[-7.902658500608768,40.479999999999905],[-7.900000000000055,40.477341499391194],[-7.862617580930251,40.439999999999905],[-7.860000000000056,40.43738241906971],[-7.822576528389785,40.399999999999906],[-7.820000000000057,40.39742347161018],[-7.78253534242322,40.35999999999991],[-7.780000000000058,40.35746465757675],[-7.740000000000059,40.35747763527619],[-7.7024810048412755,40.31999999999991],[-7.70000000000006,40.31751899515869],[-7.662439510219518,40.27999999999991],[-7.6600000000000605,40.27756048978045],[-7.622397880283278,40.23999999999991],[-7.620000000000061,40.23760211971669],[-7.582356114453933,40.19999999999991],[-7.580000000000062,40.19764388554604],[-7.540000000000063,40.19765703994187],[-7.502301017060195,40.15999999999991],[-7.500000000000064,40.157698982939785],[-7.462258936822211,40.11999999999991],[-7.460000000000065,40.11774106317776],[-7.422216718754105,40.07999999999991],[-7.420000000000066,40.07778328124587],[-7.382174362262319,40.039999999999914],[-7.3800000000000665,40.03782563773766],[-7.340000000000067,40.03783897222878],[-7.30211849077416,39.999999999999915],[-7.300000000000068,39.99788150922582],[-7.262075813971573,39.959999999999916],[-7.260000000000069,39.95792418602841],[-7.222032996758094,39.919999999999916],[-7.22000000000007,39.91796700324189],[-7.181990038524751,39.87999999999992],[-7.180000000000071,39.878009961475236],[-7.140000000000072,39.87802347954875],[-7.101933378289174,39.83999999999992],[-7.1000000000000725,39.838066621710816],[-7.061890093689363,39.79999999999992],[-7.060000000000073,39.79810990631063],[-7.02184666603066,39.75999999999992],[-7.020000000000074,39.75815333396933],[-6.981803094688181,39.71999999999992],[-6.980000000000075,39.718196905311814],[-6.940000000000076,39.718210610545924],[-6.90174563066983,39.67999999999992],[-6.900000000000077,39.67825436933017],[-6.861701726746733,39.639999999999915],[-6.860000000000078,39.63829827325326],[-6.821657677047331,39.59999999999992],[-6.820000000000078,39.59834232295267],[-6.781613480930309,39.559999999999924],[-6.780000000000079,39.55838651906969],[-6.7415691377504565,39.519999999999925],[-6.74000000000008,39.518430862249545],[-6.700000000000081,39.51844480230098],[-6.661510662623587,39.479999999999926],[-6.660000000000082,39.478489337376416],[-6.6214659789827435,39.43999999999993],[-6.620000000000083,39.43853402101727],[-6.581421146118213,39.39999999999993],[-6.580000000000084,39.3985788538818],[-6.54137616336769,39.35999999999993],[-6.540000000000084,39.358623836632326],[-6.500000000000085,39.3586379721639],[-6.461316849466331,39.31999999999993],[-6.460000000000086,39.31868315053368],[-6.421271519668011,39.27999999999993],[-6.420000000000087,39.278728480332006],[-6.381226037765337,39.23999999999993],[-6.380000000000088,39.23877396223468],[-6.34118040307834,39.19999999999993],[-6.340000000000089,39.19881959692169],[-6.30113461492286,39.15999999999993],[-6.3000000000000895,39.15886538507716],[-6.26000000000009,39.158879765956065],[-6.2210742455464105,39.11999999999993],[-6.220000000000091,39.11892575445361],[-6.181028101986768,39.079999999999934],[-6.180000000000092,39.07897189801326],[-6.140981802666808,39.039999999999935],[-6.140000000000093,39.03901819733322],[-6.100935346883977,38.999999999999936],[-6.100000000000094,38.99906465311605],[-6.060000000000095,38.999079238297654],[-6.020874101627296,38.95999999999994],[-6.0200000000000955,38.95912589837274],[-5.98082728345273,38.91999999999994],[-5.980000000000096,38.91917271654731],[-5.940780306461589,38.87999999999994],[-5.940000000000097,38.879219693538445],[-5.9007331699323124,38.83999999999994],[-5.900000000000098,38.83926683006772],[-5.860685873138839,38.79999999999994],[-5.860000000000099,38.7993141268612],[-5.8200000000001,38.79932896856189],[-5.780623525340202,38.75999999999994],[-5.780000000000101,38.75937647465984],[-5.740575857286451,38.71999999999994],[-5.7400000000001015,38.71942414271359],[-5.700528026535691,38.67999999999994],[-5.700000000000102,38.67947197346435],[-5.660480032342055,38.639999999999944],[-5.660000000000103,38.63951996765799],[-5.620431873954977,38.599999999999945],[-5.620000000000104,38.59956812604507],[-5.580000000000105,38.59958323071747],[-5.540368396409622,38.559999999999945],[-5.540000000000106,38.559631603590425]]}},{"type":"Feature","properties":{"magnitude":0.9,"percentagem":90.0,"territorio":"continente"},"geometry":{"type":"LineString","coordinates":[[-10.5,42.47969962605366],[-10.460261611718565,42.43999999999986],[-10.46,42.4397383882813],[-10.420222729680491,42.399999999999864],[-10.420000000000002,42.399777270319376],[-10.380000000000003,42.399789601041],[-10.340171361208673,42.359999999999864],[-10.340000000000003,42.35982863879119],[-10.3001322025702,42.319999999999865],[-10.300000000000004,42.319867797429666],[-10.260092922571408,42.279999999999866],[-10.260000000000005,42.27990707742846],[-10.220000000000006,42.27991952923157],[-10.180041033013648,42.23999999999987],[-10.180000000000007,42.23995896698623],[-10.14000147280112,42.19999999999987],[-10.140000000000008,42.19999852719876],[-10.135300119062968,42.19999999999987],[-10.100000000000009,42.216338451464296],[-10.06000000000001,42.234855903383064],[-10.048891492109295,42.23999999999987],[-10.02000000000001,42.253390670509596],[-9.980000000000011,42.271934102003925],[-9.962605850658068,42.279999999999866],[-9.940000000000012,42.290491779338694],[-9.900000000000013,42.309061148920904],[-9.876442579841239,42.319999999999865],[-9.860000000000014,42.327641744289146],[-9.820000000000014,42.3462370099202],[-9.790401066722406,42.359999999999864],[-9.780000000000015,42.364840530635504],[-9.740000000000016,42.38346164972277],[-9.704480700284284,42.399999999999864],[-9.700000000000017,42.402088102582454],[-9.660000000000018,42.42073503197727],[-9.620000000000019,42.439385068512486],[-9.618681561353439,42.43999999999986],[-9.58000000000002,42.45805711925341],[-9.54000000000002,42.476732883768406],[-9.53300462793451,42.47999999999986],[-9.500000000000021,42.49542787303488],[-9.460000000000022,42.51412932104549],[-9.447446948171528,42.51999999999986],[-9.420000000000023,42.5328472537126],[-9.380000000000024,42.55157434017132],[-9.362007919198572,42.55999999999986],[-9.340000000000025,42.570315220577854],[-9.300000000000026,42.58906789987158],[-9.276686940002605,42.59999999999986],[-9.260000000000026,42.60783173181537],[-9.220000000000027,42.62660995776317],[-9.191483411411259,42.63999999999986],[-9.180000000000028,42.64539674449663],[-9.140000000000029,42.66420047034739],[-9.10639673608038,42.679999999999865],[-9.10000000000003,42.68301021457286],[-9.06000000000003,42.70183939300309],[-9.021426318481394,42.71999999999986],[-9.020000000000032,42.72067209686818],[-8.980000000000032,42.73952667997986],[-8.940000000000033,42.75838404302943],[-8.93657333485518,42.759999999999856],[-8.900000000000034,42.77726228439124],[-8.860000000000035,42.79614496324078],[-8.851836093672523,42.799999999999855],[-8.820000000000036,42.81504615820794],[-8.780000000000037,42.83395410358401],[-8.767213267860193,42.839999999999854],[-8.740000000000038,42.85287825225096],[-8.700000000000038,42.871811414298605],[-8.682704269609065,42.87999999999985],[-8.66000000000004,42.89075851618487],[-8.62000000000004,42.90971684446537],[-8.598308512862442,42.91999999999985],[-8.580000000000041,42.928686898511096],[-8.540000000000042,42.947670341999796],[-8.514025413303973,42.95999999999985]]}}]}