{"type":"FeatureCollection","features":[{"type":"Feature","properties":{"t_inicio":-1.0777777777777882,"t_fim":-0.433333333333346},"geometry":{"type":"LineString","coordinates":[[-14.59514425879351,49.857218208286135],[-14.301504902759945,49.69847110867925],[-14.012353956361125,49.54053895129498],[-13.72755989936644,49.3834058992156],[-13.446996882657288,49.22705667010581],[-13.170544398586003,49.07147650753357],[-12.898086975374184,48.91665115424914],[-12.62951389344667,48.762566827257814],[-12.364718921810834,48.60921019453718],[-12.103600072780637,48.4565683532659],[-11.846059373512503,48.30462880944188],[-11.592002652969967,48.153379458781124],[-11.341339343064647,48.00280856879707],[-11.093982292842071,47.852904761971004],[-10.849847594683354,47.703656999930494],[-10.608854421590053,47.55505456856204],[-10.370924874703036,47.40708706398884],[-10.135983840282279,47.25974437935223],[-9.903958855442113,47.11301669233886],[-9.674779981998427,46.966894453402304],[-9.448379687838326,46.821368374630644],[-9.224692735274203,46.67642941921641],[-9.00365607588725,46.5320687914882],[-8.785208751407936,46.38827792746711],[-8.56929180021632,46.24504848591333],[-8.35584816907999,46.10237233983187],[-8.144822629776655,45.960241568407525],[-7.936161700276472,45.818648449342774],[-7.729813570184859,45.677585451573115],[-7.525728030168722,45.53704522833711],[-7.323856405110348,45.39702061057954],[-7.124151490752382,45.25750460066771],[-6.926567493615096,45.1184903664026],[-6.731059973982127,44.97997123530736],[-6.537585791767043,44.84194068917782],[-6.346103055085479,44.704392358879154],[-6.156571071370365,44.56732001937578],[-5.96895030087893,44.43071758498084],[-5.78320231245138,44.29457910481364],[-5.5992897413894696,44.158898758453375],[-5.417176249333522,44.02367085177894],[-5.23682648602329,43.888889812984466],[-5.058206052837164,43.754550188762046],[-4.881281468009547,43.620646640642114],[-4.706020133433896,43.48717394148382],[-4.532390302964643,43.35412697210807],[-4.360361052136483,43.22150071806507],[-4.18990224922473,43.0892902665308],[-4.020984527575848,42.95749080332521],[-3.8535792591403037,42.826097610046375],[-3.6876585291459207,42.69510606131556],[-3.5231951118518054,42.56451162212687],[-3.360162447327923,42.434309845297456],[-3.198534619207976,42.30449636901295],[-3.0382863333665284,42.175066914464004],[-2.8793928974742755,42.046017283569675],[-2.721830201387945,41.91734335678344],[-2.565574698333819,41.78904109097865],[-2.4106033868462475,41.66110651740916],[-2.2568937934248368,41.53353573974244],[-2.104423955875717,41.406324932161546],[-1.95317240730472,41.279470337533155],[-1.8031181607313727,41.152968265638734],[-1.6542406942952255,41.02681509146613],[-1.5065199370265816,40.90100725355918],[-1.3599362551561,40.775541252422464],[-1.214470438938605,40.65041364897949],[-1.0701036899676524,40.525621063081715],[-0.9268176089592259,40.401160172066355],[-0.7845941839833301,40.27702770936103],[-0.6434157791238704,40.1532204631334],[-0.5032651235481467,40.02973527498416],[-0.3641253009677712,39.90656903868107],[-0.22597973947475225,39.783718698933235],[-0.08881220173583415,39.661181250203384],[0.04739322446923211,39.538953735556944],[0.18265213538089142,39.417033245546726],[0.3169798200774494,39.295416917131234],[0.4503912689908134,39.17410193262618],[0.582901182132872,39.053085518686984],[0.7145239770437399,38.9323649453222],[0.8452737964739754,38.811937524935495],[0.9751645158109739,38.69180061139642],[1.1042097502602246,38.57195159913778],[1.2324228617907522,38.4523879222795],[1.3598169658545771,38.333107053777454],[1.48640493788875,38.21410650459673],[1.612199419608487,38.09538382290829],[1.7372128250998458,37.97693659330828],[1.8614573467191917,37.85876243605921],[1.9849449608072405,37.740859006352075],[2.10768743322447,37.623223993589],[2.2296963247150927,37.50585512068546],[2.3509829961053015,37.3887501433915],[2.471558613342779,37.27190684963137],[2.5914341523829307,37.15532305886088],[2.710620403927379,37.03899662144182],[2.8291279780205514,36.922925418033174],[2.9469673085092722,36.807107358998195],[3.0641486573703105,36.69154038382717],[3.1806821189106813,36.576222460575025],[3.2965776238453657,36.4611515853138],[3.4118449432566536,36.34632578159869],[3.526493692439402,36.231743099948375],[3.640533334636075,36.11740161733799],[3.7539731846657958,36.003299436705255],[3.866822412450489,35.889434686468945],[3.9790900464422805,35.775805520059144],[4.090784976955234,35.66241011545955],[4.20191595940463,35.54924667476068],[4.312491617457255,35.43631342372448],[4.422520446095348,35.323608611358985],[4.532010814597328,35.21113050950397],[4.640970969438115,35.09887741242596],[4.749409037111576,34.98684763642355],[4.857333026877711,34.875039519441586],[4.964750833437137,34.76345142069493]]}}]}