{"type":"FeatureCollection","properties":{"largura_maxima_km":null,"largura_sobre_pt_km":null,"linha_central_sobre_pt":false,"desenhavel_como_area":true,"perfil_largura":[{"t":2.27778,"lat":23.3326,"lon":-24.0225,"largura_km":null,"eixo_na_terra":false}]},"features":[{"type":"Feature","properties":{},"geometry":{"type":"Polygon","coordinates":[[[-17.038529579139038,21.629111996053112],[-16.597017198792656,21.571372307621644],[-16.072243873580334,21.494576756200686],[-15.223120258746974,21.343338814027447],[-14.91771861077757,21.92105223588083],[-15.856536078323415,22.16854393839375],[-16.37504950601121,22.319515798928236],[-16.80528796248052,22.449293003891768],[-18.860040476410944,23.082765940730333],[-19.762748415298375,23.35346962558448],[-20.341859056334442,23.52176360902121],[-20.906334076715552,23.680932467114516],[-21.45772094688334,23.831201810284163],[-21.728787815219874,23.903031860502676],[-22.26197092306853,24.040105407122983],[-22.783389799670744,24.168396263521966],[-23.293053994797447,24.287886187476808],[-23.79081510153705,24.398551443355665],[-24.276415304747587,24.50037357936989],[-24.749520237983376,24.593346467678245],[-25.209742012147416,24.677480948764458],[-25.434890059371924,24.716242587666816],[-25.874982665101413,24.787184115826946],[-26.30108750862172,24.849405908417957],[-26.508748309733733,24.877273376095246],[-26.91299128327671,24.926587376990042],[-27.30206868201165,24.96744533345382],[-27.490773349927196,24.98474825472756],[-27.856224506098073,25.01320453133628],[-28.205351983417643,25.033614487546973],[-28.37365501482671,25.040864604937635],[-28.697469125022423,25.0495915810088],[-28.85287514011921,25.05112677795207],[-29.15043112167689,25.048695351840703],[-29.29248323030734,25.044794026039966],[-29.562901007596253,25.031791348155686],[-29.691176993789185,25.02276146624974],[-29.814773682874375,25.012095087077995],[-29.933649929892937,24.999830199875117],[-30.047766132189594,24.98600560708114],[-30.15708425989925,24.970660874047184],[-30.261567883435703,24.95383627814165],[-30.361182198101403,24.935572757350585],[-30.45589404592974,24.915911858461783],[-30.54567193486585,24.894895684918417],[-30.630486055387422,24.872566844424412],[-30.71030829466187,24.848968396380318],[-30.785112248334315,24.824143799225137],[-30.854873230037043,24.79813685775656],[-30.91956827870939,24.770991670498717],[-30.979176163814515,24.742752577183854],[-31.033677388537967,24.713464106411397],[-31.083054191051332,24.68317092354512],[-31.12729054392264,24.65191777890624],[-31.16637215175379,24.61974945631798],[-31.200286447123773,24.586710722054267],[-31.229022584915185,24.55284627424287],[-31.252571435099696,24.51820069277093],[-31.270925574056662,24.482818389738327],[-31.284079274497657,24.446743560502142],[-31.29202849406721,24.410020135353204],[-31.294770862689177,24.37269173186368],[-31.292305668724737,24.334801607942286],[-31.284633844006606,24.296392615631987],[-31.27175794781195,24.25750715568282],[-31.253682149832883,24.218187132930773],[-31.230412212200918,24.178473912511553],[-31.201955470619964,24.13840827693646],[-31.16832081465708,24.098030384055733],[-31.129518667238585,24.05737972593293],[-31.08556096339464,24.016495088652352],[-31.03646112829165,23.975414513079773],[-30.98223405458654,23.93417525659494],[-30.922896079134887,23.892813755812984],[-30.858464959076855,23.85136559030994],[-30.788959847321678,23.809865447365883],[-30.71440126744497,23.768347087737922],[-30.634811088006472,23.726843312472806],[-30.550212496289845,23.685385930767794],[-30.460629971457763,23.644005728886015],[-30.366089257107802,23.602732440130914],[-30.266617333205602,23.561594715881768],[-30.1622423873618,23.52062009769035],[-29.938902041210724,23.439264636533093],[-29.69631673476613,23.35886319866206],[-29.567889656651232,23.319076569612587],[-29.29694054624602,23.24043324711129],[-29.007441313380923,23.163150535480654],[-28.85582998271775,23.12505974051826],[-28.53908041393106,23.050048184623602],[-28.20456585633275,22.976672541505447],[-27.852620723797145,22.905004244567543],[-27.48358843447801,22.835091896164673],[-27.09781923305772,22.76696080609904],[-26.695667563232718,22.700612514580808],[-26.277488828323243,22.636024263584765],[-25.84363531145212,22.573148365266476],[-25.394450928242122,22.511911393468996],[-24.930264335974414,22.452213090125735],[-24.45137969265579,22.393924825449282],[-23.958063993961133,22.336887366933883],[-23.450529320243533,22.28090757556023],[-22.393211539180044,22.171146282023418],[-21.56285571795081,22.089502724117818],[-19.48457685236653,21.890864996963412],[-18.510561007287663,21.79407350964652],[-17.811800343345794,21.719750385158562],[-17.43808658803067,21.677322811741984],[-17.038529579139038,21.629111996053112]]]}}]}