{"type":"FeatureCollection","features":[{"type":"Feature","properties":{"magnitude":0.2,"percentagem":20.0,"territorio":"continente"},"geometry":{"type":"LineString","coordinates":[[-9.235304121378315,36.0],[-9.235336019018405,36.04],[-9.220000000000027,36.05537549928937],[-9.195375499289396,36.08],[-9.19540767907393,36.120000000000005],[-9.180000000000028,36.13544750900221],[-9.155447509002245,36.16],[-9.155479974617709,36.199999999999996],[-9.140000000000029,36.21552015876632],[-9.115520158766351,36.239999999999995],[-9.115552913963596,36.279999999999994],[-9.10000000000003,36.29559345697524],[-9.07559345697528,36.31999999999999],[-9.075626505570945,36.35999999999999],[-9.06000000000003,36.375667412169804],[-9.035667412169841,36.39999999999999],[-9.035700758047794,36.44],[-9.020000000000032,36.45574203304129],[-8.995742033041326,36.47999999999999],[-8.99577568015415,36.51999999999999],[-8.980000000000032,36.53581732843479],[-8.955817328434833,36.55999999999999],[-8.940000000000033,36.5758591863016],[-8.915859186301653,36.59999999999998],[-8.915893307352691,36.639999999999986],[-8.900000000000034,36.655935546280745],[-8.875935546280788,36.679999999999986],[-8.875969978957958,36.719999999999985],[-8.860000000000035,36.73601260406569],[-8.83601260406574,36.759999999999984],[-8.836047352578028,36.79999999999998],[-8.820000000000036,36.816090369075894],[-8.796090369075948,36.83999999999998],[-8.796125437708326,36.87999999999998],[-8.780000000000037,36.8961688509009],[-8.756168850900956,36.91999999999998],[-8.756204244016118,36.95999999999998],[-8.740000000000038,36.97624805930422],[-8.716248059304279,36.99999999999998],[-8.716283781344396,37.03999999999998],[-8.700000000000038,37.056328004227296],[-8.676328004227361,37.07999999999998],[-8.676364059715903,37.119999999999976],[-8.66000000000004,37.136408695793584],[-8.636408695793646,37.159999999999975],[-8.636445089337247,37.199999999999974],[-8.62000000000004,37.21649014431269],[-8.596490144312755,37.239999999999974],[-8.580000000000041,37.25653543448243],[-8.556535434482498,37.27999999999997],[-8.556572360284791,37.31999999999998],[-8.540000000000042,37.33661807842135],[-8.516618078421423,37.35999999999997],[-8.516655354404755,37.39999999999996],[-8.500000000000043,37.416701506485076],[-8.476701506485147,37.43999999999997],[-8.476739137567085,37.47999999999997],[-8.460000000000043,37.4967857296798],[-8.436785729679873,37.51999999999997],[-8.436823720870324,37.55999999999997],[-8.420000000000044,37.576870759218465],[-8.396870759218547,37.599999999999966],[-8.396909115621927,37.639999999999965],[-8.380000000000045,37.65695660652563],[-8.356956606525715,37.679999999999964],[-8.356995333343189,37.71999999999996],[-8.340000000000046,37.73704328324246],[-8.317043283242546,37.75999999999996],[-8.300000000000047,37.77709149085665],[-8.277091490856728,37.79999999999996],[-8.277130801231985,37.83999999999996],[-8.260000000000048,37.857179478089535],[-8.237179478089624,37.87999999999996],[-8.237219172584062,37.91999999999996],[-8.220000000000049,37.93726832544416],[-8.197268325444247,37.959999999999965],[-8.19730840962134,37.99999999999996],[-8.18000000000005,38.017358045373456],[-8.157358045373554,38.03999999999995],[-8.157398524904545,38.079999999999956],[-8.14000000000005,38.09744865057172],[-8.117448650571816,38.119999999999955],[-8.117489531238334,38.159999999999954],[-8.100000000000051,38.1775401539804],[-8.077540153980497,38.19999999999995],[-8.060000000000052,38.217591055830695],[-8.037591055830791,38.23999999999995],[-8.03763256879428,38.27999999999995],[-8.020000000000053,38.29768397911947],[-7.997683979119577,38.31999999999995],[-7.997725908467308,38.35999999999996],[-7.980000000000054,38.377777834791885],[-7.957777834791996,38.39999999999995],[-7.957820186719583,38.43999999999994],[-7.940000000000055,38.457872636717084],[-7.917872636717195,38.47999999999995],[-7.917915417543567,38.519999999999946],[-7.900000000000055,38.53796839904038],[-7.877968399040492,38.559999999999945],[-7.860000000000056,38.57802167899132],[-7.83802167899143,38.599999999999945],[-7.838065136190279,38.639999999999944],[-7.820000000000057,38.65811896010827],[-7.798118960108386,38.67999999999994],[-7.798162862885137,38.71999999999994],[-7.780000000000058,38.73821723900443],[-7.758217239004543,38.75999999999994],[-7.758261594141177,38.79999999999994],[-7.740000000000059,38.81831653086286],[-7.718316530862982,38.83999999999993],[-7.70000000000006,38.8583717823994],[-7.6783717823995215,38.87999999999994],[-7.678416851176115,38.919999999999945],[-7.6600000000000605,38.938472676703995],[-7.638472676704117,38.95999999999994],[-7.638518215753596,38.999999999999936],[-7.620000000000061,39.01857462411978],[-7.598574624119905,39.039999999999935],[-7.598620640730487,39.079999999999934],[-7.580000000000062,39.09867764096451],[-7.5586776409646355,39.11999999999993],[-7.540000000000063,39.13873497359294],[-7.51873497359307,39.15999999999993],[-7.518781743894616,39.19999999999993],[-7.500000000000064,39.21883968278769],[-7.478839682787822,39.23999999999993],[-7.4788869499135355,39.27999999999993],[-7.460000000000065,39.298945504588986],[-7.438945504589123,39.31999999999993],[-7.43899327638157,39.35999999999993],[-7.420000000000066,39.37905245655722],[-7.399052456557355,39.39999999999992],[-7.3800000000000665,39.41911198804135],[-7.359111988041487,39.43999999999993],[-7.359160556624065,39.479999999999926],[-7.340000000000067,39.49922072910969],[-7.31922072910983,39.519999999999925],[-7.31926982310182,39.559999999999924],[-7.300000000000068,39.57933064684222],[-7.279330646842371,39.59999999999992],[-7.2793802746943825,39.63999999999993],[-7.260000000000069,39.6594417601625],[-7.23944176016265,39.67999999999992],[-7.22000000000007,39.69950361731681],[-7.19950361731695,39.71999999999992],[-7.199554088401829,39.75999999999992],[-7.180000000000071,39.7796166239976],[-7.159616623997751,39.79999999999992],[-7.159667651309702,39.83999999999992],[-7.140000000000072,39.85973087640822],[-7.119730876408374,39.87999999999992],[-7.1000000000000725,39.899794488822536],[-7.079794488822696,39.919999999999916],[-7.079846394970357,39.959999999999916],[-7.060000000000073,39.97991071454617],[-7.039910714546334,39.999999999999915],[-7.0399632005536805,40.039999999999914],[-7.020000000000074,40.060028238982326],[-7.000028238982491,40.07999999999991],[-7.00008131448914,40.11999999999991],[-6.980000000000075,40.140147083720876],[-6.960147083721039,40.15999999999991],[-6.940000000000076,40.18021326350852],[-6.920213263508683,40.19999999999991],[-6.92026727083267,40.23999999999991],[-6.900000000000077,40.26033420051135],[-6.8803342005115145,40.27999999999991],[-6.880388822882354,40.31999999999991],[-6.860000000000078,40.34045651509693],[-6.840456515097097,40.35999999999991],[-6.820000000000078,40.380524635731284],[-6.800524635731456,40.399999999999906],[-6.800580230624419,40.439999999999905],[-6.780000000000079,40.46064913399958],[-6.760649133999757,40.479999999999905],[-6.760705370983162,40.519999999999904],[-6.74000000000008,40.540775070489616],[-6.720775070489793,40.5599999999999],[-6.700000000000081,40.58084521733174],[-6.680845217331916,40.5999999999999],[-6.680902469944206,40.6399999999999],[-6.660000000000082,40.660973434322386],[-6.640973434322566,40.6799999999999],[-6.6410313576760185,40.7199999999999],[-6.620000000000083,40.74110315378213],[-6.6011031537823115,40.7599999999999],[-6.580000000000084,40.781175417270404],[-6.561175417270586,40.7999999999999],[-6.561234401941402,40.8399999999999],[-6.540000000000084,40.86130751985262],[-6.521307519852812,40.879999999999896],[-6.5213672056437755,40.919999999999895],[-6.500000000000085,40.94144119303205],[-6.481441193032234,40.959999999999894],[-6.460000000000086,40.98151566906536],[-6.441515669065556,40.99999999999989],[-6.44157646464019,41.03999999999989],[-6.420000000000087,41.06165183423451],[-6.401651834234711,41.07999999999989],[-6.380000000000088,41.10172770604839],[-6.361727706048596,41.11999999999989],[-6.361789642307334,41.15999999999989],[-6.340000000000089,41.1818664326633],[-6.321866432663496,41.19999999999989],[-6.321929122839863,41.23999999999989],[-6.3000000000000895,41.26200684832061],[-6.2820068483208145,41.27999999999989],[-6.26000000000009,41.302085099440525],[-6.242085099440729,41.31999999999989],[-6.2421489836912345,41.359999999999886],[-6.220000000000091,41.38222819648418],[-6.202228196484391,41.399999999999885],[-6.202292870192022,41.439999999999884],[-6.180000000000092,41.46237306228969],[-6.1623730622899044,41.47999999999988],[-6.140000000000093,41.5024538049258],[-6.12245380492601,41.51999999999988],[-6.122519729477565,41.55999999999988],[-6.100000000000094,41.58260147965888],[-6.08260147965909,41.59999999999988],[-6.060000000000095,41.62268379630491],[-6.042683796305123,41.63999999999988],[-6.042751007965863,41.67999999999988],[-6.0200000000000955,41.7028343614932],[-6.002834361493424,41.71999999999988],[-6.002902424573605,41.75999999999988],[-5.980000000000096,41.78298683448101],[-5.962986834481225,41.799999999999876],[-5.940000000000097,41.823071838386284],[-5.923071838386509,41.839999999999876],[-5.923141251360092,41.879999999999875],[-5.900000000000098,41.903227342900394],[-5.883227342900614,41.919999999999874],[-5.860000000000099,41.94331404607167],[-5.843314046071894,41.95999999999987],[-5.843384849097856,41.99999999999987],[-5.8200000000001,42.02347267240354],[-5.803472672403772,42.03999999999987],[-5.803544395463058,42.07999999999987],[-5.780000000000101,42.1036333605227],[-5.763633360522931,42.11999999999987],[-5.7400000000001015,42.14372296773812],[-5.723722967738354,42.15999999999987],[-5.72379615046639,42.19999999999987],[-5.700000000000102,42.22388693411832],[-5.6838869341185525,42.23999999999987],[-5.660000000000103,42.26397837950089],[-5.64397837950113,42.279999999999866],[-5.644053066487276,42.319999999999865],[-5.620000000000104,42.344145724407085],[-5.604145724407321,42.359999999999864],[-5.580000000000105,42.384239064436166],[-5.564239064436405,42.399999999999864],[-5.564315302102944,42.43999999999986],[-5.540000000000106,42.464409892261116]]}},{"type":"Feature","properties":{"magnitude":0.4,"percentagem":40.0,"territorio":"continente"},"geometry":{"type":"LineString","coordinates":[[-9.250608242756602,36.0],[-9.250672038036782,36.04],[-9.220000000000027,36.07075099857873],[-9.210750998578762,36.08],[-9.210815358147833,36.12],[-9.180000000000028,36.150895018004434],[-9.170895018004462,36.16],[-9.170959949235389,36.199999999999996],[-9.140000000000029,36.23104031753264],[-9.131040317532673,36.239999999999995],[-9.131105827927161,36.279999999999994],[-9.10000000000003,36.31118691395049],[-9.09118691395053,36.31999999999999],[-9.091253011141857,36.35999999999999],[-9.06000000000003,36.391334824339616],[-9.051334824339651,36.39999999999999],[-9.051401516095554,36.43999999999999],[-9.020000000000032,36.471484066082574],[-9.01148406608262,36.47999999999999],[-9.011551360308268,36.51999999999999],[-8.980000000000032,36.55163465686959],[-8.971634656869634,36.55999999999999],[-8.940000000000033,36.591718372603225],[-8.931718372603273,36.59999999999999],[-8.931786614705349,36.639999999999986],[-8.900000000000034,36.671871092561496],[-8.89187109256154,36.679999999999986],[-8.89193995791588,36.719999999999985],[-8.860000000000035,36.75202520813139],[-8.852025208131446,36.759999999999984],[-8.85209470515602,36.79999999999998],[-8.820000000000036,36.832180738151806],[-8.812180738151858,36.83999999999998],[-8.812250875416618,36.87999999999998],[-8.780000000000037,36.91233770180182],[-8.772337701801874,36.91999999999998],[-8.772408488032198,36.95999999999998],[-8.740000000000038,36.99249611860846],[-8.73249611860852,36.99999999999998],[-8.732567562688752,37.03999999999998],[-8.700000000000038,37.07265600845462],[-8.692656008454684,37.07999999999998],[-8.692728119431765,37.119999999999976],[-8.66000000000004,37.152817391587185],[-8.652817391587252,37.159999999999975],[-8.652890178674454,37.199999999999974],[-8.62000000000004,37.232980288625406],[-8.612980288625469,37.239999999999974],[-8.580000000000041,37.27307086896488],[-8.573070868964953,37.27999999999997],[-8.573144720569541,37.31999999999997],[-8.540000000000042,37.35323615684273],[-8.533236156842806,37.35999999999997],[-8.533310708809468,37.39999999999997],[-8.500000000000043,37.433403012970174],[-8.49340301297025,37.43999999999997],[-8.493478275134125,37.47999999999997],[-8.460000000000043,37.513571459359625],[-8.453571459359702,37.51999999999997],[-8.453647441740603,37.55999999999997],[-8.420000000000044,37.59374151843697],[-8.41374151843705,37.599999999999966],[-8.413818231243807,37.639999999999965],[-8.380000000000045,37.6739132130513],[-8.373913213051384,37.679999999999964],[-8.373990666686332,37.71999999999996],[-8.340000000000046,37.75408656648496],[-8.334086566485045,37.75999999999996],[-8.300000000000047,37.79418298171333],[-8.294182981713409,37.79999999999996],[-8.294261602463925,37.83999999999996],[-8.260000000000048,37.87435895617911],[-8.2543589561792,37.87999999999996],[-8.254438345168076,37.91999999999996],[-8.220000000000049,37.95453665088836],[-8.214536650888444,37.95999999999996],[-8.214616819242632,37.99999999999996],[-8.18000000000005,38.03471609074696],[-8.174716090747058,38.03999999999996],[-8.174797049809042,38.079999999999956],[-8.14000000000005,38.11489730114349],[-8.134897301143585,38.119999999999955],[-8.134979062476619,38.159999999999954],[-8.100000000000051,38.19508030796084],[-8.095080307960941,38.19999999999995],[-8.060000000000052,38.23518211166143],[-8.05518211166153,38.23999999999995],[-8.055265137588504,38.27999999999995],[-8.020000000000053,38.315367958238994],[-8.0153679582391,38.31999999999995],[-8.015451816934561,38.35999999999995],[-7.980000000000054,38.39555566958383],[-7.975555669583938,38.39999999999995],[-7.975640373439113,38.43999999999995],[-7.940000000000055,38.47574527343423],[-7.935745273434337,38.47999999999995],[-7.935830835087078,38.519999999999946],[-7.900000000000055,38.555936798080815],[-7.895936798080929,38.559999999999945],[-7.860000000000056,38.596043357982694],[-7.856043357982801,38.599999999999945],[-7.8561302723805,38.639999999999944],[-7.820000000000057,38.6762379202166],[-7.816237920216715,38.67999999999994],[-7.816325725770217,38.71999999999994],[-7.780000000000058,38.75643447800891],[-7.776434478009029,38.75999999999994],[-7.776523188282296,38.79999999999994],[-7.740000000000059,38.836633061725784],[-7.736633061725905,38.83999999999994],[-7.70000000000006,38.87674356479886],[-7.696743564798982,38.87999999999994],[-7.696833702352167,38.91999999999994],[-7.6600000000000605,38.95694535340805],[-7.656945353408173,38.95999999999994],[-7.657036431507128,38.999999999999936],[-7.620000000000061,39.03714924823962],[-7.617149248239748,39.039999999999935],[-7.617241281460912,39.079999999999934],[-7.580000000000062,39.11735528192908],[-7.577355281929208,39.11999999999993],[-7.540000000000063,39.157469947185945],[-7.537469947186077,39.15999999999993],[-7.537563487789167,39.19999999999993],[-7.500000000000064,39.237679365575445],[-7.4976793655755785,39.23999999999993],[-7.497773899827006,39.27999999999993],[-7.460000000000065,39.31789100917805],[-7.45789100917818,39.31999999999993],[-7.457986552763075,39.35999999999993],[-7.420000000000066,39.3981049131145],[-7.418104913114643,39.39999999999993],[-7.3800000000000665,39.43822397608277],[-7.378223976082908,39.43999999999993],[-7.378321113248062,39.479999999999926],[-7.340000000000067,39.51844145821945],[-7.338441458219593,39.519999999999925],[-7.338539646203572,39.559999999999924],[-7.300000000000068,39.59866129368453],[-7.298661293684673,39.59999999999992],[-7.298760549388695,39.63999999999992],[-7.260000000000069,39.67888352032509],[-7.258883520325233,39.67999999999992],[-7.22000000000007,39.71900723463368],[-7.219007234633829,39.71999999999992],[-7.219108176803585,39.75999999999992],[-7.180000000000071,39.799233247995275],[-7.17923324799543,39.79999999999992],[-7.179335302619334,39.83999999999992],[-7.140000000000072,39.87946175281652],[-7.139461752816676,39.87999999999992],[-7.1000000000000725,39.91958897764516],[-7.099588977645319,39.919999999999916],[-7.099692789940641,39.959999999999916],[-7.060000000000073,39.999821429092435],[-7.059821429092594,39.999999999999915],[-7.059926401107286,40.039999999999914],[-7.060000000000073,40.06792625027752],[-7.100000000000072,40.07720714996007],[-7.112047505480604,40.07999999999991],[-7.140000000000072,40.08648034531284],[-7.180000000000071,40.09574499589082],[-7.22000000000007,40.10500046720884],[-7.260000000000069,40.11424675577951],[-7.284912097003366,40.11999999999991],[-7.300000000000068,40.123484643432526],[-7.340000000000067,40.13271463397104],[-7.380000000000067,40.14193542603934],[-7.4200000000000665,40.1511470161482],[-7.458481021006131,40.15999999999991],[-7.460000000000065,40.16034947944724],[-7.500000000000064,40.1695447226704],[-7.540000000000063,40.178730748226606],[-7.580000000000062,40.18790755262485],[-7.620000000000061,40.19707513237165],[-7.632773226485472,40.1999999999999],[-7.6600000000000605,40.206234883784724],[-7.70000000000006,40.21538605566701],[-7.740000000000059,40.2245279872061],[-7.780000000000058,40.23366067490663],[-7.807792187412954,40.23999999999991],[-7.820000000000057,40.24278473954437],[-7.860000000000056,40.25190097069052],[-7.900000000000055,40.261007942321434],[-7.940000000000055,40.27010565093975],[-7.980000000000054,40.27919409304567],[-7.983550046368247,40.27999999999991],[-8.020000000000053,40.28827511605553],[-8.060000000000052,40.29734704082776],[-8.100000000000051,40.30640968342629],[-8.14000000000005,40.31546304034927],[-8.160064380751264,40.31999999999991],[-8.18000000000005,40.32450811494329],[-8.220000000000049,40.333544906004015],[-8.260000000000048,40.34257239574261],[-8.300000000000047,40.35159058065519],[-8.337337965061794,40.35999999999991],[-8.340000000000046,40.36059959095221],[-8.380000000000045,40.36960116154522],[-8.420000000000044,40.378593411680185],[-8.460000000000043,40.387576337851065],[-8.500000000000043,40.39654993654931],[-8.515393190743689,40.399999999999906],[-8.540000000000042,40.4055154315565],[-8.580000000000041,40.41447235543955],[-8.62000000000004,40.42341993623265],[-8.66000000000004,40.43235817042503],[-8.694233392326593,40.4399999999999],[-8.700000000000038,40.441287340546886],[-8.740000000000038,40.450208851624026],[-8.780000000000037,40.45912100049735],[-8.820000000000036,40.46802378365382],[-8.860000000000035,40.47691719757789],[-8.87387870212416,40.479999999999905],[-8.900000000000034,40.4858025252332],[-8.940000000000033,40.4946791557377],[-8.980000000000032,40.50354640142086],[-9.020000000000032,40.51240425876481],[-9.054336194590062,40.519999999999904],[-9.06000000000003,40.52125300165607],[-9.10000000000003,40.53009402743448],[-9.140000000000029,40.53892564929849],[-9.180000000000028,40.54774786372779],[-9.220000000000027,40.556560667199534],[-9.235625760204499,40.5599999999999],[-9.260000000000026,40.56536524144963],[-9.300000000000026,40.5741611532389],[-9.340000000000025,40.582947638509054],[-9.380000000000024,40.59172469373478],[-9.417753593121363,40.5999999999999],[-9.420000000000023,40.60049242401894],[-9.460000000000022,40.60925253956689],[-9.500000000000021,40.61800320952214],[-9.54000000000002,40.62674443035683],[-9.58000000000002,40.63547619854045],[-9.600744255317089,40.6399999999999],[-9.620000000000019,40.64419943497221],[-9.660000000000018,40.652914203544135],[-9.700000000000017,40.6616195039298],[-9.740000000000016,40.67031533259609],[-9.780000000000015,40.67900168600727],[-9.784601519253282,40.6799999999999],[-9.820000000000014,40.68768024770776],[-9.860000000000014,40.696349541672134],[-9.900000000000013,40.7050093448589],[-9.940000000000012,40.71365965372959],[-9.969349427708414,40.7199999999999],[-9.980000000000011,40.72230096949329],[-10.02000000000001,40.73093417114828],[-10.06000000000001,40.739557862977215],[-10.100000000000009,40.748172041438835],[-10.140000000000008,40.756776702989235],[-10.154999028946104,40.7599999999999],[-10.180000000000007,40.76537302026017],[-10.220000000000006,40.773960514935375],[-10.260000000000005,40.78253847720141],[-10.300000000000004,40.79110690351149],[-10.340000000000003,40.799665790316126],[-10.341563429798486,40.7999999999999],[-10.380000000000003,40.808216929044974],[-10.420000000000002,40.816758589409375],[-10.46,40.825290694782055],[-10.5,40.833813241610535]]}},{"type":"Feature","properties":{"magnitude":0.6,"percentagem":60.0,"territorio":"acores"},"geometry":{"type":"LineString","coordinates":[[-24.04000000000017,36.06071560512628],[-24.08000000000017,36.066584150103765],[-24.120000000000168,36.07244113579554],[-24.160000000000167,36.07828655496067],[-24.171747309845543,36.08],[-24.200000000000166,36.08412092564414],[-24.240000000000165,36.08994393104142],[-24.280000000000165,36.09575534524218],[-24.320000000000164,36.101555160978464],[-24.360000000000163,36.107343370974036],[-24.400000000000162,36.11311996794448],[-24.44000000000016,36.11888494459707],[-24.447751645402192,36.12],[-24.48000000000016,36.124638882749515],[-24.52000000000016,36.130381324862014],[-24.56000000000016,36.13611212186177],[-24.600000000000158,36.14183126642848],[-24.640000000000157,36.147538751233455],[-24.680000000000156,36.15323456893958],[-24.720000000000155,36.15891871220139],[-24.727624089479008,36.16],[-24.760000000000154,36.164591754662574],[-24.800000000000153,36.17025324208482],[-24.840000000000153,36.17590303013946],[-24.88000000000015,36.18154111145277],[-24.920000000000154,36.18716747864255],[-24.96000000000015,36.19278212431802],[-25.00000000000015,36.198385041079916],[-25.01155264640354,36.199999999999996],[-25.04000000000015,36.203976722883326],[-25.080000000000148,36.209556861960635],[-25.120000000000147,36.21512524706912],[-25.160000000000146,36.22068187078064],[-25.200000000000145,36.22622672565838],[-25.240000000000144,36.23175980425686],[-25.280000000000143,36.2372810991219],[-25.299738541393708,36.239999999999995],[-25.320000000000142,36.242790953410335],[-25.36000000000014,36.24828934818144],[-25.40000000000014,36.2537759340283],[-25.44000000000014,36.25925070346727],[-25.48000000000014,36.26471364900587],[-25.520000000000135,36.2701647631428],[-25.560000000000137,36.27560403836791],[-25.592397396804934,36.279999999999994],[-25.600000000000136,36.281031596306825],[-25.640000000000136,36.28644784844489],[-25.680000000000135,36.29185223634106],[-25.720000000000134,36.29724475245504],[-25.760000000000133,36.302625389237555],[-25.800000000000132,36.307994139130386],[-25.84000000000013,36.313350994566264],[-25.88000000000013,36.318695947968926],[-25.889780064932385,36.31999999999999],[-25.92000000000013,36.3240294940071],[-25.96000000000013,36.329351282829165],[-26.000000000000128,36.33466114412305],[-26.040000000000127,36.33995907028151],[-26.080000000000126,36.34524505368826],[-26.120000000000125,36.35051908671775],[-26.160000000000124,36.35578116173534],[-26.19214213302765,36.35999999999999],[-26.200000000000124,36.36103139922352],[-26.240000000000123,36.366270185351304],[-26.280000000000122,36.37149698782464],[-26.32000000000012,36.376711798977205],[-26.36000000000012,36.38191461113338],[-26.40000000000012,36.38710541660822],[-26.44000000000012,36.39228420770745],[-26.480000000000118,36.3974509767274],[-26.49977889417479,36.39999999999999],[-26.520000000000117,36.40260603833002],[-26.560000000000116,36.40774937541282],[-26.600000000000115,36.4128806645992],[-26.640000000000114,36.41799989815308],[-26.680000000000113,36.42310706832883],[-26.720000000000113,36.428202167371346],[-26.760000000000115,36.43328518751598],[-26.80000000000011,36.43835612098848],[-26.812997078747276,36.43999999999998],[-26.84000000000011,36.44341538075306],[-26.88000000000011,36.44846273836835],[-26.92000000000011,36.45349798331445],[-26.960000000000107,36.45852110778383],[-27.000000000000107,36.46353210395931],[-27.040000000000106,36.46853096401395],[-27.080000000000105,36.4735176801111],[-27.120000000000104,36.47849224440437],[-27.132152476149187,36.47999999999999],[-27.160000000000103,36.48345507295043],[-27.200000000000102,36.488405916561334],[-27.2400000000001,36.49334458218576],[-27.2800000000001,36.49827106194314],[-27.3200000000001,36.50318534794302],[-27.3600000000001,36.508087432284995],[-27.4000000000001,36.51297730705873],[-27.440000000000097,36.51785496434394],[-27.457633805486296,36.51999999999999],[-27.480000000000096,36.52272072869831],[-27.520000000000095,36.527574519537644],[-27.560000000000095,36.532416066514706],[-27.600000000000094,36.53724536167416],[-27.640000000000093,36.54206239705053],[-27.680000000000092,36.546867164668235],[-27.72000000000009,36.551659656541545],[-27.76000000000009,36.55643986467459],[-27.789866595000767,36.55999999999999],[-27.80000000000009,36.56120792810222],[-27.84000000000009,36.565964123053234],[-27.880000000000088,36.570708007693185],[-27.920000000000087,36.57543957399016],[-27.960000000000086,36.580158813901974],[-28.000000000000085,36.584865719376054],[-28.040000000000084,36.58956028234953],[-28.080000000000084,36.594242494749054],[-28.120000000000083,36.59891234849094],[-28.129340319157734,36.59999999999999],[-28.160000000000082,36.60357026805306],[-28.20000000000008,36.60821594217883],[-28.24000000000008,36.61284923084656],[-28.28000000000008,36.61747012593548],[-28.32000000000008,36.62207861931428],[-28.360000000000078,36.626674702841],[-28.400000000000077,36.63125836836311],[-28.440000000000076,36.63582960771743],[-28.4765916400806,36.639999999999986],[-28.480000000000075,36.64038845962072],[-28.520000000000074,36.64493537044112],[-28.560000000000073,36.649469828083326],[-28.600000000000072,36.65399182434611],[-28.64000000000007,36.65850135101745],[-28.68000000000007,36.66299839987454],[-28.72000000000007,36.66748296268371],[-28.76000000000007,36.671955031200376],[-28.800000000000068,36.67641459716913],[-28.8322490126413,36.679999999999986],[-28.840000000000067,36.680861755877885],[-28.880000000000067,36.685296824337826],[-28.920000000000066,36.68971936299484],[-28.960000000000065,36.69412936355433],[-29.000000000000064,36.69852681771061],[-29.040000000000067,36.70291171714692],[-29.080000000000062,36.70728405353539],[-29.12000000000006,36.71164381853704],[-29.160000000000057,36.71599100380167],[-29.196995034840125,36.719999999999985],[-29.20000000000006,36.72032563992711],[-29.24000000000006,36.72464815728732],[-29.280000000000058,36.72895806740267],[-29.320000000000057,36.733255361882634],[-29.360000000000056,36.737540032325356],[-29.400000000000055,36.74181207031765],[-29.440000000000058,36.74607146743494],[-29.480000000000054,36.750318215241194],[-29.520000000000053,36.754552305288975],[-29.560000000000052,36.75877372911938],[-29.571653630419455,36.759999999999984],[-29.60000000000005,36.76298283329316],[-29.64000000000005,36.76717939803713],[-29.68000000000005,36.77136326876437],[-29.72000000000005,36.775534436974255],[-29.760000000000048,36.77969289415457],[-29.80000000000005,36.78383863178139],[-29.840000000000046,36.78797164131909],[-29.880000000000045,36.792091914220336],[-29.92000000000004,36.796199441926014],[-29.95712566296065,36.79999999999998],[-29.960000000000043,36.800294250742155],[-30.000000000000043,36.8043767457866],[-30.040000000000042,36.80844646756495],[-30.08000000000004,36.81250340747516],[-30.12000000000004,36.816547556903274],[-30.16000000000004,36.820578907223336],[-30.20000000000004,36.82459744979742],[-30.240000000000038,36.828603175975594],[-30.280000000000037,36.83259607709581],[-30.320000000000036,36.83657614448398],[-30.354520935145697,36.83999999999998],[-30.360000000000035,36.84054343355062],[-30.400000000000034,36.84449827342788],[-30.440000000000033,36.84844025119014],[-30.480000000000032,36.85236935811894],[-30.52000000000003,36.85628558548353],[-30.56000000000003,36.86018892454087],[-30.600000000000026,36.86407936653559],[-30.64000000000003,36.86795690269997],[-30.68000000000003,36.87182152425386],[-30.720000000000027,36.87567322240472],[-30.760000000000026,36.87951198834752],[-30.76510184518325,36.87999999999998],[-30.800000000000026,36.88333820479898],[-30.840000000000025,36.887151526432596],[-30.880000000000024,36.89095188711784],[-30.920000000000023,36.8947392780037],[-30.960000000000022,36.898513690226515],[-31.00000000000002,36.90227511490993],[-31.04000000000002,36.906023543164885],[-31.08000000000002,36.90975896608956],[-31.12000000000002,36.91348137476937],[-31.160000000000018,36.91719076027688],[-31.19039940417894,36.91999999999998],[-31.200000000000017,36.920887217250474],[-31.240000000000016,36.92457095920732],[-31.280000000000015,36.92824164891453],[-31.320000000000014,36.93189927739712],[-31.360000000000014,36.93554383566716],[-31.400000000000013,36.93917531472365],[-31.440000000000012,36.94279370555252],[-31.480000000000015,36.94639899912657],[-31.52000000000001,36.94999118640547],[-31.56000000000001,36.953570258335695],[-31.600000000000012,36.9571362058505],[-31.632241942532968,36.95999999999998],[-31.640000000000008,36.96068909989272],[-31.680000000000007,36.96422918202765],[-31.720000000000006,36.96775611028448],[-31.760000000000005,36.97126987554718],[-31.800000000000004,36.9747704686863],[-31.840000000000003,36.97825788055895],[-31.880000000000003,36.98173210200875],[-31.92,36.985193123865784],[-31.96,36.98864093694658],[-32.0,36.992075532054045]]}}]}