{"type":"FeatureCollection","properties":{"largura_maxima_km":244.628,"largura_sobre_pt_km":237.623,"linha_central_sobre_pt":false,"desenhavel_como_area":true,"perfil_largura":[{"t":-1.58333,"lat":28.8373,"lon":-40.9229,"largura_km":null,"eixo_na_terra":false},{"t":-1.57778,"lat":29.1364,"lon":-40.0668,"largura_km":null,"eixo_na_terra":false},{"t":-1.57222,"lat":29.2791,"lon":-39.7039,"largura_km":null,"eixo_na_terra":false},{"t":-1.56667,"lat":29.5214,"lon":-39.0288,"largura_km":null,"eixo_na_terra":false},{"t":-1.56111,"lat":29.6875,"lon":-38.5887,"largura_km":null,"eixo_na_terra":false},{"t":-1.55556,"lat":29.8685,"lon":-38.0918,"largura_km":null,"eixo_na_terra":false},{"t":-1.55,"lat":30.0307,"lon":-37.71,"largura_km":null,"eixo_na_terra":false},{"t":-1.54444,"lat":30.2681,"lon":-36.9499,"largura_km":null,"eixo_na_terra":false},{"t":-1.53889,"lat":30.4641,"lon":-36.3234,"largura_km":null,"eixo_na_terra":false},{"t":-1.53333,"lat":31.2742,"lon":-33.3596,"largura_km":215.82,"eixo_na_terra":true},{"t":-1.52778,"lat":31.5376,"lon":-32.361,"largura_km":216.831,"eixo_na_terra":true},{"t":-1.52222,"lat":31.7748,"lon":-31.4402,"largura_km":217.696,"eixo_na_terra":true},{"t":-1.51667,"lat":31.9909,"lon":-30.5815,"largura_km":218.467,"eixo_na_terra":true},{"t":-1.51111,"lat":32.1896,"lon":-29.7739,"largura_km":219.174,"eixo_na_terra":true},{"t":-1.50556,"lat":32.3736,"lon":-29.0093,"largura_km":219.83,"eixo_na_terra":true},{"t":-1.5,"lat":32.545,"lon":-28.2817,"largura_km":220.444,"eixo_na_terra":true},{"t":-1.49444,"lat":32.7053,"lon":-27.586,"largura_km":221.022,"eixo_na_terra":true},{"t":-1.48889,"lat":32.8558,"lon":-26.9186,"largura_km":221.573,"eixo_na_terra":true},{"t":-1.48333,"lat":32.9976,"lon":-26.2762,"largura_km":222.098,"eixo_na_terra":true},{"t":-1.47778,"lat":33.1315,"lon":-25.6563,"largura_km":222.6,"eixo_na_terra":true},{"t":-1.47222,"lat":33.2583,"lon":-25.0567,"largura_km":223.082,"eixo_na_terra":true},{"t":-1.46667,"lat":33.3786,"lon":-24.4756,"largura_km":223.547,"eixo_na_terra":true},{"t":-1.46111,"lat":33.4929,"lon":-23.9114,"largura_km":223.996,"eixo_na_terra":true},{"t":-1.45556,"lat":33.6017,"lon":-23.3626,"largura_km":224.431,"eixo_na_terra":true},{"t":-1.45,"lat":33.7054,"lon":-22.8282,"largura_km":224.851,"eixo_na_terra":true},{"t":-1.44444,"lat":33.8043,"lon":-22.3071,"largura_km":225.258,"eixo_na_terra":true},{"t":-1.43889,"lat":33.8988,"lon":-21.7983,"largura_km":225.654,"eixo_na_terra":true},{"t":-1.43333,"lat":33.9891,"lon":-21.3011,"largura_km":226.037,"eixo_na_terra":true},{"t":-1.42778,"lat":34.0755,"lon":-20.8146,"largura_km":226.412,"eixo_na_terra":true},{"t":-1.42222,"lat":34.1582,"lon":-20.3383,"largura_km":226.779,"eixo_na_terra":true},{"t":-1.41667,"lat":34.2375,"lon":-19.8716,"largura_km":227.136,"eixo_na_terra":true},{"t":-1.41111,"lat":34.3134,"lon":-19.4139,"largura_km":227.485,"eixo_na_terra":true},{"t":-1.40556,"lat":34.3861,"lon":-18.9648,"largura_km":227.828,"eixo_na_terra":true},{"t":-1.4,"lat":34.4559,"lon":-18.5237,"largura_km":228.164,"eixo_na_terra":true},{"t":-1.39444,"lat":34.5229,"lon":-18.0903,"largura_km":228.492,"eixo_na_terra":true},{"t":-1.38889,"lat":34.5871,"lon":-17.6642,"largura_km":228.813,"eixo_na_terra":true},{"t":-1.38333,"lat":34.6487,"lon":-17.2451,"largura_km":229.127,"eixo_na_terra":true},{"t":-1.37778,"lat":34.7078,"lon":-16.8327,"largura_km":229.435,"eixo_na_terra":true},{"t":-1.37222,"lat":34.7646,"lon":-16.4266,"largura_km":229.736,"eixo_na_terra":true},{"t":-1.36667,"lat":34.819,"lon":-16.0266,"largura_km":230.032,"eixo_na_terra":true},{"t":-1.36111,"lat":34.8713,"lon":-15.6324,"largura_km":230.325,"eixo_na_terra":true},{"t":-1.35556,"lat":34.9214,"lon":-15.2438,"largura_km":230.613,"eixo_na_terra":true},{"t":-1.35,"lat":34.9695,"lon":-14.8606,"largura_km":230.895,"eixo_na_terra":true},{"t":-1.34444,"lat":35.0156,"lon":-14.4826,"largura_km":231.173,"eixo_na_terra":true},{"t":-1.33889,"lat":35.0599,"lon":-14.1096,"largura_km":231.448,"eixo_na_terra":true},{"t":-1.33333,"lat":35.1022,"lon":-13.7414,"largura_km":231.719,"eixo_na_terra":true},{"t":-1.32778,"lat":35.1428,"lon":-13.3778,"largura_km":231.985,"eixo_na_terra":true},{"t":-1.32222,"lat":35.1817,"lon":-13.0187,"largura_km":232.247,"eixo_na_terra":true},{"t":-1.31667,"lat":35.2189,"lon":-12.664,"largura_km":232.504,"eixo_na_terra":true},{"t":-1.31111,"lat":35.2544,"lon":-12.3134,"largura_km":232.757,"eixo_na_terra":true},{"t":-1.30556,"lat":35.2884,"lon":-11.9669,"largura_km":233.007,"eixo_na_terra":true},{"t":-1.3,"lat":35.3209,"lon":-11.6243,"largura_km":233.253,"eixo_na_terra":true},{"t":-1.29444,"lat":35.3519,"lon":-11.2855,"largura_km":233.498,"eixo_na_terra":true},{"t":-1.28889,"lat":35.3814,"lon":-10.9504,"largura_km":233.739,"eixo_na_terra":true},{"t":-1.28333,"lat":35.4096,"lon":-10.6189,"largura_km":233.976,"eixo_na_terra":true},{"t":-1.27778,"lat":35.4363,"lon":-10.2909,"largura_km":234.211,"eixo_na_terra":true},{"t":-1.27222,"lat":35.4618,"lon":-9.9663,"largura_km":234.443,"eixo_na_terra":true},{"t":-1.26667,"lat":35.4859,"lon":-9.645,"largura_km":234.673,"eixo_na_terra":true},{"t":-1.26111,"lat":35.5088,"lon":-9.3269,"largura_km":234.9,"eixo_na_terra":true},{"t":-1.25556,"lat":35.5304,"lon":-9.0119,"largura_km":235.124,"eixo_na_terra":true},{"t":-1.25,"lat":35.5508,"lon":-8.7,"largura_km":235.345,"eixo_na_terra":true},{"t":-1.24444,"lat":35.57,"lon":-8.391,"largura_km":235.563,"eixo_na_terra":true},{"t":-1.23889,"lat":35.5881,"lon":-8.0849,"largura_km":235.778,"eixo_na_terra":true},{"t":-1.23333,"lat":35.6051,"lon":-7.7817,"largura_km":235.99,"eixo_na_terra":true},{"t":-1.22778,"lat":35.6209,"lon":-7.4812,"largura_km":236.203,"eixo_na_terra":true},{"t":-1.22222,"lat":35.6357,"lon":-7.1834,"largura_km":236.412,"eixo_na_terra":true},{"t":-1.21667,"lat":35.6494,"lon":-6.8882,"largura_km":236.619,"eixo_na_terra":true},{"t":-1.21111,"lat":35.6621,"lon":-6.5956,"largura_km":236.823,"eixo_na_terra":true},{"t":-1.20556,"lat":35.6738,"lon":-6.3055,"largura_km":237.025,"eixo_na_terra":true},{"t":-1.2,"lat":35.6845,"lon":-6.0179,"largura_km":237.226,"eixo_na_terra":true},{"t":-1.19444,"lat":35.6942,"lon":-5.7327,"largura_km":237.426,"eixo_na_terra":true},{"t":-1.18889,"lat":35.7029,"lon":-5.4498,"largura_km":237.623,"eixo_na_terra":true},{"t":-1.18333,"lat":35.7107,"lon":-5.1693,"largura_km":237.818,"eixo_na_terra":true},{"t":-1.17778,"lat":35.7176,"lon":-4.891,"largura_km":238.01,"eixo_na_terra":true},{"t":-1.17222,"lat":35.7236,"lon":-4.6149,"largura_km":238.2,"eixo_na_terra":true},{"t":-1.16667,"lat":35.7287,"lon":-4.341,"largura_km":238.388,"eixo_na_terra":true},{"t":-1.16111,"lat":35.733,"lon":-4.0692,"largura_km":238.575,"eixo_na_terra":true},{"t":-1.15556,"lat":35.7364,"lon":-3.7996,"largura_km":238.762,"eixo_na_terra":true},{"t":-1.15,"lat":35.739,"lon":-3.5319,"largura_km":238.946,"eixo_na_terra":true},{"t":-1.14444,"lat":35.7407,"lon":-3.2663,"largura_km":239.128,"eixo_na_terra":true},{"t":-1.13889,"lat":35.7416,"lon":-3.0027,"largura_km":239.308,"eixo_na_terra":true},{"t":-1.13333,"lat":35.7417,"lon":-2.741,"largura_km":239.486,"eixo_na_terra":true},{"t":-1.12778,"lat":35.7411,"lon":-2.4812,"largura_km":239.663,"eixo_na_terra":true},{"t":-1.12222,"lat":35.7397,"lon":-2.2232,"largura_km":239.84,"eixo_na_terra":true},{"t":-1.11667,"lat":35.7375,"lon":-1.9671,"largura_km":240.014,"eixo_na_terra":true},{"t":-1.11111,"lat":35.7346,"lon":-1.7129,"largura_km":240.187,"eixo_na_terra":true},{"t":-1.10556,"lat":35.7309,"lon":-1.4604,"largura_km":240.358,"eixo_na_terra":true},{"t":-1.1,"lat":35.7265,"lon":-1.2096,"largura_km":240.527,"eixo_na_terra":true},{"t":-1.09444,"lat":35.7214,"lon":-0.9606,"largura_km":240.694,"eixo_na_terra":true},{"t":-1.08889,"lat":35.7156,"lon":-0.7132,"largura_km":240.862,"eixo_na_terra":true},{"t":-1.08333,"lat":35.7092,"lon":-0.4676,"largura_km":241.028,"eixo_na_terra":true},{"t":-1.07778,"lat":35.702,"lon":-0.2235,"largura_km":241.193,"eixo_na_terra":true},{"t":-1.07222,"lat":35.6942,"lon":0.0189,"largura_km":241.356,"eixo_na_terra":true},{"t":-1.06667,"lat":35.6857,"lon":0.2598,"largura_km":241.517,"eixo_na_terra":true},{"t":-1.06111,"lat":35.6765,"lon":0.499,"largura_km":241.676,"eixo_na_terra":true},{"t":-1.05556,"lat":35.6667,"lon":0.7368,"largura_km":241.834,"eixo_na_terra":true},{"t":-1.05,"lat":35.6563,"lon":0.973,"largura_km":241.992,"eixo_na_terra":true},{"t":-1.04444,"lat":35.6453,"lon":1.2077,"largura_km":242.149,"eixo_na_terra":true},{"t":-1.03889,"lat":35.6336,"lon":1.4409,"largura_km":242.305,"eixo_na_terra":true},{"t":-1.03333,"lat":35.6214,"lon":1.6727,"largura_km":242.458,"eixo_na_terra":true},{"t":-1.02778,"lat":35.6085,"lon":1.9031,"largura_km":242.61,"eixo_na_terra":true},{"t":-1.02222,"lat":35.595,"lon":2.132,"largura_km":242.761,"eixo_na_terra":true},{"t":-1.01667,"lat":35.581,"lon":2.3596,"largura_km":242.912,"eixo_na_terra":true},{"t":-1.01111,"lat":35.5664,"lon":2.5858,"largura_km":243.062,"eixo_na_terra":true},{"t":-1.00556,"lat":35.5512,"lon":2.8106,"largura_km":243.211,"eixo_na_terra":true},{"t":-1.0,"lat":35.5355,"lon":3.0341,"largura_km":243.358,"eixo_na_terra":true},{"t":-0.99444,"lat":35.5192,"lon":3.2563,"largura_km":243.503,"eixo_na_terra":true},{"t":-0.98889,"lat":35.5023,"lon":3.4771,"largura_km":243.647,"eixo_na_terra":true},{"t":-0.98333,"lat":35.4849,"lon":3.6967,"largura_km":243.79,"eixo_na_terra":true},{"t":-0.97778,"lat":35.467,"lon":3.915,"largura_km":243.931,"eixo_na_terra":true},{"t":-0.97222,"lat":35.4486,"lon":4.1321,"largura_km":244.073,"eixo_na_terra":true},{"t":-0.96667,"lat":35.4296,"lon":4.3479,"largura_km":244.214,"eixo_na_terra":true},{"t":-0.96111,"lat":35.4101,"lon":4.5625,"largura_km":244.354,"eixo_na_terra":true},{"t":-0.95556,"lat":35.3901,"lon":4.7759,"largura_km":244.492,"eixo_na_terra":true},{"t":-0.95,"lat":35.3696,"lon":4.9881,"largura_km":244.628,"eixo_na_terra":true}]},"features":[{"type":"Feature","properties":{},"geometry":{"type":"Polygon","coordinates":[[[-43.32347001733231,27.43026769801904],[-43.32060461689648,27.472801147496067],[-43.41289634372322,27.44486553743177],[-43.39395473083229,28.011695867932414],[-43.43778014371739,28.044606116975014],[-43.65641804397325,27.985966265805697],[-44.634331958328346,28.59681812117476],[-44.32069126938008,28.70761926654242],[-44.57150299663863,28.89596378775719],[-43.350891378223054,29.3003725256444],[-43.35038409654578,29.315552998523906],[-42.3951127797601,29.62177021134755],[-41.76845461584266,29.818593195140103],[-41.18123370261105,30.007198503039792],[-40.699189205509015,30.159746587666675],[-40.25675972770824,30.297668334667613],[-39.84447326861073,30.424124457377903],[-39.101177307346,30.64622344442304],[-38.516427103409114,30.82698546965726],[-37.9094179015558,31.008196686314466],[-37.32811728185557,31.17492593591144],[-36.90476814601732,31.30267134939091],[-36.403792983714425,31.448014189230655],[-36.158260913703714,31.51690411391684],[-35.677111529622096,31.647178950348934],[-35.20275799335592,31.769124153481574],[-35.237009105348136,31.779948204114316],[-34.09982431445002,32.09515296018211],[-33.07193336790766,32.37308792389546],[-32.1269390363135,32.62261452002124],[-31.16691021565731,32.86997694504956],[-30.345202155400443,33.07691813014578],[-29.567844358667912,33.26843421545634],[-28.82838429107784,33.446707316875404],[-28.121797329103515,33.61343982743543],[-27.444080415088195,33.76999057597475],[-26.791983264597377,33.91746496114706],[-26.162824171254726,34.056776762998595],[-25.493564434259838,34.20156393439926],[-24.905341776819057,34.32618736258192],[-24.33416917446607,34.44466253983447],[-23.778661126369798,34.55746534021965],[-23.237611190679672,34.66501097326771],[-22.709961237660366,34.76766434736901],[-22.19477717077507,34.86574825912435],[-21.19857780932898,35.049326357418195],[-20.24337059593313,35.217705035132404],[-19.275395992446136,35.380451755569204],[-18.390490696950963,35.52243516297576],[-17.53495613385553,35.653289555042406],[-16.706142760474222,35.77395147499503],[-15.901785263283728,35.88522527244552],[-15.075787973559727,35.993279199088235],[-14.315540244418742,36.08742862603712],[-13.942722228859111,36.131650957568795],[-13.210855956841556,36.21469507517167],[-12.496339393719268,36.29090489604443],[-12.145240200007777,36.32657330605907],[-11.454730968738772,36.39326710018232],[-10.779044133695947,36.454050359960846],[-10.406611078687206,36.48550946626486],[-9.75215217227992,36.53774729477778],[-9.11054323396121,36.58480478016031],[-8.794351102507846,36.606467848752985],[-8.170810551847637,36.646205262338604],[-7.256562379597938,36.697233225373665],[-6.660357630880242,36.72581562409978],[-6.329142231546427,36.73995537073957],[-5.461457376670694,36.77184375551551],[-4.614596105730072,36.79513296023815],[-3.787343505992112,36.81029139942587],[-2.97860741967105,36.81774286526233],[-2.153057507706137,36.817648350270545],[-1.378941193519836,36.8105803424063],[-0.6206250022183326,36.79687287459181],[0.12263387284440341,36.77682099777782],[0.8841933297077276,36.74927614296621],[1.3621818973903146,36.72848067658706],[1.83424132299956,36.705171639671605],[2.5315710226896613,36.665639646365754],[2.989509861645729,36.636330657762876],[3.4420611758573045,36.60472751110452],[4.142087044488051,36.550526184075466],[4.581541912473085,36.51331732848876],[5.016072358895599,36.47400373278538],[4.969392704442953,34.265208727139544],[4.552357064364855,34.30691762666525],[4.130588709937058,34.34665252674493],[3.4887970860679616,34.40245063147531],[2.8356537264411372,34.45353448551168],[2.2018005014022037,34.49780453060669],[1.5248957186176995,34.539090437531655],[0.8351631137158506,34.57509380710816],[0.13202731183656624,34.605594255143494],[-0.3444816883239241,34.6227540706421],[-1.0384929982832318,34.64283949643013],[-1.7801294224263984,34.657661349079866],[-2.5377142643557136,34.66601587844711],[-3.052050248317073,34.667835212430866],[-3.5741272219340203,34.66653556789191],[-4.337546406998229,34.65909868165366],[-5.154435170575198,34.64365358190565],[-5.71023703983326,34.62889077491583],[-6.275453634759913,34.610390908940296],[-6.850502225741025,34.588001451995346],[-7.695371614152407,34.548784455192724],[-8.296597253921675,34.51613310036048],[-9.22030587254585,34.45862044192628],[-9.851593466965824,34.41426489838549],[-10.496066799672576,34.364812714622595],[-11.15448996914381,34.30999244960524],[-11.787249538146398,34.25337176351457],[-12.475542892592955,34.18717028574178],[-13.180570705709385,34.11462066838071],[-13.903500629859423,34.03531503025372],[-14.645648560473319,33.94879564538298],[-15.40850633947639,33.85454576882829],[-16.14879296750928,33.758108893487154],[-16.957405969765546,33.64696609392874],[-17.79255727393968,33.52609221233734],[-18.65688279791334,33.39458920100345],[-19.553496753115382,33.251400378322],[-20.015047088203403,33.175039946024356],[-20.915459447578257,33.021073661942324],[-21.406521999322877,32.93420006603415],[-21.909020286077293,32.843273457760276],[-22.42376286777602,32.74802347603103],[-22.95165932902819,32.64814656547134],[-23.493738834636247,32.54329991981724],[-24.051173306693954,32.43309392212464],[-24.625306712634483,32.31708259845103],[-25.217692556315,32.19475140637714],[-25.830142567169787,32.0655013872716],[-26.40031028935971,31.942788006699434],[-27.057587429219893,31.798199701166233],[-27.742402383888248,31.64423179491522],[-28.458455591261384,31.479669687649817],[-29.210360060338758,31.303001938053352],[-30.00399086545167,31.112306988893348],[-30.847028134483594,30.905077303144733],[-31.749843157692,30.67793257347512],[-31.78098656706659,30.68777452663633],[-32.091212850578984,30.598239272631893],[-32.44771457847003,30.500076956842523],[-32.822385917876716,30.40140671420082],[-33.24494462223283,30.294816240435193],[-33.697222725620975,30.17023033068445],[-34.117987016206484,30.058927455195057],[-34.36266461153783,29.995908666094522],[-34.88908094681585,29.847774193833647],[-35.63115563926941,29.647499441227076],[-36.26822716205737,29.464063278110242],[-37.13380465517891,29.22258042782111],[-37.96435570856545,28.97718677545077],[-39.08065061872144,28.65324429742821],[-41.02663462173251,28.059370216574973],[-41.804022969369896,27.820518579037557],[-42.92505536539008,27.470602759456753],[-43.3416072895447,27.337949982883234],[-43.32347001733231,27.43026769801904]]]}}]}