{"type":"FeatureCollection","features":[{"type":"Feature","properties":{"t_inicio":-1.5555555555555642,"t_fim":-0.9500000000000108},"geometry":{"type":"LineString","coordinates":[[-38.97771870997548,29.67968294375928],[-37.14951457202528,30.218684096801336],[-35.698944855211266,30.632832553342627],[-34.459444766903744,30.976842366764956],[-33.359622923112966,31.274206966719223],[-32.361045849464574,31.537596367946364],[-31.440208288532176,31.774772967956448],[-30.581493817796968,31.990903041649926],[-29.773902638218715,32.189632028546924],[-29.009341488015195,32.373646901687415],[-28.28165075865246,32.544996338445664],[-27.58601403875798,32.70528517766981],[-26.918580992175862,32.855798708633685],[-26.27621631360364,32.997585468077325],[-25.65632678499111,33.13151431993419],[-25.056738645191274,33.25831495840815],[-24.475608463834362,33.378607366258926],[-23.911356969162966,33.49292370199069],[-23.36261899425307,33.60172486760425],[-22.82820498874173,33.70541325733394],[-22.307070989080103,33.804342711756654],[-21.798294880979995,33.89882639185127],[-21.301057414327715,33.98914308112811],[-20.814626857204985,34.07554228341322],[-20.33834647133341,34.15824838637474],[-19.87162419988465,34.2374640920604],[-19.413924108114998,34.313373266374946],[-18.964759225988132,34.38614332354],[-18.5236855220258,34.45592723513451],[-18.090296797324868,34.52286523359011],[-17.664220333690196,34.587086265139504],[-17.24511316411872,34.64870923587995],[-16.832658860239917,34.70784408589221],[-16.426564751777846,34.7645927195844],[-16.026559509113667,34.81904981513055],[-15.632391032652777,34.87130353169212],[-15.243824602731479,34.92143612978794],[-14.860641251823267,34.96952451751902],[-14.482636327262185,35.01564073321288],[-14.109618217936713,35.059852373316865],[-13.741407222667362,35.10222297295525],[-13.377834541476318,35.142812345405645],[-13.018741373832086,35.18167688579594],[-12.663978110332152,35.21886984353152],[-12.313403606263819,35.25444156730615],[-11.96688452713937,35.28843972600003],[-11.62429475768164,35.32090950830759],[-11.285514866908898,35.35189380355022],[-10.95043162294877,35.38143336580008],[-10.618937552051761,35.40956696316311],[-10.290930536984888,35.43633151383171],[-9.96631345059518,35.46176221031516],[-9.644993820855348,35.485892633081555],[-9.326883524150048,35.508754854696],[-9.011898503951727,35.53037953541031],[-8.69995851236422,35.550796011047986],[-8.390986872307963,35.57003237393203],[-8.084910258367927,35.58811554751778],[-7.781658494548765,35.6050713553206],[-7.481164367371321,35.62092458466351],[-7.183363452914477,35.63569904571376],[-6.88819395655338,35.64941762622761],[-6.595596564274956,35.66210234237975],[-6.305514304566827,35.67377438601465],[-6.017892419976306,35.68445416862393],[-5.732678247526451,35.69416136232299],[-5.449821107255275,35.7029149380745],[-5.1692721982155945,35.71073320138143],[-4.890984501334799,35.71763382565244],[-4.614912688591517,35.723633883422494],[-4.3410130380148075,35.728749875595476],[-4.069243354057676,35.73299775886018],[-3.799562892935967,35.736392971417466],[-3.531932292560896,35.738950457144476],[-3.266313506725396,35.74068468831058],[-3.0026697432329,35.74160968695015],[-2.7409654056860973,35.74173904498813],[-2.48116603867345,35.74108594320646],[-2.223238276117115,35.73966316913228],[-1.9671497925608037,35.73748313392194],[-1.7128692571977808,35.73455788830916],[-1.4603662904534076,35.730899137680105],[-1.2096114229510135,35.72651825633332],[-0.9605760567038715,35.72142630097792],[-0.713232428388892,35.71563402351924],[-0.46755357456589763,35.70915188317773],[-0.22351329872054748,35.70199005798294],[0.018913859985332238,35.69415845568205],[0.25975265636242284,35.68566672409874],[0.49902716733930674,35.67652426097624],[0.7367608186975758,35.66674022333569],[0.9729764104800438,35.656323536378586],[1.2076961411534057,35.645282901960485],[1.440941630596285,35.63362680666103],[1.672733941983381,35.621363529473406],[1.9030936026285303,35.60850114913532],[2.1320406238460805,35.59504755112167],[2.3595945198869686,35.58101043431773],[2.5857743260002053,35.56639731739098],[2.810598615669903,35.5512155448776],[3.0340855170713326,35.53547229299968],[3.256252728789775,35.51917457522727],[3.4771175348414545,35.50232924759891],[3.6966968190339458,35.48494301381376],[3.915007078700569,35.467022430106724],[4.132064437842246,35.44857390991821],[4.34788465970712,35.42960372836894],[4.562483158836528,35.41011802654968],[4.775875012605582,35.39012281563524],[4.988074972282561,35.36962398083157]]}}]}