{"type":"FeatureCollection","features":[{"type":"Feature","properties":{"magnitude":0.8,"percentagem":80.0,"territorio":"continente"},"geometry":{"type":"LineString","coordinates":[[-5.540000000000106,42.77848240963611],[-5.580000000000105,42.77752718863648],[-5.620000000000104,42.7765565890943],[-5.660000000000103,42.77557061971184],[-5.700000000000102,42.77456928917297],[-5.7400000000001015,42.773552606143184],[-5.780000000000101,42.77252057926966],[-5.8200000000001,42.77147321718131],[-5.860000000000099,42.77041052848885],[-5.900000000000098,42.76933252178485],[-5.940000000000097,42.768239205643766],[-5.980000000000096,42.76713058862204],[-6.0200000000000955,42.76600667925808],[-6.060000000000095,42.76486748607243],[-6.100000000000094,42.76371301756772],[-6.140000000000093,42.76254328222874],[-6.180000000000092,42.761358288522516],[-6.220000000000091,42.76015804489837],[-6.2252013803717965,42.759999999999856],[-6.2600000000000895,42.758942754789715],[-6.3000000000000895,42.757712263594456],[-6.340000000000089,42.7564665505658],[-6.380000000000088,42.75520562408222],[-6.420000000000087,42.75392949250477],[-6.460000000000086,42.75263816417711],[-6.500000000000085,42.751331647425594],[-6.540000000000084,42.75000995055926],[-6.580000000000084,42.74867308186995],[-6.620000000000083,42.747321049632355],[-6.660000000000082,42.74595386210403],[-6.70000000000008,42.74457152752545],[-6.74000000000008,42.74317405412013],[-6.780000000000079,42.741761450094565],[-6.820000000000078,42.7403337236384],[-6.860000000000078,42.73889088292438],[-6.900000000000077,42.737432936108476],[-6.940000000000076,42.73595989132991],[-6.980000000000075,42.73447175671117],[-7.020000000000074,42.732968540358165],[-7.060000000000073,42.73145025036014],[-7.1000000000000725,42.72991689478983],[-7.140000000000072,42.72836848170347],[-7.180000000000071,42.726805019140855],[-7.22000000000007,42.72522651512542],[-7.260000000000069,42.723632977664195],[-7.300000000000068,42.72202441474797],[-7.340000000000067,42.720400834351295],[-7.349785476062397,42.71999999999986],[-7.3800000000000665,42.71876247260351],[-7.420000000000066,42.717109185982096],[-7.460000000000065,42.71544090852922],[-7.500000000000064,42.713757648154925],[-7.540000000000063,42.712059412753305],[-7.580000000000062,42.710346210202545],[-7.620000000000061,42.708618048364954],[-7.6600000000000605,42.706874935087015],[-7.70000000000006,42.70511687819946],[-7.740000000000059,42.7033438855173],[-7.780000000000058,42.70155596483987],[-7.820000000000057,42.6997531239509],[-7.860000000000056,42.697935370618545],[-7.900000000000055,42.69610271259544],[-7.940000000000055,42.69425515761875],[-7.980000000000054,42.69239271341023],[-8.020000000000053,42.69051538767624],[-8.060000000000052,42.68862318810786],[-8.100000000000051,42.686716122380844],[-8.14000000000005,42.68479419815576],[-8.18000000000005,42.68285742307796],[-8.220000000000049,42.6809058047777],[-8.238426041153367,42.67999999999986],[-8.260000000000048,42.67893954630903],[-8.300000000000047,42.67695862953443],[-8.340000000000046,42.6749628951511],[-8.380000000000045,42.672952350729595],[-8.420000000000044,42.67092700382564],[-8.460000000000043,42.66888686198011],[-8.500000000000043,42.66683193271911],[-8.540000000000042,42.66476222355403],[-8.580000000000041,42.66267774198158],[-8.62000000000004,42.660578495483804],[-8.66000000000004,42.65846449152822],[-8.700000000000038,42.656335737567765],[-8.740000000000038,42.65419224104091],[-8.780000000000037,42.652034009371675],[-8.820000000000036,42.64986104996965],[-8.860000000000035,42.647673370230144],[-8.900000000000034,42.64547097753409],[-8.940000000000033,42.643253879248235],[-8.980000000000032,42.641022082725044],[-8.998199728641922,42.63999999999986],[-9.020000000000033,42.63877582082877],[-9.06000000000003,42.636515066403895],[-9.10000000000003,42.63423963852535],[-9.140000000000029,42.63194954449001],[-9.180000000000028,42.62964479158074],[-9.220000000000027,42.627325387066506],[-9.260000000000026,42.6249913382024],[-9.300000000000026,42.62264265222969],[-9.340000000000025,42.62027933637589],[-9.380000000000024,42.61790139785474],[-9.420000000000023,42.61550884386631],[-9.460000000000022,42.61310168159703],[-9.500000000000021,42.61067991821972],[-9.54000000000002,42.608243560893655],[-9.58000000000002,42.60579261676457],[-9.620000000000019,42.6033270929648],[-9.660000000000018,42.600846996613164],[-9.67358185831123,42.59999999999986],[-9.700000000000017,42.59835263820381],[-9.740000000000016,42.595843880190145],[-9.780000000000017,42.59332057371471],[-9.820000000000014,42.59078272584422],[-9.860000000000014,42.58823034363217],[-9.900000000000013,42.58566343411897],[-9.940000000000012,42.583082004331885],[-9.980000000000011,42.58048606128517],[-10.02000000000001,42.57787561198006],[-10.06000000000001,42.575250663404816],[-10.100000000000009,42.572611222534775],[-10.140000000000008,42.56995729633241],[-10.180000000000007,42.567288891747374],[-10.220000000000006,42.56460601571649],[-10.260000000000005,42.561908675163856],[-10.288154532590369,42.55999999999986],[-10.300000000000004,42.55919702483124],[-10.340000000000003,42.5564712778783],[-10.380000000000003,42.553731089919],[-10.420000000000002,42.55097646782823],[-10.46,42.54820741846841],[-10.5,42.54542394868943]]}},{"type":"Feature","properties":{"magnitude":0.9,"percentagem":90.0,"territorio":"continente"},"geometry":{"type":"LineString","coordinates":[[-5.540000000000106,39.75719568509638],[-5.580000000000105,39.756052123612065],[-5.620000000000104,39.75489227476805],[-5.660000000000103,39.75371614902415],[-5.700000000000102,39.752523756820715],[-5.7400000000001015,39.75131510857869],[-5.780000000000101,39.750090214699725],[-5.8200000000001,39.74884908556619],[-5.860000000000099,39.74759173154123],[-5.900000000000098,39.746318162968834],[-5.940000000000097,39.745028390173935],[-5.980000000000096,39.74372242346238],[-6.0200000000000955,39.74240027312108],[-6.060000000000095,39.74106194941798],[-6.100000000000094,39.73970746260223],[-6.140000000000093,39.73833682290413],[-6.180000000000092,39.73695004053523],[-6.220000000000091,39.73554712568844],[-6.26000000000009,39.734128088538014],[-6.3000000000000895,39.73269293923961],[-6.340000000000089,39.73124168793042],[-6.380000000000088,39.72977434472916],[-6.420000000000087,39.72829091973614],[-6.460000000000086,39.726791423033326],[-6.500000000000085,39.72527586468443],[-6.540000000000084,39.723744254734896],[-6.580000000000084,39.72219660321204],[-6.620000000000083,39.72063292012503],[-6.636027012381314,39.71999999999992],[-6.660000000000082,39.71905335487479],[-6.70000000000008,39.71745787366522],[-6.74000000000008,39.71584639327948],[-6.780000000000079,39.71421892365558],[-6.820000000000078,39.71257547471374],[-6.860000000000078,39.71091605635642],[-6.900000000000077,39.709240678468376],[-6.940000000000076,39.70754935091671],[-6.980000000000075,39.70584208355094],[-7.020000000000074,39.70411888620302],[-7.060000000000073,39.70237976868747],[-7.1000000000000725,39.700624740801345],[-7.140000000000072,39.69885381232434],[-7.180000000000071,39.69706699301882],[-7.22000000000007,39.6952642926299],[-7.260000000000069,39.69344572088552],[-7.300000000000068,39.691611287496386],[-7.340000000000067,39.68976100215619],[-7.3800000000000665,39.68789487454155],[-7.420000000000066,39.686012914312066],[-7.460000000000065,39.68411513111043],[-7.500000000000064,39.68220153456245],[-7.540000000000063,39.68027213427711],[-7.545596431204267,39.67999999999992],[-7.580000000000062,39.67832718678537],[-7.620000000000061,39.67636649735683],[-7.6600000000000605,39.67439003539546],[-7.70000000000006,39.67239781044461],[-7.740000000000059,39.67038983203103],[-7.780000000000058,39.668366109665016],[-7.820000000000057,39.66632665284043],[-7.860000000000056,39.66427147103476],[-7.900000000000055,39.662200573709136],[-7.940000000000055,39.66011397030843],[-7.980000000000054,39.658011670261274],[-8.020000000000053,39.65589368298013],[-8.060000000000052,39.65376001786133],[-8.100000000000051,39.65161068428516],[-8.14000000000005,39.64944569161586],[-8.18000000000005,39.64726504920172],[-8.220000000000049,39.64506876637512],[-8.260000000000048,39.642856852452546],[-8.300000000000047,39.64062931673472],[-8.311222744441935,39.63999999999992],[-8.340000000000046,39.638386407134256],[-8.380000000000045,39.63612798980976],[-8.420000000000044,39.633853980988235],[-8.460000000000043,39.63156438990911],[-8.500000000000043,39.629259225796275],[-8.540000000000042,39.62693849785813],[-8.580000000000041,39.62460221528761],[-8.62000000000004,39.62225038726234],[-8.66000000000004,39.61988302294451],[-8.700000000000038,39.617500131481094],[-8.740000000000038,39.615101722003814],[-8.780000000000037,39.612687803629186],[-8.820000000000036,39.6102583854586],[-8.860000000000035,39.60781347657834],[-8.900000000000034,39.605353086059715],[-8.940000000000033,39.60287722295895],[-8.980000000000032,39.60038589631741],[-8.986158128918806,39.59999999999992],[-9.020000000000033,39.5978794292731],[-9.06000000000003,39.59535757636644],[-9.10000000000003,39.592820289459794],[-9.140000000000029,39.590267577537006],[-9.180000000000028,39.58769944956726],[-9.220000000000027,39.58511591450511],[-9.260000000000026,39.5825169812905],[-9.300000000000026,39.579902658848894],[-9.340000000000025,39.577272956091214],[-9.380000000000024,39.57462788191399],[-9.420000000000023,39.571967445199355],[-9.460000000000022,39.569291654815075],[-9.500000000000021,39.56660051961465],[-9.54000000000002,39.56389404843732],[-9.58000000000002,39.56117225010815],[-9.597132132452462,39.559999999999924],[-9.620000000000019,39.558435365513546],[-9.66000000000002,39.555683347691144],[-9.700000000000017,39.552916031629955],[-9.740000000000016,39.550133426100786],[-9.780000000000015,39.54733553986048],[-9.820000000000014,39.544522381651994],[-9.860000000000014,39.54169396020444],[-9.900000000000013,39.53885028423312],[-9.940000000000012,39.53599136243957],[-9.980000000000011,39.53311720351161],[-10.02000000000001,39.530227816123386],[-10.06000000000001,39.52732320893543],[-10.100000000000009,39.5244033905947],[-10.140000000000008,39.52146836973462],[-10.159909673826675,39.519999999999925],[-10.180000000000007,39.51851837502599],[-10.220000000000006,39.51555341554298],[-10.260000000000005,39.51257328190154],[-10.300000000000004,39.509577982683744],[-10.340000000000003,39.506567526458454],[-10.380000000000003,39.50354192178121],[-10.420000000000002,39.5005011771944],[-10.46,39.49744530122726],[-10.5,39.49437430239587]]}},{"type":"Feature","properties":{"magnitude":0.95,"percentagem":95.0,"territorio":"continente"},"geometry":{"type":"LineString","coordinates":[[-5.540000000000106,38.25955109198945],[-5.580000000000105,38.25831609876599],[-5.620000000000104,38.25706436270049],[-5.660000000000103,38.255795895222825],[-5.700000000000102,38.254510707742696],[-5.7400000000001015,38.2532088116498],[-5.780000000000101,38.2518902183138],[-5.8200000000001,38.25055493908444],[-5.860000000000099,38.24920298529156],[-5.900000000000098,38.24783436824524],[-5.940000000000097,38.246449099235775],[-5.980000000000096,38.24504718953374],[-6.0200000000000955,38.243628650390136],[-6.060000000000095,38.24219349303633],[-6.100000000000094,38.24074172868422],[-6.120206326537506,38.23999999999995],[-6.140000000000093,38.23927346223746],[-6.180000000000092,38.23778870905043],[-6.220000000000091,38.236287384651675],[-6.26000000000009,38.234769500176796],[-6.3000000000000895,38.23323506674218],[-6.340000000000089,38.23168409544508],[-6.380000000000088,38.23011659736368],[-6.420000000000087,38.228532583557126],[-6.460000000000086,38.226932065065604],[-6.500000000000085,38.22531505291039],[-6.540000000000084,38.223681558093936],[-6.580000000000084,38.22203159159989],[-6.620000000000083,38.22036516439317],[-6.660000000000082,38.218682287420044],[-6.700000000000081,38.21698297160815],[-6.74000000000008,38.215267227866576],[-6.780000000000079,38.213535067085914],[-6.820000000000078,38.21178650013833],[-6.860000000000078,38.21002153787758],[-6.900000000000077,38.208240191139154],[-6.940000000000076,38.2064424707402],[-6.980000000000075,38.204628387479744],[-7.020000000000074,38.20279795213859],[-7.060000000000073,38.200951175479474],[-7.080422045221316,38.199999999999946],[-7.1000000000000725,38.19908818639598],[-7.140000000000072,38.19720900294198],[-7.180000000000071,38.19531351263813],[-7.22000000000007,38.19340172617685],[-7.260000000000069,38.191473654232844],[-7.300000000000068,38.18952930746302],[-7.3400000000000665,38.18756869650661],[-7.380000000000067,38.18559183198525],[-7.420000000000066,38.18359872450296],[-7.460000000000065,38.18158938464628],[-7.500000000000064,38.17956382298429],[-7.540000000000063,38.177522050068646],[-7.580000000000062,38.17546407643368],[-7.620000000000061,38.173389912596406],[-7.6600000000000605,38.171299569056615],[-7.70000000000006,38.16919305629692],[-7.740000000000059,38.16707038478279],[-7.780000000000058,38.16493156496261],[-7.820000000000057,38.1627766072678],[-7.860000000000056,38.160605522112746],[-7.871074582848237,38.159999999999954],[-7.900000000000055,38.15841852556769],[-7.940000000000055,38.15621550335783],[-7.980000000000054,38.153996387139564],[-8.020000000000053,38.151761187261855],[-8.060000000000052,38.14950991405698],[-8.100000000000051,38.147242577840586],[-8.14000000000005,38.14495918891176],[-8.18000000000005,38.14265975755306],[-8.220000000000049,38.140344294030584],[-8.260000000000048,38.13801280859401],[-8.300000000000047,38.135665311476664],[-8.340000000000046,38.13330181289557],[-8.380000000000045,38.13092232305148],[-8.420000000000044,38.12852685212897],[-8.460000000000043,38.126115410296435],[-8.500000000000043,38.123688007706185],[-8.540000000000042,38.12124465449452],[-8.560244986761564,38.119999999999955],[-8.580000000000041,38.11878551919143],[-8.62000000000004,38.11631061808215],[-8.66000000000004,38.11381979899653],[-8.700000000000038,38.11131307200931],[-8.740000000000038,38.1087904471795],[-8.780000000000037,38.10625193455037],[-8.820000000000036,38.10369754414951],[-8.860000000000035,38.10112728598893],[-8.900000000000034,38.09854117006505],[-8.940000000000033,38.095939206358764],[-8.980000000000032,38.09332140483553],[-9.020000000000032,38.09068777544536],[-9.06000000000003,38.08803832812292],[-9.10000000000003,38.08537307278756],[-9.140000000000029,38.08269201934337],[-9.179928481216454,38.079999999999956],[-9.180000000000026,38.07999517830968],[-9.220000000000029,38.0772829130958],[-9.260000000000026,38.074554881748725],[-9.300000000000026,38.07181109411445],[-9.340000000000025,38.069051560023915],[-9.380000000000024,38.06627628929314],[-9.420000000000023,38.06348529172322],[-9.460000000000022,38.06067857710042],[-9.500000000000021,38.057856155196184],[-9.54000000000002,38.05501803576722],[-9.58000000000002,38.052164228555505],[-9.620000000000019,38.04929474328837],[-9.660000000000018,38.04640958967855],[-9.700000000000017,38.04350877742416],[-9.740000000000016,38.040592316208894],[-9.748081065592933,38.03999999999996],[-9.780000000000015,38.03766052246083],[-9.820000000000014,38.034713179077166],[-9.860000000000014,38.03175021807805],[-9.900000000000013,38.028771649092306],[-9.940000000000012,38.025777481734416],[-9.980000000000011,38.02276772560471],[-10.02000000000001,38.019742390289345],[-10.06000000000001,38.01670148536033],[-10.100000000000009,38.01364502037562],[-10.140000000000008,38.010573004879134],[-10.180000000000007,38.007485448400836],[-10.220000000000006,38.00438236045673],[-10.260000000000005,38.00126375054893],[-10.27612989952223,37.99999999999996],[-10.300000000000004,37.9981298739242],[-10.340000000000003,37.99498066267941],[-10.380000000000003,37.99181596030057],[-10.420000000000002,37.9886357762377],[-10.46,37.98544011992716],[-10.5,37.98222900079174]]}},{"type":"Feature","properties":{"magnitude":0.99,"percentagem":99.0,"territorio":"continente"},"geometry":{"type":"LineString","coordinates":[[-5.540000000000106,37.06665384054455],[-5.580000000000105,37.06534746955513],[-5.620000000000104,37.064023992262236],[-5.660000000000103,37.0626834209178],[-5.700000000000102,37.06132576775298],[-5.7400000000001015,37.059951044978305],[-5.780000000000101,37.05855926478369],[-5.8200000000001,37.057150439338464],[-5.860000000000099,37.055724580791505],[-5.900000000000098,37.054281701271265],[-5.940000000000097,37.052821812885824],[-5.980000000000096,37.05134492772296],[-6.0200000000000955,37.04985105785023],[-6.060000000000095,37.048340215314994],[-6.100000000000094,37.046812412144526],[-6.140000000000093,37.04526766034601],[-6.180000000000092,37.04370597190669],[-6.220000000000091,37.04212735879381],[-6.26000000000009,37.040531832954805],[-6.273193968111228,37.03999999999998],[-6.3000000000000895,37.038919530461044],[-6.340000000000089,37.037290402256154],[-6.380000000000087,37.03564439915792],[-6.420000000000087,37.033981533036595],[-6.460000000000086,37.03230181574293],[-6.500000000000085,37.03060525910816],[-6.540000000000084,37.0288918749441],[-6.580000000000083,37.027161675043175],[-6.620000000000083,37.0254146711785],[-6.660000000000082,37.02365087510396],[-6.700000000000081,37.021870298554205],[-6.74000000000008,37.02007295324481],[-6.780000000000079,37.01825885087221],[-6.820000000000078,37.01642800311388],[-6.860000000000078,37.01458042162829],[-6.900000000000077,37.01271611805506],[-6.940000000000076,37.010835104014916],[-6.980000000000075,37.00893739110987],[-7.020000000000074,37.00702299092315],[-7.060000000000073,37.00509191501936],[-7.1000000000000725,37.00314417494445],[-7.140000000000072,37.00117978222591],[-7.16382228340639,36.99999999999998],[-7.180000000000071,36.999198840978465],[-7.22000000000007,36.99720140851546],[-7.260000000000069,36.99518736001986],[-7.300000000000068,36.99315670694752],[-7.340000000000067,36.99110946073611],[-7.3800000000000665,36.98904563280507],[-7.420000000000066,36.986965234555754],[-7.460000000000065,36.98486827737139],[-7.500000000000065,36.982754772617234],[-7.540000000000063,36.980624731640546],[-7.580000000000062,36.978478165770724],[-7.620000000000061,36.97631508631927],[-7.6600000000000605,36.974135504579934],[-7.70000000000006,36.971939431828716],[-7.740000000000059,36.969726879323936],[-7.780000000000058,36.967497858306295],[-7.820000000000057,36.96525237999892],[-7.860000000000056,36.962990455607425],[-7.900000000000055,36.960712096319966],[-7.912413144950223,36.95999999999998],[-7.940000000000055,36.95841749715852],[-7.980000000000054,36.956106570272546],[-8.020000000000053,36.95377924412087],[-8.060000000000052,36.951435529824735],[-8.100000000000051,36.94907543848822],[-8.14000000000005,36.946698981198324],[-8.18000000000005,36.94430616902497],[-8.220000000000049,36.941897013021055],[-8.260000000000048,36.93947152422258],[-8.300000000000047,36.9370297136486],[-8.340000000000046,36.93457159230135],[-8.380000000000045,36.932097171166276],[-8.420000000000044,36.92960646121208],[-8.460000000000043,36.927099473390804],[-8.500000000000043,36.924576218637846],[-8.540000000000042,36.922036707871996],[-8.571876972761752,36.91999999999998],[-8.580000000000041,36.919481012531705],[-8.62000000000004,36.91690932258186],[-8.66000000000004,36.91432141147509],[-8.700000000000038,36.9117172900671],[-8.740000000000038,36.909096969197314],[-8.780000000000037,36.90646045968885],[-8.820000000000036,36.90380777234873],[-8.860000000000035,36.90113891796776],[-8.900000000000034,36.89845390732067],[-8.940000000000033,36.895752751166185],[-8.980000000000032,36.893035460247035],[-9.020000000000032,36.89030204529],[-9.06000000000003,36.887552517005986],[-9.10000000000003,36.884786886090055],[-9.140000000000029,36.88200516322152],[-9.168668416023872,36.87999999999998],[-9.180000000000028,36.87920745186274],[-9.220000000000027,36.876393906720935],[-9.260000000000026,36.873564303798574],[-9.300000000000026,36.870718653715244],[-9.340000000000025,36.86785696707504],[-9.380000000000024,36.86497925446659],[-9.420000000000023,36.86208552646309],[-9.460000000000022,36.85917579362241],[-9.500000000000021,36.856250066487064],[-9.54000000000002,36.85330835558433],[-9.58000000000002,36.850350671426284],[-9.620000000000019,36.847377024509804],[-9.660000000000018,36.84438742531667],[-9.700000000000017,36.841381884313584],[-9.718295134251978,36.83999999999998],[-9.740000000000016,36.838360604600446],[-9.780000000000015,36.83532356850263],[-9.820000000000014,36.83227062416426],[-9.860000000000014,36.82920178199545],[-9.900000000000013,36.82611705239148],[-9.940000000000012,36.823016445732904],[-9.980000000000011,36.81989997238555],[-10.02000000000001,36.81676764270056],[-10.06000000000001,36.81361946701448],[-10.100000000000009,36.8104554556493],[-10.140000000000008,36.80727561891243],[-10.180000000000007,36.80407996709688],[-10.220000000000006,36.800868510481166],[-10.23076548950717,36.79999999999998],[-10.260000000000007,36.79764153740363],[-10.300000000000004,36.79439888465919],[-10.340000000000003,36.79114046015434],[-10.380000000000003,36.78786627411379],[-10.420000000000002,36.784576336748096],[-10.46,36.781270658253625],[-10.5,36.777949248812746]]}},{"type":"Feature","properties":{"magnitude":0.8,"percentagem":80.0,"territorio":"acores"},"geometry":{"type":"LineString","coordinates":[[-25.848198769943494,40.479999999999905],[-25.88000000000013,40.473782811840124],[-25.92000000000013,40.465950874768495],[-25.96000000000013,40.458106779727196],[-26.000000000000128,40.45025053137726],[-26.040000000000127,40.44238213437697],[-26.052092730305098,40.439999999999905],[-26.080000000000126,40.43450264902929],[-26.120000000000125,40.4266114857304],[-26.160000000000124,40.418708192094094],[-26.200000000000124,40.4107927727774],[-26.240000000000123,40.40286523243476],[-26.25443669713,40.399999999999906],[-26.280000000000122,40.394926551322555],[-26.32000000000012,40.38697631336205],[-26.36000000000012,40.379013972711036],[-26.40000000000012,40.371039534022955],[-26.44000000000012,40.36305300194864],[-26.45526933684094,40.35999999999991],[-26.480000000000118,40.35505533333844],[-26.520000000000117,40.34704617245955],[-26.560000000000116,40.339024936553706],[-26.600000000000115,40.330991630271015],[-26.640000000000114,40.32294625825903],[-26.654627956788055,40.31999999999991],[-26.680000000000113,40.31488981068594],[-26.72000000000011,40.306821878820884],[-26.76000000000011,40.2987418996109],[-26.80000000000011,40.29064987770303],[-26.84000000000011,40.282545817741905],[-26.85254856362713,40.27999999999991],[-26.88000000000011,40.274430800033066],[-26.92000000000011,40.26630424931409],[-26.960000000000107,40.25816567895248],[-27.000000000000107,40.25001509359257],[-27.040000000000106,40.241852497876266],[-27.049065918735238,40.23999999999991],[-27.080000000000105,40.233679119173765],[-27.120000000000104,40.225494101943994],[-27.160000000000103,40.2172970927959],[-27.200000000000102,40.209088096371374],[-27.2400000000001,40.200867117309954],[-27.24421359083686,40.19999999999991],[-27.2800000000001,40.19263558709329],[-27.3200000000001,40.18439225591718],[-27.3600000000001,40.1761369605708],[-27.400000000000098,40.16786970569388],[-27.438021871652307,40.15999999999991],[-27.440000000000094,40.15959057532142],[-27.480000000000096,40.15130102403189],[-27.520000000000095,40.14299953170544],[-27.560000000000095,40.134686102982165],[-27.600000000000094,40.1263607424999],[-27.630518397844302,40.11999999999991],[-27.640000000000093,40.118023838751306],[-27.680000000000092,40.109676251546816],[-27.72000000000009,40.10131675110753],[-27.76000000000009,40.09294534207183],[-27.80000000000009,40.08456202907592],[-27.821738143709098,40.07999999999991],[-27.840000000000085,40.0761675624319],[-27.880000000000088,40.06776209257276],[-27.920000000000087,40.059344737309196],[-27.960000000000086,40.050915501278254],[-28.000000000000085,40.0424743891147],[-28.01171046073735,40.039999999999914],[-28.04000000000008,40.03402257047516],[-28.080000000000084,40.0255593714806],[-28.120000000000083,40.017084314941904],[-28.160000000000082,40.008597405494854],[-28.20000000000008,40.00009864777311],[-28.20046373029046,39.999999999999915],[-28.24000000000008,39.9915896884774],[-28.28000000000008,39.98306891413481],[-28.32000000000008,39.974536310139605],[-28.360000000000078,39.965991881126676],[-28.388013253842004,39.959999999999916],[-28.400000000000077,39.9574361328368],[-28.44000000000008,39.948869743575116],[-28.480000000000075,39.94029154794883],[-28.520000000000074,39.93170155059422],[-28.560000000000073,39.9230997561454],[-28.574396417303717,39.919999999999916],[-28.600000000000072,39.91448724865384],[-28.64000000000007,39.905863564499455],[-28.68000000000007,39.897228101939376],[-28.72000000000007,39.888580865609306],[-28.759639101043316,39.87999999999992],[-28.76000000000007,39.87992187545688],[-28.800000000000068,39.87125280606738],[-28.840000000000067,39.86257198162883],[-28.880000000000067,39.853879406778724],[-28.920000000000066,39.845175086152416],[-28.943751426481633,39.83999999999992],[-28.960000000000065,39.8364597196491],[-29.000000000000064,39.827733636853836],[-29.040000000000063,39.81899582704031],[-29.080000000000062,39.81024629484587],[-29.12000000000006,39.80148504490575],[-29.12677204257787,39.79999999999992],[-29.16000000000006,39.79271351555094],[-29.20000000000006,39.78393057453001],[-29.24000000000006,39.77513593455918],[-29.280000000000058,39.7663296002758],[-29.30871359568455,39.75999999999992],[-29.320000000000057,39.757512066422606],[-29.360000000000056,39.74868409815325],[-29.400000000000055,39.73984445440155],[-29.440000000000055,39.7309931398071],[-29.480000000000054,39.7221301590075],[-29.489602449973226,39.71999999999992],[-29.520000000000053,39.71325684760492],[-29.560000000000052,39.704372304275225],[-29.60000000000005,39.69547611360986],[-29.64000000000005,39.686568280248835],[-29.669457351088397,39.67999999999992],[-29.680000000000053,39.6776492733887],[-29.72000000000005,39.66871993489469],[-29.760000000000048,39.65977897261011],[-29.800000000000047,39.650826391177475],[-29.840000000000046,39.64186219523738],[-29.848299948811075,39.63999999999992],[-29.880000000000045,39.63288779780552],[-29.920000000000044,39.623902168568314],[-29.960000000000043,39.6149049437694],[-30.000000000000043,39.605896128052024],[-30.026147420466344,39.59999999999992],[-30.040000000000042,39.59687634540272],[-30.08000000000004,39.58784615409756],[-30.12000000000004,39.57880439085649],[-30.16000000000004,39.569751060325466],[-30.20000000000004,39.560686167148646],[-30.20302446284007,39.559999999999924],[-30.240000000000038,39.55161138268144],[-30.280000000000037,39.54252518614422],[-30.320000000000036,39.53342744598568],[-30.360000000000035,39.52431816685286],[-30.378939489113684,39.519999999999925],[-30.400000000000034,39.515198308691126],[-30.440000000000033,39.506067784228804],[-30.480000000000032,39.49692573985444],[-30.52000000000003,39.487772180218116],[-30.553921832800608,39.47999999999992],[-30.56000000000003,39.47860738740238],[-30.60000000000003,39.46943264061393],[-30.64000000000003,39.46024639766397],[-30.680000000000028,39.45104866320567],[-30.720000000000027,39.441839441890416],[-30.72798080371234,39.43999999999993],[-30.760000000000026,39.432620211726956],[-30.800000000000026,39.42338987607299],[-30.840000000000025,39.41414807270617],[-30.880000000000024,39.404894806281135],[-30.90113494292406,39.39999999999992],[-30.92000000000002,39.39563095493479],[-30.960000000000022,39.38635663268248],[-31.00000000000002,39.377070866555194],[-31.04000000000002,39.367773661210926],[-31.0734050942042,39.35999999999992],[-31.08000000000002,39.35846532855904],[-31.12000000000002,39.3491471260509],[-31.160000000000018,39.33981750354852],[-31.200000000000017,39.33047646571331],[-31.240000000000016,39.321124017204994],[-31.244802302457586,39.31999999999993],[-31.280000000000015,39.31176181570894],[-31.320000000000014,39.30238844345662],[-31.360000000000014,39.293003679799085],[-31.400000000000013,39.28360752939959],[-31.415340660953852,39.27999999999993],[-31.440000000000012,39.27420116217395],[-31.48000000000001,39.26478414703911],[-31.52000000000001,39.25535576447055],[-31.56000000000001,39.24591601913519],[-31.585040174643016,39.23999999999993],[-31.60000000000001,39.23646562696362],[-31.640000000000008,39.22700507605834],[-31.680000000000007,39.21753318173518],[-31.720000000000006,39.2080499486647],[-31.753914878673495,39.19999999999993],[-31.760000000000005,39.198555672609615],[-31.800000000000004,39.18905169329289],[-31.840000000000003,39.17953639461882],[-31.880000000000003,39.17000978126179],[-31.92,39.160471857894585],[-31.92197687891047,39.15999999999993],[-31.96,39.150924462550364],[-32.0,39.141365867178564]]}},{"type":"Feature","properties":{"magnitude":0.9,"percentagem":90.0,"territorio":"acores"},"geometry":{"type":"LineString","coordinates":[[-24.04000000000017,37.64291477596998],[-24.055115984863725,37.639999999999965],[-24.08000000000017,37.635201657550205],[-24.120000000000168,37.627476442705685],[-24.160000000000167,37.61973867317036],[-24.200000000000166,37.611988355188736],[-24.240000000000165,37.60422549500144],[-24.26173940749664,37.599999999999966],[-24.280000000000165,37.59645066601358],[-24.320000000000164,37.588663985875954],[-24.360000000000163,37.580864786267554],[-24.400000000000162,37.573053073422386],[-24.44000000000016,37.56522885357065],[-24.4666904539231,37.55999999999997],[-24.48000000000016,37.55739255033651],[-24.52000000000016,37.549544592814115],[-24.56000000000016,37.54168415102194],[-24.600000000000158,37.53381123118388],[-24.640000000000157,37.52592583952005],[-24.670013630910816,37.51999999999997],[-24.680000000000156,37.518028298447],[-24.720000000000155,37.51011925145523],[-24.760000000000154,37.50219775537764],[-24.800000000000153,37.49426381642832],[-24.840000000000153,37.48631744081765],[-24.871751782044065,37.47999999999997],[-24.88000000000015,37.47835889842226],[-24.92000000000015,37.470388949895074],[-24.96000000000015,37.4624065874509],[-25.00000000000015,37.454411817294364],[-25.04000000000015,37.4464046456264],[-25.071946163783622,37.43999999999997],[-25.080000000000148,37.43838533855741],[-25.120000000000147,37.43035467645859],[-25.160000000000146,37.422311635598334],[-25.200000000000145,37.4142562221721],[-25.240000000000144,37.406188442371686],[-25.270636517416897,37.39999999999997],[-25.280000000000143,37.39810860743257],[-25.320000000000142,37.39001741976653],[-25.36000000000014,37.381913888483176],[-25.40000000000014,37.37379801976902],[-25.44000000000014,37.36566981980707],[-25.467861137152433,37.35999999999997],[-25.48000000000014,37.357529693977874],[-25.520000000000138,37.349378168800314],[-25.560000000000137,37.34121433513977],[-25.600000000000136,37.33303819917418],[-25.640000000000136,37.32484976707803],[-25.66365693459908,37.31999999999998],[-25.680000000000135,37.316649587536915],[-25.720000000000134,37.308437912964976],[-25.760000000000133,37.30021396503634],[-25.800000000000132,37.291977749920676],[-25.84000000000013,37.28372927378417],[-25.858059499850242,37.27999999999997],[-25.88000000000013,37.275469277928266],[-25.920000000000133,37.26719764215052],[-25.96000000000013,37.25891376813594],[-26.000000000000128,37.25061766204617],[-26.040000000000127,37.24230933003941],[-26.051103159380027,37.239999999999974],[-26.080000000000123,37.23398975550526],[-26.12000000000013,37.22565834679128],[-26.160000000000124,37.217314734955515],[-26.200000000000124,37.208958926151816],[-26.240000000000123,37.20059092653068],[-26.242821030943492,37.199999999999974],[-26.280000000000122,37.19221201121405],[-26.32000000000012,37.183821017923776],[-26.36000000000012,37.17541785662344],[-26.40000000000012,37.16700253345938],[-26.433237617471594,37.159999999999975],[-26.440000000000115,37.15857528701475],[-26.480000000000118,37.15013703664995],[-26.520000000000117,37.14168664724263],[-26.560000000000116,37.13322412493518],[-26.600000000000115,37.12474947586663],[-26.622386981839284,37.119999999999976],[-26.640000000000114,37.116263317142916],[-26.680000000000113,37.107765824111894],[-26.720000000000113,37.099256227154925],[-26.76000000000011,37.09073453240729],[-26.80000000000011,37.08220074600102],[-26.810302154688227,37.07999999999998],[-26.840000000000114,37.07365591366961],[-26.88000000000011,37.065099366655474],[-26.92000000000011,37.05653075083268],[-26.960000000000107,37.047950072329684],[-26.99700881244443,37.03999999999998],[-27.000000000000107,37.0393574427115],[-27.040000000000106,37.03075407033488],[-27.080000000000105,37.022138658144],[-27.120000000000104,37.01351121226386],[-27.160000000000103,37.00487173881626],[-27.18252604832646,36.999999999999986],[-27.200000000000102,36.996220865473134],[-27.2400000000001,36.98755878172817],[-27.2800000000001,36.978884693298134],[-27.3200000000001,36.97019860630154],[-27.3600000000001,36.96150052685381],[-27.36689197023893,36.95999999999998],[-27.400000000000098,36.95279164937789],[-27.440000000000097,36.94407104333654],[-27.480000000000096,36.935338467743655],[-27.520000000000095,36.92659392871154],[-27.55012257578102,36.91999999999998],[-27.560000000000095,36.91783778931116],[-27.600000000000094,36.90907079071199],[-27.640000000000093,36.9002918515911],[-27.680000000000092,36.8915009780578],[-27.72000000000009,36.8826981762184],[-27.732245397945185,36.87999999999998],[-27.76000000000009,36.873884464205176],[-27.80000000000009,36.86505928674356],[-27.84000000000009,36.85622220391197],[-27.880000000000088,36.84737322181387],[-27.913285347604642,36.83999999999998],[-27.920000000000087,36.838512593063015],[-27.960000000000086,36.82964130257029],[-28.000000000000085,36.8207581357662],[-28.040000000000084,36.81186309875159],[-28.080000000000084,36.802956197624155],[-28.093259849143998,36.79999999999998],[-28.120000000000083,36.79403842892782],[-28.160000000000082,36.78510930360324],[-28.20000000000008,36.77616833714102],[-28.24000000000008,36.76721553563637],[-28.272196647527494,36.759999999999984],[-28.28000000000008,36.758251196177284],[-28.32000000000008,36.74927623791346],[-28.360000000000078,36.740289467602416],[-28.400000000000077,36.73129089133693],[-28.440000000000076,36.72228051520692],[-28.450112009818227,36.719999999999985],[-28.48000000000007,36.71325946971162],[-28.520000000000074,36.7042270212833],[-28.560000000000073,36.695182796006776],[-28.600000000000072,36.68612679996967],[-28.62702823952388,36.67999999999999],[-28.64000000000007,36.67705953055306],[-28.68000000000007,36.6679815298747],[-28.72000000000007,36.658891781473116],[-28.76000000000007,36.64979029143372],[-28.800000000000068,36.64067706583905],[-28.802968445557042,36.639999999999986],[-28.840000000000067,36.63155352562664],[-28.880000000000067,36.62241838012486],[-28.920000000000066,36.61327152212745],[-28.960000000000065,36.60411295771491],[-28.977942107385857,36.59999999999999],[-29.000000000000068,36.594943541363314],[-29.040000000000063,36.5857631249278],[-29.080000000000062,36.57657102515871],[-29.12000000000006,36.56736724813457],[-29.151978919026924,36.55999999999999],[-29.16000000000006,36.558152110497716],[-29.200000000000063,36.54892654943904],[-29.24000000000006,36.53968933422914],[-29.280000000000058,36.53044047094474],[-29.320000000000057,36.52117996565967],[-29.325091133280488,36.51999999999999],[-29.360000000000056,36.51190918782102],[-29.400000000000055,36.5026269836482],[-29.440000000000055,36.49333316060228],[-29.480000000000054,36.4840277247554],[-29.497293547731793,36.47999999999999],[-29.520000000000053,36.47471157485519],[-29.560000000000052,36.46538450834664],[-29.60000000000005,36.45604585218771],[-29.64000000000005,36.446695612448906],[-29.668609576172585,36.43999999999999],[-29.68000000000005,36.43733424595512],[-29.72000000000005,36.427962443889534],[-29.760000000000048,36.41857908141802],[-29.800000000000047,36.40918416460951],[-29.83905484962775,36.39999999999999],[-29.840000000000046,36.39977773717906],[-29.880000000000045,36.390361326488815],[-29.920000000000044,36.3809333846592],[-29.960000000000043,36.3714939177577],[-30.000000000000043,36.36204293184896],[-30.008637075579667,36.35999999999999],[-30.040000000000042,36.352581693015374],[-30.08000000000004,36.34310929893821],[-30.12000000000004,36.3336254090768],[-30.16000000000004,36.324130029494434],[-30.177378738632804,36.31999999999999],[-30.20000000000004,36.3146240810108],[-30.240000000000038,36.30510736195459],[-30.280000000000037,36.29557917642471],[-30.320000000000036,36.28603953048314],[-30.34529515291308,36.279999999999994],[-30.360000000000035,36.27648902869843],[-30.400000000000034,36.26692811209147],[-30.440000000000033,36.25735575834469],[-30.480000000000032,36.247771973518795],[-30.512400451996363,36.239999999999995],[-30.520000000000028,36.238177074994084],[-30.56000000000003,36.228572088426276],[-30.60000000000003,36.21895569407603],[-30.64000000000003,36.20932789800286],[-30.67870843227359,36.199999999999996],[-30.68000000000003,36.1996887595166],[-30.720000000000027,36.19003983074097],[-30.760000000000026,36.18037952356414],[-30.800000000000026,36.17070784404457],[-30.840000000000025,36.16102479823798],[-30.844229064104223,36.16],[-30.880000000000024,36.15133187953173],[-30.920000000000023,36.141627787470284],[-30.960000000000022,36.13191235247043],[-31.00000000000002,36.12218558058683],[-31.00897864266959,36.12],[-31.04000000000002,36.11244877601841],[-31.08000000000002,36.10270102718076],[-31.12000000000002,36.09294196483347],[-31.160000000000018,36.08317159503029],[-31.17297105815628,36.08],[-31.200000000000017,36.07339106215332],[-31.24000000000002,36.063599784815736],[-31.280000000000015,36.05379722342201],[-31.320000000000014,36.04398338402493],[-31.336218823628194,36.04],[-31.360000000000014,36.03415928062988],[-31.400000000000013,36.024324603237716],[-31.440000000000012,36.01447867126785],[-31.48000000000001,36.00462149077216],[-31.498734162225993,36.0]]}},{"type":"Feature","properties":{"magnitude":0.95,"percentagem":95.0,"territorio":"acores"},"geometry":{"type":"LineString","coordinates":[[-24.04000000000017,36.069242100744326],[-24.08000000000017,36.06132150447709],[-24.120000000000168,36.05338829375201],[-24.160000000000167,36.04544247558517],[-24.18735593513823,36.040000000000006],[-24.200000000000166,36.03748442210396],[-24.240000000000165,36.02951456827535],[-24.280000000000165,36.02153213203607],[-24.320000000000164,36.01353712039335],[-24.360000000000163,36.00552954035007],[-24.387579635429923,36.0]]}},{"type":"Feature","properties":{"magnitude":0.9,"percentagem":90.0,"territorio":"madeira"},"geometry":{"type":"LineString","coordinates":[[-18.0,30.465982053259125],[-17.96,30.47231007782242],[-17.92,30.478623793267776],[-17.880000000000003,30.484923188016616],[-17.840000000000003,30.4912082504791],[-17.800000000000004,30.497478969054082],[-17.783882932235656,30.49999999999998],[-17.760000000000005,30.50373560429331],[-17.720000000000006,30.509978053759696],[-17.680000000000007,30.516206121811628],[-17.640000000000008,30.522419796810063],[-17.60000000000001,30.52861906710447],[-17.56000000000001,30.534803921032907],[-17.52631685318323,30.539999999999978],[-17.52000000000001,30.540974417547645],[-17.48000000000001,30.54713084901623],[-17.440000000000012,30.553272826444204],[-17.400000000000013,30.559400338131006],[-17.360000000000014,30.565513372364506],[-17.320000000000014,30.57161191742096],[-17.280000000000015,30.577695961564977],[-17.264816789637443,30.579999999999977],[-17.240000000000016,30.58376576412406],[-17.200000000000017,30.589821205838838],[-17.160000000000018,30.595862108787827],[-17.12000000000002,30.601888461196275],[-17.08000000000002,30.60790025127762],[-17.04000000000002,30.613897467233542],[-17.00000000000002,30.619880097253844],[-16.999196456310234,30.619999999999976],[-16.960000000000022,30.625848547677762],[-16.920000000000023,30.631802394556388],[-16.880000000000024,30.63774161746273],[-16.840000000000025,30.643666204546427],[-16.800000000000026,30.64957614394511],[-16.760000000000026,30.655471423784448],[-16.729197347162135,30.659999999999975],[-16.720000000000024,30.661352128378724],[-16.680000000000028,30.667218469905496],[-16.64000000000003,30.673070113677067],[-16.60000000000003,30.678907047778182],[-16.56000000000003,30.684729260281422],[-16.52000000000003,30.690536739247225],[-16.480000000000032,30.69632947272381],[-16.454590568265182,30.699999999999974],[-16.440000000000033,30.702107597715273],[-16.400000000000034,30.707871210719937],[-16.360000000000035,30.7136200398472],[-16.320000000000036,30.719354073103467],[-16.280000000000037,30.725073298482833],[-16.240000000000038,30.73077770396705],[-16.20000000000004,30.73646727752542],[-16.1750996113094,30.739999999999977],[-16.16000000000004,30.742142157549583],[-16.12000000000004,30.74780242766015],[-16.08000000000004,30.75344782725925],[-16.040000000000042,30.759078344273526],[-16.000000000000043,30.764693966617042],[-15.960000000000043,30.77029468219129],[-15.920000000000044,30.775880478885206],[-15.890421810898694,30.779999999999973],[-15.880000000000045,30.78145144585782],[-15.840000000000046,30.787007755284346],[-15.800000000000049,30.792549107042284],[-15.760000000000048,30.79807548897689],[-15.720000000000049,30.803586888920663],[-15.68000000000005,30.809083294693323],[-15.64000000000005,30.814564694101765],[-15.60022741415038,30.819999999999975],[-15.60000000000005,30.8200310770951],[-15.560000000000052,30.825482804545064],[-15.520000000000053,30.83091948663457],[-15.480000000000054,30.836341111125947],[-15.440000000000055,30.84174766576851],[-15.400000000000055,30.84713913829856],[-15.360000000000056,30.852515516439375],[-15.320000000000057,30.857876787901148],[-15.304115124486135,30.85999999999997],[-15.280000000000058,30.86322316214647],[-15.240000000000059,30.86855454913851],[-15.20000000000006,30.87387079020928],[-15.16000000000006,30.879171873023285],[-15.120000000000061,30.884457785231763],[-15.080000000000062,30.889728514472704],[-15.040000000000063,30.89498404837076]]}},{"type":"Feature","properties":{"magnitude":0.95,"percentagem":95.0,"territorio":"madeira"},"geometry":{"type":"LineString","coordinates":[[-18.0,31.978142570566177],[-17.98795141869003,31.979999999999947],[-17.96,31.98430889214299],[-17.92,31.990461202368515],[-17.880000000000003,31.99659932667825],[-17.840000000000003,32.002723254384165],[-17.800000000000004,32.008832974788035],[-17.760000000000005,32.014928477181435],[-17.726642376920097,32.019999999999946],[-17.720000000000006,32.02100983947554],[-17.680000000000007,32.02707740535101],[-17.640000000000008,32.03313071831157],[-17.60000000000001,32.03916976761492],[-17.56000000000001,32.045194542508376],[-17.52000000000001,32.05120503222885],[-17.48000000000001,32.05720122600291],[-17.46128620575043,32.059999999999945],[-17.440000000000012,32.06318339101511],[-17.400000000000013,32.069151480560116],[-17.360000000000014,32.075105239098356],[-17.320000000000014,32.081044655821714],[-17.280000000000015,32.0869697199115],[-17.240000000000016,32.092880420538506],[-17.200000000000017,32.09877674686293],[-17.1916820815432,32.099999999999945],[-17.160000000000018,32.10465909282268],[-17.12000000000002,32.110527146555974],[-17.08000000000002,32.1163807907658],[-17.04000000000002,32.122220014576875],[-17.00000000000002,32.128044807103194],[-16.960000000000022,32.13385515744802],[-16.920000000000023,32.139651054703876],[-16.917586020428534,32.139999999999944],[-16.880000000000024,32.14543295766078],[-16.840000000000025,32.151200413287214],[-16.800000000000026,32.15695338043844],[-16.760000000000026,32.16269184817061],[-16.720000000000027,32.16841580552901],[-16.680000000000028,32.174125241548],[-16.64000000000003,32.17982014525094],[-16.63873364133022,32.17999999999994],[-16.60000000000003,32.18550097895683],[-16.56000000000003,32.19116727128993],[-16.52000000000003,32.1968189957505],[-16.480000000000032,32.20245614132476],[-16.440000000000033,32.2080786969878],[-16.400000000000034,32.213686651703604],[-16.360000000000035,32.21927999442498],[-16.354838007390583,32.21999999999994],[-16.320000000000036,32.22485913021274],[-16.280000000000037,32.230423691094956],[-16.240000000000038,32.235973604250965],[-16.20000000000004,32.24150885859551],[-16.16000000000004,32.247029443032034],[-16.12000000000004,32.25253534645265],[-16.08000000000004,32.25802655773812],[-16.06558718818851,32.25999999999994],[-16.040000000000042,32.26350336439777],[-16.000000000000043,32.26896562261841],[-15.960000000000043,32.27441315279159],[-15.920000000000044,32.27984594375907],[-15.880000000000045,32.2852639843511],[-15.840000000000046,32.2906672633864],[-15.800000000000047,32.29605576967211],[-15.770641499710145,32.29999999999994],[-15.760000000000048,32.301429613323776],[-15.720000000000049,32.30678899453447],[-15.68000000000005,32.3121335668974],[-15.64000000000005,32.317463319179765],[-15.600000000000051,32.32277824013705],[-15.560000000000052,32.32807831851298],[-15.520000000000053,32.3333635430395],[-15.480000000000054,32.338633902436776],[-15.46960336370911,32.33999999999994],[-15.440000000000055,32.34388971363119],[-15.400000000000057,32.34913075012004],[-15.360000000000056,32.354356885160925],[-15.320000000000057,32.35956810743295],[-15.280000000000058,32.36476440560325],[-15.240000000000059,32.36994576832693],[-15.20000000000006,32.37511218424707],[-15.162047342039697,32.37999999999994],[-15.16000000000006,32.38026366414851],[-15.12000000000006,32.38540058337326],[-15.08000000000006,32.390522519277965],[-15.040000000000063,32.39562946046364]]}},{"type":"Feature","properties":{"magnitude":0.99,"percentagem":99.0,"territorio":"madeira"},"geometry":{"type":"LineString","coordinates":[[-18.0,33.19147193375889],[-17.96,33.197505566713346],[-17.92,33.20352513941132],[-17.880000000000003,33.20953064187968],[-17.840000000000003,33.2155220641359],[-17.810034821577922,33.21999999999992],[-17.800000000000004,33.2214995460059],[-17.760000000000005,33.22746337283011],[-17.720000000000006,33.23341308665697],[-17.680000000000007,33.239348677473174],[-17.640000000000008,33.24527013525581],[-17.60000000000001,33.25117744997248],[-17.56000000000001,33.2570706115812],[-17.54007003228255,33.25999999999992],[-17.52000000000001,33.262949903556326],[-17.48000000000001,33.26881531140894],[-17.440000000000012,33.27466653322705],[-17.400000000000013,33.28050355893704],[-17.360000000000014,33.28632637845565],[-17.320000000000014,33.29213498168984],[-17.280000000000015,33.2979293585369],[-17.265671780039455,33.29999999999992],[-17.240000000000016,33.303709866568376],[-17.200000000000017,33.30947633074005],[-17.160000000000018,33.31522853545195],[-17.12000000000002,33.320966470568884],[-17.08000000000002,33.3266901259458],[-17.04000000000002,33.33239949142777],[-17.00000000000002,33.33809455684988],[-16.986584257472785,33.33999999999992],[-16.960000000000022,33.34377568480133],[-16.920000000000023,33.34944267800793],[-16.880000000000024,33.35509533793116],[-16.840000000000025,33.360733654372865],[-16.800000000000026,33.36635761712486],[-16.760000000000026,33.37196721596884],[-16.720000000000027,33.37756244067636],[-16.702530277272555,33.37999999999992],[-16.680000000000028,33.38314359020234],[-16.64000000000003,33.388710582506846],[-16.60000000000003,33.394263167295534],[-16.56000000000003,33.39980133430586],[-16.52000000000003,33.40532507326502],[-16.480000000000032,33.41083437388993],[-16.440000000000033,33.41632922588721],[-16.413209010292924,33.419999999999916],[-16.400000000000034,33.4218097963088],[-16.360000000000035,33.427276255040994],[-16.320000000000036,33.43272823160521],[-16.280000000000037,33.438165715673],[-16.240000000000038,33.443588696905536],[-16.20000000000004,33.44899716495342],[-16.16000000000004,33.454391109456786],[-16.12000000000004,33.45977052004522],[-16.118289210588504,33.459999999999916],[-16.08000000000004,33.465135887308136],[-16.040000000000042,33.470486719730864],[-16.000000000000043,33.47582298450673],[-15.960000000000043,33.48114467122924],[-15.920000000000044,33.48645176948124],[-15.880000000000045,33.49174426883484],[-15.840000000000046,33.49702215885141],[-15.817370044374268,33.499999999999915],[-15.800000000000049,33.502285651266185],[-15.76000000000005,33.50753480071806],[-15.720000000000049,33.51276930692861],[-15.68000000000005,33.51798915942219],[-15.64000000000005,33.52319434771226],[-15.600000000000051,33.52838486130134],[-15.560000000000052,33.53356068968098],[-15.520000000000053,33.538721822331745],[-15.510066379784455,33.539999999999914],[-15.480000000000054,33.54386862313451],[-15.440000000000055,33.5490008284944],[-15.400000000000057,33.554118304016214],[-15.360000000000056,33.55922103914243],[-15.320000000000057,33.56430902330433],[-15.280000000000058,33.56938224592204],[-15.240000000000059,33.57444069640445],[-15.20000000000006,33.57948436414922],[-15.195899020559345,33.57999999999991],[-15.16000000000006,33.584513673521734],[-15.120000000000061,33.58952822621431],[-15.080000000000062,33.59452796184775],[-15.040000000000063,33.59951286978048]]}}]}