{"type":"FeatureCollection","properties":{"largura_maxima_km":150.243,"largura_sobre_pt_km":143.651,"linha_central_sobre_pt":false,"desenhavel_como_area":true,"perfil_largura":[{"t":1.99444,"lat":26.1041,"lon":-39.8874,"largura_km":150.243,"eixo_na_terra":true},{"t":2.0,"lat":26.156,"lon":-39.1663,"largura_km":149.475,"eixo_na_terra":true},{"t":2.00556,"lat":26.2052,"lon":-38.403,"largura_km":148.67,"eixo_na_terra":true},{"t":2.01111,"lat":26.2514,"lon":-37.5898,"largura_km":147.815,"eixo_na_terra":true},{"t":2.01667,"lat":26.2939,"lon":-36.7171,"largura_km":146.901,"eixo_na_terra":true},{"t":2.02222,"lat":26.3318,"lon":-35.771,"largura_km":145.919,"eixo_na_terra":true},{"t":2.02778,"lat":26.364,"lon":-34.7316,"largura_km":144.843,"eixo_na_terra":true},{"t":2.03333,"lat":26.3884,"lon":-33.5678,"largura_km":143.651,"eixo_na_terra":true},{"t":2.03889,"lat":26.3572,"lon":-30.7288,"largura_km":null,"eixo_na_terra":false},{"t":2.04444,"lat":26.3605,"lon":-29.9607,"largura_km":null,"eixo_na_terra":false},{"t":2.05,"lat":26.367,"lon":-29.4909,"largura_km":null,"eixo_na_terra":false},{"t":2.05556,"lat":26.3357,"lon":-28.5906,"largura_km":null,"eixo_na_terra":false},{"t":2.06111,"lat":26.3583,"lon":-28.2141,"largura_km":null,"eixo_na_terra":false},{"t":2.06667,"lat":26.3265,"lon":-27.0346,"largura_km":null,"eixo_na_terra":false},{"t":2.07222,"lat":26.2419,"lon":-25.1345,"largura_km":null,"eixo_na_terra":false}]},"features":[{"type":"Feature","properties":{},"geometry":{"type":"Polygon","coordinates":[[[-24.4242154560514,25.583739145705184],[-25.746318737846025,25.65084657403044],[-26.19676964478799,25.670577529009353],[-27.22441473351239,25.70309853706303],[-29.274325095517586,25.75769513438445],[-30.362446322245916,25.76378902055029],[-31.166168551680084,25.77299720992896],[-31.8399157988853,25.76508748156208],[-32.21503438897403,25.76322592558465],[-32.576317549791725,25.763558901766306],[-33.09204094310081,25.768429311371126],[-33.479248971616514,25.776316784572757],[-33.46993365035587,25.745103563495807],[-34.56346661482749,25.71795011978418],[-35.608926142654525,25.682166139311743],[-36.49725844270142,25.643466163614526],[-37.375862035506714,25.598069952490402],[-38.19308921071925,25.549123356870886],[-38.95932741387179,25.497229222336383],[-39.632730356959485,25.4464689632282],[-40.2093866868353,26.7573528134296],[-39.44400576196614,26.810802330450233],[-38.68676386276758,26.857780866017805],[-37.88159512587299,26.90158840495657],[-37.01928588345248,26.941613663942157],[-36.08720790732286,26.977019888946945],[-35.067228040720096,27.006607139021206],[-33.85336952242565,27.029897539878803],[-33.84540863573093,27.003222677099686],[-33.55861176856675,27.017322489067567],[-33.235063834813076,27.02887324998698],[-32.89692566285251,27.03657853578265],[-32.54445560025479,27.04031713944909],[-32.17787477716848,27.03998281641958],[-31.669206407181207,27.03296873048447],[-31.190897258062876,27.03479188337824],[-30.754981848638323,27.031192887583213],[-30.292751745904184,27.022668118753266],[-29.808513132013776,27.009143883605276],[-29.481924117840236,27.005392581978523],[-28.904491704792918,26.99367335013545],[-28.256664516700823,26.974164775779638],[-27.89769959998793,26.960884080658275],[-27.507548002684302,26.94471964966731],[-26.887871553912895,26.915603342580322],[-26.249891957411194,26.889678199004383],[-25.486789653598464,26.852770137252843],[-25.474727926586727,26.83836483226349],[-25.219010023803037,26.823494247095688],[-25.235712507122756,26.747357578348122],[-24.68308126319272,26.709379297059975],[-24.730627290917347,26.526181830653016],[-24.278263714253228,26.488241247657598],[-24.47435430754294,25.85603479291082],[-24.65556882770359,25.860044178618118],[-24.4242154560514,25.583739145705184]]]}}]}