{"type":"FeatureCollection","features":[{"type":"Feature","properties":{"t_inicio":1.9944444444444231,"t_fim":2.0499999999999785},"geometry":{"type":"LineString","coordinates":[[-39.88736469181828,26.104060220418166],[-39.16631962181381,26.155953127242455],[-38.402951075990444,26.205222940557785],[-37.58984020606644,26.251407452685953],[-36.717094885449995,26.29389111949359],[-35.77101206567551,26.331822332282893],[-34.7316350203117,26.363962435374177],[-33.567829939002706,26.388381607510016],[-32.22586385407874,26.401753765238297],[-30.596336935604256,26.39731659086682],[-28.367233318394568,26.355812617708427]]}}]}