{"type":"FeatureCollection","features":[{"type":"Feature","properties":{"magnitude":0.6,"percentagem":60.0,"territorio":"acores"},"geometry":{"type":"LineString","coordinates":[[-24.04000000000017,38.95433382689406],[-24.08000000000017,38.956358634688186],[-24.12000000000017,38.95837303147969],[-24.152474367951577,38.95999999999994],[-24.160000000000167,38.96037705888646],[-24.200000000000166,38.96237086534885],[-24.240000000000165,38.964354243759686],[-24.280000000000165,38.966327188946224],[-24.320000000000164,38.968289695727755],[-24.360000000000163,38.97024175891548],[-24.400000000000162,38.972183373312575],[-24.44000000000016,38.9741145337141],[-24.48000000000016,38.97603523490706],[-24.52000000000016,38.977945471670296],[-24.56000000000016,38.97984523877456],[-24.600000000000158,38.981734530982436],[-24.640000000000157,38.98361334304834],[-24.680000000000156,38.9854816697185],[-24.720000000000155,38.987339505730965],[-24.760000000000154,38.989186845815524],[-24.800000000000153,38.99102368469375],[-24.840000000000153,38.992850017078965],[-24.88000000000015,38.99466583767622],[-24.92000000000015,38.996471141182234],[-24.96000000000015,38.99826592228545],[-24.998875082099165,38.999999999999936],[-25.00000000000015,39.000050181840066],[-25.04000000000015,39.001824120301194],[-25.080000000000148,39.003587518838934],[-25.120000000000147,39.00534037211034],[-25.160000000000146,39.00708267476409],[-25.200000000000145,39.008814421440434],[-25.240000000000144,39.01053560677117],[-25.280000000000143,39.01224622537965],[-25.320000000000142,39.0139462718807],[-25.36000000000014,39.015635740880704],[-25.40000000000014,39.01731462697748],[-25.44000000000014,39.01898292476031],[-25.48000000000014,39.02064062880996],[-25.520000000000138,39.022287733698576],[-25.560000000000137,39.02392423398973],[-25.600000000000136,39.02555012423839],[-25.640000000000136,39.02716539899085],[-25.680000000000135,39.02877005278482],[-25.720000000000134,39.030364080149276],[-25.760000000000133,39.03194747560455],[-25.800000000000132,39.03352023366223],[-25.84000000000013,39.0350823488252],[-25.88000000000013,39.036633815587614],[-25.92000000000013,39.03817462843481],[-25.96000000000013,39.03970478184339],[-25.967771176489492,39.039999999999935],[-26.000000000000128,39.04122441944784],[-26.040000000000127,39.04273342103239],[-26.080000000000126,39.04423174506],[-26.120000000000125,39.04571938597385],[-26.160000000000124,39.04719633820818],[-26.200000000000124,39.04866259618835],[-26.240000000000123,39.05011815433078],[-26.280000000000122,39.05156300704295],[-26.32000000000012,39.052997148723364],[-26.36000000000012,39.05442057376152],[-26.40000000000012,39.05583327653796],[-26.44000000000012,39.05723525142416],[-26.480000000000118,39.058626492782565],[-26.520000000000117,39.06000699496653],[-26.560000000000116,39.061376752320356],[-26.600000000000115,39.06273575917922],[-26.640000000000114,39.06408400986919],[-26.680000000000113,39.06542149870715],[-26.720000000000113,39.066748220000854],[-26.76000000000011,39.06806416804884],[-26.80000000000011,39.06936933714047],[-26.840000000000106,39.07066372155584],[-26.88000000000011,39.07194731556584],[-26.920000000000105,39.073220113432065],[-26.960000000000107,39.0744821094068],[-27.000000000000107,39.07573329773308],[-27.040000000000106,39.07697367264455],[-27.080000000000105,39.07820322836553],[-27.120000000000104,39.07942195911098],[-27.139141514521043,39.079999999999934],[-27.160000000000103,39.08062993496047],[-27.200000000000102,39.08182714244994],[-27.2400000000001,39.083013506100166],[-27.2800000000001,39.08418902009011],[-27.3200000000001,39.08535367858921],[-27.3600000000001,39.08650747575743],[-27.400000000000098,39.087650405745194],[-27.440000000000097,39.08878246269337],[-27.480000000000096,39.0899036407333],[-27.520000000000095,39.09101393398669],[-27.560000000000095,39.09211333656566],[-27.600000000000094,39.09320184257269],[-27.640000000000093,39.09427944610061],[-27.680000000000092,39.09534614123256],[-27.72000000000009,39.09640192204203],[-27.76000000000009,39.097446782592726],[-27.80000000000009,39.09848071693868],[-27.84000000000009,39.09950371912413],[-27.880000000000088,39.1005157831835],[-27.920000000000087,39.10151690314149],[-27.960000000000086,39.10250707301288],[-28.000000000000085,39.10348628680269],[-28.040000000000084,39.10445453850601],[-28.080000000000084,39.10541182210805],[-28.120000000000083,39.10635813158412],[-28.160000000000082,39.1072934608996],[-28.20000000000008,39.10821780400988],[-28.240000000000084,39.10913115486039],[-28.28000000000008,39.11003350738654],[-28.320000000000075,39.11092485551376],[-28.360000000000078,39.11180519315737],[-28.400000000000077,39.112674514222675],[-28.440000000000072,39.113532812604845],[-28.480000000000075,39.11438008218896],[-28.520000000000074,39.11521631684997],[-28.560000000000073,39.11604151045262],[-28.600000000000072,39.11685565685153],[-28.64000000000007,39.11765874989105],[-28.68000000000007,39.11845078340537],[-28.72000000000007,39.1192317512184],[-28.759914418784238,39.11999999999993],[-28.76000000000007,39.12000164733902],[-28.800000000000068,39.12076055509297],[-28.840000000000067,39.12150837715626],[-28.880000000000067,39.12224510731295],[-28.920000000000066,39.12297073933676],[-28.960000000000065,39.12368526699098],[-29.000000000000064,39.12438868402849],[-29.040000000000063,39.12508098419173],[-29.080000000000062,39.12576216121267],[-29.12000000000006,39.126432208812794],[-29.16000000000006,39.12709112070305],[-29.20000000000006,39.12773889058387],[-29.24000000000006,39.12837551214514],[-29.280000000000058,39.12900097906612],[-29.320000000000057,39.12961528501548],[-29.360000000000056,39.13021842365128],[-29.400000000000055,39.13081038862089],[-29.440000000000055,39.131391173561006],[-29.480000000000054,39.13196077209763],[-29.520000000000053,39.132519177846035],[-29.560000000000052,39.13306638441073],[-29.60000000000005,39.133602385385466],[-29.64000000000005,39.13412717435317],[-29.68000000000005,39.13464074488596],[-29.72000000000005,39.13514309054511],[-29.760000000000048,39.135634204881],[-29.800000000000047,39.13611408143313],[-29.840000000000046,39.136582713730064],[-29.880000000000045,39.137040095289414],[-29.920000000000044,39.13748621961784],[-29.960000000000043,39.13792108021101],[-30.000000000000043,39.13834467055352],[-30.040000000000042,39.138756984119],[-30.08000000000004,39.13915801436994],[-30.12000000000004,39.139547754757736],[-30.16000000000004,39.139926198722726],[-30.20000000000004,39.14029333969404],[-30.240000000000038,39.14064917108966],[-30.280000000000037,39.14099368631638],[-30.320000000000036,39.14132687876974],[-30.360000000000035,39.141648741834075],[-30.400000000000034,39.14195926888243],[-30.440000000000033,39.142258453276526],[-30.480000000000032,39.14254628836681],[-30.52000000000003,39.142822767492355],[-30.560000000000027,39.143087883980826],[-30.60000000000003,39.14334163114856],[-30.640000000000033,39.14358400230043],[-30.680000000000028,39.14381499072984],[-30.72000000000003,39.14403458971873],[-30.760000000000026,39.14424279253757],[-30.800000000000026,39.14443959244524],[-30.840000000000025,39.14462498268912],[-30.880000000000024,39.144798956504985],[-30.920000000000023,39.144961507116996],[-30.960000000000022,39.14511262773769],[-31.00000000000002,39.14525231156794],[-31.04000000000002,39.14538055179694],[-31.08000000000002,39.14549734160216],[-31.120000000000022,39.14560267414935],[-31.160000000000018,39.14569654259247],[-31.200000000000017,39.1457789400737],[-31.240000000000013,39.1458498597234],[-31.280000000000015,39.145909294660086],[-31.320000000000014,39.145957237990416],[-31.360000000000014,39.145993682809106],[-31.400000000000013,39.146018622198994],[-31.440000000000012,39.14603204923092],[-31.48000000000001,39.1460339569638],[-31.52000000000001,39.14602433844446],[-31.56000000000001,39.14600318670779],[-31.60000000000001,39.145970494776556],[-31.640000000000008,39.14592625566144],[-31.680000000000007,39.14587046236102],[-31.720000000000006,39.14580310786173],[-31.76,39.14572418513781],[-31.800000000000004,39.14563368715134],[-31.840000000000003,39.14553160685215],[-31.880000000000003,39.14541793717781],[-31.92,39.14529267105363],[-31.96,39.14515580139259],[-32.0,39.14500732109532]]}}]}