{"type":"FeatureCollection","features":[{"type":"Feature","properties":{"magnitude":0.2,"de":0.2,"ate":0.5,"percentagem":20.0},"geometry":{"type":"Polygon","coordinates":[[[-5.2199999999988895,39.06015217273044],[-3.5399999999988268,38.40550804149611],[-3.5399999999988268,44.939999999999685],[-14.707932544032815,44.939999999999685],[-13.492490525411736,43.9199999999997],[-12.239999999999156,42.96735018577412],[-10.919999999999106,42.06009601128588],[-9.599999999999056,41.2419101603902],[-8.159999999999002,40.44037430411318],[-6.719999999998947,39.72430238828777],[-5.2199999999988895,39.06015217273044]]]}},{"type":"Feature","properties":{"magnitude":0.5,"de":0.5,"ate":0.8,"percentagem":50.0},"geometry":{"type":"Polygon","coordinates":[[[-33.059999999999945,31.263489896738673],[-31.58927929635557,30.0],[-3.5399999999988268,30.0],[-3.5399999999988268,38.40550804149611],[-5.099999999998886,39.01038973272009],[-6.659999999998945,39.69620583523364],[-8.159288317186487,40.43999999999978],[-9.539999999999054,41.20667889838138],[-10.919852878890518,42.05999999999975],[-12.229842541994538,42.959999999999724],[-13.492490525411736,43.9199999999997],[-14.707932544032815,44.939999999999685],[-34.5,44.939999999999685],[-34.5,32.59199181208015],[-33.059999999999945,31.263489896738673]]]}},{"type":"Feature","properties":{"magnitude":0.8,"de":0.8,"ate":0.95,"percentagem":80.0},"geometry":{"type":"Polygon","coordinates":[[[-34.5,30.0],[-34.44,30.0],[-31.58927929635557,30.0],[-33.056082901856556,31.259999999999973],[-34.5,32.59199181208015],[-34.5,30.0]]]}}]}