{"type":"FeatureCollection","features":[{"type":"Feature","properties":{"t_inicio":1.2222222222222037,"t_fim":1.3055555555555367},"geometry":{"type":"LineString","coordinates":[[-39.75685446995885,28.707255606962832],[-39.33984339213322,28.52308251040589],[-38.91165337403942,28.33387699654597],[-38.47135543687631,28.13924795315021],[-38.01788831634411,27.938749036199123],[-37.55003056822727,27.731867070695905],[-37.066364630839985,27.518007114676166],[-36.565229815495144,27.29647293173629],[-36.044659748568336,27.066441018364035],[-35.50229747896975,26.826925376818025],[-34.93527766024533,26.57672865081228],[-34.3400587159754,26.314372553561622],[-33.71217630669861,26.03799572698582],[-33.04586768524837,25.745198191128637],[-32.333473248584795,25.432793664613147],[-31.564428789926836,25.096392711426766]]}}]}