{"type":"FeatureCollection","features":[{"type":"Feature","properties":{"magnitude":0.2,"percentagem":20.0,"territorio":"continente"},"geometry":{"type":"LineString","coordinates":[[-8.675076892347032,36.0],[-8.66000000000004,36.01510815238599],[-8.635108152386033,36.04],[-8.62000000000004,36.05513951799375],[-8.595139517993793,36.08],[-8.580000000000041,36.09517098966439],[-8.555170989664436,36.11999999999999],[-8.540000000000042,36.13520256789503],[-8.515202567895075,36.16],[-8.500000000000043,36.17523425318579],[-8.475234253185842,36.199999999999996],[-8.460000000000043,36.21526604603986],[-8.435266046039905,36.239999999999995],[-8.420000000000044,36.25529794696344],[-8.380000000000045,36.25530749467686],[-8.355307494676916,36.279999999999994],[-8.340000000000046,36.29533953743653],[-8.315339537436587,36.31999999999999],[-8.300000000000047,36.33537168945],[-8.275371689450054,36.359999999999985],[-8.260000000000048,36.375403951233835],[-8.235403951233891,36.39999999999999],[-8.220000000000049,36.41543632330777],[-8.19543632330783,36.43999999999999],[-8.18000000000005,36.45546880619473],[-8.15546880619479,36.47999999999999],[-8.14000000000005,36.49550140042084],[-8.115501400420905,36.51999999999999],[-8.100000000000051,36.53553410651548],[-8.075534106515539,36.55999999999999],[-8.060000000000052,36.575566925011245],[-8.035566925011313,36.59999999999999],[-8.020000000000053,36.615599856444064],[-7.995599856444133,36.639999999999986],[-7.980000000000054,36.655632901353144],[-7.955632901353214,36.67999999999999],[-7.940000000000055,36.69566606028103],[-7.915666060281101,36.719999999999985],[-7.900000000000055,36.73569933377363],[-7.875699333773705,36.759999999999984],[-7.860000000000056,36.77573272238024],[-7.835732722380313,36.79999999999998],[-7.820000000000057,36.81576622665355],[-7.79576622665363,36.83999999999998],[-7.780000000000058,36.85579984714972],[-7.755799847149792,36.87999999999998],[-7.740000000000059,36.895833584428324],[-7.7158335844284025,36.91999999999998],[-7.70000000000006,36.93586743905247],[-7.675867439052551,36.95999999999998],[-7.6600000000000605,36.975901411588765],[-7.635901411588847,36.99999999999998],[-7.620000000000061,37.015935502607356],[-7.59593550260744,37.03999999999998],[-7.580000000000062,37.055969712681964],[-7.555969712682053,37.07999999999998],[-7.540000000000063,37.09600404238992],[-7.5160040423900085,37.119999999999976],[-7.500000000000064,37.13603849231217],[-7.460000000000065,37.136048820574636],[-7.436048820574725,37.159999999999975],[-7.420000000000066,37.17608342843117],[-7.396083428431255,37.199999999999974],[-7.3800000000000665,37.21611815786224],[-7.356118157862332,37.23999999999998],[-7.340000000000068,37.25615300946108],[-7.316153009461174,37.27999999999997],[-7.300000000000068,37.29618798382465],[-7.276187983824745,37.31999999999997],[-7.260000000000069,37.3362230815537],[-7.236223081553794,37.35999999999997],[-7.22000000000007,37.376258303252776],[-7.196258303252874,37.39999999999997],[-7.180000000000071,37.416293649530274],[-7.1562936495303795,37.43999999999997],[-7.140000000000072,37.456329120998475],[-7.116329120998577,37.47999999999997],[-7.1000000000000725,37.49636471827352],[-7.076364718273625,37.51999999999997],[-7.060000000000073,37.536400441975516],[-7.036400441975619,37.55999999999997],[-7.020000000000074,37.5764362927285],[-6.996436292728614,37.599999999999966],[-6.980000000000075,37.616472271160546],[-6.956472271160656,37.639999999999965],[-6.940000000000075,37.656508377903705],[-6.916508377903818,37.679999999999964],[-6.900000000000077,37.696544613594114],[-6.876544613594225,37.71999999999996],[-6.860000000000077,37.73658097887198],[-6.820000000000078,37.736591894961705],[-6.796591894961827,37.75999999999996],[-6.780000000000079,37.776628430608845],[-6.756628430608963,37.79999999999996],[-6.74000000000008,37.8166650973434],[-6.716665097343519,37.83999999999996],[-6.700000000000081,37.85670189581943],[-6.676701895819548,37.87999999999996],[-6.660000000000082,37.89673882669521],[-6.6367388266953355,37.91999999999996],[-6.620000000000083,37.93677589063331],[-6.596775890633434,37.95999999999995],[-6.580000000000084,37.97681308830056],[-6.556813088300689,37.99999999999996],[-6.540000000000084,38.01685042036816],[-6.516850420368284,38.03999999999996],[-6.500000000000085,38.056887887511635],[-6.4768878875117695,38.079999999999956],[-6.460000000000086,38.09692549041097],[-6.436925490411101,38.119999999999955],[-6.420000000000087,38.136963229750535],[-6.396963229750668,38.159999999999954],[-6.380000000000088,38.17700110621921],[-6.357001106219341,38.199999999999946],[-6.340000000000089,38.217039120510364],[-6.3000000000000895,38.217050543532714],[-6.277050543532851,38.23999999999995],[-6.26000000000009,38.25708873912518],[-6.237088739125316,38.27999999999995],[-6.220000000000091,38.297127074165466],[-6.197127074165608,38.31999999999995],[-6.180000000000092,38.33716554936224],[-6.157165549362384,38.35999999999995],[-6.140000000000093,38.377204165428836],[-6.117204165428975,38.39999999999995],[-6.100000000000094,38.417242923083265],[-6.077242923083415,38.43999999999995],[-6.060000000000095,38.45728182304835],[-6.037281823048495,38.47999999999995],[-6.0200000000000955,38.49732086605164],[-5.99732086605179,38.51999999999994],[-5.980000000000096,38.53736005282555],[-5.957360052825698,38.559999999999945],[-5.940000000000097,38.57739938410734],[-5.917399384107487,38.599999999999945],[-5.900000000000098,38.61743886063917],[-5.877438860639328,38.639999999999944],[-5.860000000000099,38.657478483168184],[-5.8200000000001,38.65749040145699],[-5.7974904014571464,38.67999999999994],[-5.780000000000101,38.69753021614588],[-5.757530216146035,38.71999999999994],[-5.7400000000001015,38.73757017858409],[-5.717570178584249,38.75999999999994],[-5.700000000000102,38.7776102895355],[-5.677610289535668,38.79999999999994],[-5.660000000000103,38.817650549769134],[-5.6376505497692975,38.83999999999994],[-5.620000000000104,38.857690960059145],[-5.597690960059314,38.87999999999994],[-5.580000000000105,38.89773152118494],[-5.557731521185103,38.91999999999994],[-5.540000000000106,38.937772233931135]]}},{"type":"Feature","properties":{"magnitude":0.4,"percentagem":40.0,"territorio":"continente"},"geometry":{"type":"LineString","coordinates":[[-8.690153784694026,36.0],[-8.66000000000004,36.03021630477198],[-8.650216304772027,36.04],[-8.62000000000004,36.070279035987504],[-8.610279035987546,36.08],[-8.580000000000041,36.11034197932879],[-8.57034197932883,36.12],[-8.540000000000042,36.150405135790066],[-8.530405135790108,36.16],[-8.500000000000043,36.190468506371595],[-8.490468506371641,36.199999999999996],[-8.460000000000043,36.23053209207971],[-8.450532092079765,36.239999999999995],[-8.420000000000044,36.27059589392689],[-8.380000000000045,36.27061498935373],[-8.370614989353786,36.279999999999994],[-8.340000000000046,36.31067907487308],[-8.33067907487313,36.31999999999999],[-8.300000000000047,36.350743378900006],[-8.290743378900062,36.35999999999999],[-8.260000000000048,36.39080790246767],[-8.250807902467733,36.39999999999999],[-8.220000000000049,36.430872646615555],[-8.210872646615607,36.43999999999999],[-8.18000000000005,36.47093761238947],[-8.170937612389531,36.47999999999999],[-8.14000000000005,36.5110028008417],[-8.131002800841761,36.51999999999999],[-8.100000000000051,36.551068213030966],[-8.091068213031027,36.55999999999999],[-8.060000000000052,36.59113385002251],[-8.051133850022573,36.59999999999999],[-8.020000000000053,36.63119971288815],[-8.011199712888212,36.639999999999986],[-7.980000000000054,36.6712658027063],[-7.971265802706371,36.679999999999986],[-7.940000000000055,36.711332120562076],[-7.931332120562146,36.719999999999985],[-7.900000000000055,36.75139866754728],[-7.891398667547352,36.759999999999984],[-7.860000000000056,36.7914654447605],[-7.851465444760568,36.79999999999998],[-7.820000000000057,36.831532453307126],[-7.811532453307201,36.83999999999998],[-7.780000000000058,36.87159969429945],[-7.771599694299525,36.87999999999998],[-7.740000000000059,36.91166716885667],[-7.731667168856744,36.91999999999998],[-7.70000000000006,36.95173487810496],[-7.691734878105041,36.95999999999998],[-7.6600000000000605,36.99180282317755],[-7.651802823177632,36.99999999999998],[-7.620000000000061,37.03187100521473],[-7.611871005214818,37.03999999999998],[-7.580000000000062,37.07193942536396],[-7.571939425364044,37.07999999999998],[-7.540000000000063,37.112008084779866],[-7.532008084779953,37.119999999999976],[-7.500000000000064,37.15207698462435],[-7.460000000000065,37.1520976411493],[-7.452097641149384,37.159999999999975],[-7.420000000000066,37.19216685686235],[-7.4121668568624415,37.199999999999974],[-7.3800000000000665,37.232236315724506],[-7.372236315724596,37.239999999999974],[-7.340000000000067,37.27230601892218],[-7.332306018922278,37.27999999999997],[-7.300000000000068,37.312375967649324],[-7.292375967649421,37.31999999999997],[-7.260000000000069,37.352446163107416],[-7.252446163107518,37.35999999999997],[-7.22000000000007,37.39251660650558],[-7.212516606505677,37.39999999999997],[-7.180000000000071,37.432587299060586],[-7.172587299060689,37.43999999999997],[-7.140000000000072,37.472658241996974],[-7.132658241997079,37.47999999999997],[-7.1000000000000725,37.51272943654707],[-7.092729436547176,37.51999999999997],[-7.060000000000073,37.55280088395106],[-7.052800883951164,37.55999999999997],[-7.020000000000074,37.592872585457044],[-7.012872585457154,37.599999999999966],[-6.980000000000075,37.63294454232113],[-6.972944542321238,37.639999999999965],[-6.940000000000076,37.673016755807446],[-6.933016755807559,37.679999999999964],[-6.900000000000077,37.713089227188256],[-6.893089227188373,37.71999999999996],[-6.860000000000078,37.75316195774399],[-6.820000000000078,37.753183789923455],[-6.813183789923575,37.75999999999996],[-6.780000000000079,37.79325686121773],[-6.773256861217845,37.79999999999996],[-6.74000000000008,37.83333019468684],[-6.733330194686956,37.83999999999996],[-6.700000000000081,37.87340379163889],[-6.693403791639014,37.87999999999996],[-6.660000000000082,37.913477653390466],[-6.65347765339059,37.91999999999996],[-6.620000000000083,37.95355178126666],[-6.613551781266784,37.95999999999996],[-6.580000000000084,37.99362617660117],[-6.573626176601294,37.99999999999996],[-6.540000000000084,38.03370084073636],[-6.533700840736483,38.03999999999996],[-6.500000000000085,38.07377577502332],[-6.493775775023453,38.079999999999956],[-6.460000000000086,38.11385098082198],[-6.453850980822113,38.119999999999955],[-6.420000000000087,38.153926459501115],[-6.4139264595012495,38.159999999999954],[-6.380000000000088,38.194002212438456],[-6.3740022124385955,38.19999999999995],[-6.340000000000089,38.234078241020775],[-6.3000000000000895,38.23410108706547],[-6.294101087065611,38.23999999999995],[-6.26000000000009,38.2741774782504],[-6.254177478250541,38.27999999999995],[-6.220000000000091,38.31425414833098],[-6.214254148331124,38.31999999999995],[-6.180000000000092,38.35433109872453],[-6.174331098724676,38.35999999999995],[-6.140000000000093,38.394408330857715],[-6.1344083308578545,38.39999999999995],[-6.100000000000094,38.43448584616659],[-6.0944858461667355,38.43999999999995],[-6.060000000000095,38.47456364609675],[-6.054563646096897,38.47999999999995],[-6.0200000000000955,38.51464173210333],[-6.014641732103483,38.519999999999946],[-5.980000000000096,38.55472010565115],[-5.974720105651298,38.559999999999945],[-5.940000000000097,38.59479876821472],[-5.934798768214874,38.599999999999945],[-5.900000000000098,38.6348777212784],[-5.894877721278556,38.639999999999944],[-5.860000000000099,38.674956966336424],[-5.8200000000001,38.674980802914035],[-5.814980802914192,38.67999999999994],[-5.780000000000101,38.715060432291814],[-5.77506043229197,38.71999999999994],[-5.7400000000001015,38.75514035716824],[-5.735140357168396,38.75999999999995],[-5.700000000000102,38.79522057907107],[-5.695220579071232,38.79999999999994],[-5.660000000000103,38.83530109953833],[-5.655301099538491,38.83999999999995],[-5.620000000000104,38.87538192011836],[-5.615381920118523,38.87999999999994],[-5.580000000000105,38.91546304236993],[-5.5754630423700995,38.91999999999994],[-5.540000000000106,38.95554446786233]]}},{"type":"Feature","properties":{"magnitude":0.4,"percentagem":40.0,"territorio":"continente"},"geometry":{"type":"LineString","coordinates":[[-5.540000000000106,41.808743299351214],[-5.580000000000105,41.82632134605505],[-5.61112707358901,41.839999999999876],[-5.620000000000104,41.843901435504094],[-5.660000000000103,41.86149118060532],[-5.700000000000102,41.87907989106566],[-5.702092227575634,41.879999999999875],[-5.7400000000001015,41.896680555349015],[-5.780000000000101,41.914280867739315],[-5.792996838434367,41.919999999999874],[-5.8200000000001,41.9318893637346],[-5.860000000000098,41.949501216337566],[-5.883844389704594,41.95999999999987],[-5.900000000000098,41.96711749851111],[-5.940000000000097,41.98474082928195],[-5.974635347097437,41.99999999999987],[-5.980000000000096,42.00236485172736],[-6.0200000000000955,42.01999959829383],[-6.060000000000095,42.03763315918985],[-6.065368370055157,42.03999999999987],[-6.100000000000094,42.05527741439367],[-6.140000000000093,42.07292229273899],[-6.156043956266237,42.07999999999987],[-6.180000000000092,42.0905741679003],[-6.220000000000091,42.10823030055836],[-6.24666437961023,42.11999999999987],[-6.26000000000009,42.12588974843018],[-6.3000000000000895,42.14355707193731],[-6.337230105816153,42.15999999999987],[-6.340000000000089,42.161224044896755],[-6.380000000000088,42.17890249546226],[-6.420000000000087,42.19657960742714],[-6.427739020619962,42.19999999999986],[-6.460000000000086,42.21426645901614],[-6.500000000000085,42.231954597821726],[-6.5181932776942695,42.23999999999987],[-6.540000000000084,42.24964884977769],[-6.580000000000084,42.26734795087121],[-6.608594267917144,42.279999999999866],[-6.620000000000083,42.28504955422099],[-6.660000000000082,42.30275955272333],[-6.698942457183472,42.319999999999865],[-6.700000000000081,42.32046845811489],[-6.74000000000008,42.33818928882056],[-6.780000000000079,42.355908626117476],[-6.789235261351282,42.35999999999986],[-6.820000000000078,42.373637043900004],[-6.860000000000078,42.39136711132048],[-6.879475878612068,42.399999999999864],[-6.900000000000077,42.40910270199275],[-6.940000000000076,42.42684343357217],[-6.969665124945015,42.43999999999986],[-6.980000000000075,42.444586146423454],[-7.020000000000074,42.46233747587178],[-7.059803466560974,42.47999999999986],[-7.060000000000073,42.480087259810084],[-7.1000000000000725,42.497849120512],[-7.140000000000072,42.515609331143814],[-7.149888135064761,42.51999999999987],[-7.180000000000071,42.53337824907864],[-7.22000000000007,42.55114888703322],[-7.239922798187436,42.55999999999986],[-7.260000000000069,42.56892474245033],[-7.300000000000068,42.58670574035688],[-7.329907986835783,42.59999999999986],[-7.340000000000067,42.60448848079824],[-7.3800000000000665,42.62227977096181],[-7.4198441676886855,42.63999999999986],[-7.420000000000066,42.64006934358599],[-7.460000000000065,42.6578708579877],[-7.500000000000064,42.675670563831446],[-7.50972865579432,42.679999999999865],[-7.540000000000063,42.69347887986664],[-7.580000000000062,42.71128870417947],[-7.599565049379125,42.71999999999986],[-7.620000000000061,42.72910371432309],[-7.6600000000000605,42.746923588335],[-7.689353866103272,42.759999999999856],[-7.70000000000006,42.764745238373685],[-7.740000000000059,42.782575092992126],[-7.7790955732681075,42.799999999999855],[-7.780000000000058,42.80040332832729],[-7.820000000000057,42.81824309413738],[-7.860000000000057,42.83608089110397],[-7.868787819408105,42.83999999999985],[-7.900000000000055,42.85392746704986],[-7.940000000000055,42.87177506761556],[-7.958433629587169,42.87999999999985],[-7.980000000000054,42.8896280863011],[-8.020000000000053,42.90748542030511],[-8.04803376231908,42.91999999999985],[-8.060000000000052,42.92534482575533],[-8.100000000000051,42.94321182271608],[-8.137588685684412,42.95999999999985]]}},{"type":"Feature","properties":{"magnitude":0.6,"percentagem":60.0,"territorio":"acores"},"geometry":{"type":"LineString","coordinates":[[-24.04000000000017,39.186745363135174],[-24.06952383620394,39.19999999999993],[-24.08000000000017,39.204704779703015],[-24.120000000000168,39.22266747411387],[-24.15860503323191,39.23999999999993],[-24.160000000000167,39.240626503187784],[-24.200000000000166,39.25859100082323],[-24.240000000000165,39.276551450041396],[-24.24768067369954,39.27999999999993],[-24.280000000000165,39.29451577745372],[-24.320000000000164,39.31247790476649],[-24.33675266052922,39.31999999999993],[-24.360000000000163,39.330441637691436],[-24.400000000000162,39.3484053576901],[-24.425821809535893,39.35999999999993],[-24.44000000000016,39.36636841472088],[-24.48000000000016,39.384333641779904],[-24.514888630659776,39.39999999999993],[-24.52000000000016,39.402295941227756],[-24.56000000000016,39.42026258950638],[-24.600000000000158,39.438225017446356],[-24.60395278420691,39.43999999999993],[-24.640000000000157,39.45619203284551],[-24.680000000000152,39.474155755665905],[-24.69301454656491,39.479999999999926],[-24.720000000000155,39.49212180328184],[-24.760000000000154,39.51008673465141],[-24.782075537387968,39.519999999999925],[-24.800000000000153,39.52805173181138],[-24.840000000000153,39.54601778518884],[-24.871136272661644,39.559999999999924],[-24.88000000000015,39.5639816489446],[-24.92000000000015,39.58194873758019],[-24.960000000000147,39.59991143281511],[-24.960197228288465,39.59999999999992],[-25.00000000000015,39.61787942164656],[-25.04000000000015,39.63584302463413],[-25.049257102674147,39.63999999999993],[-25.080000000000148,39.653809666731185],[-25.120000000000147,39.67177409024809],[-25.13831829619823,39.67999999999992],[-25.160000000000146,39.68973930170252],[-25.200000000000145,39.70770445832264],[-25.22738133117361,39.71999999999992],[-25.240000000000144,39.72566815495749],[-25.280000000000143,39.743633957053376],[-25.316446731544072,39.75999999999992],[-25.320000000000142,39.761596054424544],[-25.36000000000014,39.77956241416925],[-25.40000000000014,39.79752416556578],[-25.405513887445565,39.79999999999991],[-25.44000000000014,39.815489656935654],[-25.48000000000014,39.83345183709745],[-25.49458374367499,39.83999999999992],[-25.520000000000138,39.85141551215784],[-25.560000000000134,39.869378032806154],[-25.58365756420975,39.87999999999992],[-25.600000000000136,39.88733980618417],[-25.640000000000136,39.90530257884651],[-25.672735879684986,39.919999999999916],[-25.680000000000135,39.92326236490947],[-25.720000000000134,39.941225300921296],[-25.760000000000133,39.959183453172365],[-25.761818855754566,39.959999999999916],[-25.800000000000132,39.97714602428498],[-25.84000000000013,39.99510420993771],[-25.850905938749552,39.999999999999915],[-25.88000000000013,40.01306457374709],[-25.92000000000013,40.0310227037038],[-25.939999135984948,40.039999999999914],[-25.96000000000013,40.04898077367565],[-26.000000000000128,40.066938758652775],[-26.029098985091828,40.07999999999991],[-26.040000000000127,40.08489444800087],[-26.080000000000126,40.10285219853068],[-26.118206025497535,40.11999999999991],[-26.120000000000125,40.12080542021845],[-26.160000000000124,40.13876284665098],[-26.200000000000124,40.15671527164279],[-26.207319362246942,40.15999999999992],[-26.240000000000123,40.174670525898215],[-26.280000000000122,40.192622495597874],[-26.296440637764,40.19999999999991],[-26.32000000000012,40.2105750587317],[-26.360000000000124,40.22852648307992],[-26.385570750751306,40.23999999999991],[-26.40000000000012,40.246476267189095],[-26.44000000000012,40.26442705595062],[-26.474710248025502,40.27999999999991],[-26.480000000000118,40.28237397289016],[-26.520000000000117,40.30032403565578],[-26.560000000000116,40.31826891951653],[-26.563858938308595,40.31999999999991],[-26.600000000000115,40.33621724322894],[-26.640000000000114,40.35416126894588],[-26.65301710947086,40.35999999999991],[-26.680000000000113,40.372106499295214],[-26.720000000000113,40.39004957607008],[-26.742186333698314,40.399999999999906],[-26.76000000000011,40.40799162407518],[-26.80000000000011,40.425933660942306],[-26.831367165526306,40.439999999999905],[-26.84000000000011,40.44387243738867],[-26.88000000000011,40.46181334321697],[-26.92000000000011,40.47974889186344],[-26.92056005660381,40.479999999999905]]}}]}