{"type":"FeatureCollection","features":[{"type":"Feature","properties":{"magnitude":0.2,"de":0.2,"ate":0.5,"percentagem":20.0},"geometry":{"type":"Polygon","coordinates":[[[-8.279999999999006,31.74960402400457],[-5.423108463767571,30.0],[-3.5399999999988268,30.0],[-3.5399999999988268,40.95592177270028],[-7.019999999998959,43.004447809045644],[-10.554533251056789,44.939999999999685],[-34.5,44.939999999999685],[-34.5,39.572388132865456],[-33.71999999999997,40.190765936125864],[-32.93999999999994,40.724246799048885],[-32.219999999999914,41.13594014084251],[-31.49999999999989,41.461700494918546],[-30.83999999999986,41.673750267443694],[-30.17999999999984,41.787022651679806],[-29.579999999999814,41.78352012949697],[-29.039999999999793,41.66784468158126],[-25.979999999999677,40.4787031114238],[-22.85999999999956,39.17688889146433],[-19.859999999999445,37.83667242943949],[-16.85999999999933,36.404360538740264],[-13.979999999999222,34.93755539064996],[-11.099999999999113,33.375736567826216],[-8.279999999999006,31.74960402400457]]]}},{"type":"Feature","properties":{"magnitude":0.5,"de":0.5,"ate":0.8,"percentagem":50.0},"geometry":{"type":"Polygon","coordinates":[[[-29.579999999999814,31.514710123621356],[-25.923304645888734,29.999999999999996],[-5.423108463767571,30.0],[-8.219999999999004,31.713932334273863],[-11.039999999999111,33.34215251649402],[-13.91999999999922,34.9060037943728],[-16.79999999999933,36.374737141385346],[-19.73999999999944,37.78118403314415],[-22.799999999999557,39.15095498887692],[-25.919999999999675,40.45451779435765],[-29.039999999999793,41.66784468158126],[-29.579999999999814,41.78352012949697],[-30.179999999999836,41.787022651679806],[-30.83999999999986,41.673750267443694],[-31.499999999999886,41.46170049491854],[-32.219999999999914,41.13594014084251],[-32.93999999999994,40.724246799048885],[-33.71999999999997,40.190765936125864],[-34.5,39.572388132865456],[-34.5,32.65376226423232],[-34.139999999999986,32.8137211203177],[-33.77999999999997,32.90941440429708],[-33.47999999999996,32.92976431910874],[-33.17999999999995,32.881211000549534],[-29.579999999999814,31.514710123621356]]]}},{"type":"Feature","properties":{"magnitude":0.8,"de":0.8,"ate":0.95,"percentagem":80.0},"geometry":{"type":"Polygon","coordinates":[[[-34.5,30.0],[-25.979999999999677,30.0],[-25.923304645888734,29.999999999999996],[-28.379999999999768,31.031946376729138],[-30.83999999999986,32.00706444551379],[-33.11999999999995,32.86128309886329],[-33.539999999999964,32.93064716697309],[-34.01999999999998,32.85332025903624],[-34.5,32.65376226423232],[-34.5,30.0]]]}}]}