{"type":"FeatureCollection","properties":{"largura_maxima_km":199.37,"largura_sobre_pt_km":183.128,"linha_central_sobre_pt":false,"desenhavel_como_area":true,"perfil_largura":[{"t":-1.55556,"lat":51.1838,"lon":-22.5989,"largura_km":null,"eixo_na_terra":false},{"t":-1.55,"lat":51.0997,"lon":-22.157,"largura_km":null,"eixo_na_terra":false},{"t":-1.54444,"lat":51.0185,"lon":-21.7256,"largura_km":null,"eixo_na_terra":false},{"t":-1.53889,"lat":50.6295,"lon":-20.6222,"largura_km":null,"eixo_na_terra":false},{"t":-1.53333,"lat":50.5587,"lon":-20.2335,"largura_km":null,"eixo_na_terra":false},{"t":-1.52778,"lat":50.3172,"lon":-19.4995,"largura_km":null,"eixo_na_terra":false},{"t":-1.52222,"lat":50.1335,"lon":-18.9069,"largura_km":null,"eixo_na_terra":false},{"t":-1.51667,"lat":48.9263,"lon":-16.2918,"largura_km":178.034,"eixo_na_terra":true},{"t":-1.51111,"lat":48.4804,"lon":-15.2967,"largura_km":172.694,"eixo_na_terra":true},{"t":-1.50556,"lat":48.0755,"lon":-14.402,"largura_km":172.634,"eixo_na_terra":true},{"t":-1.5,"lat":47.7023,"lon":-13.5849,"largura_km":173.112,"eixo_na_terra":true},{"t":-1.49444,"lat":47.3547,"lon":-12.8297,"largura_km":173.743,"eixo_na_terra":true},{"t":-1.48889,"lat":47.0283,"lon":-12.1256,"largura_km":174.42,"eixo_na_terra":true},{"t":-1.48333,"lat":46.7198,"lon":-11.4644,"largura_km":175.107,"eixo_na_terra":true},{"t":-1.47778,"lat":46.4268,"lon":-10.8399,"largura_km":175.793,"eixo_na_terra":true},{"t":-1.47222,"lat":46.1472,"lon":-10.2474,"largura_km":176.472,"eixo_na_terra":true},{"t":-1.46667,"lat":45.8795,"lon":-9.6828,"largura_km":177.135,"eixo_na_terra":true},{"t":-1.46111,"lat":45.6223,"lon":-9.1431,"largura_km":177.787,"eixo_na_terra":true},{"t":-1.45556,"lat":45.3748,"lon":-8.6257,"largura_km":178.425,"eixo_na_terra":true},{"t":-1.45,"lat":45.1358,"lon":-8.1282,"largura_km":179.049,"eixo_na_terra":true},{"t":-1.44444,"lat":44.9047,"lon":-7.649,"largura_km":179.661,"eixo_na_terra":true},{"t":-1.43889,"lat":44.6809,"lon":-7.1863,"largura_km":180.264,"eixo_na_terra":true},{"t":-1.43333,"lat":44.4637,"lon":-6.7387,"largura_km":180.858,"eixo_na_terra":true},{"t":-1.42778,"lat":44.2526,"lon":-6.3052,"largura_km":181.44,"eixo_na_terra":true},{"t":-1.42222,"lat":44.0473,"lon":-5.8845,"largura_km":182.012,"eixo_na_terra":true},{"t":-1.41667,"lat":43.8473,"lon":-5.4758,"largura_km":182.574,"eixo_na_terra":true},{"t":-1.41111,"lat":43.6523,"lon":-5.0783,"largura_km":183.128,"eixo_na_terra":true},{"t":-1.40556,"lat":43.462,"lon":-4.6911,"largura_km":183.673,"eixo_na_terra":true},{"t":-1.4,"lat":43.276,"lon":-4.3137,"largura_km":184.211,"eixo_na_terra":true},{"t":-1.39444,"lat":43.0943,"lon":-3.9455,"largura_km":184.741,"eixo_na_terra":true},{"t":-1.38889,"lat":42.9164,"lon":-3.5858,"largura_km":185.266,"eixo_na_terra":true},{"t":-1.38333,"lat":42.7423,"lon":-3.2343,"largura_km":185.784,"eixo_na_terra":true},{"t":-1.37778,"lat":42.5717,"lon":-2.8903,"largura_km":186.296,"eixo_na_terra":true},{"t":-1.37222,"lat":42.4045,"lon":-2.5537,"largura_km":186.803,"eixo_na_terra":true},{"t":-1.36667,"lat":42.2404,"lon":-2.2238,"largura_km":187.303,"eixo_na_terra":true},{"t":-1.36111,"lat":42.0795,"lon":-1.9005,"largura_km":187.798,"eixo_na_terra":true},{"t":-1.35556,"lat":41.9214,"lon":-1.5834,"largura_km":188.288,"eixo_na_terra":true},{"t":-1.35,"lat":41.7662,"lon":-1.2722,"largura_km":188.774,"eixo_na_terra":true},{"t":-1.34444,"lat":41.6136,"lon":-0.9666,"largura_km":189.254,"eixo_na_terra":true},{"t":-1.33889,"lat":41.4636,"lon":-0.6664,"largura_km":189.73,"eixo_na_terra":true},{"t":-1.33333,"lat":41.3161,"lon":-0.3713,"largura_km":190.202,"eixo_na_terra":true},{"t":-1.32778,"lat":41.171,"lon":-0.0812,"largura_km":190.67,"eixo_na_terra":true},{"t":-1.32222,"lat":41.0281,"lon":0.2043,"largura_km":191.134,"eixo_na_terra":true},{"t":-1.31667,"lat":40.8875,"lon":0.4852,"largura_km":191.594,"eixo_na_terra":true},{"t":-1.31111,"lat":40.749,"lon":0.7619,"largura_km":192.051,"eixo_na_terra":true},{"t":-1.30556,"lat":40.6125,"lon":1.0343,"largura_km":192.504,"eixo_na_terra":true},{"t":-1.3,"lat":40.4781,"lon":1.3028,"largura_km":192.953,"eixo_na_terra":true},{"t":-1.29444,"lat":40.3456,"lon":1.5674,"largura_km":193.4,"eixo_na_terra":true},{"t":-1.28889,"lat":40.2149,"lon":1.8283,"largura_km":193.843,"eixo_na_terra":true},{"t":-1.28333,"lat":40.086,"lon":2.0857,"largura_km":194.284,"eixo_na_terra":true},{"t":-1.27778,"lat":39.959,"lon":2.3395,"largura_km":194.721,"eixo_na_terra":true},{"t":-1.27222,"lat":39.8336,"lon":2.5901,"largura_km":195.156,"eixo_na_terra":true},{"t":-1.26667,"lat":39.7098,"lon":2.8375,"largura_km":195.588,"eixo_na_terra":true},{"t":-1.26111,"lat":39.5877,"lon":3.0817,"largura_km":196.017,"eixo_na_terra":true},{"t":-1.25556,"lat":39.4671,"lon":3.323,"largura_km":196.445,"eixo_na_terra":true},{"t":-1.25,"lat":39.3481,"lon":3.5613,"largura_km":196.869,"eixo_na_terra":true},{"t":-1.24444,"lat":39.2305,"lon":3.7968,"largura_km":197.292,"eixo_na_terra":true},{"t":-1.23889,"lat":39.1144,"lon":4.0297,"largura_km":197.712,"eixo_na_terra":true},{"t":-1.23333,"lat":38.9997,"lon":4.2598,"largura_km":198.13,"eixo_na_terra":true},{"t":-1.22778,"lat":38.8864,"lon":4.4875,"largura_km":198.545,"eixo_na_terra":true},{"t":-1.22222,"lat":38.7743,"lon":4.7126,"largura_km":198.958,"eixo_na_terra":true},{"t":-1.21667,"lat":38.6637,"lon":4.9353,"largura_km":199.37,"eixo_na_terra":true}]},"features":[{"type":"Feature","properties":{},"geometry":{"type":"Polygon","coordinates":[[[1.9856237203912315,41.183757582750275],[4.696630284027719,39.84752111819547],[5.122816070543308,37.51346195228306],[3.5710388278064897,38.29603208900213],[-0.5439368322664677,40.38292289162517],[-2.0420035317775955,41.14079762959079],[-3.6892844246737013,41.969906641673965],[-5.144115083414931,42.697026309869564],[-5.928144832777377,43.08647701895328],[-7.223044934056247,43.72596084015051],[-8.61645069004112,44.40716466166978],[-9.63553754910373,44.90075988548582],[-10.78680946602094,45.45416377393869],[-12.062216740615781,46.060913567743114],[-13.503754255857189,46.73814500995517],[-14.335386322792715,47.12535933989002],[-14.367145493916881,47.14426918822781],[-14.51584068031184,47.206708190388014],[-14.723972451642737,47.298625178352715],[-14.946510478015284,47.40144928889969],[-15.258637432859201,47.55206674103301],[-15.500305038476938,47.655302505470765],[-15.734875902569115,47.76059057541925],[-15.986279298297518,47.87772062511665],[-16.203933809773403,47.98212417505295],[-16.357629843845928,48.04663539469386],[-16.607691343195654,48.15577153772887],[-16.877957553995373,48.27812782387842],[-17.26851323850377,48.461127464548206],[-17.59313985177107,48.59835229540285],[-17.88944357590509,48.7288038727],[-18.212220304312382,48.87494051068121],[-18.503922806689967,49.00979412461909],[-18.739260083456827,49.10764578786615],[-19.07508724575996,49.25158803474943],[-19.447101193185404,49.415123833758884],[-20.014096414040033,49.66978523047518],[-20.338422416794174,49.80369248101693],[-20.772587332356977,49.98721230019526],[-21.270962604256454,50.20149236340855],[-22.088222026890108,50.55669182772922],[-22.65266042598273,50.787134440573894],[-24.489966197358456,51.54623959010378],[-25.38922391052938,51.914270769525515],[-25.32889884587235,51.9383365710017],[-26.050309951179884,52.235663884727465],[-25.933508978234862,52.28101160998035],[-26.460925932234545,52.49875545315073],[-25.02979096097052,53.12070641853568],[-24.900929482332344,53.44341790403704],[-24.10761560588935,53.13058727402042],[-23.524950257685873,52.89852539606304],[-23.03375589224254,52.70077033712737],[-22.59702196234042,52.52291874516095],[-21.825598776687627,52.20308469560195],[-21.475328350092468,52.055058700240004],[-20.82500360691938,51.77480988930395],[-20.520140579719396,51.64074617471313],[-20.04826772017681,51.42927569229734],[-19.697757067468388,51.29437440845778],[-17.791075601947114,50.4944924563243],[-16.442368171346402,49.91139066455109],[-15.33838950709594,49.42580471965529],[-14.356253273353047,48.98893367833079],[-13.465466549599967,48.58874409926124],[-12.64638582502073,48.21746314846483],[-11.929805255976703,47.88931079431615],[-10.58320337491449,47.267524251432874],[-9.412376966690772,46.72018997768681],[-8.308474555230248,46.19985891660209],[-7.806803433668733,45.96166695972017],[-6.4057661429522454,45.2918799744782],[-5.544660121634081,44.87710141301334],[-4.31364544262243,44.280792593382166],[-2.8474584461016548,43.56527167616519],[-0.8727822037145643,42.595089692064974],[1.9856237203912315,41.183757582750275]]]}}]}