{"type":"FeatureCollection","features":[{"type":"Feature","properties":{"t_inicio":-1.522222222222231,"t_fim":-1.2166666666666766},"geometry":{"type":"LineString","coordinates":[[-17.42472368201578,49.428008966079815],[-16.29184193092692,48.92631006261773],[-15.296683466842126,48.480407729723645],[-14.402048809768132,48.07548332945465],[-13.584873929763148,47.702325389503564],[-12.829696643880254,47.354742929506486],[-12.12555704064016,47.0283368196017],[-11.46435442175374,46.71984770210704],[-10.839902691494103,46.42678065900814],[-10.247352429744353,46.1471753076212],[-9.682819424480499,45.8794578552924],[-9.143136126196623,45.622341996040305],[-8.625679709236863,45.374760274202494],[-8.12824973134633,45.1358151915533],[-7.648978960173679,44.9047435290875],[-7.1862670037155,44.680889762732974],[-6.738730002692023,44.46368589010246],[-6.3051618782675405,44.252635873614935],[-5.884504050178862,44.04730347055637],[-5.475821468458605,43.84730258989583],[-5.078283422123718,43.65228956256734],[-4.69114801135089,43.46195688048643],[-4.3137494638278895,43.27602807682566],[-3.9454876839845383,43.09425350303757],[-3.5858195731800606,42.91640681772752],[-3.2342517677147953,42.742282045924036],[-2.8903345218034246,42.57169109936861],[-2.553656522577171,42.40446167240754],[-2.2238404694272162,42.240435446173],[-1.900539284504248,42.079466547549515],[-1.5834328477615145,41.92142022006835],[-1.2722251705582721,41.766171672140025],[-0.9666419380083084,41.61360507451911],[-0.6664283630121304,41.463612684014876],[-0.3713473050538596,41.316094074532046],[-0.0811776149617458,41.17095545978975],[0.20428732662702487,41.02810909469473],[0.48524090405874176,40.88747274447751],[0.7618644173495,40.748969212440294],[1.0343281078637006,40.612525918590414],[1.3027920751626425,40.478074522610434],[1.5674070987882942,40.34555058558868],[1.8283153767356453,40.214893265745594],[2.085651190691351,40.08604504406805],[2.3395415067063823,39.95895147633261],[2.5901065187870813,39.83356096847881],[2.837460141882559,39.70982457269745],[3.081710459900421,39.587695801944804],[3.322960133653453,39.46713046088617],[3.561306773024455,39.34808649152309],[3.7968432771031075,39.230523831973755],[4.029658145594567,39.11440428706171],[4.259835764402851,38.99969140952663],[4.4874566679562236,38.886350390810506],[4.712597780540818,38.774347960491404],[4.935332638658338,38.663652293541894]]}}]}