{"type":"FeatureCollection","features":[{"type":"Feature","properties":{"magnitude":0.2,"de":0.2,"ate":0.5,"percentagem":20.0},"geometry":{"type":"Polygon","coordinates":[[[-34.5,30.0],[-21.83999999999952,30.0],[-21.78109051400882,30.000000000000004],[-24.95999999999964,31.352558938408777],[-28.13999999999976,32.6481123091834],[-31.31999999999988,33.88631584681727],[-34.5,35.0678275988429],[-34.5,30.0]]]}},{"type":"Feature","properties":{"magnitude":0.5,"de":0.5,"ate":0.8,"percentagem":50.0},"geometry":{"type":"Polygon","coordinates":[[[-25.079999999999643,31.4024924140754],[-21.78109051400882,30.000000000000004],[-3.5399999999988268,30.0],[-3.5399999999988268,32.9267928046893],[-10.439999999999088,36.33578645429495],[-13.559999999999206,37.81636200558518],[-16.619999999999322,39.223602995176925],[-19.67999999999944,40.583202399244286],[-22.61999999999955,41.84279897869045],[-25.619999999999663,43.079974022495065],[-28.619999999999777,44.26821365675993],[-30.37324616180974,44.939999999999685],[-34.5,44.939999999999685],[-34.5,35.0678275988429],[-31.31999999999988,33.88631584681727],[-28.19999999999976,32.67200613969133],[-25.079999999999643,31.4024924140754]]]}},{"type":"Feature","properties":{"magnitude":0.8,"de":0.8,"ate":0.95,"percentagem":80.0},"geometry":{"type":"Polygon","coordinates":[[[-7.4399999999989745,34.873373066143564],[-3.5399999999988268,32.9267928046893],[-3.5399999999988268,39.51251069141302],[-9.479999999999052,42.441909285723696],[-14.7800647962166,44.939999999999685],[-30.37324616180974,44.939999999999685],[-27.179999999999723,43.70397351411235],[-23.9399999999996,42.393179717418036],[-20.75999999999948,41.05129038294682],[-17.519999999999357,39.62853915917596],[-14.279999999999234,38.15161693311032],[-10.919999999999106,36.56639258449036],[-7.4399999999989745,34.873373066143564]]]}},{"type":"Feature","properties":{"magnitude":0.95,"de":0.95,"ate":0.99,"percentagem":95.0},"geometry":{"type":"MultiPolygon","coordinates":[[[[-3.5399999999988268,39.51251069141302],[-9.479999999999052,42.441909285723696],[-14.7800647962166,44.939999999999685],[-10.733361759254764,44.939999999999685],[-9.539999999999054,44.3669970435386],[-3.5399999999988268,41.408434100483824],[-3.5399999999988268,39.51251069141302]]],[[[-3.5399999999988268,44.412703435642825],[-4.199999999998852,44.734496600359655],[-4.622663952623963,44.939999999999685],[-3.5399999999988268,44.939999999999685],[-3.5399999999988268,44.412703435642825]]]]}},{"type":"Feature","properties":{"magnitude":0.99,"de":0.99,"ate":2.0,"percentagem":99.0},"geometry":{"type":"Polygon","coordinates":[[[-10.733361759254764,44.939999999999685],[-3.5399999999988268,41.408434100483824],[-3.5399999999988268,44.412703435642825],[-4.622663952623963,44.939999999999685],[-10.733361759254764,44.939999999999685]]]}}]}