{"type":"FeatureCollection","properties":{"largura_maxima_km":74.171,"largura_sobre_pt_km":65.111,"linha_central_sobre_pt":true,"desenhavel_como_area":true,"perfil_largura":[{"t":1.27222,"lat":34.8256,"lon":-39.7913,"largura_km":74.171,"eixo_na_terra":true},{"t":1.27778,"lat":35.0056,"lon":-39.531,"largura_km":73.86,"eixo_na_terra":true},{"t":1.28333,"lat":35.1874,"lon":-39.2663,"largura_km":73.544,"eixo_na_terra":true},{"t":1.28889,"lat":35.3712,"lon":-38.9971,"largura_km":73.224,"eixo_na_terra":true},{"t":1.29444,"lat":35.557,"lon":-38.723,"largura_km":72.899,"eixo_na_terra":true},{"t":1.3,"lat":35.7448,"lon":-38.444,"largura_km":72.57,"eixo_na_terra":true},{"t":1.30556,"lat":35.9348,"lon":-38.1598,"largura_km":72.235,"eixo_na_terra":true},{"t":1.31111,"lat":36.1271,"lon":-37.8702,"largura_km":71.896,"eixo_na_terra":true},{"t":1.31667,"lat":36.3216,"lon":-37.575,"largura_km":71.552,"eixo_na_terra":true},{"t":1.32222,"lat":36.5186,"lon":-37.2739,"largura_km":71.203,"eixo_na_terra":true},{"t":1.32778,"lat":36.7181,"lon":-36.9667,"largura_km":70.848,"eixo_na_terra":true},{"t":1.33333,"lat":36.9202,"lon":-36.653,"largura_km":70.487,"eixo_na_terra":true},{"t":1.33889,"lat":37.125,"lon":-36.3326,"largura_km":70.121,"eixo_na_terra":true},{"t":1.34444,"lat":37.3327,"lon":-36.005,"largura_km":69.748,"eixo_na_terra":true},{"t":1.35,"lat":37.5433,"lon":-35.67,"largura_km":69.368,"eixo_na_terra":true},{"t":1.35556,"lat":37.7571,"lon":-35.3271,"largura_km":68.981,"eixo_na_terra":true},{"t":1.36111,"lat":37.9741,"lon":-34.9759,"largura_km":68.587,"eixo_na_terra":true},{"t":1.36667,"lat":38.1946,"lon":-34.616,"largura_km":68.185,"eixo_na_terra":true},{"t":1.37222,"lat":38.4187,"lon":-34.2467,"largura_km":67.775,"eixo_na_terra":true},{"t":1.37778,"lat":38.6466,"lon":-33.8677,"largura_km":67.355,"eixo_na_terra":true},{"t":1.38333,"lat":38.8785,"lon":-33.4781,"largura_km":66.927,"eixo_na_terra":true},{"t":1.38889,"lat":39.1147,"lon":-33.0774,"largura_km":66.488,"eixo_na_terra":true},{"t":1.39444,"lat":39.3554,"lon":-32.6648,"largura_km":66.04,"eixo_na_terra":true},{"t":1.4,"lat":39.6009,"lon":-32.2394,"largura_km":65.582,"eixo_na_terra":true},{"t":1.40556,"lat":39.8516,"lon":-31.8003,"largura_km":65.111,"eixo_na_terra":true},{"t":1.41111,"lat":40.1079,"lon":-31.3464,"largura_km":64.628,"eixo_na_terra":true},{"t":1.41667,"lat":40.37,"lon":-30.8764,"largura_km":64.13,"eixo_na_terra":true},{"t":1.42222,"lat":40.6386,"lon":-30.3891,"largura_km":63.617,"eixo_na_terra":true},{"t":1.42778,"lat":40.9141,"lon":-29.8829,"largura_km":63.088,"eixo_na_terra":true},{"t":1.43333,"lat":41.1973,"lon":-29.3558,"largura_km":62.54,"eixo_na_terra":true},{"t":1.43889,"lat":41.4887,"lon":-28.8057,"largura_km":61.972,"eixo_na_terra":true},{"t":1.44444,"lat":41.7892,"lon":-28.2302,"largura_km":61.383,"eixo_na_terra":true},{"t":1.45,"lat":42.1,"lon":-27.6262,"largura_km":60.77,"eixo_na_terra":true},{"t":1.45556,"lat":42.4221,"lon":-26.9901,"largura_km":60.128,"eixo_na_terra":true},{"t":1.46111,"lat":42.7571,"lon":-26.3175,"largura_km":59.454,"eixo_na_terra":true},{"t":1.46667,"lat":43.1068,"lon":-25.6027,"largura_km":58.741,"eixo_na_terra":true},{"t":1.47222,"lat":43.4737,"lon":-24.8386,"largura_km":57.981,"eixo_na_terra":true},{"t":1.47778,"lat":43.8607,"lon":-24.0161,"largura_km":57.165,"eixo_na_terra":true},{"t":1.48333,"lat":44.2721,"lon":-23.1224,"largura_km":56.273,"eixo_na_terra":true},{"t":1.48889,"lat":44.7136,"lon":-22.1398,"largura_km":55.276,"eixo_na_terra":true},{"t":1.49444,"lat":45.1942,"lon":-21.0416,"largura_km":54.107,"eixo_na_terra":true},{"t":1.5,"lat":45.7277,"lon":-19.785,"largura_km":52.535,"eixo_na_terra":true},{"t":1.50556,"lat":46.4131,"lon":-18.1019,"largura_km":null,"eixo_na_terra":false},{"t":1.51111,"lat":47.2898,"lon":-15.8431,"largura_km":null,"eixo_na_terra":false},{"t":1.51667,"lat":48.1195,"lon":-13.5094,"largura_km":null,"eixo_na_terra":false},{"t":1.52222,"lat":48.4433,"lon":-12.4875,"largura_km":null,"eixo_na_terra":false}]},"features":[{"type":"Feature","properties":{},"geometry":{"type":"Polygon","coordinates":[[[-39.35062498823845,35.56001047932702],[-38.80099603248104,35.92923169456133],[-38.5186840750294,36.11694185842207],[-37.937998393236796,36.49894166330583],[-37.62789705116447,36.7007699056869],[-37.01161337112012,37.09714837840124],[-36.69372756938199,37.299232768157765],[-36.03684293605298,37.711762301462485],[-35.697114220086604,37.9224626406569],[-34.99302108055184,38.35345280985816],[-34.62771944346761,38.57406767784725],[-33.86792254849834,39.02646377257852],[-33.472190890714984,39.25867024638991],[-33.05122149352752,39.503222739998634],[-32.631437413137945,39.74443731034468],[-32.19845786307019,39.99055860047155],[-31.75128225029721,40.241926307664265],[-31.288781879525004,40.49892250406354],[-30.80967591515636,40.76197949121601],[-30.31250122875906,41.03158963888518],[-29.795574118645362,41.30831785865367],[-29.25694105485755,41.59281763127866],[-28.69431434444968,41.88585191182231],[-28.104986664635703,42.18832086292165],[-27.46726533310496,42.51064210807189],[-26.813360996308063,42.835661537857646],[-26.120603946808615,43.174127224577155],[-25.382846606293867,43.528057610501406],[-24.592166578500155,43.900045715741896],[-23.73805722009928,44.29351954906678],[-22.806071744039144,44.71317771644094],[-21.775388680955018,45.16577045990036],[-20.614018391608056,45.661635293281975],[-19.30323967707386,46.2036131483394],[-19.464679087377345,46.04111411105848],[-19.322238121474697,46.11520214401575],[-19.117709387785965,46.21770860012069],[-18.899687500937404,46.322760090532554],[-18.747683547846265,46.39374802391803],[-18.511096681101264,46.50094474738075],[-18.348548923178214,46.57245526315253],[-18.182919485938214,46.64364884454743],[-17.93028035197665,46.74916224581922],[-17.589739994518226,46.88577360894184],[-17.25134152602749,47.0152880062128],[-16.922717544903378,47.13494732617753],[-16.586740918025505,47.250332744873845],[-16.183333229961477,47.41382566559658],[-15.844554364950625,47.54633921109903],[-15.494534799720554,47.67911928558964],[-15.135756278398532,47.81118172257038],[-14.771123769062399,47.941452952530966],[-14.404086226536094,48.0687322480982],[-14.038804497584806,48.19163814637595],[-13.744312009075074,48.287908218801284],[-13.488036916977677,48.38256765906092],[-13.0680899416015,48.53462353799235],[-12.318792190223888,48.79812484466922],[-11.673909098037228,49.018175790750696],[-11.256317453902795,49.157859289731725],[-10.667740141954368,49.35147052502145],[-9.802783272849183,49.237486861009785],[-10.746114679203998,48.920624283383994],[-10.95595464090483,48.84763970535031],[-10.961602091058523,48.79625013714848],[-12.982141879274767,48.115877877239086],[-15.23319646011106,47.26921156711793],[-15.769219124270535,47.073143421556146],[-16.158395828418797,46.93645757944784],[-16.753255265996017,46.689124850593664],[-17.303253104671,46.46685090244655],[-17.71064493239726,46.30875712130173],[-17.930631251885075,46.22692566454288],[-18.10448519375475,46.16477361530689],[-18.38245789853977,46.04095122857081],[-18.688818168307677,45.907922299504826],[-18.979418373877337,45.78575486581529],[-19.25039246793824,45.676335835918316],[-19.438666222073493,45.60361963237582],[-19.55632829210623,45.55992396775261],[-19.77122311560447,45.48467543917557],[-19.95678478441809,45.42641649839195],[-20.03786327568062,45.4038925753721],[-20.11700853899458,45.38450301666388],[-20.25173688568384,45.24889036427436],[-21.460298785454995,44.72228623596747],[-22.500576983893495,44.255871814454125],[-23.438325674664497,43.82466363212986],[-24.295764360963602,43.42123987876469],[-25.088145512026188,43.04048971879825],[-25.826472680621436,42.67871443987571],[-26.518990917780798,42.333133896801506],[-27.17206592836075,42.00159496970864],[-27.790732958002707,41.68238929145762],[-28.379055435903155,41.37413398559854],[-28.923771378726627,41.08450479278824],[-29.461333345027015,40.79476970019465],[-29.976959016845854,40.513105934178576],[-30.472648932065283,40.23882456678656],[-30.95012376519776,39.971331289802016],[-31.410876036030402,39.71010908016199],[-31.85621016369322,39.454704753909986],[-32.28727392254959,39.20471839199705],[-32.70508345220284,38.959794921358494],[-33.09710467920101,38.72754255296776],[-33.87460342221357,38.26016475562462],[-34.61136540154615,37.80871581734483],[-35.311961032210945,37.37157454421342],[-35.64991025901162,37.15793664169061],[-36.30319674315106,36.739779538700226],[-36.61927097841823,36.534995347953036],[-37.22069137837812,36.140758246261555],[-37.51798603787165,35.9437153534183],[-38.09554769421263,35.55672832154676],[-38.376289704195955,35.36661077783184],[-38.922771757952006,34.99273350944859],[-39.70783536827932,34.44676456329633],[-39.8815345680884,35.19859858055765],[-39.35062498823845,35.56001047932702]]]}}]}