{"type":"FeatureCollection","features":[{"type":"Feature","properties":{"magnitude":0.2,"de":0.2,"ate":0.5,"percentagem":20.0},"geometry":{"type":"Polygon","coordinates":[[[-34.5,30.0],[-18.279203845700252,30.0],[-17.759999999999366,30.30354909618125],[-17.159999999999343,30.74399954662247],[-16.619999999999322,31.230210685695326],[-16.08922395357518,31.79999999999996],[-15.599999999999284,32.41498595436232],[-15.119999999999266,33.11273991730943],[-14.649467117727257,33.89999999999992],[-14.219999999999231,34.72130434651344],[-13.799999999999216,35.635566819831325],[-13.387851392931541,36.659999999999854],[-13.02791650627071,37.679999999999836],[-12.692906467106878,38.75999999999981],[-12.383441769235677,39.89999999999979],[-12.100507117464552,41.09999999999977],[-11.845416248156097,42.35999999999974],[-11.441163127311224,44.939999999999685],[-16.197745316755004,44.939999999999685],[-16.575336674332213,43.73999999999971],[-17.00000494243568,42.65999999999973],[-17.468495459140303,41.69999999999975],[-17.999999999999375,40.82960443589396],[-18.539999999999395,40.13198023148671],[-19.139999999999414,39.53678251382765],[-19.73999999999944,39.10219857543851],[-20.399999999999466,38.786065397987045],[-21.05999999999949,38.622605096618706],[-24.899999999999636,38.21465445162471],[-28.559999999999775,37.71944824403042],[-31.55999999999989,37.22755214124446],[-34.5,36.66455099514154],[-34.5,30.0]]]}},{"type":"Feature","properties":{"magnitude":0.5,"de":0.5,"ate":0.8,"percentagem":50.0},"geometry":{"type":"Polygon","coordinates":[[[-34.5,44.939999999999685],[-34.5,36.66455099514154],[-31.019999999999868,37.32207832585799],[-27.479999999999734,37.87720688689454],[-24.419999999999618,38.27148081119661],[-20.99999999999949,38.631490114144384],[-20.579999999999472,38.72691814399509],[-20.159999999999457,38.8825856479461],[-19.559999999999434,39.217046762300164],[-18.95999999999941,39.697355426941684],[-18.41999999999939,40.27270272643255],[-17.87999999999937,41.00868883310682],[-17.399999999999352,41.82777828743885],[-16.94807868310271,42.77999999999973],[-16.55429761007547,43.799999999999706],[-16.197745316755004,44.939999999999685],[-34.5,44.939999999999685]]]}}]}