{"type":"FeatureCollection","properties":{"largura_maxima_km":150.869,"largura_sobre_pt_km":132.69,"linha_central_sobre_pt":false,"desenhavel_como_area":true,"perfil_largura":[{"t":1.73889,"lat":44.4581,"lon":-39.6024,"largura_km":150.869,"eixo_na_terra":true},{"t":1.74444,"lat":44.3481,"lon":-39.0622,"largura_km":150.468,"eixo_na_terra":true},{"t":1.75,"lat":44.2342,"lon":-38.5101,"largura_km":150.054,"eixo_na_terra":true},{"t":1.75556,"lat":44.1161,"lon":-37.9453,"largura_km":149.625,"eixo_na_terra":true},{"t":1.76111,"lat":43.9934,"lon":-37.3668,"largura_km":149.18,"eixo_na_terra":true},{"t":1.76667,"lat":43.866,"lon":-36.7735,"largura_km":148.719,"eixo_na_terra":true},{"t":1.77222,"lat":43.7334,"lon":-36.1641,"largura_km":148.238,"eixo_na_terra":true},{"t":1.77778,"lat":43.5951,"lon":-35.5372,"largura_km":147.738,"eixo_na_terra":true},{"t":1.78333,"lat":43.4507,"lon":-34.8911,"largura_km":147.217,"eixo_na_terra":true},{"t":1.78889,"lat":43.2996,"lon":-34.2239,"largura_km":146.67,"eixo_na_terra":true},{"t":1.79444,"lat":43.1411,"lon":-33.5332,"largura_km":146.094,"eixo_na_terra":true},{"t":1.8,"lat":42.9743,"lon":-32.8164,"largura_km":145.484,"eixo_na_terra":true},{"t":1.80556,"lat":42.7983,"lon":-32.07,"largura_km":144.834,"eixo_na_terra":true},{"t":1.81111,"lat":42.612,"lon":-31.29,"largura_km":144.137,"eixo_na_terra":true},{"t":1.81667,"lat":42.4136,"lon":-30.4712,"largura_km":143.384,"eixo_na_terra":true},{"t":1.82222,"lat":42.2013,"lon":-29.6071,"largura_km":142.557,"eixo_na_terra":true},{"t":1.82778,"lat":41.9726,"lon":-28.6889,"largura_km":141.627,"eixo_na_terra":true},{"t":1.83333,"lat":41.7239,"lon":-27.7048,"largura_km":140.545,"eixo_na_terra":true},{"t":1.83889,"lat":41.4504,"lon":-26.638,"largura_km":139.201,"eixo_na_terra":true},{"t":1.84444,"lat":41.1444,"lon":-25.4627,"largura_km":137.273,"eixo_na_terra":true},{"t":1.85,"lat":40.7936,"lon":-24.137,"largura_km":132.69,"eixo_na_terra":true},{"t":1.85556,"lat":40.0556,"lon":-21.3256,"largura_km":null,"eixo_na_terra":false},{"t":1.86111,"lat":39.8226,"lon":-20.7162,"largura_km":null,"eixo_na_terra":false},{"t":1.86667,"lat":39.5964,"lon":-20.1656,"largura_km":null,"eixo_na_terra":false},{"t":1.87222,"lat":39.2146,"lon":-19.033,"largura_km":null,"eixo_na_terra":false},{"t":1.87778,"lat":38.9765,"lon":-18.4853,"largura_km":null,"eixo_na_terra":false},{"t":1.88333,"lat":38.4729,"lon":-16.9798,"largura_km":null,"eixo_na_terra":false}]},"features":[{"type":"Feature","properties":{},"geometry":{"type":"Polygon","coordinates":[[[-17.867457703241143,38.441093886862134],[-18.462076929670967,38.612626461323735],[-19.755621810089906,38.960451367894635],[-20.304946204210694,39.10989202373791],[-20.99527226235952,39.3021140039282],[-21.41998417986278,39.424696663984186],[-21.9496670339567,39.559936769041684],[-22.522101778828954,39.71052134813569],[-23.02067341495865,39.84762135666089],[-23.3164723393607,39.932902415311965],[-23.717509467615002,40.03165949460833],[-24.183039046537885,40.15123758134302],[-24.46514352406149,40.22717864399768],[-24.828576791730224,40.33048428743042],[-25.30427420568634,40.44516101781659],[-25.69647408545694,40.54596557045784],[-25.935444238514293,40.61113084895994],[-26.24428776747969,40.70115524812074],[-26.29094597559407,40.703702776091895],[-27.60328633095594,41.03302783487273],[-28.68104429248052,41.30109637580724],[-29.677632247288614,41.545332154857256],[-30.56216621116684,41.75944589847632],[-31.397588720265446,41.95885327670139],[-32.23465896737258,42.15551069107702],[-32.991072689692714,42.331033190240085],[-33.716319595979655,42.497054262790385],[-34.41403085948008,42.65463139254154],[-35.73826763851784,42.94778771024961],[-36.982264353528734,43.215908992358266],[-38.159392956869056,43.46292278150227],[-39.2796949167581,43.69179026956406],[-39.82103157407266,43.800157791949296],[-40.87012977441418,44.0059644989235],[-38.23091180468484,44.8804759938003],[-37.0894966242505,44.63586138326178],[-35.89037765609905,44.37200631998419],[-34.623195357600224,44.08573347719598],[-33.92215871875621,43.924041366719294],[-33.23531175188808,43.76358847997053],[-32.523185604543244,43.59501264324258],[-31.78263871483267,43.41736094470428],[-31.00982611491395,43.22946941938747],[-30.199957753191626,43.02989084783311],[-29.301088367718478,42.804999865633086],[-28.394575681798585,42.575219652197916],[-27.425679437419547,42.32613246485454],[-26.324793942350738,42.03846670533283],[-25.172812827098397,41.73325546499515],[-23.81613226875379,41.36741580942756],[-22.23072144059546,40.932291996242476],[-20.231546971187413,40.372860914049745],[-20.329104045375985,40.378187508990344],[-19.81503400691318,40.24385150572714],[-19.278171747051033,40.09904375790173],[-18.705023420749,39.939966169977275],[-18.081679745274442,39.7624881492359],[-16.982165889112224,39.44096578073447],[-15.132284836765194,38.88982021614136],[-15.67724457252885,38.32812285224735],[-15.73784443650945,38.343756921125454],[-15.885798419953318,37.90608984095896],[-16.4861595949282,38.0728666301769],[-16.491824529451975,38.049330958103916],[-17.867457703241143,38.441093886862134]]]}}]}