{"type":"FeatureCollection","features":[{"type":"Feature","properties":{"magnitude":0.9,"percentagem":90.0,"territorio":"acores"},"geometry":{"type":"LineString","coordinates":[[-32.0,38.40315747007446],[-31.987045735033554,38.39999999999995],[-31.96,38.39340888172169],[-31.92,38.38365442247348],[-31.880000000000003,38.37389307840873],[-31.84,38.36412485564633],[-31.82311929407995,38.35999999999995],[-31.800000000000004,38.35435158871484],[-31.760000000000005,38.34457279524652],[-31.720000000000006,38.33478714733717],[-31.680000000000003,38.32499465110251],[-31.659610588303504,38.31999999999995],[-31.640000000000008,38.31519686915958],[-31.60000000000001,38.30539387413445],[-31.56000000000001,38.295584055041445],[-31.52000000000001,38.285767417992986],[-31.49651405938267,38.27999999999995],[-31.48000000000001,38.275945284524376],[-31.440000000000012,38.26611822060627],[-31.400000000000013,38.25628436299057],[-31.36000000000001,38.24644371778627],[-31.33382424200589,38.23999999999995],[-31.320000000000014,38.236597396193986],[-31.280000000000015,38.22674639604474],[-31.240000000000016,38.21688863256468],[-31.200000000000017,38.207024111859305],[-31.171535761881145,38.19999999999995],[-31.160000000000018,38.19715376545936],[-31.12000000000002,38.187278961736034],[-31.08000000000002,38.17739742504462],[-31.04000000000002,38.167509161487],[-31.009643333797293,38.159999999999954],[-31.00000000000002,38.157614953507064],[-30.960000000000022,38.1477164788593],[-30.920000000000023,38.13781130160153],[-30.880000000000024,38.127899427831906],[-30.848141759731565,38.119999999999955],[-30.840000000000025,38.11798152140904],[-30.800000000000026,38.108059508476316],[-30.760000000000023,38.09813082328648],[-30.720000000000027,38.08819547193381],[-30.687025927005116,38.079999999999956],[-30.680000000000028,38.07825403011195],[-30.64000000000003,38.06830861152089],[-30.60000000000003,38.058356551019806],[-30.56000000000003,38.048397854698976],[-30.526290806484408,38.03999999999996],[-30.52000000000003,38.03843304042648],[-30.480000000000032,38.02846434878816],[-30.440000000000033,38.01848904558044],[-30.400000000000034,38.008507136889634],[-30.365931450825304,37.99999999999996],[-30.360000000000035,37.998519113016776],[-30.320000000000036,37.98852728092387],[-30.280000000000037,37.97852886759527],[-30.240000000000038,37.968523879113135],[-30.20594299276202,37.95999999999996],[-30.20000000000004,37.95851280838951],[-30.16000000000004,37.948497968413626],[-30.120000000000037,37.93847657752822],[-30.08000000000004,37.928448641811144],[-30.046320643436907,37.91999999999996],[-30.040000000000042,37.918414686882954],[-30.000000000000043,37.90837697157189],[-29.960000000000043,37.8983327356693],[-29.920000000000044,37.8882819852487],[-29.88705969077035,37.87999999999996],[-29.880000000000045,37.87822530865622],[-29.840000000000046,37.86816485053113],[-29.800000000000047,37.8580979021238],[-29.760000000000048,37.84802446950327],[-29.72815549787154,37.83999999999996],[-29.72000000000005,37.837945233678],[-29.68000000000005,37.82786216523065],[-29.64000000000005,37.81777263680107],[-29.60000000000005,37.80767665445371],[-29.56960350148637,37.79999999999996],[-29.560000000000052,37.7975750217156],[-29.520000000000053,37.78746947540564],[-29.480000000000054,37.777357499403536],[-29.440000000000055,37.767239099769064],[-29.411399210483165,37.75999999999996],[-29.400000000000055,37.75711523232377],[-29.360000000000056,37.74698734057586],[-29.320000000000057,37.73685304941543],[-29.280000000000058,37.72671236489744],[-29.253538204374962,37.71999999999996],[-29.24000000000006,37.7165664248334],[-29.20000000000006,37.706416320034485],[-29.16000000000006,37.6962598460916],[-29.12000000000006,37.68609700905484],[-29.096016131876446,37.679999999999964],[-29.080000000000062,37.67592915834032],[-29.040000000000063,37.6657569728368],[-29.000000000000064,37.65557844844623],[-28.960000000000065,37.645393591213704],[-28.938828709495695,37.639999999999965],[-28.920000000000066,37.63520399169395],[-28.880000000000067,37.62500985778889],[-28.840000000000067,37.614809415241474],[-28.800000000000068,37.604602670091715],[-28.781971720159227,37.599999999999966],[-28.76000000000007,37.59439148348586],[-28.72000000000007,37.58417553343619],[-28.68000000000007,37.573953304976044],[-28.640000000000075,37.563724804140236],[-28.625441011869537,37.55999999999997],[-28.600000000000072,37.55349219203836],[-28.560000000000073,37.54325455805207],[-28.520000000000078,37.53301067587378],[-28.480000000000075,37.52276055153307],[-28.469232496393897,37.51999999999997],[-28.440000000000076,37.51250667539305],[-28.400000000000077,37.50224748962638],[-28.360000000000078,37.49198208587225],[-28.32000000000008,37.481710470154795],[-28.313342147984315,37.47999999999997],[-28.28000000000008,37.4714354912993],[-28.24000000000008,37.461154885853915],[-28.200000000000077,37.45086809261105],[-28.160000000000082,37.44057511758934],[-28.1577660021274,37.43999999999997],[-28.120000000000083,37.430279197202616],[-28.080000000000084,37.41997730412282],[-28.040000000000084,37.40966925342038],[-28.002500821539847,37.39999999999997],[-28.000000000000085,37.39935526548983],[-27.960000000000086,37.38903835023311],[-27.920000000000087,37.378715301503014],[-27.880000000000088,37.36838612530943],[-27.84754274456661,37.35999999999997],[-27.84000000000009,37.3580514763284],[-27.80000000000009,37.34771350719385],[-27.76000000000009,37.33736943473458],[-27.72000000000009,37.3270192649547],[-27.692887375217907,37.31999999999997],[-27.680000000000092,37.31666411568947],[-27.640000000000093,37.306305224549206],[-27.60000000000009,37.29594026021609],[-27.560000000000095,37.28556922868836],[-27.538530978309122,37.27999999999997],[-27.520000000000095,37.27519373975514],[-27.480000000000096,37.26481405841318],[-27.440000000000097,37.25442833399293],[-27.400000000000098,37.2440365724866],[-27.384469874172225,37.239999999999974],[-27.3600000000001,37.233640904348135],[-27.3200000000001,37.22324056453766],[-27.2800000000001,37.212834211745545],[-27.2400000000001,37.20242185195792],[-27.230700437565524,37.199999999999974],[-27.200000000000102,37.19200616492017],[-27.160000000000103,37.18158529830073],[-27.120000000000104,37.1711584487778],[-27.08000000000011,37.16072562233137],[-27.077219096608694,37.159999999999975],[-27.040000000000106,37.15029007654023],[-27.000000000000107,37.13984881469488],[-26.960000000000107,37.12940160000518],[-26.924023310877036,37.119999999999976],[-26.92000000000011,37.11894879067536],[-26.88000000000011,37.10849319388275],[-26.84000000000011,37.098031668315315],[-26.80000000000011,37.08756421994305],[-26.771109341145173,37.07999999999998],[-26.76000000000011,37.077091830334595],[-26.720000000000113,37.066616071215876],[-26.680000000000113,37.05613441334812],[-26.640000000000114,37.045646862694824],[-26.618473080085124,37.03999999999998],[-26.600000000000115,37.03515505247694],[-26.560000000000116,37.02465926238965],[-26.520000000000117,37.014157603558466],[-26.480000000000118,37.00365008194034],[-26.46611115613316,36.99999999999998],[-26.44000000000012,36.99313901060959],[-26.40000000000012,36.982623320824246],[-26.36000000000012,36.97210179227891],[-26.32000000000012,36.96157443092391],[-26.314020246203956,36.95999999999998],[-26.280000000000122,36.951044257800916],[-26.240000000000123,36.94050879949813],[-26.200000000000124,36.9299675323975],[-26.162197574974307,36.91999999999998],[-26.160000000000124,36.91942065760339],[-26.120000000000125,36.90887134666856],[-26.080000000000126,36.89831625093629],[-26.040000000000127,36.887755376346],[-26.010640800714185,36.87999999999998],[-26.000000000000128,36.877189676663164],[-25.96000000000013,36.86662082936762],[-25.92000000000013,36.85604622719845],[-25.88000000000013,36.84546587608816],[-25.859345356823525,36.83999999999998],[-25.84000000000013,36.834881510317445],[-25.800000000000132,36.82429325757889],[-25.760000000000133,36.8136992798672],[-25.720000000000134,36.8030995831079],[-25.708308102507036,36.79999999999998],[-25.680000000000135,36.792496709861254],[-25.640000000000136,36.78188918249705],[-25.600000000000133,36.771275960036306],[-25.56000000000014,36.760657048397434],[-25.55752594107272,36.759999999999984],[-25.520000000000138,36.75003582609451],[-25.48000000000014,36.73940915481886],[-25.440000000000136,36.7287768182988],[-25.406997305870654,36.719999999999985],[-25.40000000000014,36.71813945256504],[-25.36000000000014,36.70749940931018],[-25.320000000000142,36.69685372473139],[-25.280000000000143,36.68620240473533],[-25.256718226079855,36.679999999999986],[-25.240000000000144,36.67554696514974],[-25.200000000000145,36.66488800928247],[-25.160000000000146,36.65422344190024],[-25.120000000000147,36.643553268902345],[-25.10668519665405,36.639999999999986],[-25.080000000000148,36.632879913320494],[-25.04000000000015,36.62220217525517],[-25.00000000000015,36.611518855457824],[-24.96000000000015,36.600829959820324],[-24.95689528701279,36.59999999999999],[-24.92000000000015,36.590138845892355],[-24.88000000000015,36.57944245592975],[-24.840000000000153,36.568740513991536],[-24.807347082855397,36.55999999999999],[-24.800000000000153,36.558033694678755],[-24.760000000000154,36.547324311129124],[-24.720000000000155,36.536609399453766],[-24.680000000000156,36.52588896553214],[-24.65803687447614,36.51999999999999],[-24.640000000000157,36.5151646616379],[-24.600000000000158,36.50443685673163],[-24.56000000000016,36.493703553409084],[-24.52000000000016,36.48296475754202],[-24.50896121436223,36.47999999999999],[-24.48000000000016,36.47222312611694],[-24.44000000000016,36.46147702982603],[-24.40000000000016,36.45072546480021],[-24.36011734894671,36.43999999999999],[-24.360000000000163,36.43996844766601],[-24.320000000000164,36.429209634779575],[-24.280000000000165,36.418445376952135],[-24.240000000000165,36.40767568004263],[-24.21150465382826,36.39999999999999],[-24.200000000000166,36.39690160802698],[-24.160000000000167,36.38612473369409],[-24.120000000000168,36.375342444051824],[-24.08000000000017,36.36455474495117],[-24.063118265609127,36.359999999999985],[-24.04000000000017,36.353763774479205]]}},{"type":"Feature","properties":{"magnitude":0.95,"percentagem":95.0,"territorio":"acores"},"geometry":{"type":"LineString","coordinates":[[-32.0,40.23739511519914],[-31.96,40.227821217666396],[-31.92,40.21824019421631],[-31.880000000000003,40.20865205051533],[-31.843931338348938,40.19999999999991],[-31.840000000000003,40.19905711477794],[-31.800000000000004,40.18945803329267],[-31.760000000000005,40.179851854617276],[-31.720000000000006,40.17023858441909],[-31.680000000000007,40.160618228363965],[-31.677430958614483,40.15999999999991],[-31.640000000000008,40.1509938778553],[-31.60000000000001,40.14136267053115],[-31.56000000000001,40.13172440042776],[-31.52000000000001,40.122079073211665],[-31.511382993603924,40.11999999999991],[-31.48000000000001,40.11242929114218],[-31.440000000000012,40.102773181821625],[-31.400000000000013,40.09311003848034],[-31.360000000000014,40.08343986678542],[-31.345779915003728,40.07999999999991],[-31.320000000000014,40.07376481315134],[-31.280000000000015,40.06408392856006],[-31.240000000000016,40.05439603872096],[-31.200000000000014,40.0447011493015],[-31.180615796738273,40.03999999999991],[-31.160000000000018,40.0350009840816],[-31.12000000000002,40.02529545101598],[-31.08000000000002,40.01558294148921],[-31.04000000000002,40.005863461169106],[-31.015884812308045,39.999999999999915],[-31.00000000000002,39.99613834432287],[-30.960000000000022,39.98640828964739],[-30.920000000000023,39.97667128731065],[-30.880000000000024,39.966927342980725],[-30.851581232663435,39.959999999999916],[-30.840000000000025,39.95717743444645],[-30.800000000000026,39.94742298509104],[-30.760000000000026,39.93766161688693],[-30.720000000000027,39.92789333550228],[-30.687699424131694,39.919999999999916],[-30.680000000000028,39.91811879519504],[-30.64000000000003,39.90834007815245],[-30.60000000000003,39.898554471085745],[-30.560000000000027,39.88876197966315],[-30.52423384639512,39.87999999999992],[-30.52000000000003,39.87896296747279],[-30.480000000000032,39.86916010979587],[-30.440000000000033,39.859350390930956],[-30.400000000000034,39.84953381654612],[-30.361179050519148,39.83999999999992],[-30.360000000000035,39.839710492335115],[-30.320000000000036,39.82988362113417],[-30.280000000000037,39.820049917592215],[-30.240000000000038,39.810209387377114],[-30.20000000000004,39.80036203615523],[-30.198530173267017,39.79999999999992],[-30.16000000000004,39.790511153418414],[-30.12000000000004,39.78065359237475],[-30.08000000000004,39.77078923351491],[-30.04000000000004,39.760918082504894],[-30.036281694108304,39.75999999999992],[-30.000000000000043,39.75104324802752],[-29.960000000000043,39.741161956708865],[-29.920000000000044,39.731273896440584],[-29.88000000000005,39.72137907288827],[-29.87442803096936,39.71999999999992],[-29.840000000000046,39.71148044645766],[-29.800000000000047,39.701575552139374],[-29.760000000000048,39.69166391774706],[-29.72000000000005,39.681745548945706],[-29.712964088363876,39.67999999999992],[-29.68000000000005,39.671823290311636],[-29.64000000000005,39.66189492031498],[-29.60000000000005,39.65195983912825],[-29.560000000000052,39.64201805241582],[-29.55188485283734,39.63999999999992],[-29.520000000000053,39.63207232128808],[-29.480000000000054,39.622120602977375],[-29.440000000000055,39.61216220236843],[-29.40000000000006,39.60219712512479],[-29.391185391272092,39.59999999999992],[-29.360000000000056,39.59222808117061],[-29.320000000000057,39.58225314195052],[-29.280000000000058,39.572271549331184],[-29.24000000000006,39.562283308975324],[-29.230860849233963,39.559999999999924],[-29.20000000000006,39.552291111816835],[-29.16000000000006,39.54229307912948],[-29.120000000000058,39.53228842194852],[-29.08000000000006,39.522277145935675],[-29.07090644935817,39.519999999999925],[-29.040000000000063,39.51226195514724],[-29.000000000000064,39.50224095646941],[-28.960000000000065,39.49221336220965],[-28.920000000000066,39.48217917802857],[-28.91131748977352,39.479999999999926],[-28.880000000000067,39.472141153134075],[-28.840000000000067,39.46209731597443],[-28.800000000000068,39.45204691214991],[-28.76000000000007,39.44198994731991],[-28.752089342564595,39.43999999999993],[-28.72000000000007,39.4319292477901],[-28.68000000000007,39.421862699686216],[-28.64000000000007,39.411789613839346],[-28.600000000000072,39.401709995907595],[-28.593217452270167,39.39999999999993],[-28.560000000000073,39.391626781157115],[-28.520000000000074,39.38153764967275],[-28.480000000000075,39.37144200937147],[-28.440000000000076,39.36133986590997],[-28.434697334417308,39.35999999999993],[-28.400000000000077,39.35123429529464],[-28.360000000000078,39.341122708016755],[-28.32000000000008,39.331004640851674],[-28.28000000000008,39.32088009945453],[-28.27652457408949,39.31999999999993],[-28.24000000000008,39.31075233226835],[-28.20000000000008,39.300618416804326],[-28.16000000000008,39.290478050385786],[-28.120000000000083,39.28033123866622],[-28.118694824528966,39.27999999999993],[-28.080000000000084,39.27018143413847],[-28.040000000000084,39.26002531811315],[-28.000000000000085,39.24986278006842],[-27.9612041466462,39.23999999999993],[-27.960000000000086,39.239693933161135],[-27.920000000000087,39.22952214294817],[-27.880000000000088,39.219343954001005],[-27.84000000000009,39.20915937197125],[-27.804048434605466,39.19999999999993],[-27.80000000000009,39.19896876513538],[-27.76000000000009,39.1887750007117],[-27.72000000000009,39.1785748664938],[-27.680000000000096,39.16836836813137],[-27.647223159136082,39.15999999999993],[-27.640000000000093,39.15815616037788],[-27.600000000000094,39.147940549402676],[-27.560000000000095,39.13771859757392],[-27.520000000000095,39.12749031053926],[-27.490724228365266,39.11999999999993],[-27.480000000000096,39.117256660803186],[-27.440000000000097,39.107019330942165],[-27.400000000000098,39.096775689168325],[-27.3600000000001,39.08652574112715],[-27.334547612191592,39.079999999999934],[-27.3200000000001,39.07627080826443],[-27.2800000000001,39.06601188718679],[-27.2400000000001,39.05574668313655],[-27.200000000000102,39.04547520175687],[-27.178689341067788,39.039999999999935],[-27.160000000000103,39.03519914454109],[-27.120000000000104,39.02491875991666],[-27.080000000000105,39.014632121258686],[-27.040000000000106,39.00433923420796],[-27.023145504809733,38.999999999999936],[-27.000000000000107,38.99404221132712],[-26.960000000000107,38.98374049082341],[-26.92000000000011,38.97343254522346],[-26.880000000000106,38.963118380165575],[-26.86791225143391,38.95999999999994],[-26.84000000000011,38.95280055021877],[-26.80000000000011,38.942477621498014],[-26.76000000000011,38.93214849661598],[-26.720000000000113,38.921813181208336],[-26.712985786020667,38.91999999999994],[-26.680000000000113,38.91147470270248],[-26.640000000000114,38.90113069341872],[-26.600000000000115,38.89078051690564],[-26.560000000000116,38.88042417879623],[-26.558362369603472,38.87999999999994],[-26.520000000000117,38.87006521014266],[-26.480000000000118,38.85970024793878],[-26.440000000000115,38.849329147433984],[-26.40403932274139,38.83999999999994],[-26.40000000000012,38.83895228625882],[-26.36000000000012,38.82857261376948],[-26.32000000000012,38.818186826274264],[-26.280000000000122,38.80779492940236],[-26.25001245779954,38.79999999999994],[-26.240000000000123,38.79739785375797],[-26.200000000000124,38.78699745466659],[-26.160000000000124,38.776590969491764],[-26.120000000000125,38.766178403859705],[-26.096277780927036,38.75999999999994],[-26.080000000000126,38.755761271855164],[-26.040000000000127,38.74534027375876],[-26.000000000000128,38.73491321849609],[-25.960000000000125,38.72448011169022],[-25.942831763093633,38.71999999999994],[-25.92000000000013,38.71404308132639],[-25.88000000000013,38.70360161179964],[-25.84000000000013,38.6931541140179],[-25.800000000000132,38.68270059360107],[-25.789670926129745,38.67999999999994],[-25.760000000000133,38.672243822767015],[-25.720000000000134,38.6617820093593],[-25.680000000000135,38.65131419660139],[-25.640000000000136,38.640840390109865],[-25.636791841754786,38.639999999999944],[-25.600000000000136,38.63036403657937],[-25.560000000000137,38.61988200681182],[-25.520000000000138,38.609394006591806],[-25.48419209342017,38.599999999999945],[-25.48000000000014,38.5989004344238],[-25.44000000000014,38.58840426296041],[-25.40000000000014,38.57790214432295],[-25.360000000000145,38.567394084123066],[-25.331868149073095,38.559999999999945],[-25.320000000000142,38.55688120365198],[-25.280000000000143,38.54636504188913],[-25.240000000000144,38.53584296183758],[-25.200000000000145,38.52531496910529],[-25.179815974319308,38.519999999999946],[-25.160000000000146,38.51478293774908],[-25.120000000000147,38.50424691311423],[-25.080000000000144,38.49370499906725],[-25.040000000000152,38.48315720121239],[-25.02803232842549,38.47999999999995],[-25.00000000000015,38.47260617626037],[-24.96000000000015,38.46205041614154],[-24.92000000000015,38.451488795477765],[-24.880000000000155,38.44092131986948],[-24.876514016081153,38.43999999999995],[-24.840000000000153,38.43035145847868],[-24.800000000000153,38.41977609022149],[-24.760000000000158,38.40919489027657],[-24.725259014965975,38.39999999999995],[-24.720000000000155,38.3986083640915],[-24.680000000000156,38.38801932343193],[-24.640000000000157,38.3774244743367],[-24.600000000000158,38.36682382240038],[-24.574263849323664,38.35999999999995],[-24.56000000000016,38.35621873295583],[-24.52000000000016,38.34561030987062],[-24.48000000000016,38.334996107189355],[-24.44000000000016,38.32437613050249],[-24.42352469367934,38.31999999999995],[-24.400000000000162,38.313752634553595],[-24.360000000000163,38.303124956255225],[-24.320000000000164,38.29249152718874],[-24.280000000000165,38.2818523529404],[-24.273038523755304,38.27999999999995],[-24.240000000000165,38.271210607096286],[-24.200000000000166,38.260563800743654],[-24.160000000000167,38.249911272438624],[-24.122802925751664,38.23999999999995],[-24.120000000000168,38.23925329705845],[-24.08000000000017,38.22859318848319],[-24.04000000000017,38.21792738117877]]}},{"type":"Feature","properties":{"magnitude":0.99,"percentagem":99.0,"territorio":"acores"},"geometry":{"type":"LineString","coordinates":[[-26.923322050541653,40.479999999999905],[-26.92000000000011,40.47915434074611],[-26.88000000000011,40.46896719669151],[-26.84000000000011,40.458773617598524],[-26.80000000000011,40.44857360879631],[-26.76639823398603,40.439999999999905],[-26.76000000000011,40.4383677790561],[-26.720000000000113,40.42815870362554],[-26.680000000000113,40.41794322104998],[-26.640000000000114,40.407721336658994],[-26.609802647224946,40.399999999999906],[-26.600000000000115,40.39749398329728],[-26.560000000000116,40.38726310050218],[-26.520000000000117,40.37702583846637],[-26.480000000000118,40.366782202519715],[-26.453531280771003,40.35999999999991],[-26.44000000000012,40.35653348242634],[-26.40000000000012,40.3462809163265],[-26.36000000000012,40.33602199890047],[-26.32000000000012,40.32575673547831],[-26.297580184655935,40.31999999999991],[-26.280000000000122,40.31548680550421],[-26.240000000000123,40.30521268020475],[-26.200000000000124,40.294932231503296],[-26.160000000000124,40.28464546472995],[-26.141945467276287,40.2799999999999],[-26.120000000000125,40.274354481683744],[-26.080000000000126,40.264058921332186],[-26.040000000000127,40.253757065511806],[-26.000000000000128,40.243448919552705],[-25.986623294265165,40.23999999999991],[-25.96000000000013,40.233137040197406],[-25.92000000000013,40.22282016898059],[-25.88000000000013,40.212497030236555],[-25.84000000000013,40.20216762929524],[-25.831609887388947,40.19999999999991],[-25.800000000000132,40.19183501034486],[-25.760000000000133,40.181496952485986],[-25.720000000000134,40.17115265504925],[-25.680000000000135,40.16080212336433],[-25.676901523469194,40.15999999999991],[-25.640000000000136,40.150448921480404],[-25.600000000000136,40.14008980123599],[-25.560000000000137,40.129724469370196],[-25.522495141798952,40.11999999999991],[-25.520000000000138,40.11935317235505],[-25.48000000000014,40.108979303000524],[-25.44000000000014,40.098599244657336],[-25.40000000000014,40.08821300265578],[-25.368387318444086,40.07999999999991],[-25.36000000000014,40.077821395439884],[-25.320000000000142,40.06742668433113],[-25.280000000000143,40.05702581220321],[-25.240000000000144,40.046618784385835],[-25.21457371973584,40.039999999999914],[-25.200000000000145,40.03620702344521],[-25.160000000000146,40.0257915949151],[-25.120000000000147,40.01537003334066],[-25.080000000000148,40.00494234405098],[-25.061050829171894,39.999999999999915],[-25.04000000000015,39.99451058579625],[-25.00000000000015,39.98407456419942],[-24.96000000000015,39.97363243753789],[-24.920000000000154,39.96318421113998],[-24.907815180356955,39.959999999999916],[-24.88000000000015,39.952732611912666],[-24.840000000000153,39.94227612162251],[-24.800000000000157,39.93181355425145],[-24.760000000000154,39.92134491512685],[-24.75486335605698,39.919999999999916],[-24.720000000000155,39.9108736311958],[-24.680000000000156,39.900396796601406],[-24.640000000000157,39.88991391291339],[-24.60219248093743,39.87999999999992],[-24.600000000000158,39.879425201082405],[-24.56000000000016,39.868934173015816],[-24.52000000000016,39.85843711851892],[-24.480000000000157,39.8479340429186],[-24.449799928031673,39.83999999999992],[-24.44000000000016,39.83742591825028],[-24.400000000000162,39.82691476669888],[-24.360000000000163,39.816397616710844],[-24.320000000000164,39.8058744736118],[-24.297681246185604,39.79999999999992],[-24.280000000000165,39.79534709213433],[-24.240000000000165,39.78481594151421],[-24.200000000000166,39.77427882045288],[-24.160000000000167,39.763735734274675],[-24.14583320306678,39.75999999999992],[-24.120000000000168,39.753189251929776],[-24.08000000000017,39.74263822666117],[-24.040000000000173,39.732081258947915]]}}]}