{"type":"FeatureCollection","properties":{"largura_maxima_km":195.844,"largura_sobre_pt_km":193.834,"linha_central_sobre_pt":false,"desenhavel_como_area":true,"perfil_largura":[{"t":-1.40556,"lat":25.0781,"lon":2.6442,"largura_km":193.834,"eixo_na_terra":true},{"t":-1.4,"lat":25.1961,"lon":2.8956,"largura_km":194.073,"eixo_na_terra":true},{"t":-1.39444,"lat":25.3128,"lon":3.1447,"largura_km":194.307,"eixo_na_terra":true},{"t":-1.38889,"lat":25.4282,"lon":3.3914,"largura_km":194.538,"eixo_na_terra":true},{"t":-1.38333,"lat":25.5423,"lon":3.6359,"largura_km":194.765,"eixo_na_terra":true},{"t":-1.37778,"lat":25.6552,"lon":3.8782,"largura_km":194.988,"eixo_na_terra":true},{"t":-1.37222,"lat":25.767,"lon":4.1184,"largura_km":195.207,"eixo_na_terra":true},{"t":-1.36667,"lat":25.8775,"lon":4.3566,"largura_km":195.423,"eixo_na_terra":true},{"t":-1.36111,"lat":25.987,"lon":4.5927,"largura_km":195.635,"eixo_na_terra":true},{"t":-1.35556,"lat":26.0953,"lon":4.8269,"largura_km":195.844,"eixo_na_terra":true}]},"features":[{"type":"Feature","properties":{},"geometry":{"type":"Polygon","coordinates":[[[1.7422874285078933,25.635313617525256],[2.9982063566244506,26.231417285416743],[3.9627939168677244,26.685571008798387],[5.662482462410196,25.49241862321492],[4.728908969127531,25.06579186776254],[3.5155263774756804,24.506670479495853],[1.7422874285078933,25.635313617525256]]]}}]}