{"type":"FeatureCollection","features":[{"type":"Feature","properties":{"t_inicio":-1.4055555555555648,"t_fim":-1.355555555555565},"geometry":{"type":"LineString","coordinates":[[2.6441659565868463,25.078120996599367],[2.8956204227531543,25.196108254292497],[3.1446826780527317,25.312782565860214],[3.3914264327498813,25.428176349882914],[3.63592202792222,25.542320558016065],[3.8782366460702065,25.655244765788208],[4.118434505125151,25.766977256282768],[4.356577037424586,25.877545097374213],[4.592723055053341,25.98697421311583],[4.826928902798272,26.095289449812043]]}}]}