{"type":"FeatureCollection","features":[{"type":"Feature","properties":{"magnitude":0.6,"percentagem":60.0,"territorio":"continente"},"geometry":{"type":"LineString","coordinates":[[-5.540000000000106,37.8407172667945],[-5.541548763387794,37.83999999999996],[-5.580000000000105,37.82219393533468],[-5.620000000000104,37.803661364911704],[-5.627900304551052,37.79999999999996],[-5.660000000000103,37.78512484285205],[-5.700000000000102,37.7665802259542],[-5.714188653322224,37.75999999999996],[-5.7400000000001015,37.74803063123031],[-5.780000000000101,37.7294740796199],[-5.8004145602369945,37.71999999999996],[-5.8200000000001,37.71091153020967],[-5.860000000000099,37.69234315573921],[-5.886578771559383,37.679999999999964],[-5.900000000000098,37.673767769658994],[-5.940000000000097,37.65518768426739],[-5.972682029324303,37.639999999999965],[-5.980000000000096,37.63659957956842],[-6.0200000000000955,37.61800789527764],[-6.05872507138077,37.599999999999966],[-6.060000000000095,37.59940719004225],[-6.100000000000094,37.5808040189537],[-6.140000000000093,37.5621916540733],[-6.144708942986464,37.55999999999997],[-6.180000000000092,37.54357628558253],[-6.220000000000091,37.52495259559124],[-6.230634160549727,37.51999999999997],[-6.26000000000009,37.50632492554723],[-6.3000000000000895,37.48769002273715],[-6.316501367047963,37.47999999999997],[-6.340000000000089,37.46905016931965],[-6.380000000000088,37.45040416605027],[-6.402311283650726,37.43999999999997],[-6.420000000000087,37.431752247453126],[-6.460000000000086,37.41309525614786],[-6.488064627555972,37.39999999999997],[-6.500000000000085,37.39443139057517],[-6.540000000000084,37.37576352371791],[-6.573762112030408,37.35999999999997],[-6.580000000000084,37.3570878293805],[-6.620000000000083,37.33840919951179],[-6.659404446448609,37.31999999999997],[-6.660000000000082,37.3197217946233],[-6.700000000000081,37.30103251433715],[-6.74000000000008,37.28233440329063],[-6.744992727907817,37.27999999999997],[-6.780000000000079,37.263633699050644],[-6.820000000000078,37.244925100023735],[-6.830527326251264,37.239999999999974],[-6.860000000000078,37.226212984550486],[-6.900000000000077,37.207494010265385],[-6.916008893368037,37.199999999999974],[-6.940000000000076,37.18877060176948],[-6.980000000000075,37.170041364989636],[-7.001438123151816,37.15999999999997],[-7.020000000000074,37.151306781667614],[-7.060000000000073,37.13256739519445],[-7.086815705804467,37.119999999999976],[-7.1000000000000725,37.11382175522485],[-7.140000000000072,37.09507233189413],[-7.172142327872838,37.07999999999998],[-7.180000000000071,37.07631575343388],[-7.22000000000007,37.057556406112354],[-7.257418672286194,37.03999999999998],[-7.26000000000007,37.03878900729299],[-7.300000000000068,37.02001984887481],[-7.340000000000067,37.00124222460191],[-7.342645657432656,36.99999999999998],[-7.3800000000000665,36.982462891202],[-7.420000000000066,36.96367561875147],[-7.4278239613389605,36.95999999999998],[-7.460000000000065,36.94488576410211],[-7.500000000000064,36.92608895643424],[-7.512954026904918,36.91999999999998],[-7.540000000000063,36.90728869856379],[-7.580000000000062,36.88848246865455],[-7.5980365226936435,36.87999999999998],[-7.620000000000061,36.869671925548985],[-7.6600000000000605,36.850856386386475],[-7.683072113836168,36.83999999999998],[-7.70000000000006,36.83203567598573],[-7.740000000000059,36.813210940566826],[-7.768061462066576,36.79999999999998],[-7.780000000000058,36.79438018076101],[-7.820000000000057,36.775546362087965],[-7.853005225756387,36.759999999999984],[-7.860000000000056,36.75670567071366],[-7.900000000000055,36.73786288179044],[-7.937904059948693,36.71999999999998],[-7.940000000000055,36.719012376627184],[-7.980000000000054,36.70016073045636],[-8.020000000000053,36.68130103478857],[-8.022758901901629,36.679999999999986],[-8.060000000000052,36.66244013880177],[-8.100000000000051,36.64357174902888],[-8.107570338655641,36.639999999999986],[-8.14000000000005,36.62470133746987],[-8.18000000000005,36.605824366591314],[-8.192338801568265,36.59999999999999],[-8.220000000000049,36.5869445570239],[-8.260000000000048,36.56805911802593],[-8.277064932492939,36.55999999999999],[-8.300000000000047,36.549170027939994],[-8.340000000000046,36.530276233792385],[-8.361749370126395,36.519999999999996],[-8.380000000000045,36.51137798060016],[-8.420000000000044,36.492475944252824],[-8.446392750040513,36.47999999999999],[-8.460000000000043,36.47356864528531],[-8.500000000000043,36.454658479664886],[-8.530995704714368,36.43999999999999],[-8.540000000000042,36.43574225216815],[-8.580000000000041,36.416824070174734],[-8.615558863566028,36.4],[-8.62000000000004,36.39789903130639],[-8.66000000000004,36.378972945810105],[-8.700000000000038,36.36003922806518],[-8.700082862612607,36.35999999999999],[-8.740000000000038,36.34110533647324],[-8.780000000000037,36.32216387825644],[-8.78456883410323,36.31999999999999],[-8.820000000000036,36.30322147193408],[-8.860000000000035,36.28427238604471],[-8.869016888776734,36.279999999999994],[-8.900000000000034,36.26532158182324],[-8.940000000000033,36.24636498101931],[-8.95342764394659,36.239999999999995],[-8.980000000000032,36.227405895625175],[-9.020000000000032,36.20844189262025],[-9.03780171402375,36.199999999999996],[-9.06000000000003,36.189474642671314],[-9.10000000000003,36.170503350131156],[-9.122139710546026,36.16],[-9.140000000000029,36.15152805213318],[-9.180000000000028,36.132549582672425],[-9.206442242207551,36.120000000000005],[-9.220000000000027,36.11356635301556],[-9.260000000000026,36.09458081919461],[-9.290709914888222,36.08],[-9.300000000000026,36.07558977414973],[-9.340000000000025,36.05659728847137],[-9.374943331682395,36.04],[-9.380000000000024,36.037598544186665],[-9.420000000000023,36.01859921909285],[-9.459143092927658,36.0]]}},{"type":"Feature","properties":{"magnitude":0.4,"percentagem":40.0,"territorio":"acores"},"geometry":{"type":"LineString","coordinates":[[-24.04000000000017,37.96413258508074],[-24.048605180270243,37.95999999999996],[-24.08000000000017,37.94492802660315],[-24.120000000000168,37.9257224842922],[-24.131918218755978,37.91999999999996],[-24.160000000000167,37.90652130900757],[-24.200000000000166,37.887320103231815],[-24.215248767115824,37.87999999999996],[-24.240000000000165,37.86812240168343],[-24.280000000000165,37.848925628639385],[-24.298597275533993,37.83999999999996],[-24.320000000000164,37.82973149098579],[-24.360000000000163,37.81053924658944],[-24.38196419351511,37.79999999999996],[-24.400000000000162,37.79134876260288],[-24.44000000000016,37.7721611424881],[-24.4653499698956,37.75999999999996],[-24.48000000000016,37.752974401553054],[-24.52000000000016,37.73379150106973],[-24.548755052854602,37.71999999999996],[-24.56000000000016,37.71460859218161],[-24.600000000000158,37.69543050639412],[-24.63217988992557,37.679999999999964],[-24.640000000000157,37.676251518157805],[-24.680000000000156,37.65707834184348],[-24.715624928007266,37.639999999999965],[-24.720000000000155,37.63790336247191],[-24.760000000000154,37.61873519011925],[-24.799090613374986,37.59999999999997],[-24.800000000000153,37.59956430743233],[-24.840000000000153,37.580401233239506],[-24.88000000000015,37.561235243621596],[-24.882578126801615,37.55999999999997],[-24.92000000000015,37.54207665253587],[-24.96000000000015,37.52291589982963],[-24.966087449464883,37.51999999999997],[-25.00000000000015,37.50376162865087],[-25.04000000000015,37.48460620637499],[-25.049618767482464,37.47999999999997],[-25.080000000000148,37.46545634153506],[-25.120000000000147,37.44630634291259],[-25.133172524907806,37.43999999999997],[-25.160000000000146,37.42716097044453],[-25.200000000000145,37.40801648840129],[-25.216749165226517,37.39999999999997],[-25.240000000000144,37.388875693937905],[-25.280000000000143,37.369736821101206],[-25.3003491313672,37.35999999999997],[-25.320000000000142,37.35060068987414],[-25.36000000000014,37.331467518571195],[-25.383972865711854,37.319999999999965],[-25.40000000000014,37.31233613540968],[-25.44000000000014,37.2932087576663],[-25.467620810106677,37.27999999999997],[-25.48000000000014,37.27408220699618],[-25.520000000000138,37.25496071453524],[-25.551293405872112,37.239999999999974],[-25.560000000000137,37.23583908037784],[-25.600000000000136,37.21672356461797],[-25.634991093813706,37.199999999999974],[-25.640000000000136,37.19760693058916],[-25.680000000000135,37.178497482643465],[-25.718714314232464,37.15999999999998],[-25.720000000000134,37.15938593195263],[-25.760000000000133,37.1402826426272],[-25.800000000000132,37.12117693910639],[-25.80246423550753,37.119999999999976],[-25.84000000000013,37.10207921786899],[-25.88000000000013,37.08297980721679],[-25.886240962120155,37.07999999999998],[-25.92000000000013,37.06388738095068],[-25.96000000000013,37.04479435325368],[-25.97004455403219,37.03999999999998],[-26.000000000000128,37.02570730373406],[-26.040000000000127,37.006620748767475],[-26.053875449805588,36.99999999999998],[-26.080000000000126,36.98753915735871],[-26.120000000000125,36.96845916458505],[-26.13773408754964,36.95999999999998],[-26.160000000000124,36.9493831122399],[-26.200000000000124,36.93030977080775],[-26.221620904931154,36.91999999999998],[-26.240000000000123,36.91123933806651],[-26.280000000000122,36.892172736809435],[-26.305536339184652,36.87999999999998],[-26.32000000000012,36.87310800379918],[-26.36000000000012,36.85404823123448],[-26.38948082712201,36.83999999999998],[-26.40000000000012,36.83498927766831],[-26.44000000000012,36.815936421995815],[-26.473454805142392,36.79999999999998],[-26.480000000000114,36.79688332717219],[-26.520000000000117,36.77783747627311],[-26.557458709242034,36.75999999999998],[-26.560000000000116,36.75879031907509],[-26.600000000000115,36.73975156051108],[-26.640000000000114,36.720710833594175],[-26.641493430505097,36.719999999999985],[-26.680000000000113,36.701678840417486],[-26.720000000000113,36.682645335759204],[-26.725559738299882,36.679999999999986],[-26.76000000000011,36.66361948096155],[-26.80000000000011,36.64459328537323],[-26.809657294615242,36.639999999999986],[-26.84000000000011,36.62557364637235],[-26.88000000000011,36.60655484634186],[-26.893786534121702,36.59999999999999],[-26.92000000000011,36.587541500137114],[-26.960000000000107,36.568530181827846],[-26.977947891136225,36.55999999999999],[-27.000000000000107,36.54952320499958],[-27.040000000000106,36.53051945424957],[-27.06214179963193,36.51999999999999],[-27.080000000000105,36.51151892295865],[-27.120000000000104,36.49252282527938],[-27.14636869324702,36.47999999999999],[-27.1600000000001,36.47352881526676],[-27.200000000000102,36.45454045584241],[-27.230629005294766,36.43999999999998],[-27.2400000000001,36.43555304242849],[-27.2800000000001,36.41657250611489],[-27.314923168772445,36.39999999999999],[-27.320000000000096,36.39759176419922],[-27.3600000000001,36.378619135522925],[-27.399251616370776,36.35999999999999],[-27.400000000000098,36.35964513958378],[-27.440000000000097,36.3406805027412],[-27.480000000000096,36.321714332192364],[-27.483615916165796,36.31999999999999],[-27.520000000000095,36.30275676569161],[-27.560000000000095,36.28379871239835],[-27.568015617672906,36.279999999999994],[-27.600000000000094,36.26484808154215],[-27.640000000000093,36.24589822892505],[-27.65245091844094,36.239999999999995],[-27.680000000000092,36.2269546067056],[-27.72000000000009,36.208013037852126],[-27.736922250226847,36.199999999999996],[-27.76000000000009,36.18907649683857],[-27.80000000000009,36.17014329450211],[-27.821430044527744,36.16],[-27.840000000000085,36.15121390684018],[-27.880000000000088,36.13228915343933],[-27.905974732590064,36.12],[-27.920000000000087,36.11336699085124],[-27.960000000000086,36.09445076846908],[-27.99055674541888,36.08],[-28.000000000000085,36.07553590225318],[-28.040000000000084,36.05662829263642],[-28.07517651378614,36.04],[-28.080000000000084,36.03772079366695],[-28.120000000000083,36.01882187822531],[-28.159834468240334,36.0]]}},{"type":"Feature","properties":{"magnitude":0.6,"percentagem":60.0,"territorio":"madeira"},"geometry":{"type":"LineString","coordinates":[[-15.040000000000063,33.326393295328884],[-15.080000000000062,33.30716128290735],[-15.094893523052129,33.29999999999992],[-15.120000000000061,33.28793075248265],[-15.16000000000006,33.26869959569919],[-15.178093338051843,33.25999999999992],[-15.20000000000006,33.249469302668636],[-15.240000000000059,33.23023910219139],[-15.26129594089575,33.21999999999992],[-15.280000000000058,33.21100914517014],[-15.320000000000057,33.19178000141545],[-15.344501796600442,33.17999999999992],[-15.360000000000056,33.172550478685785],[-15.400000000000055,33.1533224918165],[-15.427711368939285,33.139999999999915],[-15.440000000000053,33.13409350132605],[-15.480000000000054,33.114866771249574],[-15.51092512045704,33.09999999999992],[-15.520000000000053,33.09563841060937],[-15.560000000000052,33.076413036975836],[-15.594143512484717,33.059999999999924],[-15.600000000000051,33.05718540345848],[-15.64000000000005,33.037961485658954],[-15.67736700515431,33.019999999999925],[-15.680000000000048,33.0187346761969],[-15.720000000000049,32.99951231336152],[-15.760000000000048,32.9802865502039],[-15.760596193198436,32.979999999999926],[-15.800000000000049,32.961065715541515],[-15.840000000000046,32.941841652026014],[-15.84383200395446,32.93999999999993],[-15.880000000000047,32.92262188704877],[-15.920000000000044,32.90339962168565],[-15.927074297193013,32.89999999999993],[-15.960000000000043,32.884181022121574],[-16.000000000000043,32.86496065315421],[-16.010323528484953,32.85999999999993],[-16.040000000000042,32.84574331438316],[-16.08000000000004,32.82652493978646],[-16.093580152275862,32.81999999999993],[-16.12000000000004,32.807308956838526],[-16.16000000000004,32.78809267431702],[-16.176844621899633,32.77999999999993],[-16.20000000000004,32.76887814187098],[-16.240000000000038,32.74966404885738],[-16.26011738959295,32.73999999999993],[-16.280000000000037,32.730451061238945],[-16.320000000000036,32.71123925489236],[-16.343398906508426,32.69999999999993],[-16.360000000000035,32.69202790607271],[-16.400000000000034,32.67281848327711],[-16.426689622728745,32.65999999999993],[-16.440000000000033,32.65360886687131],[-16.480000000000032,32.63440192423391],[-16.509989987280058,32.61999999999993],[-16.52000000000003,32.615194133499415],[-16.56000000000003,32.59598976734905],[-16.593300448145406,32.579999999999934],[-16.60000000000003,32.57678389518422],[-16.64000000000003,32.55758220156987],[-16.676621452278233,32.539999999999935],[-16.680000000000028,32.538378340512494],[-16.720000000000027,32.51917941520171],[-16.75995344561538,32.499999999999936],[-16.76000000000003,32.499977657427515],[-16.800000000000026,32.48078159590498],[-16.840000000000025,32.4615827366155],[-16.843297671074993,32.45999999999994],[-16.880000000000024,32.44238893069216],[-16.920000000000023,32.42319307491091],[-16.926653795667004,32.41999999999994],[-16.960000000000022,32.40400160592516],[-17.00000000000002,32.38480884846451],[-17.010022251247886,32.37999999999994],[-17.04000000000002,32.3656198073123],[-17.08000000000002,32.34643024269672],[-17.093403479931034,32.33999999999994],[-17.12000000000002,32.32724371990567],[-17.160000000000018,32.308057442370306],[-17.17679792287977,32.29999999999994],[-17.200000000000017,32.28887352809849],[-17.240000000000016,32.2696906315876],[-17.260206020319682,32.25999999999994],[-17.280000000000015,32.25050941562223],[-17.320000000000014,32.231329993787966],[-17.34362821155156,32.21999999999994],[-17.360000000000014,32.21215156554419],[-17.400000000000013,32.19297571174523],[-17.42706493496386,32.17999999999994],[-17.440000000000012,32.17380016026497],[-17.48000000000001,32.15462796756505],[-17.510516628044634,32.139999999999944],[-17.52000000000001,32.13545538151567],[-17.56000000000001,32.11628694268246],[-17.593983727394235,32.099999999999945],[-17.60000000000001,32.09711741035576],[-17.640000000000008,32.07795281785944],[-17.67746666873736,32.059999999999945],[-17.680000000000007,32.058786427170475],[-17.720000000000006,32.03962577318251],[-17.760000000000005,32.020462819558176],[-17.760966131940375,32.019999999999946],[-17.800000000000004,32.00130598806033],[-17.840000000000003,31.98214710815031],[-17.844482957328275,31.979999999999947],[-17.880000000000003,31.962993641221452],[-17.92,31.94383892648753],[-17.928016938137773,31.939999999999948],[-17.96,31.924688910711986],[-18.0,31.90553845231303]]}}]}