{"type":"FeatureCollection","properties":{"largura_maxima_km":1305.248,"largura_sobre_pt_km":1115.522,"linha_central_sobre_pt":false,"desenhavel_como_area":true,"perfil_largura":[{"t":-0.83333,"lat":50.4522,"lon":-46.5539,"largura_km":null,"eixo_na_terra":false},{"t":-0.82778,"lat":50.0348,"lon":-45.8739,"largura_km":null,"eixo_na_terra":false},{"t":-0.82222,"lat":50.1031,"lon":-45.7396,"largura_km":null,"eixo_na_terra":false},{"t":-0.81667,"lat":50.1842,"lon":-45.6219,"largura_km":null,"eixo_na_terra":false},{"t":-0.81111,"lat":50.282,"lon":-45.5251,"largura_km":null,"eixo_na_terra":false},{"t":-0.80556,"lat":50.4067,"lon":-45.4611,"largura_km":null,"eixo_na_terra":false},{"t":-0.8,"lat":50.6187,"lon":-45.5018,"largura_km":null,"eixo_na_terra":false},{"t":-0.79444,"lat":50.1982,"lon":-44.8323,"largura_km":null,"eixo_na_terra":false},{"t":-0.78889,"lat":50.2988,"lon":-44.743,"largura_km":null,"eixo_na_terra":false},{"t":-0.78333,"lat":50.4141,"lon":-44.6723,"largura_km":null,"eixo_na_terra":false},{"t":-0.77778,"lat":50.5534,"lon":-44.6319,"largura_km":null,"eixo_na_terra":false},{"t":-0.77222,"lat":50.7534,"lon":-44.6666,"largura_km":null,"eixo_na_terra":false},{"t":-0.76667,"lat":49.9818,"lon":-43.42,"largura_km":null,"eixo_na_terra":false},{"t":-0.76111,"lat":50.0687,"lon":-43.312,"largura_km":null,"eixo_na_terra":false},{"t":-0.75556,"lat":50.1626,"lon":-43.2118,"largura_km":null,"eixo_na_terra":false},{"t":-0.75,"lat":50.268,"lon":-43.1242,"largura_km":null,"eixo_na_terra":false},{"t":-0.74444,"lat":50.3994,"lon":-43.0659,"largura_km":null,"eixo_na_terra":false},{"t":-0.73889,"lat":50.0726,"lon":-42.5159,"largura_km":null,"eixo_na_terra":false},{"t":-0.73333,"lat":50.1401,"lon":-42.3843,"largura_km":null,"eixo_na_terra":false},{"t":-0.72778,"lat":50.2067,"lon":-42.2513,"largura_km":null,"eixo_na_terra":false},{"t":-0.72222,"lat":50.2724,"lon":-42.117,"largura_km":null,"eixo_na_terra":false},{"t":-0.71667,"lat":50.3376,"lon":-41.9819,"largura_km":null,"eixo_na_terra":false},{"t":-0.71111,"lat":50.4043,"lon":-41.8482,"largura_km":null,"eixo_na_terra":false},{"t":-0.70556,"lat":50.4787,"lon":-41.7231,"largura_km":null,"eixo_na_terra":false},{"t":-0.7,"lat":50.1286,"lon":-41.147,"largura_km":null,"eixo_na_terra":false},{"t":-0.69444,"lat":50.4825,"lon":-41.4169,"largura_km":null,"eixo_na_terra":false},{"t":-0.68889,"lat":50.428,"lon":-41.1301,"largura_km":null,"eixo_na_terra":false},{"t":-0.68333,"lat":50.3792,"lon":-40.8562,"largura_km":null,"eixo_na_terra":false},{"t":-0.67778,"lat":50.3263,"lon":-40.5821,"largura_km":null,"eixo_na_terra":false},{"t":-0.67222,"lat":50.2663,"lon":-40.3037,"largura_km":null,"eixo_na_terra":false},{"t":-0.66667,"lat":50.1979,"lon":-40.0194,"largura_km":null,"eixo_na_terra":false},{"t":-0.66111,"lat":50.6447,"lon":-40.3334,"largura_km":null,"eixo_na_terra":false},{"t":-0.65556,"lat":50.4172,"lon":-39.8644,"largura_km":null,"eixo_na_terra":false},{"t":-0.65,"lat":50.2409,"lon":-39.4634,"largura_km":null,"eixo_na_terra":false},{"t":-0.64444,"lat":50.2296,"lon":-39.2667,"largura_km":null,"eixo_na_terra":false},{"t":-0.63889,"lat":50.3541,"lon":-39.2116,"largura_km":null,"eixo_na_terra":false},{"t":-0.63333,"lat":50.2139,"lon":-38.8453,"largura_km":null,"eixo_na_terra":false},{"t":-0.62778,"lat":50.2072,"lon":-38.6545,"largura_km":null,"eixo_na_terra":false},{"t":-0.62222,"lat":50.0204,"lon":-38.2596,"largura_km":null,"eixo_na_terra":false},{"t":-0.61667,"lat":47.4931,"lon":-35.5538,"largura_km":1305.248,"eixo_na_terra":true},{"t":-0.61111,"lat":47.4304,"lon":-35.3258,"largura_km":1239.492,"eixo_na_terra":true},{"t":-0.60556,"lat":47.3699,"lon":-35.1008,"largura_km":1208.443,"eixo_na_terra":true},{"t":-0.6,"lat":47.3114,"lon":-34.8787,"largura_km":1187.869,"eixo_na_terra":true},{"t":-0.59444,"lat":47.2548,"lon":-34.6595,"largura_km":1172.789,"eixo_na_terra":true},{"t":-0.58889,"lat":47.2001,"lon":-34.4429,"largura_km":1161.087,"eixo_na_terra":true},{"t":-0.58333,"lat":47.1473,"lon":-34.229,"largura_km":1151.844,"eixo_na_terra":true},{"t":-0.57778,"lat":47.0963,"lon":-34.0175,"largura_km":1144.259,"eixo_na_terra":true},{"t":-0.57222,"lat":47.0469,"lon":-33.8084,"largura_km":1138.084,"eixo_na_terra":true},{"t":-0.56667,"lat":46.9993,"lon":-33.6016,"largura_km":1132.916,"eixo_na_terra":true},{"t":-0.56111,"lat":46.9533,"lon":-33.397,"largura_km":1128.573,"eixo_na_terra":true},{"t":-0.55556,"lat":46.9089,"lon":-33.1946,"largura_km":1124.986,"eixo_na_terra":true},{"t":-0.55,"lat":46.8661,"lon":-32.9942,"largura_km":1121.944,"eixo_na_terra":true},{"t":-0.54444,"lat":46.8248,"lon":-32.7958,"largura_km":1119.363,"eixo_na_terra":true},{"t":-0.53889,"lat":46.7849,"lon":-32.5993,"largura_km":1117.174,"eixo_na_terra":true},{"t":-0.53333,"lat":46.7466,"lon":-32.4046,"largura_km":1115.383,"eixo_na_terra":true},{"t":-0.52778,"lat":46.7096,"lon":-32.2118,"largura_km":1113.896,"eixo_na_terra":true},{"t":-0.52222,"lat":46.674,"lon":-32.0206,"largura_km":1112.657,"eixo_na_terra":true},{"t":-0.51667,"lat":46.6397,"lon":-31.8312,"largura_km":1111.634,"eixo_na_terra":true},{"t":-0.51111,"lat":46.6068,"lon":-31.6433,"largura_km":1110.8,"eixo_na_terra":true},{"t":-0.50556,"lat":46.5752,"lon":-31.457,"largura_km":1110.136,"eixo_na_terra":true},{"t":-0.5,"lat":46.5449,"lon":-31.2722,"largura_km":1109.648,"eixo_na_terra":true},{"t":-0.49444,"lat":46.5158,"lon":-31.0889,"largura_km":1109.284,"eixo_na_terra":true},{"t":-0.48889,"lat":46.4879,"lon":-30.907,"largura_km":1109.047,"eixo_na_terra":true},{"t":-0.48333,"lat":46.4613,"lon":-30.7265,"largura_km":1108.904,"eixo_na_terra":true},{"t":-0.47778,"lat":46.4358,"lon":-30.5473,"largura_km":1108.845,"eixo_na_terra":true},{"t":-0.47222,"lat":46.4115,"lon":-30.3694,"largura_km":1108.858,"eixo_na_terra":true},{"t":-0.46667,"lat":46.3883,"lon":-30.1927,"largura_km":1108.934,"eixo_na_terra":true},{"t":-0.46111,"lat":46.3663,"lon":-30.0172,"largura_km":1109.063,"eixo_na_terra":true},{"t":-0.45556,"lat":46.3453,"lon":-29.8429,"largura_km":1109.239,"eixo_na_terra":true},{"t":-0.45,"lat":46.3255,"lon":-29.6698,"largura_km":1109.463,"eixo_na_terra":true},{"t":-0.44444,"lat":46.3067,"lon":-29.4977,"largura_km":1109.743,"eixo_na_terra":true},{"t":-0.43889,"lat":46.289,"lon":-29.3267,"largura_km":1110.049,"eixo_na_terra":true},{"t":-0.43333,"lat":46.2723,"lon":-29.1568,"largura_km":1110.374,"eixo_na_terra":true},{"t":-0.42778,"lat":46.2567,"lon":-28.9878,"largura_km":1110.714,"eixo_na_terra":true},{"t":-0.42222,"lat":46.242,"lon":-28.8198,"largura_km":1111.064,"eixo_na_terra":true},{"t":-0.41667,"lat":46.2284,"lon":-28.6528,"largura_km":1111.42,"eixo_na_terra":true},{"t":-0.41111,"lat":46.2158,"lon":-28.4867,"largura_km":1111.778,"eixo_na_terra":true},{"t":-0.40556,"lat":46.2042,"lon":-28.3215,"largura_km":1112.135,"eixo_na_terra":true},{"t":-0.4,"lat":46.1935,"lon":-28.1571,"largura_km":1112.502,"eixo_na_terra":true},{"t":-0.39444,"lat":46.1838,"lon":-27.9936,"largura_km":1112.861,"eixo_na_terra":true},{"t":-0.38889,"lat":46.175,"lon":-27.8308,"largura_km":1113.209,"eixo_na_terra":true},{"t":-0.38333,"lat":46.1672,"lon":-27.6689,"largura_km":1113.545,"eixo_na_terra":true},{"t":-0.37778,"lat":46.1603,"lon":-27.5077,"largura_km":1113.864,"eixo_na_terra":true},{"t":-0.37222,"lat":46.1543,"lon":-27.3473,"largura_km":1114.165,"eixo_na_terra":true},{"t":-0.36667,"lat":46.1492,"lon":-27.1876,"largura_km":1114.445,"eixo_na_terra":true},{"t":-0.36111,"lat":46.145,"lon":-27.0285,"largura_km":1114.704,"eixo_na_terra":true},{"t":-0.35556,"lat":46.1417,"lon":-26.8702,"largura_km":1114.938,"eixo_na_terra":true},{"t":-0.35,"lat":46.1393,"lon":-26.7124,"largura_km":1115.16,"eixo_na_terra":true},{"t":-0.34444,"lat":46.1378,"lon":-26.5553,"largura_km":1115.355,"eixo_na_terra":true},{"t":-0.33889,"lat":46.1372,"lon":-26.3989,"largura_km":1115.522,"eixo_na_terra":true},{"t":-0.33333,"lat":46.1374,"lon":-26.243,"largura_km":1115.657,"eixo_na_terra":true},{"t":-0.32778,"lat":46.1385,"lon":-26.0876,"largura_km":1115.761,"eixo_na_terra":true},{"t":-0.32222,"lat":46.1404,"lon":-25.9329,"largura_km":1115.832,"eixo_na_terra":true},{"t":-0.31667,"lat":46.1432,"lon":-25.7786,"largura_km":1115.87,"eixo_na_terra":true},{"t":-0.31111,"lat":46.1468,"lon":-25.6249,"largura_km":1115.872,"eixo_na_terra":true},{"t":-0.30556,"lat":46.1513,"lon":-25.4716,"largura_km":1115.839,"eixo_na_terra":true},{"t":-0.3,"lat":46.1566,"lon":-25.3189,"largura_km":1115.78,"eixo_na_terra":true},{"t":-0.29444,"lat":46.1627,"lon":-25.1665,"largura_km":1115.69,"eixo_na_terra":true},{"t":-0.28889,"lat":46.1697,"lon":-25.0147,"largura_km":1115.562,"eixo_na_terra":true},{"t":-0.28333,"lat":46.1775,"lon":-24.8632,"largura_km":1115.396,"eixo_na_terra":true},{"t":-0.27778,"lat":46.1861,"lon":-24.7122,"largura_km":1115.19,"eixo_na_terra":true},{"t":-0.27222,"lat":46.1955,"lon":-24.5615,"largura_km":1114.944,"eixo_na_terra":true},{"t":-0.26667,"lat":46.2057,"lon":-24.4113,"largura_km":1114.659,"eixo_na_terra":true},{"t":-0.26111,"lat":46.2167,"lon":-24.2613,"largura_km":1114.333,"eixo_na_terra":true},{"t":-0.25556,"lat":46.2285,"lon":-24.1118,"largura_km":1113.967,"eixo_na_terra":true},{"t":-0.25,"lat":46.2411,"lon":-23.9625,"largura_km":1113.56,"eixo_na_terra":true},{"t":-0.24444,"lat":46.2546,"lon":-23.8136,"largura_km":1113.119,"eixo_na_terra":true},{"t":-0.23889,"lat":46.2688,"lon":-23.6649,"largura_km":1112.644,"eixo_na_terra":true},{"t":-0.23333,"lat":46.2838,"lon":-23.5166,"largura_km":1112.128,"eixo_na_terra":true},{"t":-0.22778,"lat":46.2996,"lon":-23.3685,"largura_km":1111.571,"eixo_na_terra":true},{"t":-0.22222,"lat":46.3162,"lon":-23.2207,"largura_km":1110.974,"eixo_na_terra":true},{"t":-0.21667,"lat":46.3336,"lon":-23.0731,"largura_km":1110.337,"eixo_na_terra":true},{"t":-0.21111,"lat":46.3518,"lon":-22.9257,"largura_km":1109.659,"eixo_na_terra":true},{"t":-0.20556,"lat":46.3708,"lon":-22.7785,"largura_km":1108.941,"eixo_na_terra":true},{"t":-0.2,"lat":46.3905,"lon":-22.6316,"largura_km":1108.183,"eixo_na_terra":true},{"t":-0.19444,"lat":46.4111,"lon":-22.4848,"largura_km":1107.387,"eixo_na_terra":true},{"t":-0.18889,"lat":46.4324,"lon":-22.3381,"largura_km":1106.553,"eixo_na_terra":true},{"t":-0.18333,"lat":46.4546,"lon":-22.1917,"largura_km":1105.692,"eixo_na_terra":true},{"t":-0.17778,"lat":46.4775,"lon":-22.0453,"largura_km":1104.793,"eixo_na_terra":true},{"t":-0.17222,"lat":46.5012,"lon":-21.8991,"largura_km":1103.857,"eixo_na_terra":true},{"t":-0.16667,"lat":46.5257,"lon":-21.753,"largura_km":1102.884,"eixo_na_terra":true},{"t":-0.16111,"lat":46.5509,"lon":-21.607,"largura_km":1101.875,"eixo_na_terra":true},{"t":-0.15556,"lat":46.577,"lon":-21.4611,"largura_km":1100.831,"eixo_na_terra":true},{"t":-0.15,"lat":46.6039,"lon":-21.3153,"largura_km":1099.751,"eixo_na_terra":true},{"t":-0.14444,"lat":46.6315,"lon":-21.1695,"largura_km":1098.638,"eixo_na_terra":true},{"t":-0.13889,"lat":46.66,"lon":-21.0238,"largura_km":1097.492,"eixo_na_terra":true},{"t":-0.13333,"lat":46.6892,"lon":-20.878,"largura_km":1096.313,"eixo_na_terra":true},{"t":-0.12778,"lat":46.7192,"lon":-20.7323,"largura_km":1095.109,"eixo_na_terra":true},{"t":-0.12222,"lat":46.7501,"lon":-20.5866,"largura_km":1093.88,"eixo_na_terra":true},{"t":-0.11667,"lat":46.7817,"lon":-20.4409,"largura_km":1092.621,"eixo_na_terra":true},{"t":-0.11111,"lat":46.8142,"lon":-20.2952,"largura_km":1091.334,"eixo_na_terra":true},{"t":-0.10556,"lat":46.8474,"lon":-20.1494,"largura_km":1090.018,"eixo_na_terra":true},{"t":-0.1,"lat":46.8815,"lon":-20.0036,"largura_km":1088.676,"eixo_na_terra":true},{"t":-0.09444,"lat":46.9164,"lon":-19.8577,"largura_km":1087.308,"eixo_na_terra":true},{"t":-0.08889,"lat":46.9521,"lon":-19.7117,"largura_km":1085.915,"eixo_na_terra":true},{"t":-0.08333,"lat":46.9886,"lon":-19.5657,"largura_km":1084.498,"eixo_na_terra":true},{"t":-0.07778,"lat":47.026,"lon":-19.4195,"largura_km":1083.059,"eixo_na_terra":true},{"t":-0.07222,"lat":47.0641,"lon":-19.2732,"largura_km":1081.598,"eixo_na_terra":true},{"t":-0.06667,"lat":47.1031,"lon":-19.1267,"largura_km":1080.126,"eixo_na_terra":true},{"t":-0.06111,"lat":47.143,"lon":-18.9801,"largura_km":1078.638,"eixo_na_terra":true},{"t":-0.05556,"lat":47.1837,"lon":-18.8334,"largura_km":1077.132,"eixo_na_terra":true},{"t":-0.05,"lat":47.2252,"lon":-18.6864,"largura_km":1075.61,"eixo_na_terra":true},{"t":-0.04444,"lat":47.2676,"lon":-18.5393,"largura_km":1074.072,"eixo_na_terra":true},{"t":-0.03889,"lat":47.3109,"lon":-18.3919,"largura_km":1072.52,"eixo_na_terra":true},{"t":-0.03333,"lat":47.355,"lon":-18.2444,"largura_km":1070.956,"eixo_na_terra":true},{"t":-0.02778,"lat":47.4,"lon":-18.0965,"largura_km":1069.38,"eixo_na_terra":true},{"t":-0.02222,"lat":47.4459,"lon":-17.9485,"largura_km":1067.795,"eixo_na_terra":true},{"t":-0.01667,"lat":47.4926,"lon":-17.8001,"largura_km":1066.201,"eixo_na_terra":true},{"t":-0.01111,"lat":47.5403,"lon":-17.6515,"largura_km":1064.601,"eixo_na_terra":true},{"t":-0.00556,"lat":47.5888,"lon":-17.5025,"largura_km":1063.007,"eixo_na_terra":true},{"t":-0.0,"lat":47.6383,"lon":-17.3532,"largura_km":1061.409,"eixo_na_terra":true},{"t":0.00556,"lat":47.6887,"lon":-17.2036,"largura_km":1059.809,"eixo_na_terra":true},{"t":0.01111,"lat":47.74,"lon":-17.0537,"largura_km":1058.209,"eixo_na_terra":true},{"t":0.01667,"lat":47.7922,"lon":-16.9033,"largura_km":1056.609,"eixo_na_terra":true},{"t":0.02222,"lat":47.8454,"lon":-16.7526,"largura_km":1055.013,"eixo_na_terra":true},{"t":0.02778,"lat":47.8995,"lon":-16.6015,"largura_km":1053.421,"eixo_na_terra":true},{"t":0.03333,"lat":47.9546,"lon":-16.4499,"largura_km":1051.836,"eixo_na_terra":true},{"t":0.03889,"lat":48.0106,"lon":-16.2979,"largura_km":1050.26,"eixo_na_terra":true},{"t":0.04444,"lat":48.0677,"lon":-16.1454,"largura_km":1048.703,"eixo_na_terra":true},{"t":0.05,"lat":48.1257,"lon":-15.9925,"largura_km":1047.165,"eixo_na_terra":true},{"t":0.05556,"lat":48.1847,"lon":-15.839,"largura_km":1045.649,"eixo_na_terra":true},{"t":0.06111,"lat":48.2448,"lon":-15.685,"largura_km":1044.151,"eixo_na_terra":true},{"t":0.06667,"lat":48.3059,"lon":-15.5305,"largura_km":1042.672,"eixo_na_terra":true},{"t":0.07222,"lat":48.368,"lon":-15.3754,"largura_km":1041.216,"eixo_na_terra":true},{"t":0.07778,"lat":48.4312,"lon":-15.2197,"largura_km":1039.785,"eixo_na_terra":true},{"t":0.08333,"lat":48.4954,"lon":-15.0634,"largura_km":1038.382,"eixo_na_terra":true},{"t":0.08889,"lat":48.5607,"lon":-14.9065,"largura_km":1037.009,"eixo_na_terra":true},{"t":0.09444,"lat":48.6272,"lon":-14.7489,"largura_km":1035.671,"eixo_na_terra":true},{"t":0.1,"lat":48.6947,"lon":-14.5906,"largura_km":1034.369,"eixo_na_terra":true},{"t":0.10556,"lat":48.7634,"lon":-14.4316,"largura_km":1033.111,"eixo_na_terra":true},{"t":0.11111,"lat":48.8332,"lon":-14.2719,"largura_km":1031.907,"eixo_na_terra":true},{"t":0.11667,"lat":48.9042,"lon":-14.1115,"largura_km":1030.751,"eixo_na_terra":true},{"t":0.12222,"lat":48.9764,"lon":-13.9502,"largura_km":1029.647,"eixo_na_terra":true},{"t":0.12778,"lat":49.0498,"lon":-13.7882,"largura_km":1028.605,"eixo_na_terra":true},{"t":0.13333,"lat":49.1244,"lon":-13.6253,"largura_km":1027.642,"eixo_na_terra":true},{"t":0.13889,"lat":49.2002,"lon":-13.4615,"largura_km":1026.749,"eixo_na_terra":true},{"t":0.14444,"lat":49.2773,"lon":-13.2968,"largura_km":1025.93,"eixo_na_terra":true},{"t":0.15,"lat":49.3557,"lon":-13.1312,"largura_km":1025.193,"eixo_na_terra":true},{"t":0.15556,"lat":49.4354,"lon":-12.9647,"largura_km":1024.544,"eixo_na_terra":true},{"t":0.16111,"lat":49.5165,"lon":-12.7971,"largura_km":1024.003,"eixo_na_terra":true},{"t":0.16667,"lat":49.5989,"lon":-12.6285,"largura_km":1023.569,"eixo_na_terra":true},{"t":0.17222,"lat":49.6827,"lon":-12.4589,"largura_km":1023.251,"eixo_na_terra":true},{"t":0.17778,"lat":49.7679,"lon":-12.2881,"largura_km":1023.081,"eixo_na_terra":true},{"t":0.18333,"lat":49.8546,"lon":-12.1162,"largura_km":1023.067,"eixo_na_terra":true},{"t":0.18889,"lat":49.9428,"lon":-11.9431,"largura_km":1023.208,"eixo_na_terra":true},{"t":0.3,"lat":54.9264,"lon":-7.1001,"largura_km":null,"eixo_na_terra":false},{"t":0.30556,"lat":55.1106,"lon":-6.8361,"largura_km":null,"eixo_na_terra":false},{"t":0.31111,"lat":55.4022,"lon":-6.5178,"largura_km":null,"eixo_na_terra":false},{"t":0.31667,"lat":55.5509,"lon":-6.2567,"largura_km":null,"eixo_na_terra":false},{"t":0.32222,"lat":55.5524,"lon":-6.0609,"largura_km":null,"eixo_na_terra":false},{"t":0.32778,"lat":55.6705,"lon":-5.8254,"largura_km":null,"eixo_na_terra":false},{"t":0.33333,"lat":56.0194,"lon":-5.4635,"largura_km":null,"eixo_na_terra":false},{"t":0.33889,"lat":55.7005,"lon":-5.4158,"largura_km":null,"eixo_na_terra":false},{"t":0.34444,"lat":55.8884,"lon":-5.1237,"largura_km":null,"eixo_na_terra":false},{"t":0.35,"lat":56.073,"lon":-4.8267,"largura_km":null,"eixo_na_terra":false},{"t":0.35556,"lat":56.2607,"lon":-4.5196,"largura_km":null,"eixo_na_terra":false},{"t":0.36111,"lat":56.5215,"lon":-4.1538,"largura_km":null,"eixo_na_terra":false},{"t":0.36667,"lat":56.1412,"lon":-4.216,"largura_km":null,"eixo_na_terra":false},{"t":0.37222,"lat":56.2143,"lon":-3.9713,"largura_km":null,"eixo_na_terra":false},{"t":0.37778,"lat":56.2723,"lon":-3.7324,"largura_km":null,"eixo_na_terra":false},{"t":0.38333,"lat":56.3169,"lon":-3.4988,"largura_km":null,"eixo_na_terra":false},{"t":0.38889,"lat":56.3496,"lon":-3.2705,"largura_km":null,"eixo_na_terra":false},{"t":0.39444,"lat":56.3719,"lon":-3.0472,"largura_km":null,"eixo_na_terra":false},{"t":0.4,"lat":56.8722,"lon":-2.6114,"largura_km":null,"eixo_na_terra":false},{"t":0.40556,"lat":56.795,"lon":-2.4357,"largura_km":null,"eixo_na_terra":false},{"t":0.41111,"lat":56.748,"lon":-2.2467,"largura_km":null,"eixo_na_terra":false},{"t":0.41667,"lat":56.709,"lon":-2.055,"largura_km":null,"eixo_na_terra":false},{"t":0.42222,"lat":56.6728,"lon":-1.863,"largura_km":null,"eixo_na_terra":false},{"t":0.42778,"lat":56.6379,"lon":-1.6712,"largura_km":null,"eixo_na_terra":false},{"t":0.43333,"lat":57.1424,"lon":-1.2236,"largura_km":null,"eixo_na_terra":false},{"t":0.43889,"lat":56.9938,"lon":-1.0913,"largura_km":null,"eixo_na_terra":false},{"t":0.44444,"lat":56.9071,"lon":-0.9278,"largura_km":null,"eixo_na_terra":false},{"t":0.45,"lat":56.8408,"lon":-0.7543,"largura_km":null,"eixo_na_terra":false},{"t":0.45556,"lat":56.7861,"lon":-0.5751,"largura_km":null,"eixo_na_terra":false},{"t":0.46111,"lat":57.4111,"lon":-0.0486,"largura_km":null,"eixo_na_terra":false},{"t":0.46667,"lat":57.1592,"lon":0.0219,"largura_km":null,"eixo_na_terra":false}]},"features":[{"type":"Feature","properties":{},"geometry":{"type":"Polygon","coordinates":[[[-41.26278675682723,45.081964279305794],[-41.43588459534544,45.14388875699879],[-41.59095618879044,45.20526722102676],[-41.75342507377809,45.27447669793606],[-41.92343683495483,45.35162720975253],[-42.10116320444797,45.43684076871599],[-42.28680522808523,45.53025309796923],[-42.480597029647384,45.63201568237086],[-42.68281030805289,45.74229822321688],[-42.89375974088205,45.861291591651984],[-43.11380951925591,45.98921140367035],[-43.34338130908276,46.126302377713365],[-43.582964029896914,46.27284368821228],[-43.833125976658266,46.42915560134583],[-44.09452999985098,46.59560778247447],[-44.36795273290281,46.772629813269],[-44.654309257758854,46.96072467449392],[-45.27037918470276,47.372622623716396],[-45.95434519826341,47.83762067521469],[-47.606360377320954,48.970535371361095],[-48.10436562103041,49.31003206586415],[-48.6523471056727,49.680690033919355],[-49.26518662215477,50.09056369328721],[-49.96713550763775,50.55276465375559],[-50.802845710333884,51.09139781749308],[-51.87427415460709,51.761390438120905],[-53.58225344307414,52.77805766376597],[-53.48728684226548,52.87698678011076],[-53.50221238345034,52.88591625138222],[-53.468227528769766,52.89684135030927],[-53.390709435693964,52.97759391366756],[-53.439077272411026,53.00666048762694],[-53.32159870605017,53.04958831333425],[-53.29253472720325,53.079864997139985],[-53.39147058420684,53.13955171703717],[-53.23099999078497,53.20693237705189],[-53.35852822053707,53.28412261444439],[-53.206452031398165,53.3591901996789],[-53.339880107024314,53.4401700522699],[-53.200303229889506,53.525438025474045],[-53.33571911700477,53.60779616647888],[-53.22452364770516,53.71292528265691],[-53.347004357286494,53.787523738930474],[-53.14219370308094,53.838095534959805],[-53.3759350760657,53.980562121234236],[-53.17543066264762,54.03607243271063],[-53.4271055779879,54.189452466740185],[-53.2327963126315,54.25068161715076],[-53.51086755478839,54.41994181987119],[-53.3267193449351,54.488140074141015],[-53.65768178232712,54.688967309892284],[-50.94095327756624,56.00537862120434],[-51.454494488249225,56.342943937939964],[-50.35554039254164,56.42538898144534],[-50.220423909564545,56.55313408226589],[-50.05455152907417,56.44796957879707],[-50.022617117193256,56.45036534217529],[-49.55985605043379,56.67459971143576],[-49.965058604917516,56.95745603397577],[-48.99731933186106,57.53203059442307],[-49.226779839944925,57.69687479237401],[-48.489597089436685,57.83347985084203],[-48.41405268594681,57.87833272975058],[-48.5737382051673,57.99792496047215],[-48.20086180275833,58.18042969541263],[-48.5752729487067,58.45879994146068],[-47.81633779143141,58.3686353644013],[-47.24813683028639,58.64674190355676],[-47.239261352483766,58.672002959513875],[-47.22051800223793,58.66025996707536],[-47.2065380381739,58.66710247472535],[-45.94655327660786,57.893045634217174],[-45.67501073620768,57.72990899922612],[-44.64264160602494,57.14130556541978],[-44.135657415075855,56.848408309639815],[-43.65502446448238,56.56664241047973],[-43.194920536313674,56.29232692280692],[-42.75182162194801,56.0232682472181],[-42.48637196122256,55.85893912516827],[-41.960902827527946,55.62077386918345],[-41.42845489451793,55.36747268095905],[-40.93478126392486,55.13930963696821],[-40.40473639943406,54.922899825003135],[-39.970577064929955,54.733490173342624],[-39.49123403312743,54.548873300841166],[-39.09914075577319,54.387117982616616],[-38.72300224553635,54.23594606791721],[-38.36095766940002,54.09417537466736],[-37.948533986661545,53.952682831150504],[-37.611708629833856,53.82788821510111],[-37.28497154138026,53.70996100583229],[-36.967420842774516,53.59833231924017],[-36.65827822485295,53.49251224930017],[-36.356866323420974,53.39207538548769],[-36.004038349554946,53.29027537261591],[-35.71726788194371,53.200171009032836],[-35.43658255085151,53.11442286105354],[-35.161572543994566,53.03277630605781],[-34.89186967019731,52.9550033025511],[-34.62714159784062,52.88089871309496],[-34.36708707995143,52.81027725867654],[-34.11143196673066,52.74297097685456],[-33.61233923569819,52.617706175441604],[-33.31501026018884,52.55576780387397],[-33.07516590009851,52.500741705441094],[-32.60523408583572,52.398558081410364],[-32.14726821042805,52.30624855446109],[-31.922420493452222,52.263590351714974],[-31.48036942625663,52.18490500111677],[-31.262938514848457,52.14874786817953],[-30.834746328567633,52.08251186585274],[-30.623794611172542,52.05232726833959],[-30.207741710471765,51.99758554465457],[-30.002478722822246,51.97294163334528],[-29.59710476823244,51.928910572467686],[-29.396854445661262,51.909451731616834],[-29.00090217429363,51.87548422787618],[-28.61061354980305,51.84792179486936],[-28.225541660737576,51.82655427114175],[-28.03483184398374,51.81813474980113],[-27.42324114912944,51.80436422386052],[-27.237019973932405,51.80199571555817],[-26.8674356943294,51.80146422353865],[-26.683992122190574,51.803272315387794],[-26.319609678884405,51.81097125766183],[-25.958322469772952,51.82403811561135],[-25.5998502338052,51.84239410240773],[-25.243925825170777,51.86597349550626],[-25.066838730919955,51.8797048178988],[-24.71425964939519,51.91102287772044],[-24.363606991955294,51.94745266433153],[-24.188929742979184,51.96757623266926],[-23.840730430274704,52.011630172103004],[-23.493884865334763,52.060753495540546],[-23.320900918132168,52.0872162435508],[-22.975675188161063,52.14394973048658],[-22.803379777855667,52.1742247448958],[-22.459290853596286,52.238606902154345],[-22.115694833569904,52.30812705296728],[-21.944015708518265,52.3448270781919],[-21.600763248694875,52.42213944311492],[-21.429136948033488,52.46276686658113],[-21.08575097504027,52.54800737621165],[-20.742007656677146,52.63862851926983],[-20.56993386952189,52.685984700814096],[-20.225243422713277,52.7848512896253],[-19.879640386428605,52.88935112618583],[-19.706424360644945,52.943752364358964],[-19.35901462588032,53.0569438674157],[-19.010096672935447,53.17611506706866],[-18.834993014554044,53.23799523176201],[-18.48333186722178,53.36645988304542],[-18.12950337625614,53.50136635510783],[-17.77321962624245,53.642938773239024],[-17.41417538695501,53.79142762172016],[-17.052045334636745,53.9471130276887],[-16.82277422531348,54.04341447925976],[-16.45497934446621,54.21121304295238],[-16.26958972431308,54.29812144516997],[-15.895564098062977,54.47821407488607],[-15.516832362792996,54.66705654579295],[-15.32554978049015,54.764916291431845],[-14.938819793943338,54.96786472862614],[-14.546051965088566,55.18097885766742],[-14.146604094961873,55.40497269031509],[-13.944152514357882,55.52130217485876],[-13.688477799735097,55.66091248636644],[-13.272606725419024,55.9104333547763],[-12.847468766330735,56.17384995339584],[-12.63108352633057,56.31118218587092],[-12.189895650725475,56.59806043279262],[-11.96473630780568,56.74805142040278],[-11.68081610742692,56.926302984667075],[-11.448183577611786,57.086838770813394],[-11.211722577186379,57.25274071178776],[-11.809785129735928,45.25734046342116],[-12.255380261817805,45.05333526344736],[-12.54893687038438,44.92185307766614],[-12.733835490284179,44.83694736596241],[-12.878826814171788,44.773570837691],[-13.166978736803031,44.64936687987302],[-13.452804093744248,44.528495664900454],[-14.195857539131794,44.222843920370465],[-14.474312817425073,44.11337880120681],[-14.888723071554608,43.95483290808143],[-15.299529065791432,43.80290611307635],[-15.608486203717945,43.69030280291032],[-15.74390940678623,43.64265120599039],[-16.14828852722036,43.50386654014329],[-16.550074246879177,43.371232533592604],[-17.11855943651136,43.19143221911102],[-17.383234460492133,43.111861316847445],[-17.77885258524907,42.997337109524466],[-18.173038284739675,42.8885342559671],[-18.60204255914391,42.77551810450267],[-18.99406217120304,42.67826246592494],[-19.385442921661564,42.58652000364259],[-19.77643521091497,42.50024198418508],[-20.20326361344553,42.41199425076369],[-20.594204843659696,42.336843691379286],[-20.985512327285107,42.2670606924173],[-21.24670887731739,42.22351319556985],[-21.413690200059534,42.19733971559897],[-21.80651083304815,42.13856152307367],[-22.200455771138593,42.08513180394314],[-22.595778054463835,42.03706121383682],[-23.02957939960899,41.99147874017332],[-23.428551186938876,41.95450027511375],[-23.829706492133056,41.922966177885144],[-23.963957877719395,41.91367236400797],[-24.54163681827751,41.8820788779104],[-24.950192897577722,41.865636495504226],[-25.2243602570193,41.85781772876379],[-25.816212909150465,41.851457286968774],[-26.235820299687475,41.85262057820501],[-26.517922547467748,41.85670119059606],[-26.984900496788555,41.87163921453898],[-27.417154609486516,41.889354262122275],[-27.85477304150055,41.91340395848118],[-28.043270418513117,41.92874037918892],[-28.339843563440752,41.95010840518406],[-28.63921817777529,41.97445433294259],[-28.941542490317943,42.00183876254052],[-29.136822872083513,42.02479417347948],[-29.599183835803984,42.07454444544898],[-30.069334810126435,42.13162511115158],[-30.272766616641206,42.162790267114524],[-30.754973347543284,42.23059930890854],[-31.246586476593023,42.306470547300414],[-31.459848338979896,42.34661574440185],[-31.796113124233784,42.40416392374335],[-32.137321568699406,42.46565584220275],[-32.35914667718848,42.5132588194453],[-32.546057336848044,42.549283805388626],[-32.635214622623636,42.55619706010576],[-32.72538106423997,42.56845120365936],[-32.818586039404295,42.586092514993815],[-32.887773044792745,42.6026619980492],[-32.99692734684402,42.62285260801592],[-33.069324002482794,42.640401033793204],[-33.17678248673164,42.66073355849781],[-33.25244583147796,42.67929443006287],[-33.35819686783245,42.6997578304031],[-33.437186408513,42.7193659045182],[-33.54121778622215,42.73994889955383],[-33.623595644041146,42.760640262689286],[-33.725894541854245,42.78133131427278],[-33.81172561039966,42.8031434645813],[-33.91227856441503,42.823930760868066],[-34.001630680413484,42.84690269671056],[-34.100423549388694,42.86777413443913],[-34.1949760513081,42.892364745718695],[-34.290385605365486,42.912889615541125],[-34.39150227624146,42.93949004618976],[-34.4822234137518,42.959306753308304],[-34.58744781128721,42.98741897764406],[-34.675998402183296,43.00705655571333],[-34.78504413613622,43.036646869701514],[-34.87177493310887,43.05617158772328],[-34.9847277460546,43.08728878855513],[-35.06962050920063,43.106686078212014],[-35.18657046624047,43.13938120672463],[-35.26960599746286,43.158636036600655],[-35.39064779287469,43.19296253724292],[-35.47180587416568,43.212059380329244],[-35.597039166962304,43.24807327611479],[-35.67629849301835,43.26699607441205],[-35.805828274820435,43.304756158622865],[-35.88316637933687,43.3234882845055],[-36.01710337846263,43.363056331163584],[-36.09249655335367,43.38158054512134],[-36.23095767958081,43.42302154053459],[-36.304380886277585,43.44131994485542],[-36.44748972141345,43.484702342893065],[-36.5189164932527,43.502756330783015],[-36.63139360407541,43.53616950658182],[-36.666803833422016,43.548152334936944],[-36.73620616799931,43.56594253449984],[-36.84987559967564,43.600074249534266],[-36.88901062449474,43.613428410269634],[-36.956358864670676,43.63093462267673],[-37.07126821905095,43.6658095363322],[-37.11422753129977,43.680591044379526],[-37.17949023334887,43.69779217545553],[-37.2956901039575,43.73343651546168],[-37.34257942952165,43.74970461223795],[-37.40572321666025,43.7665785965622],[-37.52326746026074,43.803020300240625],[-37.574199317024174,43.82083774319683],[-37.63518871625726,43.83736145966684],[-37.75413475683564,43.874630332004536],[-37.809229079549894,43.894063718679725],[-37.868026339430145,43.91021289630609],[-37.98843550945185,43.9483407873695],[-38.04782035149393,43.969460919151345],[-38.1043852379421,43.98521003162958],[-38.22632316262184,44.02423103629228],[-38.290135486568225,44.04711332803457],[-38.34442505340036,44.062435475379424],[-38.4679620847958,44.10238615889056],[-38.53634865600201,44.12711110170229],[-38.5883169861732,44.141977876907085],[-38.71352869522747,44.18289753050723],[-38.78664709538,44.209551216455836],[-38.83624500817041,44.223932554741374],[-38.9632127444398,44.26586348636642],[-39.0412325254451,44.29453820558911],[-39.08840724387156,44.308402213324506],[-39.217218774668595,44.351390079468466],[-39.30032277747219,44.382185002361446],[-39.34501754902675,44.39549776213673],[-39.47576779218792,44.43959194822663],[-39.56415366040678,44.47261390810197],[-39.60630732273262,44.48533925567637],[-39.739099190325106,44.53059331391707],[-39.83298111518809,44.56595770892089],[-39.87252759646617,44.57805697683172],[-40.00747297066101,44.62452913250112],[-40.107083712141936,44.66236096990211],[-40.14395145361124,44.673792691323264],[-40.28117232092242,44.72154643106784],[-40.38676556065897,44.7619815425304],[-40.56050662214028,44.82180586641064],[-40.67235971747268,44.864992329934616],[-40.845814975766274,44.925483552608384],[-40.964232202066036,44.97158336598732],[-41.13747036498404,45.03277321663838],[-41.26278675682723,45.081964279305794]]]}},{"type":"Feature","properties":{},"geometry":{"type":"Polygon","coordinates":[[[-8.122124999543944,47.131692293522754],[-8.16244007547698,47.107190956924086],[-8.25367756749418,47.05712722978355],[-8.297027538199197,47.03593303374995],[-8.33561657268831,47.01256714338125],[-8.426214525753664,46.96308728741177],[-8.470491928959268,46.94156627955625],[-8.507370328760317,46.91931903409305],[-8.59734764241233,46.87040951530999],[-8.64256221138737,46.848562051150054],[-8.677744670329815,46.8274171473223],[-8.767119483052568,46.77906499403438],[-8.855789837981092,46.73647252214377],[-8.943692837212893,46.699648810198696],[-9.030764878221163,46.668601086949494],[-9.116941684382908,46.643334727178804],[-9.202158335108379,46.623853248438486],[-9.286349295543744,46.61015830869741],[-9.369448445815976,46.60224970490355],[-9.451389109789034,46.60012537246147],[-9.532104083298634,46.60378138562603],[-9.611525661832303,46.61321195881063],[-9.68958566762089,46.62840944880788],[-9.76621547610651,46.649364357918344],[-9.841346041752132,46.6760653379824],[-9.914907923157699,46.70849919530839],[-9.986831307447034,46.74665089648894],[-10.057046033890543,46.79050357509638],[-10.125481616728308,46.84003853924656],[-10.192067267159132,46.89523528001936],[-10.256731914460403,46.95607148072316],[-10.31940422620579,47.02252302698922],[-10.380012627547075,47.09456401768078],[-10.438485319527615,47.17216677660177],[-10.49475029639649,47.255301864987445],[-10.548735361892057,47.34393809476029],[-10.600368144466103,47.43804254253297],[-10.649576111419549,47.53758056433927],[-10.696286581923061,47.64251581107476],[-10.740426738896133,47.75281024462729],[-10.781923639720446,47.86842415467812],[-10.82070422576379,47.989316176154375],[-10.856695330692418,48.11544330731329],[-10.889823687551939,48.2467609284394],[-10.920015934596336,48.383222821136286],[-10.947198619848194,48.52478118819504],[-10.971298204372715,48.67138667402277],[-10.992241064250578,48.82298838561506],[-11.009953491235422,48.979533914058784],[-11.024361692082607,49.14096935655222],[-11.035391786537417,49.30723933893222],[-11.042969803971687,49.478287038700195],[-11.047021678657956,49.65405420854178],[-11.047473243671561,49.83448120033804],[-11.044250223410984,50.019506989670155],[-11.037278224726577,50.20906920082359],[-11.02648272664797,50.40310413230329],[-11.011789068698988,50.6015467828773],[-10.993122437788543,50.80433087817307],[-10.970407853662977,51.01138889785828],[-10.943570152903959,51.22265210344951],[-10.912533971451296,51.43805056679954],[-10.877223725626493,51.65751319933167],[-10.837563591626434,51.880967782100406],[-10.793477483448726,52.10834099677964],[-10.744889029201715,52.33955845769875],[-10.691721545739085,52.574544745074405],[-10.633898011544261,52.81322343961667],[-10.571341037771163,53.05551715872479],[-10.503972837323602,53.30134759453532],[-10.431715191826186,53.5506355541389],[-10.35448941630213,53.80330100235131],[-10.272216321325772,54.05926310750814],[-10.184816172359064,54.318440290855655],[-10.092208645904691,54.58075028024073],[-9.994312782013537,54.84611016896469],[-9.89104693256138,55.11443648087081],[-9.782328704551787,55.38564524299623],[-9.668074897499594,55.65965206745201],[-9.548201433685108,55.936372244624565],[-9.422623279722927,56.21572085035048],[-9.291254357435605,56.49761287044757],[-9.154007441416582,56.781963346951784],[-9.010794039859206,57.068687551697074],[-8.861524254133599,57.35770119461276],[-8.706106611103536,57.648920676472294],[-8.544447860113792,57.94226339908147],[-8.376452723707786,58.23764815042356],[-8.202023587071665,58.53499558867383],[-8.021060105378439,58.83422885815656],[-7.833458699731068,59.13527438363675],[-7.639111899862257,59.438062909037335],[-7.437907472845922,59.742530876359496],[-7.229727248002632,60.04862228622498],[-7.014445502443351,60.356291253273255],[-6.791926697911862,60.66550558549439],[-6.562022237122761,60.976251908902384],[-6.324565697899857,61.288543188668704],[-6.079365630159856,61.60243008439061],[-5.826194308057524,61.91801866622967],[-5.564769477884113,62.23549914484897],[-5.294723342036065,62.555194675476706],[-5.015546779311336,62.877649124864526],[-4.817935538130589,63.10061067694198],[-4.289148656837568,63.76474452591918],[-3.9917072031163627,64.14791698748104],[-3.6935726737234233,64.56187821489374],[-3.492006872921352,64.54499371371615],[-3.4158542158364185,64.62753971014773],[-3.2363118968828433,64.68234217912602],[-3.1133893117134903,64.86522029677326],[-2.876546344230895,64.79215495559886],[-2.3745329681395617,64.94538664287057],[-2.474916305240989,64.66825329984529],[-1.547324815692118,64.38209412283982],[-1.2120426769508867,64.35400864582004],[-1.2377573242649982,64.3032975796796],[-1.2154370955785752,64.30283079616407],[-1.0386381936586133,64.54705927296085],[0.05605788570256664,64.13091250759196],[0.22523264255030995,64.35116137827787],[0.6184014497124899,64.18120080191927],[1.4392242324945599,64.25816038348593],[1.678789789863231,64.55028240612756],[2.041223307262413,64.3146032574771],[3.043898774297986,64.40861317777764],[2.6590026996648164,63.912880695226214],[5.380992025591187,62.1428564116735],[5.401332636329556,62.14102277341379],[5.394978687947034,62.133761323834655],[5.474793187405698,62.08186045821559],[5.611203777659085,62.02289234549011],[5.594484482094227,62.00402896339279],[5.704885994265287,61.932238322767404],[5.810330660551699,61.89996312887339],[5.789766922131811,61.87704291766305],[5.917212040860869,61.7941693542651],[6.000441140817628,61.774109561395775],[5.980998964867328,61.75269071825828],[6.126519246824935,61.658063443139646],[6.183113853216895,61.64698842574201],[6.168324653580418,61.63087869835164],[6.33185162271052,61.52454223934383],[6.359776664064299,61.520052191039255],[6.351864603660849,61.51152842553826],[6.531720166489805,61.39457399419384],[6.495457715095543,61.35593193900708],[6.700118676410597,61.271677006675034],[5.702002412879523,60.2195406475171],[5.007116218617938,59.43859168465174],[4.452465778034394,58.78710466586376],[3.982235685834752,58.21618329223051],[3.5694533835653317,57.70205423295804],[3.1987109792094657,57.23106778550869],[2.8602642655053216,56.79455496388797],[2.547510860450842,56.38662136790528],[2.2557480662563876,56.00305661655931],[1.2400622623793822,54.65990065708037],[0.7975315808453445,54.08000457656446],[0.38645867678960144,53.55030779079773],[0.19089686354743662,53.302629371488464],[0.0012340395329886178,53.06571232243977],[-0.18298940007565534,52.83913456702131],[-0.362167090718998,52.62253224159157],[-0.5366372969414499,52.415590026362565],[-0.7066913985656527,52.21803338732935],[-0.8725807548054263,52.029622289350584],[-1.0345223078559513,51.85014605530609],[-1.1927031961910188,51.679419127874795],[-1.3472845820434998,51.51727754935679],[-1.4984048495371098,51.36357601802824],[-1.6461822944464473,51.21818541141321],[-1.7907174000126815,51.08099069075606],[-1.932094773168842,50.95188911908077],[-2.0703848001986387,50.8307887390718],[-2.2056450690343468,50.71760706770614],[-2.337921596208048,50.61226997289802],[-2.467249889264366,50.5147107039618],[-2.593655869746243,50.42486905288078],[-2.7171566773315874,50.34269062750235],[-2.861741129244709,50.25447809979286],[-2.956123515938941,50.191865209483055],[-3.0993326906864507,50.1049061875757],[-3.191108117183944,50.04420854272161],[-3.333066831316878,49.958421223470715],[-3.422300653429602,49.89958623762039],[-3.563124466460396,49.814895360161884],[-3.6498776244790747,49.75787361617102],[-3.7896737790945245,49.67420980036656],[-3.8740032006797094,49.61895476249548],[-4.0128714455813155,49.536253930059424],[-4.094830401372747,49.48272168960247],[-4.232863714072441,49.40092455570803],[-4.312502132697659,49.34907360543247],[-4.449787356676884,49.26812523065121],[-4.527152104730561,49.217916264105064],[-4.635621228608613,49.15309569592295],[-4.663770512979632,49.13776565821574],[-4.738905644666858,49.089161390583676],[-4.846136319741561,49.02535727046999],[-4.874933439694715,49.009761161144965],[-4.947880420092275,48.96272616885327],[-5.05392191456329,48.89990282709079],[-5.083389178890198,48.884032208563006],[-5.154187084197389,48.838532785246834],[-5.25908574891443,48.77665666455856],[-5.289244155359913,48.760503993015654],[-5.357929852988065,48.71650801982914],[-5.461729358327034,48.65554750553203],[-5.492598712095593,48.63910605126827],[-5.559207023049652,48.596582879799094],[-5.661948571729596,48.53650814713943],[-5.693547591517819,48.519771923453874],[-5.758111437178371,48.47869226974771],[-5.859833955937404,48.419475146340865],[-5.892180369052267,48.40243884592514],[-5.954730904154729,48.362774694344516],[-6.055471216793023,48.30438853593271],[-6.0885818446734925,48.28704747383815],[-6.149148578059169,48.248771989638485],[-6.248941562013982,48.19119156762399],[-6.282832397293115,48.17354163002359],[-6.341443301796488,48.136629079678464],[-6.440322030122786,48.07983047909696],[-6.475008306234738,48.061868077152944],[-6.53168991887128,48.02629375559972],[-6.629685789255149,47.970254282373894],[-6.665182043421511,47.95197631063312],[-6.719959556928899,47.91771647469244],[-6.8171024091513175,47.8624145711545],[-6.853422539507038,47.84381836995184],[-6.906319886126312,47.81085017728923],[-7.002638109214558,47.75626534508996],[-7.039795426709717,47.73734866652012],[-7.090835355010881,47.70565011957811],[-7.186355985162578,47.65176284920783],[-7.2243632608120505,47.63252382627406],[-7.273567406256433,47.6020737206816],[-7.368316216487898,47.54886542692393],[-7.407185724463919,47.52930254552362],[-7.454574674319986,47.50008042254372],[-7.548576256677478,47.44753338526301],[-7.588319813677541,47.427645458713194],[-7.633913166838909,47.39963156133773],[-7.727191007912808,47.3477288710718],[-7.767820009190716,47.32751501690976],[-7.811636431374865,47.300690249260306],[-7.904212981770797,47.2494157571506],[-7.945738434166205,47.228875375979484],[-7.9877957089269955,47.20322126570512],[-8.079692447275079,47.152559537349525],[-8.122124999543944,47.131692293522754]]]}}]}