{"type":"FeatureCollection","features":[{"type":"Feature","properties":{"t_inicio":-0.7055555555555673,"t_fim":0.188888888888874},"geometry":{"type":"LineString","coordinates":[[-39.76932159910319,48.86337014456476],[-39.46396902109683,48.75155987387332],[-39.16590898571485,48.64418703572392],[-38.874653030830785,48.54097986230677],[-38.589763074877396,48.441694775464256],[-38.310844409304195,48.346112472923146],[-38.037539895888955,48.25403468723325],[-37.76952512498204,48.1652814812593],[-37.50650434705733,48.07968897549102],[-37.24820703176192,47.99710742577581],[-36.994384940073104,47.91739958761313],[-36.744809619028814,47.84043931646685],[-36.49927024678988,47.766110363761165],[-36.25757176995057,47.69430533612986],[-36.01953328606095,47.6249247916549],[-35.78498663301906,47.55787645168418],[-35.55377515387897,47.49307451066375],[-35.325752611122084,47.43043902949092],[-35.10078222885758,47.36989540036254],[-34.87873584499064,47.31137387308582],[-34.65949315830326,47.25480913444395],[-34.44294105776919,47.2001399335342],[-34.2289730233781,47.14730874708754],[-34.017488589358834,47.09626147968165],[-33.80839286203195,47.046947194505655],[-33.60159608563953,46.999317870961626],[-33.39701325043646,46.9533281859083],[-33.19456373811519,46.90893531579516],[-32.994171000300156,46.866098757303234],[-32.79576226641234,46.82478016442657],[-32.59926827768288,46.784943200194455],[-32.404623044504206,46.74655340146272],[-32.21176362465704,46.70957805540005],[-32.02062992025262,46.673986086460665],[-31.831164491488636,46.63974795278161],[-31.643312385540952,46.60683555106723],[-31.45702097910828,46.57522212913202],[-31.272239833293867,46.54488220536666],[-31.088920559656856,46.515791494475465],[-30.907016696393185,46.487926838903704],[-30.726483593718,46.46126614543686],[-30.547278307621326,46.43578832650939],[-30.369359501253484,46.411473245806846],[-30.19268735327495,46.38830166779144],[-30.017223472571004,46.36625521081513],[-29.842930818792752,46.34531630352007],[-29.66977362823792,46.32546814425571],[-29.497717344631866,46.306694663266114],[-29.326728554412057,46.288980487427764],[-29.15677492615498,46.272310907335545],[-28.987825153819045,46.2566718465559],[-28.819848903506,46.24204983288125],[-28.65281676347098,46.22843197143587],[-28.4867001971337,46.21580591949529],[-28.32147149886643,46.204159862895374],[-28.157103752353123,46.1934824939164],[-27.993570791330825,46.183762990537886],[-27.830847162541602,46.174990996969285],[-27.668908090736466,46.16715660536891],[-27.50772944558571,46.160250338670586],[-27.347287710362366,46.15426313444525],[-27.187559952275507,46.149186329729716],[-27.028523794339947,46.14501164676019],[-26.870157388677455,46.141731179553716],[-26.71243939115294,46.13933738128482],[-26.555348937256042,46.1378230524092],[-26.398865619145027,46.13718132948886],[-26.24296946377646,46.13740567467866],[-26.08764091204884,46.13848986583502],[-25.93286079889441,46.14042798721233],[-25.778610334256996,46.1432144207143],[-25.624871084898842,46.146843837670154],[-25.47162495698251,46.15131119110792],[-25.318854179377894,46.15661170849902],[-25.16654128764796,46.162740884950686],[-25.014669108668897,46.16969447682383],[-24.86322074584396,46.177468495756216],[-24.712179564872798,46.18605920307236],[-24.56152918003943,46.19546310456232],[-24.41125344098569,46.20567694561381],[-24.26133641993738,46.21669770668272],[-24.111762399353353,46.228522599088144],[-23.96251585996876,46.241149061120154],[-23.81358146920553,46.25457475444766],[-23.664944069924275,46.26879756081705],[-23.516588669493387,46.28381557903119],[-23.368500429152107,46.2996271221999],[-23.220664653645542,46.316230715254974],[-23.07306678111027,46.33362509272123],[-22.9256923731906,46.35180919673808],[-22.778527105365896,46.37078217532542],[-22.631556757470292,46.39054338088903],[-22.48476720438697,46.41109236896091],[-22.33814440689929,46.43242889717059],[-22.19167440268214,46.454552924444876],[-22.045343297417077,46.4774646104325],[-21.899137256015052,46.5011643151526],[-21.753042493931304,46.52565259886467],[-21.607045268557044,46.55093022216037],[-21.461131870672517,46.57699814627524],[-21.315288615947026,46.60385753362189],[-21.169501836470715,46.63150974854525],[-21.02375787230355,46.65995635830014],[-20.878043063027093,46.68919913425474],[-20.732343739283777,46.71924005332124],[-20.586646214289885,46.75008129961697],[-20.44093677530634,46.78172526636008],[-20.295201675053193,46.81417455800324],[-20.149427123052163,46.847431992611355],[-20.0035992768816,46.88150060448757],[-19.857704233328604,46.916383647054765],[-19.711728019421457,46.952084595998684],[-19.565656583326245,46.98860715268088],[-19.41947578509013,47.025955247829636],[-19.27317138721392,47.06413304551779],[-19.126729045035347,47.1031449474378],[-18.980134296904026,47.142995597485054],[-18.833372554128232,47.183689886660694],[-18.68642909067296,47.2252329583073],[-18.539289032587277,47.26763021369162],[-18.39193734713851,47.310887317948044],[-18.24435883162917,47.35501020640095],[-18.096538101871687,47.40000509128176],[-17.948459580294127,47.445878468860705],[-17.80010748364907,47.492637127013],[-17.651465810296116,47.540288153241846],[-17.50251832702608,47.58883894318182],[-17.35324855539389,47.638297209607735],[-17.203639757524513,47.68867099197741],[-17.05367492135386,47.73996866653693],[-16.90333674526454,47.79219895702105],[-16.7526076220731,47.845370945983014],[-16.601469622322867,47.899494086791],[-16.44990447683236,47.9545782163312],[-16.297893558447043,48.01063356846111],[-16.145417862936796,48.06767078825985],[-15.992457988978174,48.12570094712556],[-15.838994117155522,48.184735558776325],[-15.685005987909932,48.24478659621145],[-15.530472878359205,48.30586650970005],[-15.375373577906117,48.36798824586466],[-15.219686362545502,48.431165267936365],[-15.063388967772852,48.49541157726415],[-14.906458559989431,48.560741736166484],[-14.74887170628952,48.62717089222382],[-14.590604342505742,48.69471480411709],[-14.431631739377195,48.763389869128076],[-14.271928466693367,48.83321315242793],[-14.111468355252555,48.90420241829124],[-13.950224456460035,48.97637616338717],[-13.788168999373227,49.04975365231233],[-13.625273344983526,49.1243549555475],[-13.461507937504479,49.20020099003602],[-13.29684225241175,49.27731356260436],[-13.131244740956873,49.35571541646475],[-12.964682770846451,49.435430281066694],[-12.797122562748314,49.516482925590275],[-12.628529122248864,49.59889921640719],[-12.458866166847343,49.68270617886803],[-12.28809604752604,49.76793206381677],[-12.116179664385413,49.85460641927509],[-11.943076375775348,49.942760167791114]]}}]}