{"type":"FeatureCollection","features":[{"type":"Feature","properties":{"magnitude":0.5,"de":0.5,"ate":0.8,"percentagem":50.0},"geometry":{"type":"Polygon","coordinates":[[[-34.5,30.0],[-3.5399999999988268,30.0],[-3.5399999999988268,40.92013983276389],[-5.939999999998918,39.54292399074367],[-8.099999999999,38.381550050347826],[-10.139999999999077,37.370441975521956],[-12.119999999999152,36.48440427911847],[-13.979999999999222,35.75028755269414],[-15.839999999999293,35.121775479058584],[-17.63999999999936,34.621762589968796],[-19.379999999999427,34.24449680449707],[-21.119999999999493,33.973862837018466],[-22.91999999999956,33.806191272654665],[-24.71999999999963,33.750446616865005],[-26.5799999999997,33.80580884096629],[-28.499999999999773,33.97643392361943],[-30.419999999999845,34.253716058582796],[-32.39999999999992,34.64128442440511],[-34.5,35.15314515058668],[-34.5,30.0]]]}},{"type":"Feature","properties":{"magnitude":0.8,"de":0.8,"ate":0.95,"percentagem":80.0},"geometry":{"type":"Polygon","coordinates":[[[-26.080376809101658,33.779999999999916],[-23.999999999999602,33.75954773039621],[-21.899999999999523,33.88726285557771],[-19.859999999999445,34.15914514409065],[-17.819999999999368,34.577848266326214],[-15.719999999999288,35.158955994059916],[-13.619999999999209,35.88442218353403],[-11.433639982654817,36.77999999999986],[-9.129110875608557,37.85999999999983],[-6.479999999998938,39.24484701201967],[-3.5399999999988268,40.92013983276389],[-3.5399999999988268,44.939999999999685],[-34.5,44.939999999999685],[-34.5,35.15314515058668],[-32.279999999999916,34.61504642842968],[-30.119999999999834,34.20373780398884],[-28.079999999999757,33.92967866329636],[-26.080376809101658,33.779999999999916]]]}}]}