{"type":"FeatureCollection","properties":{"largura_maxima_km":279.447,"largura_sobre_pt_km":279.447,"linha_central_sobre_pt":false,"desenhavel_como_area":true,"perfil_largura":[{"t":-1.75556,"lat":33.8635,"lon":-6.9745,"largura_km":null,"eixo_na_terra":false},{"t":-1.75,"lat":34.1839,"lon":-5.6489,"largura_km":null,"eixo_na_terra":false},{"t":-1.74444,"lat":34.2969,"lon":-5.3642,"largura_km":null,"eixo_na_terra":false},{"t":-1.73889,"lat":34.392,"lon":-4.7238,"largura_km":null,"eixo_na_terra":false},{"t":-1.73333,"lat":34.5787,"lon":-3.9527,"largura_km":null,"eixo_na_terra":false},{"t":-1.72778,"lat":34.6827,"lon":-3.6175,"largura_km":null,"eixo_na_terra":false},{"t":-1.72222,"lat":34.8822,"lon":-2.9458,"largura_km":null,"eixo_na_terra":false},{"t":-1.71667,"lat":34.9782,"lon":-2.3946,"largura_km":null,"eixo_na_terra":false},{"t":-1.71111,"lat":35.0312,"lon":-2.3772,"largura_km":null,"eixo_na_terra":false},{"t":-1.70556,"lat":35.1862,"lon":-1.8885,"largura_km":null,"eixo_na_terra":false},{"t":-1.7,"lat":35.2953,"lon":-1.2385,"largura_km":null,"eixo_na_terra":false},{"t":-1.69444,"lat":35.3894,"lon":-0.907,"largura_km":null,"eixo_na_terra":false},{"t":-1.68889,"lat":35.4703,"lon":-0.8047,"largura_km":null,"eixo_na_terra":false},{"t":-1.68333,"lat":35.589,"lon":-0.0908,"largura_km":null,"eixo_na_terra":false},{"t":-1.67778,"lat":35.6796,"lon":0.2882,"largura_km":null,"eixo_na_terra":false},{"t":-1.67222,"lat":35.7964,"lon":0.9361,"largura_km":null,"eixo_na_terra":false},{"t":-1.66667,"lat":36.2087,"lon":4.4575,"largura_km":279.447,"eixo_na_terra":true}]},"features":[{"type":"Feature","properties":{},"geometry":{"type":"Polygon","coordinates":[[[-8.181569936150796,33.785315292880995],[-8.28754286276312,33.925587404896746],[-8.37849344246672,33.913183920650134],[-8.415985325328078,34.09560154032212],[-8.544933049870046,34.26628447075865],[-9.294001818566699,34.16644416594931],[-9.490182036619728,34.85052631360454],[-8.988681011385546,34.95900919365074],[-9.415480099164256,35.30023467256804],[-7.7608146864429575,35.600828093991524],[-7.762452879166517,35.61701291499334],[-6.66484635315129,35.80688995883704],[-5.833425631645866,35.946403332000685],[-5.554751095669463,35.991702357409295],[-4.626300604466564,36.14890321037092],[-4.084591593356322,36.23723635103463],[-3.354221240401435,36.351498299374924],[-2.751830580080423,36.44983815672435],[-2.3424075004990073,36.513937240226994],[-1.7420590106155347,36.60349236373812],[-1.2812408395545845,36.676490082015384],[-0.9386722510016625,36.728310583426214],[-0.4093581351777108,36.804058632052055],[-0.03280263911892689,36.862110767309346],[0.26767497207629276,36.906182012530124],[0.5645256524558135,36.947821761927806],[0.8577036553834319,36.98704174372643],[1.4328273573212869,37.05827436860096],[1.9925696257367917,37.119996031666204],[2.536395774418054,37.172344783881016],[3.063733950119172,37.215482861283014],[3.573990983866281,37.24959784620101],[4.0665646141228535,37.2749030198624],[4.3060318696149125,37.28432555342916],[4.77095446154658,37.29687140000335],[5.216706752188543,37.30125033145497],[5.432215163586193,37.30046962369707],[5.848150230978945,37.293164674372505],[6.2435324467768964,37.27847900395639],[6.433356165522525,37.26847685766083],[6.617853236027145,37.256761900158004],[6.796964782080693,37.24338045920622],[6.970633939188133,37.228379812333536],[7.138805911864779,37.2118081231726],[7.301428023860126,37.19371437682331],[7.458449761726911,37.17414831442166],[7.60982281211659,37.15316036708334],[7.755501093157363,37.13080158937895],[7.89544078024187,37.10712359248904],[8.029600326533966,37.082178477177145],[8.157940478488399,37.056018766711816],[8.28042428665799,37.028697339859356],[8.397017112055039,37.00026736406285],[8.50768662832047,36.97078222891473],[8.612402819944862,36.940295480024446],[8.71113797677674,36.90886075337535],[8.803866685047467,36.87653171025952],[8.89056581513222,36.843361972872955],[8.971214506262015,36.80940506064785],[9.045794148394066,36.77471432739331],[9.114288361442846,36.739342899311005],[9.176682972065862,36.70334361394656],[9.232965988195588,36.66676896013344],[9.283127571499108,36.62967101898117],[9.327160007944656,36.59210140595546],[9.365057676645279,36.55411121409394],[9.396817017145736,36.515750958396794],[9.422436495311501,36.47707052142847],[9.441916567972498,36.438119100162915],[9.455259646468676,36.39894515410115],[9.46247005923658,36.359596354687625],[9.463554013570388,36.320119536048274],[9.45851955668536,36.2805606470706],[9.44737653620075,36.240964704843826],[9.430136560158758,36.201375749474586],[9.40681295668179,36.161836800291105],[9.377420733370059,36.122389813447604],[9.341976536528591,36.08307564093776],[9.30049861030966,36.04393399102482],[9.253006755846002,36.00500339009445],[9.199522290444975,35.96632114593421],[9.140068006904471,35.927923312442836],[9.0746681330034,35.88984465577046],[9.003348291212205,35.852118621890206],[8.92613545865936,35.81477730559968],[8.843057927381608,35.777851420950405],[8.754145264875547,35.741370273101104],[8.65942827495877,35.70536173159062],[8.558938958939336,35.669852205023766],[8.452710477078824,35.6348666171631],[8.34077711032586,35.60042838441767],[8.223174222280761,35.56655939471823],[8.09993822134129,35.533279987766896],[7.97110652296152,35.50060893664724],[7.836717511942311,35.468563430778616],[7.551425711046704,35.40640980113387],[7.40060419637598,35.37632800288951],[7.082819307638488,35.31820798125779],[6.9159419873880665,35.290186220854004],[6.566438001856909,35.23624786693769],[6.196236152766801,35.185135059769244],[5.870626144118568,35.14465619818867],[5.474875818358157,35.08883735192165],[5.139357694037842,35.045915022986485],[4.712378239710574,34.984360601715096],[4.365107940890975,34.9386205553103],[3.901272832149857,34.870254598280674],[3.5397928367731084,34.82120107582295],[3.031509781757677,34.744571213825],[2.652422515236062,34.6915229285395],[2.0890096937429803,34.60458506830095],[1.6873878107899742,34.54655990637476],[1.0529585308231049,34.446272855264176],[0.621176260383406,34.38175998525395],[0.21024163298272924,34.31419502507823],[-0.5847106357178559,34.18968035454838],[-1.0831326140787496,34.10570413361527],[-2.0019812090580382,33.956477508939244],[-2.645708398978627,33.845032676828374],[-3.799123519970114,33.64967134502534],[-6.491930410788882,33.16766379870165],[-7.962451763805973,32.89277240730709],[-7.961419755776996,32.89718953869297],[-8.261876520576209,32.8418874561016],[-8.257700761718862,32.85868251458517],[-8.658729019869156,32.78170562876907],[-8.181569936150796,33.785315292880995]]]}}]}