{"type":"FeatureCollection","features":[{"type":"Feature","properties":{"t_inicio":-1.7111111111111192,"t_fim":-1.666666666666675},"geometry":{"type":"LineString","coordinates":[[-5.780286124875374,34.62245961210154],[-3.4188042892720887,35.024977455201594],[-1.7579915141858464,35.29567633232154],[-0.4041834648577378,35.508367009523944],[0.7657800472322265,35.686178647383194],[1.8097417403856753,35.83999020312426],[2.760380822526713,35.97595694059309],[3.638300942166893,36.09796529667039],[4.457483167707153,36.20865633611762]]}}]}