{"type":"FeatureCollection","features":[{"type":"Feature","properties":{"magnitude":0.2,"de":0.2,"ate":0.5,"percentagem":20.0},"geometry":{"type":"Polygon","coordinates":[[[-27.479999999999734,33.2740702802831],[-24.93498162766285,30.0],[-18.375779576509498,30.0],[-18.841583428027583,30.959999999999983],[-19.205849728157528,31.79999999999996],[-19.47122828359534,32.519999999999946],[-19.657407362023122,33.179999999999936],[-19.746239352981735,33.71999999999992],[-19.744666770678585,34.19999999999991],[-19.65356568041033,34.5599999999999],[-19.45451160359911,34.8599999999999],[-19.19999999999942,35.04002217391407],[-17.219999999999345,35.89967746824109],[-15.299999999999272,36.788919108051445],[-12.564485697683693,38.159999999999826],[-9.599999999999056,39.79289657845904],[-6.648391064849032,41.57999999999976],[-3.5399999999988268,43.64322200801362],[-3.5399999999988268,44.939999999999685],[-34.5,44.939999999999685],[-34.5,41.499670965417764],[-32.219999999999914,38.969741536446165],[-29.879999999999825,36.228623367387634],[-27.479999999999734,33.2740702802831]]]}},{"type":"Feature","properties":{"magnitude":0.5,"de":0.5,"ate":0.8,"percentagem":50.0},"geometry":{"type":"Polygon","coordinates":[[[-18.375779576509498,30.0],[-3.5399999999988268,30.0],[-3.5399999999988268,43.64322200801362],[-5.399999999998897,42.38608066397158],[-7.259999999998968,41.196089640386006],[-9.119999999999038,40.072335793802196],[-11.039999999999111,38.979997094620046],[-12.83999999999918,38.01616670762964],[-14.697826865500938,37.07999999999985],[-16.864360234213358,36.059999999999874],[-19.19999999999942,35.04002217391407],[-19.43999999999943,34.8741320186042],[-19.626179730106283,34.619999999999905],[-19.73999999999944,34.23476640395165],[-19.75106796673639,33.779999999999916],[-19.670694279089595,33.23999999999993],[-19.490824080393878,32.57999999999994],[-19.205849728157528,31.79999999999996],[-18.841583428027583,30.95999999999998],[-18.375779576509498,30.0]]]}}]}