{"type":"FeatureCollection","properties":{"largura_maxima_km":114.764,"largura_sobre_pt_km":108.335,"linha_central_sobre_pt":false,"desenhavel_como_area":true,"perfil_largura":[{"t":-1.61111,"lat":35.855,"lon":-39.894,"largura_km":114.764,"eixo_na_terra":true},{"t":-1.60556,"lat":35.7987,"lon":-39.652,"largura_km":114.532,"eixo_na_terra":true},{"t":-1.6,"lat":35.742,"lon":-39.4124,"largura_km":114.302,"eixo_na_terra":true},{"t":-1.59444,"lat":35.685,"lon":-39.175,"largura_km":114.076,"eixo_na_terra":true},{"t":-1.58889,"lat":35.6276,"lon":-38.9399,"largura_km":113.851,"eixo_na_terra":true},{"t":-1.58333,"lat":35.57,"lon":-38.707,"largura_km":113.629,"eixo_na_terra":true},{"t":-1.57778,"lat":35.512,"lon":-38.4763,"largura_km":113.408,"eixo_na_terra":true},{"t":-1.57222,"lat":35.4537,"lon":-38.2477,"largura_km":113.189,"eixo_na_terra":true},{"t":-1.56667,"lat":35.3952,"lon":-38.0213,"largura_km":112.972,"eixo_na_terra":true},{"t":-1.56111,"lat":35.3363,"lon":-37.7969,"largura_km":112.757,"eixo_na_terra":true},{"t":-1.55556,"lat":35.2772,"lon":-37.5745,"largura_km":112.545,"eixo_na_terra":true},{"t":-1.55,"lat":35.2178,"lon":-37.3541,"largura_km":112.335,"eixo_na_terra":true},{"t":-1.54444,"lat":35.1581,"lon":-37.1356,"largura_km":112.127,"eixo_na_terra":true},{"t":-1.53889,"lat":35.0981,"lon":-36.9191,"largura_km":111.921,"eixo_na_terra":true},{"t":-1.53333,"lat":35.0379,"lon":-36.7044,"largura_km":111.717,"eixo_na_terra":true},{"t":-1.52778,"lat":34.9774,"lon":-36.4916,"largura_km":111.515,"eixo_na_terra":true},{"t":-1.52222,"lat":34.9166,"lon":-36.2807,"largura_km":111.315,"eixo_na_terra":true},{"t":-1.51667,"lat":34.8556,"lon":-36.0715,"largura_km":111.116,"eixo_na_terra":true},{"t":-1.51111,"lat":34.7944,"lon":-35.8641,"largura_km":110.919,"eixo_na_terra":true},{"t":-1.50556,"lat":34.7329,"lon":-35.6584,"largura_km":110.723,"eixo_na_terra":true},{"t":-1.5,"lat":34.6712,"lon":-35.4544,"largura_km":110.529,"eixo_na_terra":true},{"t":-1.49444,"lat":34.6093,"lon":-35.2521,"largura_km":110.338,"eixo_na_terra":true},{"t":-1.48889,"lat":34.5471,"lon":-35.0515,"largura_km":110.148,"eixo_na_terra":true},{"t":-1.48333,"lat":34.4848,"lon":-34.8525,"largura_km":109.959,"eixo_na_terra":true},{"t":-1.47778,"lat":34.4221,"lon":-34.6551,"largura_km":109.772,"eixo_na_terra":true},{"t":-1.47222,"lat":34.3593,"lon":-34.4593,"largura_km":109.587,"eixo_na_terra":true},{"t":-1.46667,"lat":34.2963,"lon":-34.265,"largura_km":109.404,"eixo_na_terra":true},{"t":-1.46111,"lat":34.2331,"lon":-34.0723,"largura_km":109.222,"eixo_na_terra":true},{"t":-1.45556,"lat":34.1696,"lon":-33.881,"largura_km":109.042,"eixo_na_terra":true},{"t":-1.45,"lat":34.106,"lon":-33.6913,"largura_km":108.863,"eixo_na_terra":true},{"t":-1.44444,"lat":34.0421,"lon":-33.503,"largura_km":108.685,"eixo_na_terra":true},{"t":-1.43889,"lat":33.9781,"lon":-33.3162,"largura_km":108.509,"eixo_na_terra":true},{"t":-1.43333,"lat":33.9139,"lon":-33.1308,"largura_km":108.335,"eixo_na_terra":true},{"t":-1.42778,"lat":33.8495,"lon":-32.9468,"largura_km":108.162,"eixo_na_terra":true},{"t":-1.42222,"lat":33.7849,"lon":-32.7642,"largura_km":107.991,"eixo_na_terra":true},{"t":-1.41667,"lat":33.7201,"lon":-32.583,"largura_km":107.821,"eixo_na_terra":true},{"t":-1.41111,"lat":33.6551,"lon":-32.403,"largura_km":107.651,"eixo_na_terra":true},{"t":-1.40556,"lat":33.59,"lon":-32.2245,"largura_km":107.484,"eixo_na_terra":true},{"t":-1.4,"lat":33.5247,"lon":-32.0472,"largura_km":107.318,"eixo_na_terra":true},{"t":-1.39444,"lat":33.4592,"lon":-31.8712,"largura_km":107.154,"eixo_na_terra":true},{"t":-1.38889,"lat":33.3936,"lon":-31.6965,"largura_km":106.991,"eixo_na_terra":true},{"t":-1.38333,"lat":33.3278,"lon":-31.5231,"largura_km":106.828,"eixo_na_terra":true},{"t":-1.37778,"lat":33.2618,"lon":-31.3509,"largura_km":106.667,"eixo_na_terra":true},{"t":-1.37222,"lat":33.1957,"lon":-31.1799,"largura_km":106.507,"eixo_na_terra":true},{"t":-1.36667,"lat":33.1294,"lon":-31.0101,"largura_km":106.35,"eixo_na_terra":true},{"t":-1.36111,"lat":33.063,"lon":-30.8415,"largura_km":106.193,"eixo_na_terra":true},{"t":-1.35556,"lat":32.9964,"lon":-30.6741,"largura_km":106.038,"eixo_na_terra":true},{"t":-1.35,"lat":32.9296,"lon":-30.5078,"largura_km":105.883,"eixo_na_terra":true},{"t":-1.34444,"lat":32.8627,"lon":-30.3427,"largura_km":105.73,"eixo_na_terra":true},{"t":-1.33889,"lat":32.7957,"lon":-30.1788,"largura_km":105.577,"eixo_na_terra":true},{"t":-1.33333,"lat":32.7285,"lon":-30.0159,"largura_km":105.426,"eixo_na_terra":true},{"t":-1.32778,"lat":32.6612,"lon":-29.8541,"largura_km":105.277,"eixo_na_terra":true},{"t":-1.32222,"lat":32.5937,"lon":-29.6935,"largura_km":105.128,"eixo_na_terra":true},{"t":-1.31667,"lat":32.5261,"lon":-29.5339,"largura_km":104.981,"eixo_na_terra":true},{"t":-1.31111,"lat":32.4584,"lon":-29.3754,"largura_km":104.834,"eixo_na_terra":true},{"t":-1.30556,"lat":32.3905,"lon":-29.2179,"largura_km":104.689,"eixo_na_terra":true},{"t":-1.3,"lat":32.3225,"lon":-29.0614,"largura_km":104.545,"eixo_na_terra":true},{"t":-1.29444,"lat":32.2544,"lon":-28.906,"largura_km":104.403,"eixo_na_terra":true},{"t":-1.28889,"lat":32.1861,"lon":-28.7516,"largura_km":104.261,"eixo_na_terra":true},{"t":-1.28333,"lat":32.1177,"lon":-28.5982,"largura_km":104.12,"eixo_na_terra":true},{"t":-1.27778,"lat":32.0492,"lon":-28.4458,"largura_km":103.981,"eixo_na_terra":true},{"t":-1.27222,"lat":31.9806,"lon":-28.2944,"largura_km":103.842,"eixo_na_terra":true},{"t":-1.26667,"lat":31.9118,"lon":-28.1439,"largura_km":103.704,"eixo_na_terra":true},{"t":-1.26111,"lat":31.8429,"lon":-27.9944,"largura_km":103.567,"eixo_na_terra":true},{"t":-1.25556,"lat":31.7739,"lon":-27.8458,"largura_km":103.431,"eixo_na_terra":true},{"t":-1.25,"lat":31.7048,"lon":-27.6982,"largura_km":103.297,"eixo_na_terra":true},{"t":-1.24444,"lat":31.6356,"lon":-27.5515,"largura_km":103.164,"eixo_na_terra":true},{"t":-1.23889,"lat":31.5663,"lon":-27.4056,"largura_km":103.031,"eixo_na_terra":true},{"t":-1.23333,"lat":31.4968,"lon":-27.2607,"largura_km":102.899,"eixo_na_terra":true},{"t":-1.22778,"lat":31.4272,"lon":-27.1167,"largura_km":102.769,"eixo_na_terra":true},{"t":-1.22222,"lat":31.3576,"lon":-26.9736,"largura_km":102.64,"eixo_na_terra":true},{"t":-1.21667,"lat":31.2878,"lon":-26.8313,"largura_km":102.512,"eixo_na_terra":true},{"t":-1.21111,"lat":31.2179,"lon":-26.6899,"largura_km":102.384,"eixo_na_terra":true},{"t":-1.20556,"lat":31.1479,"lon":-26.5493,"largura_km":102.258,"eixo_na_terra":true},{"t":-1.2,"lat":31.0778,"lon":-26.4096,"largura_km":102.132,"eixo_na_terra":true},{"t":-1.19444,"lat":31.0076,"lon":-26.2707,"largura_km":102.007,"eixo_na_terra":true},{"t":-1.18889,"lat":30.9373,"lon":-26.1326,"largura_km":101.882,"eixo_na_terra":true},{"t":-1.18333,"lat":30.8669,"lon":-25.9954,"largura_km":101.759,"eixo_na_terra":true},{"t":-1.17778,"lat":30.7964,"lon":-25.8589,"largura_km":101.638,"eixo_na_terra":true},{"t":-1.17222,"lat":30.7258,"lon":-25.7233,"largura_km":101.517,"eixo_na_terra":true},{"t":-1.16667,"lat":30.6551,"lon":-25.5884,"largura_km":101.396,"eixo_na_terra":true},{"t":-1.16111,"lat":30.5843,"lon":-25.4543,"largura_km":101.277,"eixo_na_terra":true},{"t":-1.15556,"lat":30.5134,"lon":-25.321,"largura_km":101.158,"eixo_na_terra":true},{"t":-1.15,"lat":30.4424,"lon":-25.1885,"largura_km":101.042,"eixo_na_terra":true},{"t":-1.14444,"lat":30.3713,"lon":-25.0567,"largura_km":100.925,"eixo_na_terra":true},{"t":-1.13889,"lat":30.3002,"lon":-24.9256,"largura_km":100.81,"eixo_na_terra":true},{"t":-1.13333,"lat":30.2289,"lon":-24.7953,"largura_km":100.695,"eixo_na_terra":true},{"t":-1.12778,"lat":30.1575,"lon":-24.6657,"largura_km":100.581,"eixo_na_terra":true},{"t":-1.12222,"lat":30.0861,"lon":-24.5369,"largura_km":100.468,"eixo_na_terra":true},{"t":-1.11667,"lat":30.0146,"lon":-24.4087,"largura_km":100.355,"eixo_na_terra":true},{"t":-1.11111,"lat":29.943,"lon":-24.2813,"largura_km":100.244,"eixo_na_terra":true},{"t":-1.10556,"lat":29.8713,"lon":-24.1546,"largura_km":100.132,"eixo_na_terra":true},{"t":-1.1,"lat":29.7995,"lon":-24.0285,"largura_km":100.023,"eixo_na_terra":true},{"t":-1.09444,"lat":29.7276,"lon":-23.9032,"largura_km":99.914,"eixo_na_terra":true},{"t":-1.08889,"lat":29.6557,"lon":-23.7785,"largura_km":99.806,"eixo_na_terra":true},{"t":-1.08333,"lat":29.5836,"lon":-23.6545,"largura_km":99.698,"eixo_na_terra":true},{"t":-1.07778,"lat":29.5115,"lon":-23.5311,"largura_km":99.592,"eixo_na_terra":true},{"t":-1.07222,"lat":29.4393,"lon":-23.4084,"largura_km":99.486,"eixo_na_terra":true},{"t":-1.06667,"lat":29.3671,"lon":-23.2864,"largura_km":99.382,"eixo_na_terra":true},{"t":-1.06111,"lat":29.2947,"lon":-23.165,"largura_km":99.278,"eixo_na_terra":true},{"t":-1.05556,"lat":29.2223,"lon":-23.0443,"largura_km":99.175,"eixo_na_terra":true},{"t":-1.05,"lat":29.1498,"lon":-22.9242,"largura_km":99.073,"eixo_na_terra":true},{"t":-1.04444,"lat":29.0772,"lon":-22.8047,"largura_km":98.971,"eixo_na_terra":true},{"t":-1.03889,"lat":29.0046,"lon":-22.6858,"largura_km":98.87,"eixo_na_terra":true},{"t":-1.03333,"lat":28.9318,"lon":-22.5676,"largura_km":98.77,"eixo_na_terra":true},{"t":-1.02778,"lat":28.859,"lon":-22.4499,"largura_km":98.67,"eixo_na_terra":true},{"t":-1.02222,"lat":28.7861,"lon":-22.3329,"largura_km":98.571,"eixo_na_terra":true},{"t":-1.01667,"lat":28.7132,"lon":-22.2164,"largura_km":98.473,"eixo_na_terra":true},{"t":-1.01111,"lat":28.6402,"lon":-22.1005,"largura_km":98.376,"eixo_na_terra":true},{"t":-1.00556,"lat":28.5671,"lon":-21.9853,"largura_km":98.28,"eixo_na_terra":true},{"t":-1.0,"lat":28.4939,"lon":-21.8705,"largura_km":98.184,"eixo_na_terra":true},{"t":-0.99444,"lat":28.4207,"lon":-21.7564,"largura_km":98.089,"eixo_na_terra":true},{"t":-0.98889,"lat":28.3474,"lon":-21.6429,"largura_km":97.996,"eixo_na_terra":true},{"t":-0.98333,"lat":28.274,"lon":-21.5298,"largura_km":97.903,"eixo_na_terra":true},{"t":-0.97778,"lat":28.2006,"lon":-21.4174,"largura_km":97.811,"eixo_na_terra":true},{"t":-0.97222,"lat":28.127,"lon":-21.3055,"largura_km":97.719,"eixo_na_terra":true},{"t":-0.96667,"lat":28.0535,"lon":-21.1941,"largura_km":97.628,"eixo_na_terra":true},{"t":-0.96111,"lat":27.9798,"lon":-21.0833,"largura_km":97.538,"eixo_na_terra":true},{"t":-0.95556,"lat":27.9061,"lon":-20.973,"largura_km":97.449,"eixo_na_terra":true},{"t":-0.95,"lat":27.8323,"lon":-20.8633,"largura_km":97.36,"eixo_na_terra":true},{"t":-0.94444,"lat":27.7585,"lon":-20.7541,"largura_km":97.271,"eixo_na_terra":true},{"t":-0.93889,"lat":27.6846,"lon":-20.6453,"largura_km":97.184,"eixo_na_terra":true},{"t":-0.93333,"lat":27.6106,"lon":-20.5371,"largura_km":97.096,"eixo_na_terra":true},{"t":-0.92778,"lat":27.5366,"lon":-20.4294,"largura_km":97.01,"eixo_na_terra":true},{"t":-0.92222,"lat":27.4625,"lon":-20.3223,"largura_km":96.925,"eixo_na_terra":true},{"t":-0.91667,"lat":27.3884,"lon":-20.2156,"largura_km":96.84,"eixo_na_terra":true},{"t":-0.91111,"lat":27.3142,"lon":-20.1094,"largura_km":96.756,"eixo_na_terra":true},{"t":-0.90556,"lat":27.2399,"lon":-20.0037,"largura_km":96.673,"eixo_na_terra":true},{"t":-0.9,"lat":27.1655,"lon":-19.8984,"largura_km":96.591,"eixo_na_terra":true},{"t":-0.89444,"lat":27.0911,"lon":-19.7937,"largura_km":96.51,"eixo_na_terra":true},{"t":-0.88889,"lat":27.0167,"lon":-19.6894,"largura_km":96.429,"eixo_na_terra":true},{"t":-0.88333,"lat":26.9422,"lon":-19.5856,"largura_km":96.349,"eixo_na_terra":true},{"t":-0.87778,"lat":26.8676,"lon":-19.4823,"largura_km":96.27,"eixo_na_terra":true},{"t":-0.87222,"lat":26.793,"lon":-19.3794,"largura_km":96.191,"eixo_na_terra":true},{"t":-0.86667,"lat":26.7183,"lon":-19.277,"largura_km":96.113,"eixo_na_terra":true},{"t":-0.86111,"lat":26.6435,"lon":-19.1751,"largura_km":96.036,"eixo_na_terra":true},{"t":-0.85556,"lat":26.5687,"lon":-19.0735,"largura_km":95.959,"eixo_na_terra":true},{"t":-0.85,"lat":26.4939,"lon":-18.9725,"largura_km":95.882,"eixo_na_terra":true},{"t":-0.84444,"lat":26.419,"lon":-18.8718,"largura_km":95.807,"eixo_na_terra":true},{"t":-0.83889,"lat":26.344,"lon":-18.7716,"largura_km":95.732,"eixo_na_terra":true},{"t":-0.83333,"lat":26.269,"lon":-18.6719,"largura_km":95.657,"eixo_na_terra":true},{"t":-0.82778,"lat":26.1939,"lon":-18.5726,"largura_km":95.583,"eixo_na_terra":true},{"t":-0.82222,"lat":26.1187,"lon":-18.4736,"largura_km":95.51,"eixo_na_terra":true},{"t":-0.81667,"lat":26.0435,"lon":-18.3751,"largura_km":95.438,"eixo_na_terra":true},{"t":-0.81111,"lat":25.9683,"lon":-18.2771,"largura_km":95.367,"eixo_na_terra":true},{"t":-0.80556,"lat":25.893,"lon":-18.1794,"largura_km":95.296,"eixo_na_terra":true},{"t":-0.8,"lat":25.8177,"lon":-18.0821,"largura_km":95.226,"eixo_na_terra":true},{"t":-0.79444,"lat":25.7422,"lon":-17.9853,"largura_km":95.158,"eixo_na_terra":true},{"t":-0.78889,"lat":25.6668,"lon":-17.8888,"largura_km":95.089,"eixo_na_terra":true},{"t":-0.78333,"lat":25.5913,"lon":-17.7928,"largura_km":95.022,"eixo_na_terra":true},{"t":-0.77778,"lat":25.5157,"lon":-17.6971,"largura_km":94.955,"eixo_na_terra":true},{"t":-0.77222,"lat":25.4401,"lon":-17.6018,"largura_km":94.888,"eixo_na_terra":true},{"t":-0.76667,"lat":25.3644,"lon":-17.5069,"largura_km":94.822,"eixo_na_terra":true},{"t":-0.76111,"lat":25.2887,"lon":-17.4124,"largura_km":94.757,"eixo_na_terra":true},{"t":-0.75556,"lat":25.213,"lon":-17.3183,"largura_km":94.692,"eixo_na_terra":true},{"t":-0.75,"lat":25.1371,"lon":-17.2245,"largura_km":94.628,"eixo_na_terra":true},{"t":-0.74444,"lat":25.0613,"lon":-17.1311,"largura_km":94.564,"eixo_na_terra":true}]},"features":[{"type":"Feature","properties":{},"geometry":{"type":"Polygon","coordinates":[[[-20.247543138855917,27.964032363140582],[-19.81963528602853,27.66513870274072],[-19.392245136212637,27.3601054279028],[-18.979826069632225,27.05942329767187],[-18.47446013588913,26.68236374042347],[-18.077960653737165,26.379780092325124],[-17.68133849516468,26.071114856561273],[-17.29797066098797,25.76694803014872],[-16.827374613655365,25.38566030194032],[-17.433962801472944,24.73734413578494],[-17.809895709027103,25.038562372135257],[-18.191928461749285,25.338910757448527],[-18.48259912043369,25.56358886348999],[-18.868962398668828,25.857126647761444],[-19.26891869405813,26.154960014450324],[-19.57348907749244,26.377708873441936],[-19.98593979553152,26.673850684117014],[-20.30020041776973,26.895298702514374],[-20.618817739218457,27.116168023374705],[-21.04301095110148,27.404541713551193],[-21.372198908671095,27.623996893191393],[-21.706183566871687,27.842824391050403],[-22.159205521407472,28.1335894260988],[-22.50494659391336,28.350886769454394],[-22.847694596159954,28.56236553226274],[-23.204063550761504,28.7782621455541],[-23.56604903023731,28.99343214611963],[-23.933824217109787,29.207853624163796],[-24.307569143832836,29.421503448634404],[-24.67846839602265,29.62929724826996],[-25.064582318610917,29.84132119185257],[-25.457246694815012,30.05249609123818],[-25.856673366690472,30.262793150527237],[-26.263083532420808,30.472181917162256],[-26.666875160994294,30.675653223424728],[-27.08778966607113,30.883120483291158],[-27.516407880884998,31.089577253881117],[-27.806563688656695,31.22663491916941],[-28.248617501631713,31.431321386195993],[-28.68837118631876,31.630012459714074],[-29.1474114518347,31.832414623320012],[-29.45844837249669,31.96668036978136],[-29.773607872664343,32.1003936596688],[-30.09299215733455,32.23353901408879],[-30.40513080311402,32.36134169089336],[-30.733135109914457,32.49330127364831],[-31.06569035983057,32.62464264775926],[-31.40291520625601,32.75534745886375],[-31.917779329495374,32.95016891703881],[-32.443867141128294,33.14344623409192],[-32.78826264611115,33.26678419041128],[-33.15060809669265,33.39400263840194],[-33.518440495917275,33.5204556336619],[-33.891918566542955,33.646117873779566],[-34.46308671813313,33.83307008296891],[-34.837485762423626,33.95217941328734],[-35.23186586857389,34.07486223775509],[-35.83559613829837,34.257149527912475],[-36.24649371099218,34.37746706305039],[-36.664377536431914,34.49677677717931],[-37.28940877393262,34.6695095824961],[-37.94654112047931,34.844026649776175],[-38.62166869511768,35.01590208064112],[-39.31579596262412,35.18497048295474],[-40.01281127573975,35.347040472041634],[-39.78071855873458,36.36542047317279],[-39.056024570884574,36.19137913550668],[-38.35197099468576,36.01450616569271],[-37.66742093078565,35.834978624240414],[-36.985702252484145,35.64870825554212],[-36.33752683075505,35.46432608738427],[-35.705974628124864,35.277734270007464],[-35.07578148510373,35.08462226962757],[-34.673940130110964,34.957728785838235],[-34.27858544691085,34.8299908913581],[-33.6972897252453,34.63686552555111],[-33.31731424906667,34.50714366241334],[-32.929939070143945,34.37207762332627],[-32.3796067131247,34.17502726224443],[-32.019540606106574,34.042798150085154],[-31.664757759590827,33.9099051791248],[-31.31511565645826,33.77636940327316],[-30.95828788839512,33.6374736348966],[-30.450669761327987,33.43511196100701],[-29.95358535923745,33.23145411296336],[-29.627850896753074,33.09499053376687],[-29.306509121421698,32.95799243942748],[-28.989452020710274,32.820475202287405],[-28.665508713594647,32.67760006526615],[-28.356846896029907,32.53909161769158],[-28.05216476022656,32.40010659676257],[-27.75136877268571,32.26065798088052],[-27.4543685405323,32.12075822659043],[-26.861178678875575,31.834697211781123],[-26.292617841152378,31.551934492862866],[-25.737591799679194,31.267588336909267],[-25.195514200916648,30.981735653403575],[-24.656538060257674,30.689413789384844],[-24.138921745127533,30.400768230002456],[-23.88440887301695,30.2559512489414],[-23.507842349788746,30.03812841417906],[-23.006543860085742,29.741508352675954],[-22.76420166686657,29.595311968273965],[-22.405427500239284,29.37547466870024],[-21.9356441505752,29.08137547981715],[-21.589531199368366,28.860087884879153],[-21.35367111232989,28.70705625050998],[-21.12812488389835,28.558949670121937],[-20.793922381437284,28.33631581104669],[-20.573802920971133,28.187583801609023],[-20.247543138855917,27.964032363140582]]]}}]}