{"type":"FeatureCollection","properties":{"largura_maxima_km":213.768,"largura_sobre_pt_km":208.144,"linha_central_sobre_pt":false,"desenhavel_como_area":true,"perfil_largura":[{"t":-1.50556,"lat":47.588,"lon":-26.5829,"largura_km":null,"eixo_na_terra":false},{"t":-1.5,"lat":47.7732,"lon":-24.941,"largura_km":null,"eixo_na_terra":false},{"t":-1.49444,"lat":47.8461,"lon":-24.6391,"largura_km":null,"eixo_na_terra":false},{"t":-1.48889,"lat":48.0263,"lon":-23.1603,"largura_km":null,"eixo_na_terra":false},{"t":-1.48333,"lat":48.1182,"lon":-22.945,"largura_km":null,"eixo_na_terra":false},{"t":-1.47778,"lat":48.1886,"lon":-22.2293,"largura_km":null,"eixo_na_terra":false},{"t":-1.47222,"lat":48.3136,"lon":-21.0276,"largura_km":null,"eixo_na_terra":false},{"t":-1.46667,"lat":48.3754,"lon":-20.6365,"largura_km":null,"eixo_na_terra":false},{"t":-1.46111,"lat":48.4648,"lon":-19.6525,"largura_km":null,"eixo_na_terra":false},{"t":-1.45556,"lat":48.6864,"lon":-15.7072,"largura_km":201.843,"eixo_na_terra":true},{"t":-1.45,"lat":48.7349,"lon":-14.3436,"largura_km":202.852,"eixo_na_terra":true},{"t":-1.44444,"lat":48.7686,"lon":-13.0928,"largura_km":203.678,"eixo_na_terra":true},{"t":-1.43889,"lat":48.7905,"lon":-11.9318,"largura_km":204.398,"eixo_na_terra":true},{"t":-1.43333,"lat":48.8028,"lon":-10.8445,"largura_km":205.048,"eixo_na_terra":true},{"t":-1.42778,"lat":48.8069,"lon":-9.8191,"largura_km":205.643,"eixo_na_terra":true},{"t":-1.42222,"lat":48.8041,"lon":-8.8467,"largura_km":206.201,"eixo_na_terra":true},{"t":-1.41667,"lat":48.7952,"lon":-7.9206,"largura_km":206.726,"eixo_na_terra":true},{"t":-1.41111,"lat":48.781,"lon":-7.0351,"largura_km":207.222,"eixo_na_terra":true},{"t":-1.40556,"lat":48.7621,"lon":-6.1859,"largura_km":207.692,"eixo_na_terra":true},{"t":-1.4,"lat":48.739,"lon":-5.3691,"largura_km":208.144,"eixo_na_terra":true},{"t":-1.39444,"lat":48.712,"lon":-4.5818,"largura_km":208.58,"eixo_na_terra":true},{"t":-1.38889,"lat":48.6816,"lon":-3.8213,"largura_km":208.998,"eixo_na_terra":true},{"t":-1.38333,"lat":48.648,"lon":-3.0854,"largura_km":209.401,"eixo_na_terra":true},{"t":-1.37778,"lat":48.6115,"lon":-2.3721,"largura_km":209.789,"eixo_na_terra":true},{"t":-1.37222,"lat":48.5723,"lon":-1.6798,"largura_km":210.165,"eixo_na_terra":true},{"t":-1.36667,"lat":48.5306,"lon":-1.0069,"largura_km":210.533,"eixo_na_terra":true},{"t":-1.36111,"lat":48.4866,"lon":-0.3522,"largura_km":210.894,"eixo_na_terra":true},{"t":-1.35556,"lat":48.4405,"lon":0.2855,"largura_km":211.245,"eixo_na_terra":true},{"t":-1.35,"lat":48.3924,"lon":0.9072,"largura_km":211.586,"eixo_na_terra":true},{"t":-1.34444,"lat":48.3423,"lon":1.5139,"largura_km":211.918,"eixo_na_terra":true},{"t":-1.33889,"lat":48.2906,"lon":2.1065,"largura_km":212.242,"eixo_na_terra":true},{"t":-1.33333,"lat":48.2371,"lon":2.6857,"largura_km":212.559,"eixo_na_terra":true},{"t":-1.32778,"lat":48.1821,"lon":3.2521,"largura_km":212.868,"eixo_na_terra":true},{"t":-1.32222,"lat":48.1256,"lon":3.8065,"largura_km":213.174,"eixo_na_terra":true},{"t":-1.31667,"lat":48.0677,"lon":4.3494,"largura_km":213.472,"eixo_na_terra":true},{"t":-1.31111,"lat":48.0085,"lon":4.8813,"largura_km":213.768,"eixo_na_terra":true}]},"features":[{"type":"Feature","properties":{},"geometry":{"type":"Polygon","coordinates":[[[-29.04659858233091,47.34624691801079],[-29.10450583672498,47.466524378225074],[-29.447336767323407,47.436708330709735],[-29.853214890392838,48.04061840156659],[-30.32515711047978,48.25662275643697],[-29.5304265028713,48.351191705538426],[-29.548349698431423,48.388419449513734],[-29.28960633102111,48.421613654908114],[-29.295905103162795,48.44333954674373],[-28.437560758775366,48.54325436821111],[-28.444009059469806,48.56349779787007],[-27.316094134956813,48.69498103475247],[-26.45274846653865,48.789640736996475],[-25.719278479474838,48.865475129532065],[-25.01531975278436,48.93374465704353],[-24.294677485728357,49.00793641317902],[-23.805759037764915,49.055244860390594],[-23.338469332589625,49.098150611791475],[-22.88959599415915,49.13710408097414],[-22.456752116195048,49.1724475190455],[-21.96486512382432,49.209661340116035],[-21.55715925279094,49.2454740143834],[-21.20053753841546,49.27481502736692],[-20.50363474209979,49.32681640334803],[-19.827722738633383,49.370167289986654],[-19.49746510374615,49.388686609183644],[-18.97672966702759,49.41396417179274],[-19.022014888034505,49.426959761359136],[-17.188585820916728,49.531965623060344],[-15.69413217860847,49.60153873583962],[-14.229964934726809,49.655943128681486],[-12.989698779706032,49.6909604079618],[-11.83448826301435,49.71442209445651],[-10.657829188897097,49.72920566237229],[-9.636785597776793,49.734402831959734],[-8.66656704276204,49.7327087562034],[-7.740806065071979,49.72499549213472],[-6.775869851491166,49.71052098811192],[-5.927130791126956,49.69237470453626],[-5.109841784090577,49.67000046119473],[-4.321116810871274,49.64379726899147],[-3.5584975312152096,49.61410575500475],[-2.8198689664010317,49.58121958627139],[-2.036805906044151,49.54179891083359],[-1.3424008584258331,49.503029097029795],[-0.667029987908677,49.461756354435394],[-0.009450171082619363,49.41815453984181],[0.6314475646730102,49.37237899268929],[1.2566576940659502,49.324569217784365],[1.8670762852284497,49.2748510847827],[2.5214185785772543,49.21807435627772],[3.1036065337031573,49.16472000820706],[3.673271813757424,49.10977735082151],[4.231025514352211,49.05333256133561],[5.444690137946054,46.96803947169521],[4.987667579723961,47.02361269429398],[4.4695115896773245,47.08417940933601],[3.940786422941983,47.14350838390182],[3.400978691423859,47.2015320770608],[2.8495305339772017,47.25817714227637],[2.2858339200680575,47.313363694794525],[1.709223975078146,47.36700445429521],[1.1189711134244362,47.41900373568461],[0.5142717081144497,47.46925625363001],[-0.1057630508563534,47.51764569681046],[-0.6803720779388982,47.55974301750449],[-1.3327714561496578,47.604201128914106],[-2.0037336339725016,47.646375814275885],[-2.69464173554843,47.68608712994461],[-3.4070661919373606,47.72313109905811],[-4.142802710802471,47.75727488884726],[-4.9039207781808045,47.78825065741099],[-5.692826502106527,47.815747590220504],[-6.51234535285397,47.839401427361935],[-7.365833092631817,47.85878043869357],[-8.257327612458766,47.873366248754614],[-9.106602056018232,47.88185055093003],[-10.086143567703175,47.885345550432895],[-11.21564700174622,47.881227399080295],[-12.323053354016281,47.86848077114494],[-13.511172603549596,47.845502435947246],[-13.555306872584447,47.85816773454658],[-13.820818604675082,47.84505714474842],[-14.241456633910786,47.82774715373336],[-14.684850245390805,47.813119681014676],[-15.280563719031074,47.798203290921684],[-15.844621909365685,47.772449377442726],[-16.342710485380906,47.75336411559113],[-16.725847951479725,47.740523306799574],[-17.39039278416152,47.70438270569658],[-18.35745245140307,47.65906911557219],[-19.168409008148046,47.60702241020486],[-20.269956447527317,47.541900125480254],[-22.689489886009643,47.36079465566477],[-24.295776434780862,47.21502687128379],[-24.9236492526623,47.156630418088845],[-25.648830148404613,47.08730215031815],[-26.513967609357476,47.00120580019926],[-27.15552442296331,46.93054019224866],[-29.161495711423413,46.69666628543288],[-29.04659858233091,47.34624691801079]]]}}]}