{"type":"FeatureCollection","features":[{"type":"Feature","properties":{"t_inicio":-1.4833333333333423,"t_fim":-1.3111111111111207},"geometry":{"type":"LineString","coordinates":[[-29.11037855213806,47.58826740312488],[-23.633410917501294,48.16969150172602],[-20.97854363699423,48.386490567920504],[-18.937732012870356,48.52348101746491],[-17.218812565494034,48.618486542655305],[-15.707156453461778,48.68638847747325],[-14.343597945513466,48.73488853817771],[-13.092842597563504,48.76859328134147],[-11.931821771058821,48.79052149339935],[-10.84447060191269,48.802780902745326],[-9.819066079845697,48.80691352352112],[-8.846740192399409,48.804088770851784],[-7.920590158877587,48.79521915608162],[-7.035116444178186,48.7810334443597],[-6.185852018725768,48.76212497166973],[-5.369108854093383,48.73898472110453],[-4.581799287380306,48.71202465763383],[-3.8213068759785074,48.68159461781918],[-3.0853909459040096,48.64799480781253],[-2.372114671787017,48.61148523146116],[-1.6797899620075896,48.57229292410027],[-1.0069345835484,48.53061758673106],[-0.35223835855197194,48.48663603354848],[0.285463809521616,48.440505745296385],[0.9072136952418646,48.39236773928729],[1.5139474781977924,48.34234891051682],[2.1065103154612075,48.29056395863146],[2.6856684200165546,48.23711698715925],[3.2521191481417304,48.18210284085424],[3.8064994830327237,48.12560823189733],[4.349393215938733,48.06771269445326],[4.881337061372051,48.00848939862395]]}}]}