{"type":"FeatureCollection","features":[{"type":"Feature","properties":{"magnitude":0.8,"percentagem":80.0,"territorio":"continente"},"geometry":{"type":"LineString","coordinates":[[-10.5,41.715670755068885],[-10.46,41.71607612675859],[-10.420000000000002,41.71646924031213],[-10.380000000000003,41.71685008822918],[-10.340000000000003,41.71721866299494],[-10.300000000000004,41.7175749570802],[-10.260000000000005,41.717918962941184],[-10.220000000000006,41.71825067301957],[-10.180000000000007,41.71857007974247],[-10.140000000000008,41.718877175522366],[-10.100000000000009,41.71917195275707],[-10.06000000000001,41.71945440382976],[-10.02000000000001,41.71972452110879],[-9.980000000000011,41.719982296947805],[-9.977114851084284,41.71999999999988],[-9.940000000000012,41.72022775799143],[-9.900000000000013,41.720460863045766],[-9.860000000000014,41.72068160175271],[-9.820000000000014,41.72088996640676],[-9.780000000000015,41.721085949287435],[-9.740000000000018,41.721269542659336],[-9.700000000000017,41.7214407387719],[-9.660000000000018,41.721599529859624],[-9.620000000000019,41.72174590814179],[-9.58000000000002,41.72187986582256],[-9.54000000000002,41.72200139509092],[-9.500000000000021,41.72211048812062],[-9.460000000000022,41.722207137070136],[-9.420000000000023,41.72229133408265],[-9.380000000000024,41.72236307128602],[-9.340000000000025,41.722422340792676],[-9.300000000000026,41.72246913469967],[-9.260000000000026,41.72250344508859],[-9.220000000000027,41.72252526402551],[-9.180000000000028,41.72253458356103],[-9.140000000000029,41.72253139573008],[-9.10000000000003,41.72251569255203],[-9.06000000000003,41.722487466030636],[-9.020000000000032,41.72244670815392],[-8.980000000000034,41.72239341089417],[-8.940000000000033,41.72232756620792],[-8.900000000000032,41.72224916603591],[-8.860000000000035,41.722158202303],[-8.820000000000036,41.722054666918204],[-8.780000000000037,41.721938551774585],[-8.740000000000038,41.72180984874924],[-8.700000000000038,41.72166854970326],[-8.66000000000004,41.7215146464817],[-8.62000000000004,41.72134813091353],[-8.580000000000041,41.72116899481158],[-8.540000000000042,41.72097722997254],[-8.50000000000004,41.72077282817686],[-8.460000000000043,41.72055578118878],[-8.420000000000044,41.720326080756216],[-8.380000000000045,41.720083718610795],[-8.366869637879248,41.71999999999988],[-8.340000000000046,41.71982871202812],[-8.300000000000047,41.71956104151474],[-8.260000000000048,41.71928068625934],[-8.220000000000049,41.71898763792785],[-8.18000000000005,41.71868188816974],[-8.14000000000005,41.71836342861787],[-8.100000000000051,41.71803225088855],[-8.060000000000052,41.71768834658138],[-8.020000000000053,41.71733170727934],[-7.980000000000054,41.716962324548625],[-7.940000000000055,41.716580189938675],[-7.900000000000055,41.71618529498214],[-7.860000000000056,41.71577763119478],[-7.820000000000057,41.71535719007549],[-7.780000000000058,41.71492396310619],[-7.740000000000059,41.71447794175184],[-7.70000000000006,41.71401911746038],[-7.6600000000000605,41.7135474816627],[-7.620000000000061,41.713063025772534],[-7.580000000000062,41.7125657411865],[-7.540000000000063,41.71205561928403],[-7.500000000000064,41.711532651427255],[-7.460000000000065,41.71099682896113],[-7.420000000000066,41.71044814321319],[-7.3800000000000665,41.70988658549365],[-7.340000000000067,41.709312147095346],[-7.300000000000068,41.70872481929358],[-7.260000000000069,41.70812459334623],[-7.22000000000007,41.70751146049359],[-7.180000000000071,41.70688541195842],[-7.140000000000072,41.7062464389458],[-7.1000000000000725,41.70559453264316],[-7.060000000000073,41.704929684220225],[-7.020000000000074,41.70425188482895],[-6.980000000000075,41.70356112560349],[-6.940000000000076,41.70285739766015],[-6.900000000000077,41.70214069209735],[-6.860000000000078,41.70141099999556],[-6.820000000000078,41.70066831241729],[-6.780000000000079,41.69991262040702],[-6.74000000000008,41.69914391499114],[-6.700000000000081,41.698362187177935],[-6.660000000000082,41.69756742795754],[-6.620000000000083,41.69675962830189],[-6.580000000000084,41.695938779164635],[-6.5400000000000835,41.69510487148116],[-6.500000000000085,41.6942578961685],[-6.460000000000086,41.69339784412532],[-6.420000000000087,41.69252470623182],[-6.380000000000088,41.691638473349734],[-6.340000000000089,41.69073913632227],[-6.3000000000000895,41.68982668597411],[-6.26000000000009,41.68890111311126],[-6.220000000000091,41.68796240852106],[-6.180000000000092,41.68701056297222],[-6.140000000000093,41.68604556721459],[-6.100000000000094,41.68506741197931],[-6.060000000000095,41.68407608797863],[-6.0200000000000955,41.68307158590591],[-5.980000000000096,41.68205389643555],[-5.940000000000097,41.68102301022299],[-5.900807687786177,41.67999999999988],[-5.900000000000098,41.679978921000966],[-5.860000000000099,41.678921768452575],[-5.8200000000001,41.67785139289904],[-5.780000000000101,41.67676778492003],[-5.7400000000001015,41.67567093507598],[-5.700000000000102,41.67456083390805],[-5.660000000000103,41.67343747193812],[-5.620000000000104,41.67230083966867],[-5.580000000000105,41.671150927582815],[-5.540000000000106,41.6699877261442]]}},{"type":"Feature","properties":{"magnitude":0.2,"percentagem":20.0,"territorio":"acores"},"geometry":{"type":"LineString","coordinates":[[-27.429980143799742,40.479999999999905],[-27.429964113084342,40.439999999999905],[-27.400000000000098,40.410035886915665],[-27.389945997167647,40.399999999999906],[-27.389929849738103,40.35999999999991],[-27.389913647659277,40.31999999999991],[-27.3600000000001,40.29008635234074],[-27.349895337250768,40.279999999999916],[-27.349879016631277,40.23999999999991],[-27.349862640500568,40.19999999999991],[-27.3200000000001,40.17013735949944],[-27.309844132557732,40.15999999999991],[-27.309827636021517,40.11999999999992],[-27.30981108309397,40.07999999999991],[-27.2800000000001,40.050188916906045],[-27.26979237451042,40.039999999999914],[-27.269775699273193,39.999999999999915],[-27.269758966745847,39.959999999999916],[-27.240000000000105,39.93024103325418],[-27.22974005434965,39.919999999999916],[-27.22972319756809,39.879999999999924],[-27.229706282578455,39.83999999999992],[-27.200000000000102,39.810293717421565],[-27.189687163130376,39.79999999999991],[-27.18967012190055,39.75999999999992],[-27.18965302152502,39.719999999999914],[-27.160000000000103,39.690346978475],[-27.149633691716748,39.67999999999992],[-27.149616463072505,39.63999999999992],[-27.149599174324713,39.59999999999992],[-27.120000000000104,39.57040082567531],[-27.109579630776977,39.559999999999924],[-27.109562211688257,39.519999999999925],[-27.109544731517396,39.479999999999926],[-27.08000000000011,39.450455268482635],[-27.069524970778087,39.43999999999993],[-27.069507358149203,39.39999999999993],[-27.06948968343826,39.35999999999993],[-27.040000000000106,39.33051031656177],[-27.029469701980453,39.31999999999993],[-27.029451892648297,39.27999999999993],[-27.02943402021227,39.23999999999993],[-27.000000000000107,39.210565979787766],[-26.98941381443217,39.19999999999993],[-26.989395805164374,39.159999999999926],[-26.98937773174841,39.11999999999993],[-26.960000000000107,39.090622268251636],[-26.949357297963246,39.079999999999934],[-26.9493390854563,39.039999999999935],[-26.949320807733738,38.999999999999936],[-26.92000000000011,38.9706791922663],[-26.90930014217961,38.95999999999994],[-26.909281723056864,38.91999999999994],[-26.909263237627286,38.87999999999994],[-26.88000000000011,38.85073676237276],[-26.869242336456903,38.83999999999994],[-26.869223707266535,38.79999999999994],[-26.869205010653694,38.759999999999934],[-26.840000000000106,38.73079498934635],[-26.82918386993406,38.71999999999994],[-26.82916502714699,38.67999999999994],[-26.829146115796696,38.639999999999944],[-26.800000000000107,38.61085388420335],[-26.789124731506693,38.599999999999945],[-26.789105671514406,38.559999999999945],[-26.789086541792326,38.519999999999946],[-26.76000000000011,38.490913458207736],[-26.749064909820248,38.47999999999995],[-26.749045628932556,38.43999999999995],[-26.749026277121935,38.39999999999995],[-26.749006854004456,38.35999999999995],[-26.720000000000113,38.330993145995606],[-26.708984887705626,38.31999999999995],[-26.708965310004942,38.27999999999995],[-26.708945659768098,38.23999999999995],[-26.680000000000113,38.21105434023197],[-26.668923435870834,38.19999999999995],[-26.66890362839139,38.159999999999954],[-26.66888374711811,38.119999999999955],[-26.640000000000114,38.09111625288196],[-26.628861261190757,38.079999999999956],[-26.62884121995415,38.03999999999995],[-26.62882110363686,37.99999999999996],[-26.600000000000115,37.97117889636321],[-26.58879835114543,37.95999999999996],[-26.588778072080963,37.91999999999996],[-26.588757716618925,37.87999999999996],[-26.56000000000012,37.851242283381154],[-26.54873469292414,37.83999999999996],[-26.548714171866113,37.79999999999996],[-26.54869357306272,37.75999999999996],[-26.520000000000117,37.73130642693736],[-26.508670273416904,37.71999999999996],[-26.50864950610186,37.679999999999964],[-26.508628659661838,37.639999999999965],[-26.508607733652486,37.599999999999966],[-26.480000000000118,37.571392266347594],[-26.46858406126958,37.55999999999997],[-26.468562962796035,37.51999999999997],[-26.46854178333016,37.47999999999997],[-26.44000000000012,37.45145821666993],[-26.42851782353054,37.43999999999997],[-26.428496468521967,37.39999999999997],[-26.428475031063996,37.35999999999997],[-26.40000000000012,37.331524968936094],[-26.388450778716376,37.31999999999997],[-26.388429162563526,37.27999999999997],[-26.38840746246912,37.239999999999974],[-26.38838567795232,37.199999999999974],[-26.36000000000012,37.17161432204777],[-26.348361030301863,37.15999999999997],[-26.348339062814645,37.119999999999976],[-26.348317009365005,37.07999999999998],[-26.32000000000012,37.05168299063509],[-26.30829205676507,37.03999999999998],[-26.308269817013212,36.99999999999998],[-26.3082474897213,36.95999999999998],[-26.280000000000122,36.931752510278805],[-26.268222226617432,36.91999999999998],[-26.268199709610137,36.87999999999998],[-26.2681771034464,36.83999999999998],[-26.26815440760509,36.79999999999998],[-26.240000000000123,36.771845592395024],[-26.228128724772187,36.759999999999984],[-26.228105834583275,36.719999999999985],[-26.22808285304746,36.679999999999986],[-26.200000000000124,36.65191714695265],[-26.18805684627592,36.639999999999986],[-26.188033666780818,36.599999999999994],[-26.18801039422791,36.55999999999999],[-26.160000000000124,36.531989605772196],[-26.14798405749557,36.51999999999999],[-26.147960583281662,36.47999999999999],[-26.147937014256147,36.43999999999999],[-26.147913349853273,36.39999999999999],[-26.120000000000125,36.37208665014685],[-26.107886566909478,36.35999999999999],[-26.107862695818746,36.31999999999999],[-26.10783872753822,36.279999999999994],[-26.08000000000013,36.252161272461905],[-26.06781160005578,36.239999999999995],[-26.067787421165807,36.199999999999996],[-26.067763143227488,36.16],[-26.067738765641064,36.12],[-26.040000000000127,36.09226123435906],[-26.02771117209712,36.08],[-26.027686578573494,36.04],[-26.02766188348016,36.0]]}},{"type":"Feature","properties":{"magnitude":0.4,"percentagem":40.0,"territorio":"acores"},"geometry":{"type":"LineString","coordinates":[[-27.419960287599395,40.479999999999905],[-27.419928226168587,40.439999999999905],[-27.400000000000098,40.42007177383142],[-27.379891994335196,40.399999999999906],[-27.379859699476107,40.35999999999991],[-27.379827295318456,40.31999999999991],[-27.3600000000001,40.30017270468156],[-27.339790674501437,40.27999999999991],[-27.33975803326245,40.23999999999991],[-27.339725281001037,40.19999999999991],[-27.3200000000001,40.18027471899897],[-27.299688265115368,40.15999999999991],[-27.29965527204293,40.11999999999991],[-27.299622166187834,40.07999999999991],[-27.2800000000001,40.06037783381218],[-27.259584749020746,40.039999999999914],[-27.259551398546286,39.999999999999915],[-27.25951793349159,39.959999999999916],[-27.2400000000001,39.94048206650842],[-27.2194801086992,39.919999999999916],[-27.219446395136078,39.87999999999992],[-27.21941256515681,39.83999999999992],[-27.200000000000102,39.82058743484322],[-27.179374326260653,39.79999999999992],[-27.179340243801008,39.75999999999992],[-27.179306043049944,39.71999999999992],[-27.160000000000103,39.700693956950076],[-27.13926738343339,39.67999999999992],[-27.139232926144903,39.63999999999992],[-27.139198348649323,39.59999999999992],[-27.120000000000104,39.5808016513507],[-27.099159261553844,39.559999999999924],[-27.09912442337641,39.519999999999925],[-27.099089463034687,39.479999999999926],[-27.080000000000105,39.46091053696534],[-27.05904994155607,39.43999999999993],[-27.059014716298293,39.39999999999993],[-27.058979366876414,39.35999999999993],[-27.040000000000106,39.34102063312362],[-27.018939403960793,39.31999999999993],[-27.018903785296484,39.27999999999993],[-27.01886804042444,39.23999999999993],[-27.000000000000107,39.2211319595756],[-26.978827628864224,39.19999999999993],[-26.97879161032865,39.15999999999993],[-26.978755463496714,39.11999999999993],[-26.960000000000107,39.10124453650333],[-26.93871459592638,39.079999999999934],[-26.938678170912496,39.039999999999935],[-26.938641615467372,38.999999999999936],[-26.92000000000011,38.98135838453267],[-26.898600284359112,38.95999999999994],[-26.898563446113616,38.91999999999994],[-26.898526475254464,38.87999999999994],[-26.88000000000011,38.861473524745584],[-26.858484672913697,38.83999999999994],[-26.858447414532954,38.79999999999994],[-26.858410021307286,38.75999999999994],[-26.84000000000011,38.741589978692765],[-26.81836773986801,38.71999999999994],[-26.818330054293867,38.67999999999994],[-26.818292231593286,38.639999999999944],[-26.80000000000011,38.621707768406765],[-26.778249463013275,38.599999999999945],[-26.778211343028705,38.559999999999945],[-26.77817308358454,38.519999999999946],[-26.76000000000011,38.50182691641552],[-26.738129819640378,38.47999999999995],[-26.738091257865,38.43999999999995],[-26.73805255424375,38.39999999999995],[-26.738013708008797,38.35999999999995],[-26.720000000000113,38.34198629199126],[-26.697969775411142,38.31999999999995],[-26.69793062000977,38.27999999999995],[-26.697891319536083,38.23999999999995],[-26.680000000000113,38.22210868046398],[-26.657846871741555,38.19999999999995],[-26.657807256782664,38.159999999999954],[-26.65776749423611,38.119999999999955],[-26.640000000000114,38.10223250576396],[-26.617722522381406,38.079999999999956],[-26.61768243990819,38.03999999999996],[-26.617642207273605,37.99999999999996],[-26.600000000000115,37.98235779272646],[-26.57759670229075,37.95999999999996],[-26.57755614416181,37.91999999999996],[-26.57751543323773,37.87999999999996],[-26.560000000000116,37.86248456676235],[-26.537469385848155,37.83999999999996],[-26.537428343732103,37.79999999999996],[-26.537387146125326,37.75999999999996],[-26.520000000000117,37.74261285387475],[-26.497340546833694,37.71999999999996],[-26.497299012203605,37.679999999999964],[-26.49725731932356,37.639999999999965],[-26.49721546730486,37.599999999999966],[-26.480000000000118,37.58278453269522],[-26.457168122539052,37.55999999999997],[-26.45712592559196,37.51999999999997],[-26.457083566660202,37.47999999999997],[-26.44000000000012,37.462916433339885],[-26.417035647060963,37.43999999999997],[-26.41699293704382,37.39999999999997],[-26.41695006212787,37.35999999999997],[-26.40000000000012,37.343049937872216],[-26.37690155743263,37.31999999999997],[-26.376858325126932,37.27999999999997],[-26.37681492493812,37.239999999999974],[-26.376771355904527,37.199999999999974],[-26.36000000000012,37.183228644095564],[-26.336722060603606,37.159999999999975],[-26.33667812562917,37.119999999999976],[-26.336634018729892,37.07999999999998],[-26.32000000000012,37.06336598127021],[-26.29658411353002,37.03999999999998],[-26.296539634026296,36.99999999999998],[-26.296494979442475,36.95999999999998],[-26.280000000000122,36.94350502055762],[-26.256444453234742,36.91999999999998],[-26.25639941922015,36.87999999999998],[-26.25635420689268,36.83999999999998],[-26.256308815210055,36.79999999999998],[-26.240000000000123,36.78369118479006],[-26.21625744954425,36.759999999999984],[-26.21621166916642,36.719999999999985],[-26.216165706094802,36.679999999999986],[-26.200000000000124,36.66383429390531],[-26.17611369255171,36.639999999999986],[-26.176067333561505,36.59999999999999],[-26.176020788455702,36.55999999999999],[-26.160000000000124,36.54397921154441],[-26.13596811499102,36.51999999999999],[-26.135921166563204,36.47999999999999],[-26.135874028512173,36.43999999999999],[-26.13582669970642,36.39999999999999],[-26.120000000000125,36.384173300293696],[-26.095773133818835,36.35999999999999],[-26.09572539163737,36.31999999999999],[-26.095677455076313,36.279999999999994],[-26.080000000000126,36.26432254492381],[-26.05562320011144,36.239999999999995],[-26.055574842331485,36.199999999999996],[-26.05552628645485,36.16],[-26.055477531282,36.12],[-26.040000000000127,36.10452246871812],[-26.015422344194118,36.08],[-26.015373157146858,36.04],[-26.015323766960197,36.0]]}},{"type":"Feature","properties":{"magnitude":0.6,"percentagem":60.0,"territorio":"acores"},"geometry":{"type":"LineString","coordinates":[[-27.409940431399043,40.479999999999905],[-27.409892339252828,40.439999999999905],[-27.400000000000098,40.43010766074717],[-27.36983799150274,40.399999999999906],[-27.369789549214108,40.35999999999991],[-27.369740942977636,40.31999999999991],[-27.3600000000001,40.31025905702238],[-27.329686011752102,40.27999999999991],[-27.329637049893623,40.23999999999991],[-27.329587921501506,40.19999999999991],[-27.3200000000001,40.190412078498504],[-27.289532397673,40.15999999999991],[-27.28948290806435,40.11999999999991],[-27.2894332492817,40.07999999999991],[-27.2800000000001,40.070566750718314],[-27.249377123531065,40.039999999999914],[-27.249327097819382,39.999999999999915],[-27.249276900237337,39.959999999999916],[-27.2400000000001,39.95072309976268],[-27.20922016304875,39.919999999999916],[-27.209169592704065,39.87999999999992],[-27.20911884773516,39.83999999999992],[-27.200000000000102,39.83088115226486],[-27.16906148939093,39.79999999999992],[-27.169010365701457,39.75999999999992],[-27.168959064574867,39.71999999999992],[-27.160000000000103,39.71104093542516],[-27.128901075150033,39.67999999999992],[-27.128849389217304,39.63999999999992],[-27.128797522973933,39.59999999999992],[-27.120000000000104,39.591202477026094],[-27.088738892330717,39.559999999999924],[-27.088686635064555,39.519999999999925],[-27.08863419455197,39.479999999999926],[-27.080000000000105,39.47136580544806],[-27.048574912334047,39.43999999999993],[-27.04852207444739,39.39999999999993],[-27.048469050314573,39.35999999999993],[-27.040000000000106,39.35153094968546],[-27.008409105941137,39.31999999999993],[-27.00835567794467,39.27999999999993],[-27.008302060636606,39.23999999999993],[-27.000000000000107,39.23169793936343],[-26.968241443296282,39.19999999999993],[-26.968187415492924,39.15999999999993],[-26.968133195245017,39.11999999999993],[-26.960000000000107,39.111866804755024],[-26.928071893889516,39.079999999999934],[-26.928017256368694,39.039999999999935],[-26.927962423201006,38.999999999999936],[-26.92000000000011,38.99203757679904],[-26.887900426538618,38.95999999999994],[-26.88784516917037,38.91999999999994],[-26.88778971288164,38.87999999999994],[-26.88000000000011,38.872210287118406],[-26.847727009370494,38.83999999999994],[-26.84767112179938,38.79999999999994],[-26.84761503196087,38.75999999999994],[-26.84000000000011,38.75238496803918],[-26.80755160980196,38.71999999999994],[-26.80749508144074,38.67999999999994],[-26.807438347389876,38.639999999999944],[-26.80000000000011,38.63256165261018],[-26.767374194519853,38.599999999999945],[-26.767317014543003,38.559999999999945],[-26.767259625376756,38.519999999999946],[-26.76000000000011,38.5127403746233],[-26.727194729460514,38.47999999999995],[-26.727136886797446,38.43999999999995],[-26.727078831365567,38.39999999999995],[-26.72702056201314,38.35999999999995],[-26.720000000000113,38.352979437986924],[-26.68695466311666,38.31999999999995],[-26.686895930014604,38.27999999999995],[-26.68683697930407,38.23999999999995],[-26.680000000000113,38.233163020696],[-26.64677030761227,38.19999999999995],[-26.64671088517394,38.159999999999954],[-26.64665124135411,38.119999999999955],[-26.640000000000114,38.11334875864596],[-26.60658378357205,38.079999999999956],[-26.606523659862226,38.03999999999996],[-26.606463310910353,37.99999999999996],[-26.600000000000115,37.99353668908972],[-26.56639505343607,37.95999999999996],[-26.56633421624266,37.91999999999996],[-26.56627314985654,37.87999999999996],[-26.560000000000116,37.87372685014354],[-26.52620407877217,37.83999999999996],[-26.5261425155981,37.79999999999996],[-26.52608071918793,37.75999999999996],[-26.520000000000117,37.75391928081215],[-26.48601082025048,37.71999999999996],[-26.485948518305353,37.679999999999964],[-26.485885978985277,37.639999999999965],[-26.485823200957228,37.599999999999966],[-26.480000000000118,37.594176799042856],[-26.445752183808516,37.55999999999997],[-26.445688888387878,37.51999999999997],[-26.44562534999024,37.47999999999997],[-26.44000000000012,37.47437465000984],[-26.405553470591386,37.43999999999997],[-26.40548940556567,37.39999999999997],[-26.40542509319175,37.35999999999997],[-26.40000000000012,37.354574906808345],[-26.365352336148884,37.31999999999998],[-26.365287487690335,37.27999999999997],[-26.36522238740712,37.239999999999974],[-26.365157033856732,37.199999999999974],[-26.36000000000012,37.19484296614337],[-26.325083090905352,37.159999999999975],[-26.325017188443695,37.119999999999976],[-26.32495102809478,37.07999999999998],[-26.32000000000012,37.07504897190532],[-26.28487617029497,37.03999999999998],[-26.284809451039383,36.99999999999998],[-26.284742469163653,36.95999999999998],[-26.280000000000122,36.95525753083645],[-26.244666679852052,36.91999999999998],[-26.24459912883016,36.87999999999998],[-26.244531310338964,36.83999999999998],[-26.244463222815014,36.79999999999998],[-26.240000000000123,36.795536777185085],[-26.20438617431632,36.759999999999984],[-26.204317503749568,36.719999999999985],[-26.20424855914214,36.679999999999986],[-26.200000000000124,36.67575144085797],[-26.164170538827506,36.639999999999986],[-26.164101000342196,36.59999999999999],[-26.164031182683487,36.55999999999999],[-26.160000000000124,36.55596881731662],[-26.123952172486465,36.51999999999999],[-26.12388174984474,36.47999999999999],[-26.1238110427682,36.43999999999999],[-26.123740049559565,36.39999999999999],[-26.120000000000125,36.39625995044055],[-26.083659700728187,36.35999999999999],[-26.083588087455986,36.31999999999999],[-26.083516182614403,36.279999999999994],[-26.080000000000126,36.27648381738572],[-26.043434800167095,36.239999999999995],[-26.043362263497162,36.199999999999996],[-26.043289429682215,36.16],[-26.043216296922942,36.12],[-26.040000000000127,36.11678370307718],[-26.00313351629111,36.08],[-26.003059735720225,36.04],[-26.00298565044023,36.0]]}},{"type":"Feature","properties":{"magnitude":0.4,"percentagem":40.0,"territorio":"madeira"},"geometry":{"type":"LineString","coordinates":[[-15.74132475157782,29.5],[-15.720000000000047,29.501407221231425],[-15.68000000000005,29.504034004464042],[-15.64000000000005,29.506647900434313],[-15.600000000000051,29.50924889893914],[-15.560000000000052,29.51183698976023],[-15.520000000000053,29.514412162663994],[-15.480000000000054,29.51697440740157],[-15.440000000000055,29.51952371370872],[-15.400000000000055,29.522060071305887],[-15.360000000000056,29.5245834698981],[-15.320000000000057,29.527093899174908],[-15.280000000000058,29.529591348810417],[-15.240000000000059,29.532075808463226],[-15.20000000000006,29.534547267776357],[-15.16000000000006,29.53700571637725],[-15.120000000000061,29.53945114387774],[-15.110974547202408,29.54],[-15.080000000000062,29.54188357827063],[-15.040000000000063,29.544302981195518]]}}]}