{"type":"FeatureCollection","properties":{"largura_maxima_km":112.518,"largura_sobre_pt_km":107.317,"linha_central_sobre_pt":false,"desenhavel_como_area":true,"perfil_largura":[{"t":1.63333,"lat":25.1795,"lon":-22.8527,"largura_km":112.518,"eixo_na_terra":true},{"t":1.63889,"lat":25.4152,"lon":-22.0747,"largura_km":111.645,"eixo_na_terra":true},{"t":1.64444,"lat":25.6615,"lon":-21.2352,"largura_km":110.708,"eixo_na_terra":true},{"t":1.65,"lat":25.9209,"lon":-20.3195,"largura_km":109.693,"eixo_na_terra":true},{"t":1.65556,"lat":26.197,"lon":-19.3058,"largura_km":108.578,"eixo_na_terra":true},{"t":1.66111,"lat":26.4956,"lon":-18.16,"largura_km":107.317,"eixo_na_terra":true},{"t":1.66667,"lat":27.0024,"lon":-15.9589,"largura_km":null,"eixo_na_terra":false},{"t":1.67222,"lat":27.3762,"lon":-14.2702,"largura_km":null,"eixo_na_terra":false},{"t":1.67778,"lat":27.5354,"lon":-13.5942,"largura_km":null,"eixo_na_terra":false},{"t":1.68333,"lat":27.709,"lon":-12.8126,"largura_km":null,"eixo_na_terra":false},{"t":1.68889,"lat":27.9163,"lon":-11.818,"largura_km":null,"eixo_na_terra":false}]},"features":[{"type":"Feature","properties":{},"geometry":{"type":"Polygon","coordinates":[[[-21.651775627460296,26.06424747155434],[-20.751733055794148,26.317288822936806],[-19.759546862936958,26.585707207179894],[-18.58723685764855,26.889168655192197],[-18.56175259426727,26.85948889121768],[-18.273604192674185,26.947050338883447],[-18.04359843337096,27.01281322715674],[-17.80245152231379,27.078395268056845],[-17.550613977612215,27.143599950155657],[-17.153878171572103,27.240286777810862],[-16.877501406254396,27.303734640283576],[-16.460304389185016,27.394054491597945],[-16.0248985127501,27.500274951058927],[-15.703351292376851,27.574354480817725],[-15.18881513610296,27.686339531332095],[-14.823119278461121,27.761648795873562],[-14.577603886807893,27.810361894533163],[-14.204138073912674,27.893899260183247],[-13.762090759367652,27.988352346570537],[-13.273351210703026,28.088105725409168],[-13.007410026464356,28.140596928625996],[-12.418811758342684,28.25294885789635],[-12.087009207617228,28.314267948638516],[-11.301958188260118,28.454652914513343],[-10.919409726159046,28.52609848022675],[-10.201642150926887,28.65450436099675],[-10.197183794980601,28.64363503980551],[-10.13836659064853,28.653591773673323],[-10.115953092163183,28.59460690864136],[-10.107116827638748,28.596264187521445],[-10.08940239757935,28.560261701492323],[-9.687012011806331,28.622893695633852],[-9.429987271135587,27.98550993449386],[-9.85332767351529,27.90346425266392],[-9.823638403953424,27.825331980758705],[-10.52418546398809,27.6946212838251],[-11.453817652652702,27.514430915003704],[-13.576868603172525,27.08907438314965],[-14.7386429011909,26.824515542342308],[-15.263119748853427,26.708389241677054],[-15.580927737315777,26.639754433134215],[-16.02390282095206,26.528039561286604],[-16.312752194466185,26.457025468940277],[-16.732938114516088,26.356750235350255],[-17.003527540769966,26.29436741543418],[-17.265883056244803,26.235779205646693],[-17.519515442374427,26.18115589910097],[-17.910898215581188,26.101483684154385],[-17.880535499402043,26.066122322660835],[-18.982904142315903,25.774950233759284],[-20.007202631448536,25.49267945992718],[-20.885681606266957,25.240817569523525],[-21.733298597072576,24.989540060181017],[-22.4780706962936,24.761479203356068],[-23.286381565961932,25.58054697755132],[-22.479308557041406,25.823370630640124],[-21.651775627460296,26.06424747155434]]]}}]}