{"type":"FeatureCollection","features":[{"type":"Feature","properties":{"magnitude":0.6,"percentagem":60.0,"territorio":"acores"},"geometry":{"type":"LineString","coordinates":[[-24.04000000000017,38.23995319467385],[-24.08000000000017,38.22905417660442],[-24.120000000000168,38.21813913620447],[-24.160000000000167,38.20720805627496],[-24.186338951718852,38.19999999999995],[-24.200000000000166,38.196261342933305],[-24.240000000000165,38.18529937437964],[-24.280000000000165,38.17432131764097],[-24.320000000000164,38.16332715539811],[-24.332088640495833,38.159999999999954],[-24.36000000000016,38.15231773696163],[-24.400000000000162,38.14129255653129],[-24.44000000000016,38.13025122159281],[-24.477083686973454,38.119999999999955],[-24.48000000000016,38.119193805266924],[-24.52000000000016,38.10812135345576],[-24.56000000000016,38.097032697870645],[-24.600000000000158,38.08592782098222],[-24.621322386998663,38.079999999999956],[-24.640000000000157,38.074807286341624],[-24.680000000000156,38.06367116134666],[-24.720000000000155,38.05251876542984],[-24.760000000000154,38.04135008093923],[-24.76482880189873,38.03999999999996],[-24.800000000000153,38.030166186535986],[-24.840000000000153,38.01896612174615],[-24.88000000000015,38.00774971840876],[-24.90759808987606,37.99999999999996],[-24.920000000000154,37.996517345340536],[-24.96000000000015,37.98526946101114],[-25.00000000000015,37.97400518789357],[-25.04000000000015,37.9627245081216],[-25.04964782065021,37.95999999999996],[-25.080000000000148,37.95142835167406],[-25.120000000000147,37.94011605701534],[-25.160000000000146,37.928787305102055],[-25.190982532726352,37.91999999999996],[-25.20000000000015,37.91744235954],[-25.240000000000144,37.90608189074744],[-25.280000000000143,37.894704913830054],[-25.320000000000142,37.88331141070476],[-25.331609975521275,37.87999999999996],[-25.36000000000014,37.87190225140142],[-25.40000000000014,37.860476895779755],[-25.44000000000014,37.849034962716004],[-25.471540690240847,37.83999999999996],[-25.480000000000135,37.83757669861353],[-25.520000000000138,37.826102809745784],[-25.560000000000137,37.814612291928434],[-25.600000000000136,37.80310512685892],[-25.610779289015213,37.79999999999996],[-25.640000000000136,37.791582211829656],[-25.680000000000135,37.780042953596244],[-25.720000000000134,37.76848699623486],[-25.749335785940403,37.75999999999996],[-25.760000000000137,37.756914655426215],[-25.800000000000132,37.74532650026265],[-25.84000000000013,37.733721593818714],[-25.88000000000013,37.722099917569615],[-25.88721806300571,37.71999999999996],[-25.92000000000013,37.710462481746234],[-25.96000000000013,37.69880846857177],[-26.000000000000128,37.68713763306704],[-26.02442934762437,37.679999999999964],[-26.040000000000127,37.675450445127254],[-26.080000000000126,37.66374716671267],[-26.120000000000125,37.652027013162794],[-26.160000000000124,37.640289965727995],[-26.160986932971174,37.639999999999965],[-26.20000000000012,37.62853723170367],[-26.240000000000123,37.61676760045178],[-26.280000000000122,37.604981022132826],[-26.296881260638145,37.599999999999966],[-26.32000000000012,37.593178204236864],[-26.36000000000012,37.58135893475439],[-26.40000000000012,37.569522664739466],[-26.43213607825522,37.55999999999997],[-26.44000000000012,37.55766962222032],[-26.480000000000118,37.54580055310265],[-26.520000000000117,37.53391442970249],[-26.560000000000116,37.5220112329457],[-26.56674981905261,37.51999999999997],[-26.600000000000115,37.510091989726384],[-26.640000000000114,37.49815585036991],[-26.680000000000113,37.48620258352325],[-26.700727952773263,37.47999999999996],[-26.720000000000113,37.4742327760393],[-26.76000000000011,37.46224645726921],[-26.80000000000011,37.450242956587395],[-26.834085185531,37.43999999999997],[-26.84000000000011,37.43822244062505],[-26.88000000000011,37.426185778093405],[-26.92000000000011,37.41413187893913],[-26.960000000000107,37.40206072375797],[-26.966819731440676,37.39999999999997],[-27.000000000000107,37.389973337687124],[-27.040000000000106,37.377868874526634],[-27.080000000000105,37.365747100238366],[-27.098939073810566,37.35999999999997],[-27.120000000000104,37.35360865803253],[-27.160000000000103,37.341453464431254],[-27.200000000000102,37.32928090430854],[-27.23045546148876,37.31999999999997],[-27.2400000000001,37.31709125823526],[-27.2800000000001,37.304885166853424],[-27.3200000000001,37.29266165326224],[-27.3600000000001,37.280420697721866],[-27.361372978588935,37.27999999999997],[-27.400000000000098,37.26816349709855],[-27.440000000000097,37.25588886149377],[-27.480000000000096,37.24359672785549],[-27.491688853499312,37.239999999999974],[-27.520000000000095,37.23128796756295],[-27.560000000000095,37.21896204048395],[-27.600000000000094,37.206618558989526],[-27.621419085193732,37.199999999999974],[-27.640000000000093,37.19425808771971],[-27.680000000000092,37.18188069878589],[-27.72000000000009,37.16948569875564],[-27.7505690772509,37.159999999999975],[-27.76000000000009,37.1570733641045],[-27.80000000000009,37.14464434201085],[-27.84000000000009,37.13219765183928],[-27.879144174258098,37.11999999999997],[-27.880000000000088,37.119733300301384],[-27.920000000000087,37.10725247281406],[-27.960000000000086,37.09475391996537],[-28.000000000000085,37.08223762146887],[-28.00714190613142,37.07999999999998],[-28.040000000000084,37.06970459088046],[-28.080000000000084,37.05715400188409],[-28.120000000000083,37.044585609549614],[-28.134574984948173,37.03999999999998],[-28.160000000000082,37.03200019291056],[-28.20000000000008,37.01939739335674],[-28.24000000000008,37.006776732469135],[-28.26144950302671,36.999999999999986],[-28.28000000000008,36.99413877260613],[-28.32000000000008,36.98148358714138],[-28.360000000000078,36.96881048204039],[-28.38777056582058,36.95999999999998],[-28.400000000000077,36.956119820655864],[-28.440000000000076,36.94341207297864],[-28.480000000000075,36.930686347054376],[-28.51354322361074,36.91999999999998],[-28.520000000000074,36.917942824721244],[-28.560000000000073,36.90518233757734],[-28.600000000000072,36.89240381326587],[-28.63877247220111,36.879999999999974],[-28.640000000000068,36.879607269422124],[-28.68000000000007,36.86679386460028],[-28.72000000000007,36.853962363379146],[-28.76000000000007,36.84111274480509],[-28.76345956080743,36.83999999999998],[-28.800000000000068,36.82824613464992],[-28.840000000000067,36.81536147703366],[-28.880000000000067,36.80245864241342],[-28.887612353172237,36.79999999999998],[-28.920000000000066,36.78953862525408],[-28.960000000000065,36.776600630789694],[-29.000000000000064,36.763644399355655],[-29.01123698831617,36.759999999999984],[-29.040000000000063,36.7506708108515],[-29.080000000000062,36.73767929811408],[-29.12000000000006,36.72466948812521],[-29.13433824115399,36.719999999999985],[-29.16000000000006,36.711642162777665],[-29.20000000000006,36.69859694936585],[-29.24000000000006,36.685533378103266],[-29.256920835575926,36.679999999999986],[-29.280000000000058,36.67245214925042],[-29.320000000000057,36.65935305178195],[-29.360000000000056,36.646235535544335],[-29.378989445076733,36.639999999999986],[-29.400000000000055,36.63310023535561],[-29.440000000000055,36.61994706946286],[-29.480000000000054,36.606775423562105],[-29.50054869337592,36.59999999999999],[-29.520000000000053,36.59358588303282],[-29.560000000000052,36.580378463358315],[-29.60000000000005,36.56715250211498],[-29.62160315502708,36.55999999999999],[-29.64000000000005,36.553908551060985],[-29.68000000000005,36.540646691252945],[-29.72000000000005,36.52736622799182],[-29.742157356018602,36.51999999999999],[-29.760000000000048,36.51406769504416],[-29.800000000000047,36.50075120775199],[-29.840000000000046,36.487416054797635],[-29.862215774364095,36.47999999999999],[-29.880000000000045,36.47406276739707],[-29.920000000000044,36.460691464266986],[-29.960000000000043,36.447301432939284],[-29.98178284068461,36.43999999999999],[-30.000000000000043,36.43389321733101],[-30.040000000000042,36.420466909001526],[-30.08000000000004,36.407021809611145],[-30.100862938780715,36.39999999999999],[-30.12000000000004,36.39355849083939],[-30.16000000000004,36.38007698693686],[-30.20000000000004,36.36657662878096],[-30.219460406196617,36.35999999999999],[-30.240000000000038,36.35305803068355],[-30.280000000000037,36.339521139817805],[-30.320000000000036,36.32596533117544],[-30.337579534774864,36.31999999999999],[-30.36000000000004,36.312391276378506],[-30.400000000000034,36.29879880613832],[-30.440000000000033,36.28518735426613],[-30.45522457120279,36.279999999999994],[-30.480000000000032,36.27155766417873],[-30.52000000000003,36.25790942112745],[-30.56000000000003,36.24424213225513],[-30.572399717550212,36.239999999999995],[-30.600000000000026,36.230556627063926],[-30.64000000000003,36.21685241673504],[-30.680000000000028,36.203129096061],[-30.68910913179932,36.199999999999996],[-30.720000000000027,36.189387594724856],[-30.760000000000026,36.17562722161759],[-30.800000000000026,36.16184767330455],[-30.805356928365892,36.16],[-30.840000000000025,36.148049993549215],[-30.880000000000024,36.13423326112411],[-30.920000000000023,36.12039728829465],[-30.92114717861257,36.12],[-30.960000000000022,36.10654324660749],[-31.00000000000002,36.092669957282055],[-31.036480346692485,36.08],[-31.04000000000002,36.07877746985646],[-31.08000000000002,36.0648667736389],[-31.12000000000002,36.05093672878323],[-31.151362388981717,36.04],[-31.160000000000014,36.036987576362534],[-31.200000000000017,36.02301999103736],[-31.240000000000016,36.00903299096974],[-31.265798424457245,36.0]]}},{"type":"Feature","properties":{"magnitude":0.8,"percentagem":80.0,"territorio":"madeira"},"geometry":{"type":"LineString","coordinates":[[-16.09705586826667,33.77999999999991],[-16.12000000000004,33.7751153082441],[-16.16000000000004,33.76658539329419],[-16.20000000000004,33.7580410313931],[-16.240000000000038,33.74948220916207],[-16.280000000000037,33.74090891319912],[-16.284233854946685,33.73999999999991],[-16.320000000000036,33.7323214194198],[-16.360000000000035,33.72371946000561],[-16.400000000000034,33.71510298724962],[-16.440000000000033,33.7064719876596],[-16.469944383830025,33.6999999999999],[-16.480000000000032,33.697826528451635],[-16.52000000000003,33.68916675640227],[-16.56000000000003,33.680492417635065],[-16.60000000000003,33.671803498566916],[-16.64000000000003,33.6630999855911],[-16.65422401791143,33.65999999999991],[-16.680000000000028,33.654382070794156],[-16.720000000000027,33.64564964901289],[-16.760000000000026,33.6369025930964],[-16.800000000000026,33.628140889346255],[-16.837103941089005,33.61999999999991],[-16.840000000000025,33.61936454696771],[-16.880000000000024,33.61057382364237],[-16.920000000000023,33.6017684119775],[-16.960000000000022,33.59294829818234],[-17.00000000000002,33.58411346844208],[-17.01859379841607,33.57999999999991],[-17.04000000000002,33.57526407730339],[-17.08000000000002,33.566400089449694],[-17.12000000000002,33.557521344795795],[-17.160000000000018,33.54862782943368],[-17.198740747031035,33.539999999999914],[-17.200000000000017,33.53971953925222],[-17.240000000000016,33.53079675321806],[-17.280000000000015,33.521859155337864],[-17.320000000000014,33.512906731609775],[-17.360000000000014,33.50393946800752],[-17.37754453953503,33.499999999999915],[-17.400000000000013,33.49495752440862],[-17.440000000000012,33.48596084936995],[-17.48000000000001,33.47694929296448],[-17.52000000000001,33.46792284107123],[-17.555051954963055,33.459999999999916],[-17.56000000000001,33.458881517523274],[-17.60000000000001,33.44982553981853],[-17.640000000000008,33.440754624846114],[-17.680000000000007,33.4316687583897],[-17.720000000000006,33.4225679262081],[-17.73126879222138,33.419999999999916],[-17.760000000000005,33.413452332929815],[-17.800000000000004,33.404321831911815],[-17.840000000000003,33.39517632302829],[-17.880000000000003,33.38601579194186],[-17.90622614565368,33.37999999999992],[-17.92,33.37684032822425],[-17.96,33.36765001208188],[-18.0,33.3584446313045]]}},{"type":"Feature","properties":{"magnitude":0.9,"percentagem":90.0,"territorio":"madeira"},"geometry":{"type":"LineString","coordinates":[[-15.040000000000063,30.860665720822727],[-15.043172504435761,30.85999999999997],[-15.080000000000062,30.852271422655832],[-15.120000000000061,30.843862396488777],[-15.16000000000006,30.835438631173083],[-15.20000000000006,30.827000113187943],[-15.233124232154246,30.819999999999972],[-15.240000000000059,30.81854682299734],[-15.280000000000058,30.81007872404074],[-15.320000000000057,30.801595831554295],[-15.360000000000056,30.793098131927465],[-15.400000000000055,30.78458561152675],[-15.421510964628318,30.779999999999973],[-15.440000000000055,30.776058238099516],[-15.480000000000054,30.76751599478654],[-15.520000000000053,30.75895888949391],[-15.560000000000052,30.75038690849759],[-15.600000000000051,30.741800038050382],[-15.608371109800178,30.739999999999974],[-15.640000000000052,30.73319822825412],[-15.680000000000048,30.724581491717107],[-15.720000000000049,30.715949824175063],[-15.760000000000048,30.707303211789444],[-15.793727417793512,30.699999999999974],[-15.800000000000047,30.698641632684467],[-15.840000000000048,30.689965037759425],[-15.880000000000045,30.681273456153832],[-15.920000000000044,30.672566873937203],[-15.960000000000043,30.663845277155506],[-15.977606181179262,30.659999999999975],[-16.000000000000043,30.655108620070735],[-16.040000000000042,30.64635689530542],[-16.08000000000004,30.63759011378421],[-16.12000000000004,30.6288082614603],[-16.16000000000004,30.62001132426312],[-16.160051408153123,30.619999999999976],[-16.20000000000004,30.61119922573294],[-16.240000000000038,30.602372013841837],[-16.280000000000037,30.593529674529748],[-16.320000000000036,30.584672193632507],[-16.341064272440814,30.579999999999977],[-16.360000000000035,30.575799524725614],[-16.400000000000034,30.566911649796662],[-16.440000000000033,30.558008590445187],[-16.480000000000032,30.549090332412753],[-16.52000000000003,30.54015686141683],[-16.520701220739465,30.539999999999978],[-16.56000000000003,30.531208090464716],[-16.60000000000003,30.522244076406494],[-16.64000000000003,30.513264806184957],[-16.680000000000028,30.50427026542245],[-16.69895916777436,30.49999999999998],[-16.720000000000027,30.495260397745355],[-16.760000000000026,30.486235192685953],[-16.800000000000026,30.47719467359161],[-16.840000000000025,30.468138825988945],[-16.875889016949586,30.45999999999998],[-16.88000000000002,30.459067626574953],[-16.920000000000023,30.449980992581814],[-16.960000000000022,30.440878986290194],[-17.00000000000002,30.431761593130318],[-17.04000000000002,30.422628798507724],[-17.05149502412577,30.41999999999998],[-17.08000000000002,30.41348052237171],[-17.12000000000002,30.404316788906492],[-17.160000000000018,30.395137609817795],[-17.200000000000017,30.385942970413918],[-17.22581148405775,30.37999999999998],[-17.240000000000016,30.376732821265826],[-17.280000000000015,30.36750711898764],[-17.320000000000014,30.358265911932804],[-17.360000000000014,30.349009185311694],[-17.398865210919478,30.339999999999982],[-17.400000000000013,30.33973692135973],[-17.440000000000012,30.330449006955032],[-17.48000000000001,30.321145528219837],[-17.52000000000001,30.311826470265906],[-17.56000000000001,30.30249181817979],[-17.570660634846554,30.299999999999983],[-17.60000000000001,30.293141476056913],[-17.640000000000008,30.28377548023896],[-17.680000000000007,30.274393845145735],[-17.720000000000006,30.264996555764323],[-17.74123362962712,30.259999999999984],[-17.760000000000005,30.25558354232078],[-17.800000000000004,30.246154782318204],[-17.840000000000003,30.23671032257699],[-17.880000000000003,30.22725014798406],[-17.910605262817704,30.219999999999985],[-17.92,30.21777421450554],[-17.96,30.208282441505652],[-18.0,30.198774907894165]]}}]}