{"type":"FeatureCollection","features":[{"type":"Feature","properties":{"magnitude":0.6,"percentagem":60.0,"territorio":"continente"},"geometry":{"type":"LineString","coordinates":[[-7.3440857598689915,36.0],[-7.340000000000067,36.00433367168484],[-7.306366095939413,36.04],[-7.300000000000068,36.046748185295],[-7.268623450721337,36.08],[-7.260000000000069,36.08913529302765],[-7.230857553234743,36.12],[-7.22000000000007,36.13149470601461],[-7.193068131920302,36.16],[-7.180000000000071,36.17382613667127],[-7.155254914633594,36.199999999999996],[-7.140000000000072,36.216129298709504],[-7.117417628638353,36.239999999999995],[-7.1000000000000725,36.25840390714929],[-7.079556000600417,36.279999999999994],[-7.060000000000073,36.3006496783315],[-7.041669756581492,36.31999999999999],[-7.020000000000074,36.34286632992942],[-7.003758622032793,36.35999999999999],[-6.980000000000075,36.38505358096119],[-6.965822321788705,36.39999999999999],[-6.940000000000076,36.427211151800655],[-6.9278605800602815,36.43999999999999],[-6.900000000000077,36.46933876418952],[-6.889873120429175,36.47999999999999],[-6.860000000000078,36.51143614124864],[-6.851859665840994,36.51999999999999],[-6.820000000000078,36.55350300748901],[-6.813819938599115,36.55999999999999],[-6.780000000000079,36.59553908882279],[-6.775753660357841,36.59999999999999],[-6.74000000000008,36.63754411257423],[-6.737660552116312,36.639999999999986],[-6.700000000000081,36.6795178074904],[-6.699540334211843,36.679999999999986],[-6.661393117603705,36.719999999999985],[-6.660000000000081,36.721460148269806],[-6.6232183458357605,36.759999999999984],[-6.620000000000083,36.76337069230477],[-6.585015607339315,36.79999999999998],[-6.580000000000084,36.805249091312305],[-6.546784619793062,36.83999999999998],[-6.540000000000084,36.84709507997451],[-6.508525100183331,36.87999999999998],[-6.500000000000085,36.88890839444808],[-6.470236764797378,36.91999999999998],[-6.460000000000086,36.93068877237378],[-6.431919329216542,36.95999999999998],[-6.420000000000087,36.97243595288589],[-6.393572508309846,36.99999999999998],[-6.380000000000088,37.01414967662137],[-6.355196016227167,37.03999999999998],[-6.340000000000089,37.055829685729194],[-6.316789566392432,37.07999999999997],[-6.3000000000000895,37.09747572387888],[-6.278352871497182,37.119999999999976],[-6.26000000000009,37.13908753626945],[-6.239885643493292,37.159999999999975],[-6.220000000000091,37.180664869637866],[-6.201387593586674,37.199999999999974],[-6.180000000000092,37.22220747226733],[-6.162858432230119,37.239999999999974],[-6.140000000000093,37.26371509399555],[-6.124297869116643,37.27999999999997],[-6.100000000000094,37.305187486222835],[-6.085705613172598,37.31999999999997],[-6.060000000000095,37.3466244019195],[-6.047081372550581,37.35999999999997],[-6.0200000000000955,37.38802559563398],[-6.00842485462273,37.39999999999997],[-5.980000000000096,37.42939082349992],[-5.969735765973774,37.43999999999997],[-5.940000000000097,37.470719843243636],[-5.931013812393902,37.47999999999997],[-5.900000000000098,37.51201241419112],[-5.892258698871847,37.51999999999997],[-5.860000000000099,37.553268297274975],[-5.853470129588038,37.55999999999997],[-5.8200000000001,37.594487255041116],[-5.814647807907261,37.599999999999966],[-5.780000000000101,37.635669051655185],[-5.775791436371688,37.639999999999965],[-5.7400000000001015,37.6768134529092],[-5.736900716693962,37.679999999999964],[-5.700000000000102,37.71792022622727],[-5.697975349749711,37.71999999999996],[-5.660000000000103,37.758989140672114],[-5.659015035570849,37.75999999999996],[-5.620019477911139,37.79999999999996],[-5.620000000000104,37.80001996954414],[-5.580988591721611,37.83999999999996],[-5.580000000000105,37.841012607591075],[-5.541921841514984,37.87999999999997],[-5.540000000000106,37.88196669630805]]}},{"type":"Feature","properties":{"magnitude":0.9,"percentagem":90.0,"territorio":"acores"},"geometry":{"type":"LineString","coordinates":[[-28.571637197507908,36.0],[-28.560000000000073,36.01151869444601],[-28.531240250920675,36.04],[-28.520000000000074,36.05113895252356],[-28.49089115030325,36.08],[-28.480000000000075,36.09080570308119],[-28.450589575460096,36.11999999999999],[-28.440000000000076,36.13051879981627],[-28.410335207021397,36.16],[-28.400000000000077,36.17027809451769],[-28.370127726438334,36.2],[-28.360000000000078,36.21008343706402],[-28.32996681597769,36.239999999999995],[-28.32000000000008,36.2499346754207],[-28.289852158717512,36.279999999999994],[-28.28000000000008,36.28983165563888],[-28.24978343854168,36.31999999999999],[-28.24000000000008,36.32977422185298],[-28.209760340135205,36.35999999999999],[-28.20000000000008,36.36976221627938],[-28.169782548979477,36.39999999999999],[-28.16000000000008,36.40979547921499],[-28.129849751346864,36.43999999999999],[-28.120000000000083,36.44987384903549],[-28.08996163429657,36.47999999999999],[-28.080000000000084,36.48999716219494],[-28.050117885669074,36.51999999999999],[-28.040000000000084,36.53016525322397],[-28.010318194081655,36.55999999999999],[-28.000000000000085,36.57037795472948],[-27.97056224892337,36.59999999999999],[-27.960000000000086,36.610635097393796],[-27.93084974035023,36.639999999999986],[-27.920000000000087,36.65093650997409],[-27.89118035928041,36.679999999999986],[-27.880000000000088,36.69128201930216],[-27.851553797389382,36.719999999999985],[-27.84000000000009,36.73167145028441],[-27.811969747104925,36.759999999999984],[-27.80000000000009,36.772104625901264],[-27.77242790160264,36.79999999999998],[-27.76000000000009,36.81258136720818],[-27.732927954800786,36.83999999999998],[-27.72000000000009,36.85310149333525],[-27.693469601355684,36.87999999999998],[-27.680000000000092,36.89366482148809],[-27.654052536656792,36.91999999999998],[-27.640000000000093,36.93427116694855],[-27.61467645682205,36.95999999999998],[-27.600000000000094,36.97492034307529],[-27.575341058692846,36.99999999999998],[-27.560000000000095,37.01561216130513],[-27.536046039829543,37.03999999999998],[-27.520000000000095,37.05634643115404],[-27.496791098506435,37.07999999999998],[-27.480000000000096,37.0971229602187],[-27.457575933707208,37.119999999999976],[-27.440000000000097,37.13794155417799],[-27.418400245119912,37.159999999999975],[-27.400000000000098,37.178802016794634],[-27.379263733132422,37.199999999999974],[-27.3600000000001,37.219704149917305],[-27.340166098827602,37.239999999999974],[-27.3200000000001,37.260647753482694],[-27.30110704397866,37.27999999999997],[-27.2800000000001,37.30163262551768],[-27.262086271044026,37.31999999999997],[-27.2400000000001,37.342658562141864],[-27.22310348316323,37.35999999999997],[-27.200000000000102,37.38372535757042],[-27.184158384151672,37.39999999999997],[-27.160000000000103,37.42483280411649],[-27.14525067849607,37.43999999999997],[-27.120000000000104,37.465980692194805],[-27.106380071349832,37.47999999999997],[-27.080000000000105,37.50716881032429],[-27.06754626852817,37.51999999999997],[-27.040000000000106,37.54839694513187],[-27.0287489765035,37.55999999999997],[-27.000000000000107,37.58966488135595],[-26.989987902400745,37.599999999999966],[-26.960000000000107,37.6309724018501],[-26.951262753992495,37.639999999999965],[-26.92000000000011,37.67231928758719],[-26.91257323969466,37.679999999999964],[-26.88000000000011,37.71370531766337],[-26.87391906856131,37.71999999999996],[-26.84000000000011,37.7551302693023],[-26.8352999502802,37.75999999999996],[-26.80000000000011,37.79659391786018],[-26.796715595168337,37.79999999999996],[-26.76000000000011,37.83809603683002],[-26.75816571416703,37.83999999999996],[-26.720000000000113,37.87963639784652],[-26.719650018837086,37.87999999999996],[-26.681169028457226,37.91999999999996],[-26.680000000000113,37.92121581417182],[-26.642721910252956,37.95999999999995],[-26.640000000000114,37.96283335097206],[-26.60430813504381,37.99999999999996],[-26.600000000000115,38.00448846109289],[-26.56592741649392,38.03999999999996],[-26.560000000000116,38.0461809083942],[-26.527579468865724,38.079999999999956],[-26.520000000000117,38.08791045490401],[-26.489264007015027,38.119999999999955],[-26.480000000000118,38.129676860824446],[-26.450980746386424,38.159999999999954],[-26.440000000000115,38.17147988453787],[-26.412729403008463,38.19999999999995],[-26.40000000000012,38.21331928261351],[-26.374509693489365,38.23999999999995],[-26.36000000000012,38.25519480981421],[-26.33632133501208,38.27999999999995],[-26.32000000000012,38.297106219103185],[-26.29816404532972,38.31999999999995],[-26.280000000000122,38.33905326165123],[-26.260037542760966,38.35999999999995],[-26.240000000000123,38.38103568684376],[-26.22194154618544,38.39999999999995],[-26.200000000000124,38.42305324228879],[-26.18387577503919,38.43999999999995],[-26.160000000000124,38.465105673824034],[-26.145839949309682,38.47999999999995],[-26.120000000000125,38.507192725525],[-26.107833789531586,38.519999999999946],[-26.080000000000126,38.54931413971312],[-26.069857016782002,38.559999999999945],[-26.040000000000127,38.59146965696402],[-26.031909352675864,38.599999999999945],[-26.000000000000128,38.6336590161157],[-25.993990519361184,38.639999999999944],[-25.96000000000013,38.675881954277436],[-25.956100239514672,38.67999999999994],[-25.92000000000013,38.71813820683846],[-25.91823823633691,38.71999999999994],[-25.880404502205103,38.75999999999994],[-25.88000000000013,38.76042786189729],[-25.842599678637335,38.79999999999994],[-25.84000000000013,38.80275186339795],[-25.804822316915438,38.83999999999994],[-25.800000000000132,38.84510839481999],[-25.767072141995033,38.87999999999994],[-25.760000000000133,38.88749718435057],[-25.729348879334243,38.91999999999994],[-25.720000000000134,38.929917958503516],[-25.691652254889185,38.95999999999994],[-25.680000000000135,38.97237044212963],[-25.653981995109085,38.999999999999936],[-25.640000000000136,39.01485435842646],[-25.616337826932064,39.039999999999935],[-25.600000000000136,39.05736942894927],[-25.578719477780247,39.07999999999994],[-25.560000000000137,39.09991537362124],[-25.541126675555407,39.11999999999993],[-25.520000000000138,39.14249191074467],[-25.503559148634153,39.15999999999993],[-25.48000000000014,39.185098757011346],[-25.466016625863332,39.19999999999993],[-25.44000000000014,39.227735627514335],[-25.42849883655549,39.23999999999993],[-25.40000000000014,39.27040223575905],[-25.391005510484444,39.27999999999993],[-25.36000000000014,39.313098293674955],[-25.35353637788052,39.31999999999993],[-25.320000000000142,39.355823511626994],[-25.316091169425736,39.35999999999993],[-25.280000000000143,39.39857759842798],[-25.278669616249747,39.39999999999993],[-25.24127226770327,39.43999999999993],[-25.240000000000144,39.441361354164826],[-25.203898903455478,39.479999999999926],[-25.200000000000145,39.48417455037321],[-25.166548398250793,39.519999999999925],[-25.160000000000146,39.52701574579979],[-25.12922048469337,39.559999999999924],[-25.120000000000147,39.569884642755845],[-25.09191489581313,39.59999999999992],[-25.080000000000148,39.61278094206313],[-25.054631365061425,39.639999999999915],[-25.04000000000015,39.65570434306716],[-25.017369626306202,39.67999999999992],[-25.00000000000015,39.698654543650335],[-24.980129413827527,39.71999999999992],[-24.96000000000015,39.7416312402453],[-24.942910462312923,39.75999999999992],[-24.92000000000015,39.78463412784862],[-24.905712506852687,39.79999999999992],[-24.88000000000015,39.82766290003469],[-24.868535282935717,39.83999999999992],[-24.840000000000153,39.870717248969406],[-24.83137852644416,39.87999999999992],[-24.800000000000153,39.913796865424445],[-24.794241973649523,39.919999999999916],[-24.760000000000154,39.95690143879166],[-24.757125361207688,39.959999999999916],[-24.72002844393422,39.999999999999915],[-24.720000000000155,40.00003068105799],[-24.682952747701197,40.039999999999914],[-24.680000000000156,40.04318669028289],[-24.64589620821834,40.079999999999906],[-24.640000000000157,40.08636672439556],[-24.608858563385443,40.11999999999991],[-24.600000000000158,40.12957046700909],[-24.571839551465047,40.15999999999991],[-24.56000000000016,40.17279760043187],[-24.534838911078296,40.19999999999991],[-24.52000000000016,40.216047805683104],[-24.49785638119984,40.23999999999991],[-24.48000000000016,40.25932076250815],[-24.460891701153393,40.27999999999991],[-24.44000000000016,40.30261614939419],[-24.42394461060716,40.31999999999991],[-24.400000000000162,40.34593364358609],[-24.387014849569148,40.35999999999991],[-24.360000000000163,40.38927292110252],[-24.350102158382704,40.399999999999906],[-24.320000000000164,40.43263365675157],[-24.31320627772143,40.439999999999905],[-24.280000000000165,40.4760155241477],[-24.276326948585126,40.479999999999905]]}},{"type":"Feature","properties":{"magnitude":0.95,"percentagem":95.0,"territorio":"acores"},"geometry":{"type":"LineString","coordinates":[[-32.0,36.879479448006975],[-31.999457528914665,36.87999999999998],[-31.96,36.917894193163505],[-31.95780857896823,36.91999999999998],[-31.92,36.956361111299636],[-31.916218419911516,36.95999999999998],[-31.880000000000003,36.99488011242015],[-31.874686696527526,36.99999999999998],[-31.840000000000003,37.03345110464307],[-31.83321305465727,37.03999999999998],[-31.800000000000004,37.072073994192635],[-31.79179714119367,37.07999999999998],[-31.760000000000005,37.11074868539251],[-31.75043860407582,37.119999999999976],[-31.720000000000006,37.149475080659556],[-31.709137092283406,37.159999999999975],[-31.680000000000007,37.18825308049733],[-31.66789225583097,37.199999999999974],[-31.640000000000008,37.22708258348948],[-31.626703745762015,37.239999999999974],[-31.60000000000001,37.26596348629393],[-31.5855712141435,37.27999999999997],[-31.56000000000001,37.3048956836367],[-31.54449431406003,37.31999999999997],[-31.52000000000001,37.34387906830571],[-31.50347269960823,37.35999999999997],[-31.48000000000001,37.38291353114543],[-31.462506025891106,37.39999999999997],[-31.440000000000012,37.421998961050704],[-31.42159394901231,37.43999999999997],[-31.400000000000013,37.46113524496164],[-31.380736126070776,37.47999999999997],[-31.360000000000014,37.500322267858074],[-31.339932215154874,37.51999999999997],[-31.320000000000014,37.53955991275397],[-31.299181875336757,37.55999999999997],[-31.280000000000015,37.57884806069268],[-31.258484766667024,37.599999999999966],[-31.24000000000002,37.618186590741786],[-31.217840550168972,37.63999999999997],[-31.200000000000017,37.65757537998828],[-31.17724888783318,37.679999999999964],[-31.160000000000018,37.69701430353364],[-31.13670944261185,37.71999999999997],[-31.12000000000002,37.73650323448969],[-31.096221878413374,37.75999999999996],[-31.08000000000002,37.77604204397362],[-31.0557858600966,37.79999999999996],[-31.04000000000002,37.81563060110402],[-31.01540105346577,37.83999999999996],[-31.00000000000002,37.855268772996865],[-30.97506712526463,37.87999999999995],[-30.960000000000022,37.89495642476118],[-30.934783743171188,37.91999999999996],[-30.920000000000023,37.93469341949545],[-30.894550575792046,37.95999999999996],[-30.88000000000002,37.97447961828383],[-30.8543672926573,37.99999999999996],[-30.840000000000025,38.014314880192714],[-30.814233564214682,38.039999999999964],[-30.800000000000026,38.05419906226725],[-30.77414906182449,38.079999999999956],[-30.760000000000026,38.09413201952819],[-30.734113457754027,38.119999999999955],[-30.720000000000027,38.13411360496886],[-30.694126425172158,38.159999999999954],[-30.680000000000028,38.1741436695522],[-30.654187638144037,38.199999999999946],[-30.64000000000003,38.214222062208115],[-30.61429677162578,38.23999999999995],[-30.60000000000003,38.25434862983087],[-30.574453501458866,38.27999999999995],[-30.56000000000003,38.29452321727663],[-30.53465750436505,38.31999999999995],[-30.52000000000003,38.33474566736147],[-30.49490845794086,38.35999999999995],[-30.480000000000032,38.37501582085882],[-30.45520604065232,38.39999999999995],[-30.440000000000033,38.41533351649824],[-30.41554993182975,38.43999999999995],[-30.400000000000034,38.45569859096312],[-30.37593981166225,38.47999999999995],[-30.360000000000035,38.49611087888949],[-30.336375361192594,38.519999999999946],[-30.320000000000036,38.53657021286444],[-30.296856262311834,38.559999999999945],[-30.280000000000037,38.57707642342514],[-30.257382197754104,38.59999999999994],[-30.240000000000038,38.61762933905747],[-30.217952851091304,38.639999999999944],[-30.20000000000004,38.65822878619569],[-30.178567906727864,38.679999999999936],[-30.16000000000004,38.69887458922125],[-30.139227049895567,38.71999999999994],[-30.12000000000004,38.73956657046271],[-30.099929966648276,38.759999999999934],[-30.08000000000004,38.78030455019522],[-30.060676343856567,38.79999999999994],[-30.040000000000042,38.821088346640416],[-30.02146586920285,38.83999999999994],[-30.000000000000043,38.86191777596677],[-29.982298231175896,38.87999999999994],[-29.960000000000043,38.90279265228938],[-29.94317311906571,38.91999999999994],[-29.920000000000044,38.94371278767095],[-29.904090222958477,38.95999999999994],[-29.880000000000045,38.984677992121846],[-29.86504923373112,38.999999999999936],[-29.840000000000046,39.02568807360144],[-29.826049843046405,39.039999999999935],[-29.800000000000047,39.06674283801888],[-29.787091743347812,39.079999999999934],[-29.760000000000048,39.107842089234325],[-29.748174627854077,39.11999999999993],[-29.72000000000005,39.148985629060306],[-29.709298190554286,39.15999999999993],[-29.68000000000005,39.19017325726337],[-29.670462126202768,39.19999999999993],[-29.64000000000005,39.23140477156596],[-29.63166613031392,39.23999999999993],[-29.60000000000005,39.27267996764823],[-29.59290989915704,39.27999999999993],[-29.560000000000052,39.31399863915036],[-29.554193129751376,39.31999999999993],[-29.520000000000053,39.35536057767487],[-29.51551551986087,39.35999999999993],[-29.480000000000054,39.39676557278922],[-29.47687676798914,39.39999999999992],[-29.440000000000055,39.43821341202855],[-29.43827657337443,39.43999999999993],[-29.400000000000055,39.47970388089882],[-29.399714635984544,39.479999999999926],[-29.361191512389684,39.519999999999925],[-29.360000000000056,39.521237953489745],[-29.322706276856906,39.55999999999992],[-29.320000000000057,39.562814542569875],[-29.284258425657654,39.59999999999992],[-29.280000000000058,39.604433141699744],[-29.24584766126778,39.63999999999992],[-29.24000000000006,39.646093527885526],[-29.207473686869104,39.67999999999992],[-29.20000000000006,39.687795476119675],[-29.169136206344746,39.71999999999992],[-29.160000000000057,39.72953875938541],[-29.13083492427375,39.75999999999992],[-29.12000000000006,39.77132314866102],[-29.092569545926438,39.79999999999992],[-29.080000000000062,39.81314841292461],[-29.054339777258907,39.83999999999992],[-29.040000000000063,39.85501431915887],[-29.016145324908656,39.87999999999991],[-29.000000000000064,39.8969206323563],[-28.977985896188915,39.919999999999916],[-28.960000000000065,39.938867115524346],[-28.939861199084078,39.959999999999916],[-28.920000000000066,39.98085352969086],[-28.901770942244685,39.999999999999915],[-28.880000000000067,40.02287963391013],[-28.863714834982325,40.039999999999914],[-28.840000000000067,40.0649451852684],[-28.825692587264637,40.07999999999991],[-28.800000000000068,40.10704993889027],[-28.787703909710547,40.11999999999991],[-28.76000000000007,40.14919364794475],[-28.749748513584972,40.15999999999991],[-28.72000000000007,40.19137606365216],[-28.711826110794256,40.19999999999991],[-28.68000000000007,40.2335969352906],[-28.67393641388087,40.23999999999991],[-28.64000000000007,40.27585601020305],[-28.636079136018697,40.27999999999991],[-28.600000000000072,40.318153033804435],[-28.598253991007937,40.31999999999991],[-28.56046101230398,40.359999999999914],[-28.560000000000073,40.36048820550497],[-28.522700823393304,40.39999999999991],[-28.520000000000074,40.40286256816374],[-28.484971928213795,40.439999999999905],[-28.480000000000075,40.4452741318712],[-28.447274042699352,40.479999999999905]]}},{"type":"Feature","properties":{"magnitude":0.95,"percentagem":95.0,"territorio":"acores"},"geometry":{"type":"LineString","coordinates":[[-31.541659048144297,40.479999999999905],[-31.56000000000001,40.46063094296484],[-31.57954338863162,40.439999999999905],[-31.60000000000001,40.41841961801425],[-31.617467225159174,40.399999999999906],[-31.640000000000008,40.376254788113414],[-31.65543085556245,40.35999999999991],[-31.680000000000007,40.33413666859083],[-31.693434578444176,40.31999999999991],[-31.720000000000006,40.29206547254584],[-31.731478693179916,40.27999999999991],[-31.760000000000005,40.25004141084659],[-31.769563499922715,40.23999999999991],[-31.800000000000004,40.20806469212837],[-31.80768929960864,40.19999999999991],[-31.840000000000003,40.16613552279189],[-31.845856393961533,40.15999999999991],[-31.880000000000003,40.124254107002486],[-31.884065085498662,40.11999999999991],[-31.92,40.08242064668835],[-31.922315677535263,40.07999999999991],[-31.96,40.04063534154038],[-31.960608474190355,40.039999999999914],[-31.998944565347948,39.999999999999915],[-32.0,39.998899546482214]]}}]}