{"type":"FeatureCollection","properties":{"largura_maxima_km":null,"largura_sobre_pt_km":null,"linha_central_sobre_pt":false,"desenhavel_como_area":true,"perfil_largura":[{"t":1.12222,"lat":26.482,"lon":-42.4931,"largura_km":null,"eixo_na_terra":false},{"t":1.12778,"lat":26.3903,"lon":-42.1224,"largura_km":null,"eixo_na_terra":false},{"t":1.13333,"lat":26.2934,"lon":-41.6977,"largura_km":null,"eixo_na_terra":false},{"t":1.13889,"lat":26.1736,"lon":-41.2029,"largura_km":null,"eixo_na_terra":false},{"t":1.14444,"lat":26.0901,"lon":-41.2378,"largura_km":null,"eixo_na_terra":false},{"t":1.15,"lat":25.9863,"lon":-40.9735,"largura_km":null,"eixo_na_terra":false},{"t":1.15556,"lat":25.8812,"lon":-40.8289,"largura_km":null,"eixo_na_terra":false},{"t":1.16111,"lat":25.8056,"lon":-40.3057,"largura_km":null,"eixo_na_terra":false},{"t":1.16667,"lat":25.66,"lon":-39.9236,"largura_km":null,"eixo_na_terra":false},{"t":1.17222,"lat":25.5582,"lon":-40.0516,"largura_km":null,"eixo_na_terra":false},{"t":1.17778,"lat":25.485,"lon":-39.7102,"largura_km":null,"eixo_na_terra":false},{"t":1.18333,"lat":25.326,"lon":-39.2522,"largura_km":null,"eixo_na_terra":false},{"t":1.18889,"lat":25.2665,"lon":-38.9436,"largura_km":null,"eixo_na_terra":false},{"t":1.19444,"lat":25.1568,"lon":-39.0047,"largura_km":null,"eixo_na_terra":false},{"t":1.2,"lat":25.0477,"lon":-38.9021,"largura_km":null,"eixo_na_terra":false},{"t":1.20556,"lat":24.984,"lon":-38.1254,"largura_km":null,"eixo_na_terra":false},{"t":1.21111,"lat":24.8686,"lon":-37.8097,"largura_km":null,"eixo_na_terra":false},{"t":1.21667,"lat":24.7051,"lon":-37.7328,"largura_km":null,"eixo_na_terra":false},{"t":1.22222,"lat":24.6312,"lon":-37.1952,"largura_km":null,"eixo_na_terra":false},{"t":1.22778,"lat":24.5079,"lon":-36.5373,"largura_km":null,"eixo_na_terra":false}]},"features":[{"type":"Feature","properties":{},"geometry":{"type":"Polygon","coordinates":[[[-44.39414781911865,24.589553706060887],[-44.660371243552675,24.62311497360732],[-44.83516204009166,24.648098604656],[-45.01039522055196,24.675791765374157],[-45.25167005303962,24.707373416297077],[-45.41712964707634,24.731885117057697],[-45.589622676932414,24.76025395113087],[-45.80966184376658,24.790074471839972],[-45.96712289313405,24.814178336247906],[-46.13726731436351,24.843199949815986],[-46.338952349612754,24.87143301490964],[-46.48945935287887,24.895179480783916],[-46.65755996494738,24.924832087412774],[-46.84318003235509,24.951618933729243],[-46.987569607150164,24.975048563698792],[-47.15386924592858,25.00531164626358],[-47.32527852696731,25.030769320303392],[-47.464233051464646,25.053915332545728],[-47.62892895947455,25.084769660700864],[-47.78765408102808,25.108996715108635],[-47.921738760546106,25.131886735105887],[-48.084993788073334,25.163314315682534],[-48.23230939558658,25.18639486333103],[-48.36199861238961,25.209052171283265],[-48.52394911206378,25.241036169774834],[-48.66093241837132,25.263042843480555],[-48.78662892333287,25.285487284399537],[-48.947390457058084,25.31801193663308],[-49.07496149871247,25.339008097939352],[-49.197010686330515,25.361256759740982],[-49.31380519022562,25.384780558765097],[-49.425312480045335,25.40955603134135],[-49.53150064883346,25.43555814786637],[-49.63233846358111,25.46276033920075],[-49.727795414145504,25.491134524322902],[-49.81784176070215,25.52065113923223],[-49.90244857987153,25.551279167092826],[-49.98158780963965,25.582986169608247],[-50.05523229317035,25.615738319616963],[-50.12335582159156,25.649500434897394],[-50.18593317581906,25.684236013170743],[-50.24294016746907,25.719907268289017],[-50.294353678896385,25.756475167595234],[-50.340151702382656,25.793899470441733],[-50.38031337848929,25.832138767852175],[-50.41481903357757,25.871150523311915],[-50.443650216490056,25.910891114670715],[-50.466789734377414,25.951315877140885],[-50.48422168764691,25.992379147373363],[-50.49593150399946,26.03403430859299],[-50.501905971515384,26.076233836773465],[-50.50213327073993,26.118929347831546],[-50.49660300571293,26.162071645818482],[-50.48530623387944,26.20561077208619],[-50.468235494809704,26.249496055403537],[-50.445384837650806,26.293676162997457],[-50.41674984722343,26.338099152491683],[-50.38232766867023,26.382712524714467],[-50.34211703055411,26.427463277344923],[-50.29611826629642,26.472297959365772],[-50.24433333383689,26.51716272628859],[-50.18676583338748,26.562003396115202],[-50.12342102314378,26.606765505997185],[-50.05430583280639,26.651394369552776],[-49.979428874755115,26.695835134798436],[-49.898800452705615,26.740032842649565],[-49.81243256766683,26.783932485942316],[-49.720338921002366,26.827479068925737],[-49.6225349143846,26.870617667170592],[-49.51903764641207,26.91329348783805],[-49.409865905642505,26.955451930248444],[-49.2950401597719,26.997038646687045],[-49.17458254066571,27.037999603380072],[-49.04851682492139,27.07828114157094],[-48.91686840960884,27.117830038622714],[-48.7796642828003,27.156593569068832],[-48.63693298846022,27.19451956553026],[-48.488704585215515,27.2315564794123],[-48.33501059847464,27.267653441290417],[-48.17588396529541,27.302760320888545],[-48.01135897132926,27.3368277865491],[-47.841471179079264,27.369807364087],[-47.66625734660607,27.401651494914862],[-47.48575533569226,27.432313593318817],[-47.30000400833248,27.46174810275722],[-47.109043110241345,27.48991055104584],[-46.91291313986912,27.516757604283313],[-46.711655201166224,27.542247119359953],[-46.29392184814549,27.58899122031002],[-45.85617716151904,27.629831413951518],[-45.62990430212568,27.64794622876465],[-45.16275933159383,27.67939533830852],[-44.67640285101146,27.704261485086107],[-44.171110808687075,27.72231590826067],[-43.9114371913935,27.728724257228855],[-43.378143970813284,27.7361885511385],[-42.82633197419793,27.736382414864423],[-42.25597584458134,27.729167566776443],[-41.963787200959416,27.722745390889106],[-41.36514055748751,27.704210948787154],[-41.05852075513795,27.692078166032733],[-40.746883154507515,27.678023014137768],[-40.1078741509975,27.64411361934778],[-39.780038281263984,27.62424381678986],[-39.10602175499341,27.578630697149492],[-38.404072710647256,27.5251053434785],[-37.52592446578524,27.45101397169891],[-35.814424398459465,27.33091675471281],[-34.80268435022671,27.274106598216125],[-33.633293719868846,27.213874822333654],[-33.68588909222072,27.021220838906064],[-33.67234424702295,26.988680312399822],[-33.474141056222834,26.982370585020732],[-33.59076425185192,26.792690180620504],[-33.26516140729893,26.0104525220146],[-33.426696489934706,26.008363287140128],[-32.76769622315538,25.182498316751897],[-33.86310839391497,25.20475619791725],[-33.58890157518783,24.357565277745145],[-33.77802343739045,24.363215455335496],[-33.56882455695444,23.998630080502352],[-34.50359850027537,24.034215412228384],[-34.52282456994223,23.942047769577528],[-34.91755984546739,23.95720392959274],[-34.95408347195998,23.875844146854455],[-34.91494078570781,23.68570894789959],[-36.00199489579521,23.750402493779678],[-36.735550851206455,23.800252836412337],[-37.316585443890546,23.84457099704862],[-37.51607714466782,23.861544122268185],[-38.10695051871676,23.905118252181094],[-38.54352139865978,23.941087238448358],[-38.93299541187662,23.97642367439023],[-39.11120688891863,23.99423098021427],[-39.49758856159073,24.02666729301035],[-39.837299351515725,24.058061307800642],[-40.14951771314557,24.089735023299205],[-40.32688225164808,24.109494879860236],[-40.60614775973568,24.135095582014173],[-40.89347817434282,24.16399191533644],[-41.161174501231415,24.193532968909064],[-41.34030729586439,24.21522787844275],[-41.55139334306327,24.235916843082656],[-41.804713437785495,24.263176700568003],[-42.04257293934617,24.291274402273714],[-42.22224460152321,24.314570267255306],[-42.61566491204076,24.3576889079934],[-42.83175433527211,24.38472346119413],[-43.011516474737356,24.409418647839882],[-43.35192799008195,24.448717750989257],[-43.55123704186289,24.474925290098135],[-43.73090291219008,24.500880581865662],[-44.02978916734298,24.53702055915049],[-44.21565707995322,24.562559752137407],[-44.39414781911865,24.589553706060887]]]}}]}