{"type":"FeatureCollection","features":[{"type":"Feature","properties":{"magnitude":0.2,"de":0.2,"ate":0.5,"percentagem":20.0},"geometry":{"type":"Polygon","coordinates":[[[-22.976846250365405,30.0],[-17.638213376541493,30.0],[-13.996839126041952,39.2399999999998],[-11.65961377297668,44.939999999999685],[-18.219212175877804,44.939999999999685],[-19.26503242857363,41.27999999999976],[-20.447595652877297,37.43999999999984],[-21.71114794803525,33.59999999999992],[-22.976846250365405,30.0]]]}},{"type":"Feature","properties":{"magnitude":0.5,"de":0.5,"ate":0.8,"percentagem":50.0},"geometry":{"type":"Polygon","coordinates":[[[-28.62093414461499,30.0],[-22.976846250365405,30.0],[-21.711147948035247,33.59999999999992],[-20.447595652877297,37.43999999999984],[-19.26503242857363,41.27999999999976],[-18.219212175877804,44.939999999999685],[-34.5,44.939999999999685],[-34.5,33.785480531402726],[-31.979999999999905,33.590433423574616],[-29.2799999999998,33.43829382017176],[-28.97999999999979,33.34225383060708],[-28.799999999999784,33.189675110912994],[-28.642331104607777,32.93999999999994],[-28.537351947828398,32.639999999999944],[-28.464538777083476,32.219999999999956],[-28.44119139443091,31.79999999999996],[-28.457554853610766,31.259999999999973],[-28.62093414461499,30.0]]]}},{"type":"Feature","properties":{"magnitude":0.8,"de":0.8,"ate":0.95,"percentagem":80.0},"geometry":{"type":"Polygon","coordinates":[[[-34.5,30.0],[-28.62093414461499,30.0],[-28.482916731204043,30.95999999999998],[-28.44119139443091,31.79999999999996],[-28.499999999999773,32.47062460941252],[-28.572029390436803,32.75999999999994],[-28.671956788985515,32.999999999999936],[-28.791926336307313,33.179999999999936],[-28.917309710363362,33.299999999999926],[-29.2199999999998,33.430318842444514],[-32.03999999999991,33.594452236166845],[-34.5,33.785480531402726],[-34.5,30.0]]]}}]}