{"type":"FeatureCollection","properties":{"largura_maxima_km":131.406,"largura_sobre_pt_km":127.984,"linha_central_sobre_pt":true,"desenhavel_como_area":true,"perfil_largura":[{"t":-1.38333,"lat":33.6573,"lon":-17.5282,"largura_km":null,"eixo_na_terra":false},{"t":-1.37778,"lat":34.1818,"lon":-16.583,"largura_km":null,"eixo_na_terra":false},{"t":-1.37222,"lat":34.5807,"lon":-15.9113,"largura_km":null,"eixo_na_terra":false},{"t":-1.36667,"lat":34.9184,"lon":-15.3383,"largura_km":null,"eixo_na_terra":false},{"t":-1.36111,"lat":35.2211,"lon":-14.8779,"largura_km":null,"eixo_na_terra":false},{"t":-1.35556,"lat":35.5512,"lon":-14.3498,"largura_km":null,"eixo_na_terra":false},{"t":-1.35,"lat":36.6166,"lon":-11.8832,"largura_km":131.406,"eixo_na_terra":true},{"t":-1.34444,"lat":37.106,"lon":-10.8185,"largura_km":129.23,"eixo_na_terra":true},{"t":-1.33889,"lat":37.5412,"lon":-9.8707,"largura_km":127.984,"eixo_na_terra":true},{"t":-1.33333,"lat":37.9368,"lon":-9.0081,"largura_km":126.825,"eixo_na_terra":true},{"t":-1.32778,"lat":38.3017,"lon":-8.211,"largura_km":125.742,"eixo_na_terra":true},{"t":-1.32222,"lat":38.6418,"lon":-7.4664,"largura_km":124.72,"eixo_na_terra":true},{"t":-1.31667,"lat":38.9615,"lon":-6.7649,"largura_km":123.756,"eixo_na_terra":true},{"t":-1.31111,"lat":39.2639,"lon":-6.0996,"largura_km":122.841,"eixo_na_terra":true},{"t":-1.30556,"lat":39.5514,"lon":-5.4654,"largura_km":121.964,"eixo_na_terra":true},{"t":-1.3,"lat":39.8259,"lon":-4.858,"largura_km":121.129,"eixo_na_terra":true},{"t":-1.29444,"lat":40.0889,"lon":-4.2743,"largura_km":120.327,"eixo_na_terra":true},{"t":-1.28889,"lat":40.3416,"lon":-3.7115,"largura_km":119.553,"eixo_na_terra":true},{"t":-1.28333,"lat":40.5851,"lon":-3.1674,"largura_km":118.804,"eixo_na_terra":true},{"t":-1.27778,"lat":40.8202,"lon":-2.6402,"largura_km":118.081,"eixo_na_terra":true},{"t":-1.27222,"lat":41.0476,"lon":-2.1282,"largura_km":117.381,"eixo_na_terra":true},{"t":-1.26667,"lat":41.2681,"lon":-1.6302,"largura_km":116.7,"eixo_na_terra":true},{"t":-1.26111,"lat":41.482,"lon":-1.1449,"largura_km":116.039,"eixo_na_terra":true},{"t":-1.25556,"lat":41.69,"lon":-0.6713,"largura_km":115.394,"eixo_na_terra":true},{"t":-1.25,"lat":41.8924,"lon":-0.2085,"largura_km":114.766,"eixo_na_terra":true},{"t":-1.24444,"lat":42.0895,"lon":0.2443,"largura_km":114.153,"eixo_na_terra":true},{"t":-1.23889,"lat":42.2818,"lon":0.6878,"largura_km":113.555,"eixo_na_terra":true},{"t":-1.23333,"lat":42.4695,"lon":1.1226,"largura_km":112.971,"eixo_na_terra":true},{"t":-1.22778,"lat":42.6529,"lon":1.5492,"largura_km":112.4,"eixo_na_terra":true},{"t":-1.22222,"lat":42.8322,"lon":1.9683,"largura_km":111.841,"eixo_na_terra":true},{"t":-1.21667,"lat":43.0076,"lon":2.3802,"largura_km":111.294,"eixo_na_terra":true},{"t":-1.21111,"lat":43.1793,"lon":2.7854,"largura_km":110.757,"eixo_na_terra":true},{"t":-1.20556,"lat":43.3475,"lon":3.1842,"largura_km":110.231,"eixo_na_terra":true},{"t":-1.2,"lat":43.5125,"lon":3.5771,"largura_km":109.714,"eixo_na_terra":true},{"t":-1.19444,"lat":43.6742,"lon":3.9642,"largura_km":109.207,"eixo_na_terra":true},{"t":-1.18889,"lat":43.8329,"lon":4.346,"largura_km":108.709,"eixo_na_terra":true},{"t":-1.18333,"lat":43.9887,"lon":4.7227,"largura_km":108.22,"eixo_na_terra":true}]},"features":[{"type":"Feature","properties":{},"geometry":{"type":"Polygon","coordinates":[[[-19.015620938795223,33.346327370284236],[-18.699140543673963,33.47800620801038],[-18.916669447599475,33.65958721468182],[-18.902006861777064,33.665756420693306],[-19.46323715067132,33.86244296319223],[-17.735709749093587,34.64203069118611],[-16.783270286710888,35.067380224711435],[-16.00846542158581,35.40574594374732],[-15.546176581213274,35.60296704880325],[-15.290520592262789,35.71017932564856],[-14.291947674009066,36.18534000738768],[-12.695809361826832,36.91776383653624],[-10.477735986755533,37.92674646364823],[-8.690908334857397,38.7369692814749],[-6.50227330184174,39.72213792124588],[-5.85652577186994,40.010989145068294],[-4.050076768582585,40.814404172072386],[-2.4456176537185,41.520046768083745],[-0.9703753139144737,42.16133743577697],[-0.024570805839744025,42.56845439788794],[0.8631725655380365,42.9469442161474],[2.1341692410932183,43.48267980680188],[2.946627184354952,43.82106567881252],[3.7347650715082636,44.146093638162185],[5.63273267689425,43.80870325313342],[4.5264413486705735,43.34618418591149],[3.7639060099558606,43.02339395607454],[2.5769223994994377,42.51484268238078],[1.7527344079423983,42.15762735479917],[0.8786466224095193,41.775659262300024],[-0.47093283321856916,41.17907508700671],[-1.9181752914974481,40.5315835260829],[-2.9506807506665496,40.06533718941541],[-4.077119848738164,39.55366454402476],[-5.263395602793253,39.01076587654102],[-7.327308854180899,38.0612284465925],[-8.959321067990231,37.307256866179706],[-9.977957850186556,36.839280126895154],[-9.993051832202097,36.83476919821714],[-10.142936017706575,36.75677968163608],[-10.382749518629794,36.63983042217499],[-10.656360466020033,36.51442708401851],[-10.995708183102145,36.36709574498785],[-11.233223051938808,36.246685212242404],[-11.418840039803854,36.15747726122351],[-11.73113836413063,36.01403464220637],[-12.119985131467011,35.843647422661896],[-12.295982393886788,35.75446864697983],[-12.503902370973492,35.65322164762546],[-12.859022060932716,35.48743184578289],[-13.126534103956715,35.36676440358019],[-13.460549897064496,35.21973462177501],[-13.806190486041885,35.04907514186996],[-14.240016545198387,34.84441527932418],[-14.763026675948481,34.60603379567582],[-15.226988735320033,34.39911528802958],[-15.545164490839397,34.24434497946034],[-15.740989782852068,34.15089457871944],[-16.19491990997807,33.9378203887053],[-16.766543624432984,33.674004028434204],[-18.168396204457736,33.03497041064778],[-18.179962641941977,33.044625428091855],[-18.482045769622573,32.90241330773217],[-19.015620938795223,33.346327370284236]]]}}]}