{"type":"FeatureCollection","features":[{"type":"Feature","properties":{"t_inicio":-1.366666666666676,"t_fim":-1.1833333333333433},"geometry":{"type":"LineString","coordinates":[[-17.014528243333814,34.26261052285169],[-14.667981432963416,35.33698013296956],[-13.1227746789192,36.04672445121224],[-11.88316670575432,36.61660213747076],[-10.818453947438115,37.10597810502829],[-9.870669136742208,37.54122285449337],[-9.00806102156838,37.93680279216085],[-8.211004586160811,38.30167273691558],[-7.466368041831402,38.64183342511923],[-6.764854297806892,38.96153937484262],[-6.099596700380573,39.26393732615492],[-5.46535378035361,39.55143259193764],[-4.8580175312503115,39.82591291694912],[-4.274297813208307,40.08889225013172],[-3.7115114297914147,40.34160689583571],[-3.167436345029273,40.58508201401314],[-2.6402080258752676,40.820178935522485],[-2.128243927891731,41.04762965375495],[-1.630187315852936,41.26806250163363],[-1.1448646942121172,41.48202162081513],[-0.6712530237001602,41.689981964914594],[-0.20845410835289613,41.89236102878526],[0.24432567472865685,42.08952813712127],[0.6877916043860637,42.281811886002444],[1.1225737458868252,42.4695061675326],[1.549237676286964,42.652875094099024],[1.968293321874171,42.83215705844624],[2.380202298413735,43.00756810806954],[2.7853840528284763,43.179304770420394],[3.1842210370281805,43.347546434415065],[3.577063093899028,43.512457370590326],[3.9642311972027073,43.674188454772235],[4.346020657951158,43.83287864679356],[4.722703887367629,43.988656265528654]]}}]}