{"type":"FeatureCollection","features":[{"type":"Feature","properties":{"magnitude":0.2,"de":0.2,"ate":0.5,"percentagem":20.0},"geometry":{"type":"Polygon","coordinates":[[[-32.17936403807253,32.999999999999936],[-29.44569348287237,30.0],[-24.591695423531164,30.0],[-34.5,40.699263841998174],[-34.5,35.48602310572842],[-32.17936403807253,32.999999999999936]]]}},{"type":"Feature","properties":{"magnitude":0.5,"de":0.5,"ate":0.8,"percentagem":50.0},"geometry":{"type":"MultiPolygon","coordinates":[[[[-7.8788861439896625,29.999999999999996],[-4.739999999998872,31.41186816809934],[-3.5399999999988268,31.951175371687775],[-3.5399999999988268,30.0],[-7.8788861439896625,29.999999999999996]]],[[[-24.591695423531164,30.0],[-34.5,40.699263841998174],[-34.5,44.939999999999685],[-14.331331799763888,44.939999999999685],[-26.383544898217593,39.2399999999998],[-26.531648103762222,39.119999999999806],[-26.608539926832215,38.93999999999981],[-26.613935197040398,38.69999999999982],[-26.547092459496483,38.39999999999982],[-26.3800265137697,37.97999999999983],[-26.127313188272467,37.499999999999844],[-25.793228813466847,36.95999999999985],[-24.9326411447148,35.75999999999988],[-23.760598081066192,34.31999999999991],[-22.362180607128288,32.75999999999994],[-20.939999999999486,31.30714268006404],[-19.533638399149048,30.0],[-24.591695423531164,30.0]]]]}},{"type":"Feature","properties":{"magnitude":0.8,"de":0.8,"ate":0.95,"percentagem":80.0},"geometry":{"type":"Polygon","coordinates":[[[-21.01442739706634,31.37999999999997],[-19.533638399149048,30.0],[-7.8788861439896625,29.999999999999996],[-3.5399999999988268,31.951175371687775],[-3.5399999999988268,38.68536538184643],[-18.599999999999397,31.9144562524096],[-18.839999999999407,31.955549391822316],[-19.139999999999418,32.11104076322935],[-19.49999999999943,32.366756591439945],[-19.919999999999447,32.73165041776306],[-20.297802406587653,33.11999999999993],[-20.636282541122814,33.53999999999992],[-20.81959087964237,33.83999999999992],[-20.890912551599225,34.07999999999991],[-20.879999999999484,34.14046288573031],[-20.808398256926786,34.19999999999991],[-8.399999999999011,39.973117283004],[-3.5399999999988268,42.19697466289877],[-3.5399999999988268,44.939999999999685],[-14.331331799763888,44.939999999999685],[-26.475305172098267,39.17999999999981],[-26.593151896770756,38.99999999999981],[-26.619069548372103,38.75999999999981],[-26.56497109709905,38.45999999999982],[-26.434118074143683,38.099999999999824],[-26.228041206846818,37.679999999999836],[-25.90928023408871,37.139999999999844],[-25.06969080991501,35.93999999999987],[-23.8628738363664,34.4399999999999],[-22.474266686348347,32.87999999999994],[-21.01442739706634,31.37999999999997]]]}},{"type":"Feature","properties":{"magnitude":0.95,"de":0.95,"ate":0.99,"percentagem":95.0},"geometry":{"type":"Polygon","coordinates":[[[-18.72592004910196,31.91999999999996],[-18.599999999999397,31.9144562524096],[-18.308360237675753,32.03999999999996],[-3.5399999999988268,38.68536538184643],[-3.5399999999988268,42.19697466289877],[-9.41999999999905,39.49995240283406],[-20.808398256926786,34.19999999999991],[-20.879999999999484,34.1404628857303],[-20.868916924575853,33.959999999999916],[-20.716967673170203,33.659999999999926],[-20.45227208483205,33.299999999999926],[-20.13034488498135,32.93999999999994],[-19.73999999999944,32.56710361026356],[-19.379999999999427,32.27504312646922],[-19.019999999999413,32.04050551256287],[-18.72592004910196,31.91999999999996]]]}}]}