{"type":"FeatureCollection","features":[{"type":"Feature","properties":{"magnitude":0.8,"percentagem":80.0,"territorio":"continente"},"geometry":{"type":"LineString","coordinates":[[-5.540000000000106,39.6099955954103],[-5.580000000000105,39.60356495139712],[-5.602111287457228,39.59999999999992],[-5.620000000000104,39.597115847615754],[-5.660000000000103,39.59064833373553],[-5.700000000000102,39.58416202139283],[-5.7400000000001015,39.57765688872758],[-5.780000000000101,39.571132913831136],[-5.8200000000001,39.56459007474614],[-5.8479817800360125,39.559999999999924],[-5.860000000000099,39.558028550347245],[-5.900000000000098,39.5514485868755],[-5.940000000000097,39.54484969434878],[-5.980000000000096,39.53823185061191],[-6.0200000000000955,39.53159503346051],[-6.060000000000095,39.5249392206409],[-6.089599901793048,39.519999999999925],[-6.100000000000094,39.51826456512492],[-6.140000000000093,39.51157136959827],[-6.180000000000092,39.50485911261772],[-6.220000000000091,39.498127771729074],[-6.26000000000009,39.49137732442828],[-6.3000000000000895,39.48460774816131],[-6.327150365811335,39.479999999999926],[-6.340000000000089,39.47781923860308],[-6.380000000000088,39.4710120174522],[-6.420000000000087,39.464185600617284],[-6.460000000000086,39.4573399653411],[-6.500000000000085,39.45047508881591],[-6.540000000000084,39.44359094818341],[-6.560807882211318,39.43999999999993],[-6.580000000000084,39.43668784903611],[-6.620000000000082,39.42976579742964],[-6.660000000000082,39.422824414052755],[-6.700000000000081,39.41586367584114],[-6.74000000000008,39.40888355967942],[-6.780000000000079,39.40188404240092],[-6.790737812488085,39.39999999999993],[-6.820000000000078,39.394865605297014],[-6.860000000000078,39.387827906984164],[-6.900000000000077,39.38077073893301],[-6.940000000000076,39.37369407776824],[-6.980000000000075,39.366597900062686],[-7.017089480250629,39.35999999999993],[-7.020000000000074,39.35948223276016],[-7.060000000000074,39.35234764588675],[-7.100000000000073,39.34519347303855],[-7.140000000000072,39.33801969057735],[-7.180000000000071,39.33082627481268],[-7.22000000000007,39.32361320200166],[-7.239983652738203,39.31999999999993],[-7.260000000000069,39.316380797421594],[-7.300000000000068,39.30912903793422],[-7.340000000000067,39.30185755098352],[-7.3800000000000665,39.29456631261279],[-7.420000000000066,39.28725529881232],[-7.4595880116080036,39.27999999999993],[-7.460000000000065,39.27992449273493],[-7.500000000000064,39.27257455780112],[-7.540000000000063,39.265204776187375],[-7.580000000000062,39.25781512366781],[-7.620000000000061,39.250405575963065],[-7.6600000000000605,39.242976108740166],[-7.6759815840536145,39.23999999999993],[-7.70000000000006,39.23552712079632],[-7.740000000000059,39.228058447284155],[-7.780000000000058,39.220569781995835],[-7.820000000000057,39.213061100379434],[-7.860000000000056,39.20553237782884],[-7.889316326119943,39.19999999999993],[-7.900000000000055,39.197983778620824],[-7.940000000000055,39.19041560883123],[-7.980000000000054,39.182827324995166],[-8.020000000000053,39.17521890228517],[-8.060000000000052,39.167590315819055],[-8.099694321173514,39.159999999999926],[-8.100000000000051,39.159941546084326],[-8.14000000000005,39.15227326841232],[-8.18000000000005,39.14458475300794],[-8.220000000000049,39.136875974765324],[-8.260000000000048,39.12914690852329],[-8.300000000000047,39.12139752906526],[-8.307195541347705,39.11999999999993],[-8.340000000000046,39.11362839619826],[-8.380000000000045,39.105839028880595],[-8.420000000000044,39.09802927332629],[-8.460000000000043,39.09019910409223],[-8.500000000000043,39.08234849567937],[-8.511935965279363,39.079999999999934],[-8.540000000000042,39.07447792450495],[-8.580000000000041,39.066587077521206],[-8.62000000000004,39.05867571545264],[-8.66000000000004,39.05074381257128],[-8.700000000000038,39.042791343092624],[-8.714005140020527,39.039999999999935],[-8.740000000000038,39.034818747348034],[-8.780000000000037,39.02682578545376],[-8.820000000000036,39.018812180161],[-8.860000000000035,39.010777905453935],[-8.900000000000034,39.00272293525971],[-8.913488338976725,38.999999999999936],[-8.940000000000033,38.99464771999487],[-8.980000000000032,38.98655200036978],[-9.020000000000032,38.978435507551225],[-9.06000000000003,38.97029821523262],[-9.10000000000003,38.96214009704974],[-9.110467457565395,38.95999999999994],[-9.140000000000029,38.953961658513656],[-9.180000000000028,38.945762530676944],[-9.220000000000027,38.93754249835469],[-9.260000000000026,38.92930153494654],[-9.300000000000026,38.921039613793944],[-9.305021173666285,38.91999999999994],[-9.340000000000025,38.91275733931997],[-9.380000000000024,38.904454145045385],[-9.420000000000023,38.89612991348018],[-9.460000000000022,38.887784617727256],[-9.497218927004031,38.87999999999994],[-9.500000000000021,38.87941828100312],[-9.54000000000002,38.871031498720754],[-9.58000000000002,38.86262357195136],[-9.620000000000019,38.8541944735573],[-9.660000000000018,38.84574417634178],[-9.687123610373229,38.83999999999994],[-9.700000000000017,38.83727288562994],[-9.740000000000016,38.828780832456225],[-9.780000000000015,38.82026749921866],[-9.820000000000014,38.81173285847753],[-9.860000000000014,38.803176882733354],[-9.874816680640668,38.79999999999994],[-9.900000000000013,38.794599999721946],[-9.940000000000012,38.7860019952392],[-9.980000000000011,38.777382573557944],[-10.02000000000001,38.768741706933355],[-10.06000000000001,38.76007936756029],[-10.060365644378837,38.75999999999994],[-10.100000000000009,38.75139624457452],[-10.140000000000008,38.7426916002928],[-10.180000000000007,38.733965400104026],[-10.220000000000006,38.72521761595529],[-10.243800739693917,38.71999999999994],[-10.260000000000005,38.71644851244172],[-10.300000000000004,38.70765819961534],[-10.340000000000003,38.69884621888612],[-10.380000000000003,38.69001254195141],[-10.420000000000002,38.68115714044725],[-10.425214750403661,38.67999999999994],[-10.46,38.67228061451514],[-10.5,38.66338240193856]]}},{"type":"Feature","properties":{"magnitude":0.9,"percentagem":90.0,"territorio":"continente"},"geometry":{"type":"LineString","coordinates":[[-5.540000000000106,36.32738253637281],[-5.580000000000105,36.320654037092325],[-5.583876880844043,36.31999999999999],[-5.620000000000104,36.31390563774947],[-5.660000000000103,36.30713702238745],[-5.700000000000102,36.30034813129461],[-5.7400000000001015,36.29353893979696],[-5.780000000000101,36.286709423166954],[-5.819179964380399,36.279999999999994],[-5.8200000000001,36.279859564009705],[-5.860000000000099,36.27298968350013],[-5.900000000000098,36.266099403350914],[-5.940000000000097,36.2591886986132],[-5.980000000000096,36.25225754428402],[-6.0200000000000955,36.245305915306055],[-6.0504415338502575,36.239999999999995],[-6.060000000000095,36.23833387241929],[-6.100000000000094,36.23134157836713],[-6.140000000000093,36.22432873411746],[-6.180000000000092,36.21729531438882],[-6.220000000000091,36.210241293844916],[-6.26000000000009,36.20316664709449],[-6.277853222606415,36.199999999999996],[-6.3000000000000895,36.19607154688396],[-6.340000000000089,36.188955929429525],[-6.380000000000088,36.181819609164044],[-6.420000000000087,36.174662560469145],[-6.460000000000086,36.16748475767091],[-6.500000000000085,36.160286175039836],[-6.501585771032498,36.16],[-6.5400000000000835,36.15306712903044],[-6.580000000000084,36.14582726556649],[-6.620000000000083,36.13856654459501],[-6.660000000000082,36.13128494015636],[-6.700000000000081,36.12398242623476],[-6.721752835212199,36.12],[-6.74000000000008,36.11665913829644],[-6.780000000000079,36.10931508136056],[-6.820000000000078,36.10195003635867],[-6.860000000000078,36.09456397704239],[-6.900000000000077,36.08715687710658],[-6.938539301922098,36.08],[-6.940000000000076,36.07972872302954],[-6.980000000000075,36.072279814648375],[-7.020000000000074,36.06480978614593],[-7.060000000000073,36.057318610981966],[-7.1000000000000725,36.04980626255895],[-7.140000000000072,36.04227271422187],[-7.152034317488228,36.04],[-7.180000000000071,36.03471818339674],[-7.22000000000007,36.02714250411866],[-7.260000000000069,36.01954554431556],[-7.300000000000068,36.011927277094394],[-7.340000000000067,36.00428767550409],[-7.3623884002209845,36.0]]}},{"type":"Feature","properties":{"magnitude":0.6,"percentagem":60.0,"territorio":"acores"},"geometry":{"type":"LineString","coordinates":[[-26.44610510844009,40.479999999999905],[-26.480000000000118,40.46505523529159],[-26.520000000000117,40.44738695423344],[-26.53669658616655,40.439999999999905],[-26.560000000000116,40.42968667254074],[-26.600000000000115,40.41195410441979],[-26.626918911879663,40.399999999999906],[-26.640000000000114,40.39418906511611],[-26.680000000000113,40.376391986205164],[-26.71677492249523,40.35999999999991],[-26.720000000000116,40.35856198431668],[-26.76000000000011,40.34070016996466],[-26.80000000000011,40.32280521448653],[-26.80626096126069,40.31999999999991],[-26.84000000000011,40.30487822388068],[-26.88000000000011,40.28691820064495],[-26.895383383768166,40.27999999999991],[-26.92000000000011,40.2689257139415],[-26.960000000000107,40.25090039606106],[-26.98414828687774,40.23999999999991],[-27.00000000000011,40.232842203940535],[-27.040000000000106,40.21475136360763],[-27.072558403017393,40.1999999999999],[-27.080000000000105,40.196627255475505],[-27.120000000000104,40.17847066396281],[-27.160000000000103,40.16028044830537],[-27.160615814569145,40.15999999999991],[-27.200000000000102,40.142057855609735],[-27.2400000000001,40.123801550656026],[-27.248316658035417,40.11999999999991],[-27.2800000000001,40.10551249483644],[-27.3200000000001,40.08718986963699],[-27.335671174796055,40.07999999999991],[-27.3600000000001,40.06883413573579],[-27.400000000000098,40.05044495842649],[-27.422681996760765,40.03999999999992],[-27.440000000000097,40.03202233020596],[-27.480000000000096,40.013566368009634],[-27.509351732895254,39.999999999999915],[-27.520000000000095,39.99507662795095],[-27.560000000000095,39.97655364717902],[-27.59568296942059,39.95999999999992],[-27.600000000000094,39.95799657648142],[-27.640000000000093,39.93940634253572],[-27.680000000000092,39.92078177302533],[-27.68167660443782,39.919999999999916],[-27.72000000000009,39.902123998490495],[-27.76000000000009,39.88343182935722],[-27.76733291764932,39.87999999999992],[-27.80000000000009,39.86470615726529],[-27.84000000000009,39.84594615171836],[-27.85265872197097,39.83999999999992],[-27.880000000000088,39.82715235889495],[-27.920000000000087,39.808324279241546],[-27.937656508564604,39.79999999999992],[-27.960000000000086,39.789462141229315],[-28.000000000000085,39.77056574887692],[-28.022328746872702,39.75999999999992],[-28.040000000000084,39.75163503993546],[-28.080000000000084,39.7326700953944],[-28.106677884804142,39.71999999999992],[-28.120000000000083,39.713670588500385],[-28.160000000000082,39.694636851386434],[-28.19070634891781,39.67999999999992],[-28.20000000000008,39.67556831823382],[-28.24000000000008,39.65646554727102],[-28.27441654460444,39.63999999999992],[-28.28000000000008,39.63732775827154],[-28.32000000000008,39.618155711295046],[-28.35781085626615,39.599999999999916],[-28.360000000000078,39.598948435578784],[-28.400000000000077,39.57970686953793],[-28.440000000000076,39.56042989951033],[-28.440890792947922,39.559999999999924],[-28.480000000000075,39.54111854591562],[-28.520000000000074,39.52177169842215],[-28.523657765394795,39.519999999999925],[-28.560000000000073,39.50239026218481],[-28.600000000000072,39.48297329204816],[-28.606116196420363,39.47999999999992],[-28.64000000000007,39.463521537947585],[-28.68000000000007,39.44403419911652],[-28.688268382734154,39.43999999999993],[-28.72000000000007,39.42451189065633],[-28.76000000000007,39.40495393620938],[-28.770116600980693,39.39999999999993],[-28.800000000000068,39.385360835619025],[-28.840000000000067,39.36573201776832],[-28.851663107907306,39.35999999999993],[-28.880000000000067,39.34606788600483],[-28.920000000000066,39.3263679561001],[-28.932910140529756,39.31999999999993],[-28.960000000000065,39.30663255285006],[-29.000000000000064,39.28686126138278],[-29.013859916296358,39.27999999999993],[-29.040000000000063,39.26705434506448],[-29.080000000000062,39.24721144167223],[-29.094514633250228,39.23999999999993],[-29.12000000000006,39.22733276943801],[-29.16000000000006,39.20741800290887],[-29.174876470189687,39.19999999999993],[-29.20000000000006,39.18746733064772],[-29.24000000000006,39.16748044892502],[-29.254947586827342,39.15999999999993],[-29.280000000000058,39.1474575312653],[-29.320000000000057,39.12739828145227],[-29.33473012394678,39.11999999999993],[-29.360000000000053,39.10730287176479],[-29.400000000000055,39.08717100012969],[-29.41422620355852,39.079999999999934],[-29.440000000000055,39.06700285053081],[-29.480000000000054,39.04679810251196],[-29.493437929053428,39.039999999999935],[-29.52000000000005,39.026556963867094],[-29.560000000000052,39.00627908407824],[-29.5723673853552,38.999999999999936],[-29.60000000000005,38.98596470600545],[-29.64000000000005,38.96561343824121],[-29.651016639070658,38.95999999999994],[-29.68000000000005,38.94522556911515],[-29.72000000000005,38.92480065635678],[-29.729387738639062,38.91999999999994],[-29.760000000000048,38.9043390433127],[-29.800000000000047,38.8838402277338],[-29.807482714479317,38.87999999999994],[-29.840000000000046,38.863304616672025],[-29.880000000000045,38.8427316396447],[-29.885303579136107,38.83999999999993],[-29.920000000000044,38.822121775235104],[-29.960000000000043,38.8014743773361],[-29.962852327424102,38.79999999999994],[-30.000000000000043,38.78079000302306],[-30.040000000000042,38.76006792404018],[-30.040130936571018,38.75999999999994],[-30.08000000000004,38.73930878204752],[-30.11713883808835,38.71999999999994],[-30.120000000000044,38.71851181402396],[-30.16000000000004,38.69767759232269],[-30.193880173195247,38.67999999999994],[-30.20000000000004,38.67680547800472],[-30.240000000000038,38.65589591187769],[-30.270356987994962,38.639999999999944],[-30.280000000000037,38.63494839031399],[-30.320000000000036,38.613963216769335],[-30.346571195247506,38.599999999999945],[-30.360000000000035,38.59294002580712],[-30.400000000000034,38.571878981095495],[-30.42252469077616,38.559999999999945],[-30.44000000000003,38.550779857386736],[-30.480000000000032,38.52964267700889],[-30.498219353602302,38.519999999999946],[-30.520000000000028,38.50846735601682],[-30.56000000000003,38.48725377473127],[-30.573657046078836,38.47999999999995],[-30.60000000000003,38.466001990737254],[-30.64000000000003,38.4447117425682],[-30.6488396140223,38.43999999999995],[-30.680000000000028,38.42338322867886],[-30.720000000000027,38.40201604692432],[-30.72376888684366,38.39999999999995],[-30.760000000000026,38.38061053507883],[-30.798445350777722,38.35999999999995],[-30.800000000000026,38.35916617447229],[-30.840000000000025,38.3376833732969],[-30.872868722230724,38.31999999999995],[-30.880000000000024,38.31616161949268],[-30.920000000000023,38.29460120483167],[-30.9470440192343,38.27999999999995],[-30.960000000000022,38.273001786729765],[-31.00000000000002,38.25136348933786],[-31.020973010982367,38.23999999999995],[-31.04000000000002,38.229686134698326],[-31.08000000000002,38.207969684643786],[-31.09465745085912,38.19999999999995],[-31.120000000000022,38.18621412009551],[-31.160000000000018,38.16441924676946],[-31.16809907656254,38.159999999999954],[-31.200000000000017,38.14258519781923],[-31.240000000000016,38.12071162994525],[-31.241299610226672,38.119999999999955],[-31.280000000000015,38.09879882098717],[-31.314255988399356,38.079999999999956],[-31.320000000000014,38.07684634837561],[-31.360000000000014,38.05485444095628],[-31.386973441105695,38.03999999999996],[-31.40000000000001,38.03282280084027],[-31.440000000000012,38.01075150734283],[-31.45945473319932,37.99999999999996],[-31.48000000000001,37.98864042121811],[-31.52000000000001,37.96648946804311],[-31.5317015296291,37.95999999999996],[-31.56000000000001,37.944298656327504],[-31.60000000000001,37.92206776925459],[-31.603715480337975,37.91999999999996],[-31.640000000000008,37.89979695129892],[-31.67549455072569,37.87999999999995],[-31.680000000000007,37.8774858923098],[-31.720000000000006,37.85513474959707],[-31.747040860874748,37.83999999999996],[-31.760000000000005,37.83274326864563],[-31.800000000000004,37.810311493043685],[-31.81835906203491,37.79999999999996],[-31.840000000000007,37.78783930670048],[-31.880000000000003,37.76532662184081],[-31.889450748975072,37.75999999999996],[-31.92,37.74277344564974],[-31.96,37.72017957459472],[-31.960317501991465,37.71999999999996],[-32.0,37.697545123085575]]}},{"type":"Feature","properties":{"magnitude":0.9,"percentagem":90.0,"territorio":"madeira"},"geometry":{"type":"LineString","coordinates":[[-16.050788241586357,33.77999999999991],[-16.08000000000004,33.770458002051015],[-16.12000000000004,33.75736390300283],[-16.16000000000004,33.74424072906401],[-16.172899560076452,33.73999999999991],[-16.20000000000004,33.731088285776366],[-16.240000000000038,33.717906605581184],[-16.280000000000037,33.70469571658916],[-16.294188681183275,33.69999999999991],[-16.320000000000036,33.691455420634036],[-16.360000000000035,33.678185740292705],[-16.400000000000034,33.664886716404254],[-16.41466799412738,33.65999999999991],[-16.440000000000033,33.65155814280498],[-16.480000000000032,33.63820004048906],[-16.52000000000003,33.62481245902987],[-16.53434966223309,33.61999999999991],[-16.56000000000003,33.611395179049794],[-16.60000000000003,33.59794823009332],[-16.64000000000003,33.58447166554988],[-16.653245627562995,33.57999999999991],[-16.680000000000028,33.57096524667258],[-16.720000000000027,33.557429023564154],[-16.760000000000026,33.54386304757603],[-16.77136761543413,33.539999999999914],[-16.800000000000026,33.53026705348563],[-16.840000000000025,33.51664112586106],[-16.880000000000024,33.502985307213514],[-16.888727138819412,33.499999999999915],[-16.920000000000023,33.48929929777545],[-16.960000000000022,33.47558323241045],[-17.00000000000002,33.461837137027445],[-17.00533550263717,33.459999999999916],[-17.04000000000002,33.44806066826955],[-17.08000000000002,33.43425402907313],[-17.12000000000002,33.42041722001066],[-17.121203807932762,33.419999999999916],[-17.160000000000018,33.406549844104674],[-17.200000000000017,33.39265219211268],[-17.23633700483049,33.37999999999992],[-17.240000000000016,33.37872419488994],[-17.280000000000015,33.36476549479586],[-17.320000000000014,33.35077638816505],[-17.35074869781463,33.33999999999992],[-17.360000000000014,33.33675673751055],[-17.400000000000013,33.32270628020706],[-17.440000000000012,33.30862527420956],[-17.464451403360883,33.29999999999992],[-17.48000000000001,33.29451351179688],[-17.52000000000001,33.280370850522715],[-17.56000000000001,33.26619749754086],[-17.577455480077496,33.25999999999992],[-17.60000000000001,33.2519931611208],[-17.640000000000008,33.23775784622083],[-17.680000000000007,33.223491695742474],[-17.689771101329267,33.21999999999992],[-17.720000000000006,33.209194319126496],[-17.760000000000005,33.19486589804729],[-17.800000000000004,33.180506496661586],[-17.80140825885337,33.17999999999992],[-17.840000000000003,33.16611560970565],[-17.880000000000003,33.15169362699152],[-17.91236471234522,33.13999999999992],[-17.92,33.13724042439134],[-17.96,33.1227556469741],[-18.0,33.10823964426378]]}},{"type":"Feature","properties":{"magnitude":0.95,"percentagem":95.0,"territorio":"madeira"},"geometry":{"type":"LineString","coordinates":[[-15.040000000000063,32.39887193875369],[-15.080000000000062,32.38609572898204],[-15.099043458041436,32.37999999999994],[-15.120000000000061,32.37329000487512],[-15.16000000000006,32.360454741467024],[-15.20000000000006,32.34759011709518],[-15.223548548843425,32.33999999999994],[-15.240000000000057,32.33469588840037],[-15.280000000000058,32.321771921725265],[-15.320000000000057,32.30881845825255],[-15.347171417863148,32.29999999999994],[-15.360000000000056,32.29583529248802],[-15.400000000000055,32.282822196022195],[-15.440000000000055,32.2697794660673],[-15.469925894291682,32.25999999999995],[-15.480000000000054,32.2567069269062],[-15.520000000000053,32.24360427123848],[-15.560000000000052,32.23047184453083],[-15.591825545895015,32.21999999999994],[-15.600000000000051,32.21730949178021],[-15.64000000000005,32.2041168446036],[-15.68000000000005,32.190894287975155],[-15.712883684635415,32.17999999999994],[-15.720000000000049,32.17764167755524],[-15.760000000000048,32.16435860365884],[-15.800000000000047,32.151045481036235],[-15.833113372142346,32.139999999999944],[-15.840000000000046,32.13770216495986],[-15.880000000000045,32.124328226221415],[-15.920000000000044,32.11092409861848],[-15.952527425038902,32.099999999999945],[-15.960000000000043,32.09748962497109],[-16.000000000000043,32.08402438034963],[-16.040000000000042,32.07052880586027],[-16.07113842012618,32.059999999999945],[-16.08000000000004,32.05700271878013],[-16.12000000000004,32.04344572430929],[-16.16000000000004,32.0298582581008],[-16.188958699432106,32.019999999999946],[-16.20000000000004,32.016240097759685],[-16.240000000000038,32.002590906541144],[-16.280000000000037,31.988911100848007],[-16.30600037512722,31.979999999999947],[-16.320000000000036,31.975200403432233],[-16.360000000000035,31.961458565629876],[-16.400000000000034,31.947685969747788],[-16.422275334312236,31.939999999999948],[-16.440000000000033,31.933882267439746],[-16.480000000000032,31.92004733027401],[-16.52000000000003,31.90618149055465],[-16.53779524368148,31.89999999999995],[-16.56000000000003,31.89228431151464],[-16.60000000000003,31.87835581925752],[-16.64000000000003,31.86439627910346],[-16.652571554065204,31.85999999999995],[-16.680000000000028,31.850405147452182],[-16.720000000000027,31.83638264142257],[-16.760000000000026,31.822328941282898],[-16.766615504855558,31.81999999999995],[-16.800000000000026,31.808243377084285],[-16.840000000000025,31.794126395643822],[-16.879938025303794,31.77999999999995],[-16.88000000000002,31.77997807182515],[-16.920000000000023,31.76579759225469],[-16.960000000000022,31.75158567080414],[-16.99253791393953,31.739999999999952],[-17.00000000000002,31.737342113373103],[-17.04000000000002,31.723066374795835],[-17.08000000000002,31.708759045771966],[-17.10443690766689,31.699999999999953],[-17.12000000000002,31.694419763750947],[-17.160000000000018,31.680048296507167],[-17.200000000000017,31.665645089380117],[-17.21564547625502,31.659999999999954],[-17.240000000000016,31.651209587674124],[-17.280000000000015,31.63674191913512],[-17.320000000000014,31.62224236040635],[-17.326173897729753,31.619999999999955],[-17.360000000000014,31.607710139788466],[-17.400000000000013,31.593145794354776],[-17.436025812872295,31.579999999999956],[-17.440000000000012,31.578549320613035],[-17.48000000000001,31.56391996465293],[-17.52000000000001,31.54925846375324],[-17.545206592440888,31.539999999999957],[-17.56000000000001,31.53456443703698],[-17.60000000000001,31.519837596724187],[-17.640000000000008,31.505078458814843],[-17.65373608017244,31.499999999999957],[-17.680000000000007,31.49028636865741],[-17.720000000000006,31.475461560343085],[-17.760000000000005,31.460604300908056],[-17.761623854745984,31.459999999999958],[-17.800000000000004,31.445713632660418],[-17.840000000000003,31.430790369722864],[-17.868861583854553,31.41999999999996],[-17.880000000000003,31.415834231893133],[-17.92,31.40084473609368],[-17.96,31.38582252893945],[-17.975472856383806,31.37999999999996],[-18.0,31.37076695257272]]}},{"type":"Feature","properties":{"magnitude":0.99,"percentagem":99.0,"territorio":"madeira"},"geometry":{"type":"LineString","coordinates":[[-18.0,29.75189453181528],[-17.96,29.767866572507735],[-17.929549812235727,29.779999999999994],[-17.92,29.783803767604137],[-17.880000000000003,29.799705395045137],[-17.840000000000003,29.81557264687619],[-17.828817284329716,29.819999999999993],[-17.800000000000004,29.831404519988524],[-17.760000000000005,29.84720171996291],[-17.72752507352252,29.85999999999999],[-17.720000000000006,29.8629644379336],[-17.680000000000007,29.87869183310469],[-17.640000000000008,29.894385129570615],[-17.625660149258298,29.89999999999999],[-17.60000000000001,29.910043473220767],[-17.56000000000001,29.92566732267532],[-17.523226660980885,29.93999999999999],[-17.52000000000001,29.94125712462985],[-17.48000000000001,29.956811771549166],[-17.440000000000012,29.972332594186206],[-17.420199585417386,29.97999999999999],[-17.400000000000013,29.987818956839384],[-17.360000000000014,30.003270931118188],[-17.320000000000014,30.01868924287259],[-17.316592974363054,30.01999999999999],[-17.280000000000015,30.034072724414816],[-17.240000000000016,30.049422539873127],[-17.212378485491136,30.059999999999988],[-17.200000000000017,30.06473844846641],[-17.160000000000018,30.08002000801322],[-17.12000000000002,30.095268175496074],[-17.107562474652475,30.099999999999987],[-17.08000000000002,30.110482118023505],[-17.04000000000002,30.125662378027805],[-17.0021380531544,30.139999999999986],[-17.00000000000002,30.140809338056183],[-16.960000000000022,30.155921928379712],[-16.920000000000023,30.17100139458301],[-16.896080488685243,30.179999999999986],[-16.880000000000024,30.18604729105529],[-16.840000000000025,30.201059432376496],[-16.800000000000026,30.216038607531985],[-16.789400542114148,30.219999999999985],[-16.760000000000026,30.230983979640932],[-16.720000000000027,30.24589617258789],[-16.68208548054483,30.259999999999984],[-16.680000000000025,30.260775494677123],[-16.64000000000003,30.275620939114688],[-16.60000000000003,30.290433681321872],[-16.574112846834502,30.299999999999983],[-16.56000000000003,30.30521336178505],[-16.52000000000003,30.319959694518424],[-16.480000000000032,30.334673480624126],[-16.465490202271983,30.339999999999982],[-16.440000000000033,30.349354047099055],[-16.400000000000034,30.36400176063963],[-16.360000000000035,30.378617082283803],[-16.356207722151687,30.37999999999998],[-16.320000000000036,30.39319905815776],[-16.280000000000037,30.40774864201865],[-16.246244998221577,30.419999999999984],[-16.240000000000038,30.42226581808958],[-16.20000000000004,30.436749892262988],[-16.16000000000004,30.451201832958013],[-16.135596927145354,30.459999999999983],[-16.12000000000004,30.465621274335135],[-16.08000000000004,30.480008036490396],[-16.040000000000042,30.494362817533933],[-16.024259428461573,30.49999999999998],[-16.000000000000043,30.508685036174892],[-15.960000000000043,30.52297496770234],[-15.920000000000044,30.53723306960951],[-15.912221954814834,30.539999999999978],[-15.880000000000045,30.551458573269986],[-15.840000000000046,30.565652152562315],[-15.800000000000047,30.579814052850097],[-15.799473760603727,30.579999999999977],[-15.760000000000048,30.593943345097898],[-15.720000000000049,30.60804104755158],[-15.685993675738999,30.619999999999973],[-15.68000000000005,30.622107075335986],[-15.64000000000005,30.636140800970168],[-15.600000000000051,30.650143098987368],[-15.571781016881278,30.659999999999975],[-15.560000000000052,30.664113737688663],[-15.520000000000055,30.678052380051824],[-15.480000000000054,30.691959743042887],[-15.456825348134783,30.699999999999978],[-15.440000000000055,30.705835484992516],[-15.400000000000055,30.719679511382473],[-15.360000000000056,30.73349240576899],[-15.341115127883072,30.739999999999974],[-15.320000000000057,30.74727373916999],[-15.280000000000058,30.76102361389921],[-15.240000000000059,30.774742503117537],[-15.224638595688504,30.779999999999973],[-15.20000000000006,30.78842991206139],[-15.16000000000006,30.80208609646084],[-15.120000000000061,30.81571144096627],[-15.107383767664974,30.819999999999972],[-15.080000000000062,30.82930540545032],[-15.040000000000063,30.84286835787394]]}},{"type":"Feature","properties":{"magnitude":0.99,"percentagem":99.0,"territorio":"madeira"},"geometry":{"type":"LineString","coordinates":[[-15.040000000000063,31.03553808894918],[-15.080000000000062,31.02240242437299],[-15.087300348760369,31.019999999999968],[-15.120000000000061,31.00923573171721],[-15.16000000000006,30.996038460752203],[-15.20000000000006,30.98281070960121],[-15.208481558703848,30.97999999999997],[-15.240000000000059,30.96955179439081],[-15.280000000000058,30.95626213032594],[-15.320000000000057,30.942941843015255],[-15.328815636304308,30.93999999999997],[-15.360000000000056,30.929590238209432],[-15.400000000000055,30.916207729359314],[-15.440000000000055,30.90279445332498],[-15.448315992828084,30.89999999999997],[-15.480000000000054,30.889349687819067],[-15.520000000000053,30.875873879513932],[-15.560000000000052,30.862367159206826],[-15.56699578293578,30.85999999999997],[-15.600000000000053,30.848828757812775],[-15.64000000000005,30.835259192392726],[-15.68000000000005,30.821658569272742],[-15.684867910219147,30.819999999999972],[-15.720000000000049,30.80802605270022],[-15.760000000000048,30.79436226950973],[-15.800000000000047,30.78066728204055],[-15.801945032589234,30.779999999999973],[-15.840000000000046,30.76694016687837],[-15.880000000000045,30.753181702261365],[-15.91823649591156,30.739999999999974],[-15.920000000000044,30.73939184445003],[-15.960000000000043,30.725569684603755],[-16.000000000000043,30.71171607189922],[-16.033752872499267,30.699999999999974],[-16.040000000000042,30.697830808606184],[-16.08000000000004,30.683913179966225],[-16.12000000000004,30.66996394950424],[-16.148509566505865,30.659999999999975],[-16.16000000000004,30.655982786098285],[-16.20000000000004,30.641969216864297],[-16.240000000000038,30.627923895962684],[-16.2625183441597,30.619999999999976],[-16.280000000000037,30.61384633362575],[-16.320000000000036,30.599736348982077],[-16.360000000000035,30.585594461943487],[-16.375790749902414,30.579999999999977],[-16.400000000000034,30.571419997654573],[-16.440000000000033,30.55721311976778],[-16.480000000000032,30.54297418787746],[-16.48833811100563,30.539999999999978],[-16.52000000000003,30.52870231439717],[-16.56000000000003,30.514398062414116],[-16.60000000000003,30.500061603938118],[-16.600171542066754,30.49999999999998],[-16.64000000000003,30.48569180979378],[-16.680000000000028,30.47128969984034],[-16.711287290363124,30.45999999999998],[-16.720000000000027,30.456854989157048],[-16.760000000000026,30.44238699949586],[-16.800000000000026,30.427886544676163],[-16.82170942161194,30.419999999999984],[-16.840000000000025,30.413353058426146],[-16.880000000000024,30.398786388851256],[-16.920000000000023,30.38418709924761],[-16.931448763473423,30.37999999999998],[-16.960000000000022,30.36955431444143],[-17.00000000000002,30.3548884728913],[-17.04000000000002,30.340189855564702],[-17.04051565634801,30.339999999999982],[-17.08000000000002,30.325457244928423],[-17.12000000000002,30.310691736319953],[-17.148901928769703,30.299999999999983],[-17.160000000000018,30.295892961045116],[-17.200000000000017,30.281060327274787],[-17.240000000000016,30.266194653504954],[-17.25663412929765,30.259999999999984],[-17.280000000000015,30.25129517045853],[-17.320000000000014,30.23636202852291],[-17.360000000000014,30.221395688471116],[-17.36372292046083,30.219999999999985],[-17.400000000000013,30.206394958729454],[-17.440000000000012,30.191360805364724],[-17.470161910778582,30.179999999999986],[-17.48000000000001,30.176292979901497],[-17.52000000000001,30.161190775209384],[-17.56000000000001,30.14605510413861],[-17.575969676909253,30.139999999999986],[-17.60000000000001,30.130885130102804],[-17.640000000000008,30.11568105889124],[-17.680000000000007,30.10044336082872],[-17.681161620447067,30.099999999999987],[-17.720000000000006,30.085170687565903],[-17.760000000000005,30.06986423841037],[-17.785723951840716,30.059999999999988],[-17.800000000000004,30.054523515969354],[-17.840000000000003,30.039148073572647],[-17.880000000000003,30.023738732047708],[-17.88968597347472,30.01999999999999],[-17.92,30.00829438842598],[-17.96,29.992815699049963],[-17.993047319579357,29.97999999999999],[-18.0,29.97730270246535]]}}]}