{"type":"FeatureCollection","features":[{"type":"Feature","properties":{"magnitude":0.2,"de":0.2,"ate":0.5,"percentagem":20.0},"geometry":{"type":"Polygon","coordinates":[[[-13.499999999999204,31.61171170019013],[-11.181707757043114,30.0],[-3.5399999999988268,30.0],[-3.5399999999988268,38.53070416843961],[-9.779999999999063,35.96788260325219],[-10.139999999999077,35.89447240075667],[-10.49999999999909,35.88072997171781],[-10.919999999999106,35.91641078319183],[-11.399999999999125,36.006250439605395],[-12.419999999999163,36.31816310367929],[-13.619999999999209,36.826779118292585],[-14.939999999999259,37.50328008390744],[-16.499999999999318,38.40974648265153],[-18.11999999999938,39.434191134378125],[-19.97999999999945,40.67807453277287],[-26.069162573063984,44.939999999999685],[-30.48743012162831,44.939999999999685],[-26.050043024489792,41.519999999999754],[-18.719999999999402,35.631298181340505],[-16.139999999999304,33.59732530112511],[-13.499999999999204,31.61171170019013]]]}},{"type":"Feature","properties":{"magnitude":0.5,"de":0.5,"ate":0.8,"percentagem":50.0},"geometry":{"type":"Polygon","coordinates":[[[-10.454548446659881,35.879999999999875],[-10.019999999999072,35.91103833727893],[-9.688262532229345,35.99999999999987],[-3.5399999999988268,38.53070416843961],[-3.5399999999988268,44.939999999999685],[-26.069162573063984,44.939999999999685],[-19.43999999999943,40.311334495538745],[-17.399999999999352,38.97049100984893],[-15.659999999999286,37.909748890069466],[-14.039999999999225,37.030874207331706],[-12.659999999999172,36.40958800176274],[-12.05999999999915,36.19265437948217],[-11.459999999999127,36.0205283567583],[-10.919999999999106,35.91641078319183],[-10.454548446659881,35.879999999999875]]]}}]}