{"type":"FeatureCollection","features":[{"type":"Feature","properties":{"magnitude":0.2,"de":0.2,"ate":0.5,"percentagem":20.0},"geometry":{"type":"Polygon","coordinates":[[[-34.5,30.0],[-34.44,30.0],[-16.34353518206544,30.0],[-18.635709245991585,31.259999999999973],[-20.879999999999484,32.67369964252708],[-23.039999999999566,34.21815987914691],[-25.199999999999648,35.95642271792164],[-27.299999999999727,37.84078893405818],[-29.382873849338285,39.89999999999979],[-31.50332261972006,42.17999999999974],[-33.89999999999998,44.939999999999685],[-34.5,44.939999999999685],[-34.5,30.0]]]}},{"type":"Feature","properties":{"magnitude":0.5,"de":0.5,"ate":0.8,"percentagem":50.0},"geometry":{"type":"Polygon","coordinates":[[[-18.779999999999404,31.34535243622537],[-16.34353518206544,30.0],[-3.5399999999988268,30.0],[-3.5399999999988268,44.939999999999685],[-33.89561396732357,44.93999999999968],[-31.557070170151036,42.23999999999974],[-29.399999999999807,39.917700050587996],[-27.320354942238133,37.85999999999983],[-25.25113240178882,35.99999999999987],[-23.15999999999957,34.3095335299286],[-20.99999999999949,32.75462388911629],[-18.779999999999404,31.34535243622537]]]}}]}