{"type":"FeatureCollection","properties":{"largura_maxima_km":291.602,"largura_sobre_pt_km":285.768,"linha_central_sobre_pt":false,"desenhavel_como_area":true,"perfil_largura":[{"t":-1.56667,"lat":37.0691,"lon":-46.9085,"largura_km":null,"eixo_na_terra":false},{"t":-1.56111,"lat":37.0213,"lon":-46.6208,"largura_km":null,"eixo_na_terra":false},{"t":-1.55556,"lat":36.873,"lon":-46.1977,"largura_km":null,"eixo_na_terra":false},{"t":-1.55,"lat":36.8061,"lon":-45.9655,"largura_km":null,"eixo_na_terra":false},{"t":-1.54444,"lat":36.6422,"lon":-45.4053,"largura_km":null,"eixo_na_terra":false},{"t":-1.53889,"lat":36.5211,"lon":-45.0097,"largura_km":null,"eixo_na_terra":false},{"t":-1.53333,"lat":36.4175,"lon":-44.6962,"largura_km":null,"eixo_na_terra":false},{"t":-1.51667,"lat":34.726,"lon":-39.6172,"largura_km":291.602,"eixo_na_terra":true},{"t":-1.51111,"lat":34.487,"lon":-38.9925,"largura_km":290.898,"eixo_na_terra":true},{"t":-1.50556,"lat":34.2553,"lon":-38.3994,"largura_km":290.228,"eixo_na_terra":true},{"t":-1.5,"lat":34.0301,"lon":-37.8341,"largura_km":289.593,"eixo_na_terra":true},{"t":-1.49444,"lat":33.8108,"lon":-37.2938,"largura_km":288.988,"eixo_na_terra":true},{"t":-1.48889,"lat":33.5968,"lon":-36.776,"largura_km":288.404,"eixo_na_terra":true},{"t":-1.48333,"lat":33.3876,"lon":-36.2785,"largura_km":287.84,"eixo_na_terra":true},{"t":-1.47778,"lat":33.1828,"lon":-35.7995,"largura_km":287.293,"eixo_na_terra":true},{"t":-1.47222,"lat":32.9821,"lon":-35.3376,"largura_km":286.768,"eixo_na_terra":true},{"t":-1.46667,"lat":32.7852,"lon":-34.8914,"largura_km":286.26,"eixo_na_terra":true},{"t":-1.46111,"lat":32.5918,"lon":-34.4596,"largura_km":285.768,"eixo_na_terra":true},{"t":-1.45556,"lat":32.4016,"lon":-34.0412,"largura_km":285.292,"eixo_na_terra":true},{"t":-1.45,"lat":32.2145,"lon":-33.6354,"largura_km":284.827,"eixo_na_terra":true},{"t":-1.44444,"lat":32.0303,"lon":-33.2412,"largura_km":284.372,"eixo_na_terra":true},{"t":-1.43889,"lat":31.8488,"lon":-32.858,"largura_km":283.933,"eixo_na_terra":true},{"t":-1.43333,"lat":31.6698,"lon":-32.4851,"largura_km":283.505,"eixo_na_terra":true},{"t":-1.42778,"lat":31.4933,"lon":-32.1218,"largura_km":283.086,"eixo_na_terra":true},{"t":-1.42222,"lat":31.319,"lon":-31.7677,"largura_km":282.675,"eixo_na_terra":true},{"t":-1.41667,"lat":31.1469,"lon":-31.4223,"largura_km":282.272,"eixo_na_terra":true},{"t":-1.41111,"lat":30.9769,"lon":-31.085,"largura_km":281.88,"eixo_na_terra":true},{"t":-1.40556,"lat":30.8089,"lon":-30.7554,"largura_km":281.496,"eixo_na_terra":true},{"t":-1.4,"lat":30.6428,"lon":-30.4332,"largura_km":281.123,"eixo_na_terra":true},{"t":-1.39444,"lat":30.4785,"lon":-30.1181,"largura_km":280.757,"eixo_na_terra":true},{"t":-1.38889,"lat":30.3159,"lon":-29.8097,"largura_km":280.398,"eixo_na_terra":true},{"t":-1.38333,"lat":30.1549,"lon":-29.5076,"largura_km":280.044,"eixo_na_terra":true},{"t":-1.37778,"lat":29.9956,"lon":-29.2117,"largura_km":279.696,"eixo_na_terra":true},{"t":-1.37222,"lat":29.8378,"lon":-28.9216,"largura_km":279.353,"eixo_na_terra":true},{"t":-1.36667,"lat":29.6814,"lon":-28.6371,"largura_km":279.015,"eixo_na_terra":true},{"t":-1.36111,"lat":29.5265,"lon":-28.3579,"largura_km":278.682,"eixo_na_terra":true},{"t":-1.35556,"lat":29.373,"lon":-28.084,"largura_km":278.36,"eixo_na_terra":true},{"t":-1.35,"lat":29.2208,"lon":-27.8149,"largura_km":278.044,"eixo_na_terra":true},{"t":-1.34444,"lat":29.0698,"lon":-27.5507,"largura_km":277.733,"eixo_na_terra":true},{"t":-1.33889,"lat":28.9201,"lon":-27.2911,"largura_km":277.426,"eixo_na_terra":true},{"t":-1.33333,"lat":28.7716,"lon":-27.0358,"largura_km":277.123,"eixo_na_terra":true},{"t":-1.32778,"lat":28.6243,"lon":-26.7849,"largura_km":276.823,"eixo_na_terra":true},{"t":-1.32222,"lat":28.4781,"lon":-26.538,"largura_km":276.527,"eixo_na_terra":true},{"t":-1.31667,"lat":28.333,"lon":-26.2952,"largura_km":276.235,"eixo_na_terra":true},{"t":-1.31111,"lat":28.1889,"lon":-26.0562,"largura_km":275.946,"eixo_na_terra":true},{"t":-1.30556,"lat":28.0459,"lon":-25.8209,"largura_km":275.66,"eixo_na_terra":true},{"t":-1.3,"lat":27.9039,"lon":-25.5892,"largura_km":275.383,"eixo_na_terra":true},{"t":-1.29444,"lat":27.7629,"lon":-25.3609,"largura_km":275.111,"eixo_na_terra":true},{"t":-1.28889,"lat":27.6228,"lon":-25.1361,"largura_km":274.843,"eixo_na_terra":true},{"t":-1.28333,"lat":27.4836,"lon":-24.9145,"largura_km":274.577,"eixo_na_terra":true},{"t":-1.27778,"lat":27.3454,"lon":-24.6961,"largura_km":274.314,"eixo_na_terra":true},{"t":-1.27222,"lat":27.208,"lon":-24.4808,"largura_km":274.053,"eixo_na_terra":true},{"t":-1.26667,"lat":27.0715,"lon":-24.2685,"largura_km":273.796,"eixo_na_terra":true},{"t":-1.26111,"lat":26.9358,"lon":-24.0591,"largura_km":273.54,"eixo_na_terra":true},{"t":-1.25556,"lat":26.8009,"lon":-23.8525,"largura_km":273.288,"eixo_na_terra":true},{"t":-1.25,"lat":26.6669,"lon":-23.6487,"largura_km":273.037,"eixo_na_terra":true},{"t":-1.24444,"lat":26.5336,"lon":-23.4475,"largura_km":272.791,"eixo_na_terra":true},{"t":-1.23889,"lat":26.401,"lon":-23.249,"largura_km":272.549,"eixo_na_terra":true},{"t":-1.23333,"lat":26.2693,"lon":-23.0529,"largura_km":272.31,"eixo_na_terra":true},{"t":-1.22778,"lat":26.1382,"lon":-22.8594,"largura_km":272.075,"eixo_na_terra":true},{"t":-1.22222,"lat":26.0079,"lon":-22.6682,"largura_km":271.843,"eixo_na_terra":true},{"t":-1.21667,"lat":25.8782,"lon":-22.4794,"largura_km":271.613,"eixo_na_terra":true},{"t":-1.21111,"lat":25.7493,"lon":-22.2928,"largura_km":271.385,"eixo_na_terra":true},{"t":-1.20556,"lat":25.621,"lon":-22.1085,"largura_km":271.158,"eixo_na_terra":true},{"t":-1.2,"lat":25.4934,"lon":-21.9264,"largura_km":270.934,"eixo_na_terra":true},{"t":-1.19444,"lat":25.3664,"lon":-21.7464,"largura_km":270.712,"eixo_na_terra":true},{"t":-1.18889,"lat":25.24,"lon":-21.5684,"largura_km":270.491,"eixo_na_terra":true},{"t":-1.18333,"lat":25.1143,"lon":-21.3925,"largura_km":270.273,"eixo_na_terra":true}]},"features":[{"type":"Feature","properties":{},"geometry":{"type":"Polygon","coordinates":[[[-23.962785674838187,28.397390362258925],[-23.534047248486388,28.119348584484843],[-23.11703202033999,27.844770557528854],[-22.675807727825685,27.54997063753939],[-22.281122977520113,27.282112341441664],[-21.896337797244712,27.01726153356516],[-21.520953080060394,26.755292597244516],[-21.154507482525815,26.49608897930696],[-20.620673320402204,26.11223344320174],[-22.21285317538988,24.156641989402797],[-22.568082192196442,24.40605549747595],[-22.931636313205445,24.657939574188187],[-23.303928985706477,24.91239423228297],[-23.685406166584983,25.16952697021535],[-24.042064995479677,25.40643038813404],[-24.44261723653966,25.66902325641527],[-24.85388197414855,25.934658982438386],[-25.276474047002267,26.203483648833405],[-25.71106540412518,26.475656320080297],[-26.15839279531528,26.751350753634163],[-26.387082656605145,26.89057743677275],[-26.814414260464332,27.147350653154803],[-27.296161006559373,27.432378921591837],[-27.54292335276034,27.576473583774522],[-28.04893003468183,27.86798736512897],[-28.30848074813963,28.015477388324193],[-28.8415132401436,28.314116685625915],[-29.11536116610833,28.465350207667033],[-29.6304221278522,28.7454713364124],[-29.919524642808824,28.90062419478857],[-30.515396656789193,29.215443446203665],[-30.822706147179417,29.375232649631876],[-31.457580156446824,29.699912181825034],[-31.78582115125579,29.864955464052226],[-32.408105603881495,30.17230701224667],[-32.759405937001645,30.343033037901375],[-33.1196902646156,30.51596134124314],[-33.48949355984081,30.691211597359782],[-33.86940476891098,30.868915298913443],[-34.260074746641834,31.049217478263575],[-34.66222575776828,31.23227876781619],[-35.07666293921801,31.418277883683942],[-35.873002928042325,31.767807030524896],[-36.32778331171363,31.963327586891207],[-36.79902045289572,32.16270609411327],[-37.288190252665714,32.36626702099288],[-37.79699996099308,32.5743849795852],[-38.327442339311375,32.78749639695199],[-38.88186730534727,33.006114942590436],[-39.36780125124858,33.19381448614202],[-39.97437151785127,33.42427879210992],[-39.96539443027173,33.49133878705225],[-40.358716258116885,33.61023646308914],[-40.565363133010806,33.675044547054675],[-40.776497445474746,33.74275710494963],[-41.212177635307796,33.88680282086459],[-41.66568161712269,34.04217232281655],[-42.21201703911716,34.235678454674996],[-42.66784926291655,34.39081871756885],[-42.97594172827057,34.49786042086725],[-43.49947518214802,34.67153216079863],[-43.80513976451425,34.774700876121685],[-44.7120467395022,35.06846642908438],[-45.71209089483453,35.381780678946946],[-46.84408288912557,35.72332895689429],[-48.388088523480604,36.16918592013087],[-49.454846370552104,36.4738230544911],[-50.06668288490121,36.645684362495466],[-50.7552132442641,36.83576656683286],[-51.55734059843496,37.05195346081436],[-52.555748651195074,37.311938039009746],[-54.05474284271273,37.68086452034044],[-53.94781673894852,37.80917681244439],[-54.047117476000466,37.83457673642709],[-53.97500450921489,37.92802721262542],[-54.39929423919786,38.03688867541461],[-54.16701878662808,38.32746198727839],[-54.205088440729966,38.337901245866824],[-54.03602850137808,38.57515335948055],[-55.327870773232675,38.91334791770723],[-54.26971630399156,39.87516887584974],[-53.27587263093006,39.677730827198815],[-53.26014400847518,40.26170575327005],[-52.12862692940035,39.99222104596486],[-52.11478590698471,40.00883039811267],[-50.91863308587719,39.71016152222086],[-50.01137301115165,39.47405274385888],[-49.25239763294735,39.26927364542007],[-48.45219945153991,39.04959296151144],[-47.87560597209438,38.8875449294124],[-47.34479316728357,38.73400182261456],[-46.30349418325534,38.42730379045263],[-45.87538361203866,38.297031722747754],[-45.53724434975695,38.19133437314721],[-45.01262883459623,38.03045258744112],[-44.64613306209361,37.9142638776427],[-44.2943381002321,37.79976404138147],[-43.898628333063954,37.673702686206504],[-43.574311613690924,37.56723776805132],[-43.23155166624172,37.45147924509463],[-42.90907185583356,37.345334861713766],[-42.61593906909994,37.24611985344854],[-42.27555280780455,37.12733502281763],[-42.01320052807543,37.03845888520005],[-41.74432049731905,36.94492947340819],[-41.48170531310052,36.85112763919166],[-41.22534900350425,36.75709974827141],[-40.97524871300854,36.66289449041216],[-40.73140401042264,36.5685626583546],[-40.49381630040773,36.47415694872266],[-40.262488321929624,36.379731781331735],[-40.03742372005726,36.285343134000826],[-39.81862667995307,36.191048390506715],[-39.616008730085156,36.1012947532653],[-39.607114610648125,36.167734965547865],[-38.943857933936414,35.91498207691567],[-38.31668335151278,35.67075209798514],[-37.62728278765485,35.39680686660966],[-37.06375793646055,35.16777532428629],[-36.52487207694031,34.94466545593709],[-36.00820099285977,34.72692409216645],[-35.51168984936487,34.51408137385568],[-34.956646604928665,34.27233665207771],[-34.497866058052864,34.06876813391208],[-34.054452770698504,33.868996885503535],[-33.62526668557243,33.67276000761675],[-33.20930000060409,33.47982460888157],[-32.80565665861988,33.28998318322597],[-32.349268460267695,33.07255918530246],[-31.969537682621564,32.88879526622784],[-31.59986739877516,32.70759841606702],[-31.23967852497384,32.52883338333838],[-30.545683844915885,32.178116102338954],[-29.829328396726766,31.807556603332042],[-29.510560752410413,31.639598983301696],[-28.89329766396287,31.30905503496215],[-28.30107717076288,30.985201053262408],[-27.73179631937333,30.667535927431963],[-27.137508682639492,30.329448487356128],[-26.610252179048416,30.023326833737904],[-26.10096906628675,29.722199556113065],[-25.60840696450984,29.425763181720384],[-25.0907355696273,29.108839874007195],[-24.629440333235323,28.82133540498054],[-23.962785674838187,28.397390362258925]]]}}]}