{"type":"FeatureCollection","features":[{"type":"Feature","properties":{"t_inicio":-1.5166666666666755,"t_fim":-1.1833333333333433},"geometry":{"type":"LineString","coordinates":[[-39.617232881686476,34.72596528941978],[-38.99252763299532,34.48696568552633],[-38.39935881949978,34.25528330982045],[-37.83411221858242,34.0301147679493],[-37.29381050887474,33.81079693570516],[-36.775966457242674,33.59677474722966],[-36.27847694634298,33.38757792559334],[-35.79954475993958,33.18280379485696],[-35.337619725250335,32.982104335667145],[-34.891353660541284,32.78517626914186],[-34.459565365279786,32.59175334501243],[-34.04121304525296,32.40160026267275],[-33.63537232935613,32.21450782105159],[-33.24121855166365,32.03028900639511],[-32.85801232892982,31.848775805138665],[-32.485087713994744,31.66981658390002],[-32.12184238417623,31.49327391777828],[-31.767729453054272,31.31902277650551],[-31.422250588964545,31.146948998820445],[-31.084950194034292,30.976948000911936],[-30.755410450593075,30.80892367641716],[-30.433247082042158,30.642787454301835],[-30.118105706141563,30.47845748773538],[-29.8096586825703,30.315857952327118],[-29.507602375270068,30.154918436193743],[-29.21165476476432,29.995573407557924],[-28.92155335728023,29.83776174814017],[-28.63705334679335,29.681426342651818],[-28.357925993581176,29.52651371634269],[-28.083957188910006,29.372973713887507],[-27.814946180390507,29.220759213977917],[-27.550704436555378,29.06982587487403],[-27.2910546325148,28.920131906897442],[-27.035829741276586,28.77163786845124],[-26.784872217583114,28.624306482652443],[-26.538033263008543,28.478102472081112],[-26.29517216264341,28.33299240949893],[-26.05615568502509,28.188944582686354],[-25.820857538097925,28.045928871795024],[-25.58915787494024,27.903916637823876],[-25.36094284380536,27.762880621006456],[-25.136104177717385,27.62279484805076],[-24.91453881945364,27.483634547303993],[-24.696148578255816,27.345376071027403],[-24.480839815050302,27.20799682406429],[-24.268523153336986,27.071475198267517],[-24.05911321323461,26.935790512126594],[-23.852528366456,26.800922955097175],[-23.648690510235582,26.66685353619185],[-23.44752485844799,26.533564036438236],[-23.248959748347033,26.40103696485392],[-23.05292646152185,26.269255517623968],[-22.859359057812384,26.13820354019985],[-22.668194221056297,26.007865492067285],[-22.479371115654175,25.878226413955947],[-22.292831253039992,25.749271897286604],[-22.1085183672337,25.620988055670907],[-21.926378298732743,25.493361498297528],[-21.746358886069885,25.366379305053],[-21.568409864427935,25.240029003241236],[-21.392482770758136,25.11429854577662]]}}]}