{"type":"FeatureCollection","features":[{"type":"Feature","properties":{"t_inicio":0.17777777777776294,"t_fim":0.7444444444444276},"geometry":{"type":"LineString","coordinates":[[-39.98519187489978,37.95068414422051],[-39.86512692363368,37.82873394885797],[-39.74463763547368,37.70679897751804],[-39.62371292323883,37.584877314682494],[-39.502341538924355,37.46296702550929],[-39.38051206785349,37.34106615506804],[-39.258212922628275,37.219172727549996],[-39.135432336869314,37.097284745450324],[-39.01215835873333,36.97540018872223],[-38.88837884419877,36.85351701390056],[-38.76408145010646,36.73163315319442],[-38.6392536269438,36.60974651354645],[-38.513882611359065,36.4878549756575],[-38.38795541839241,36.36595639297486],[-38.26145883340831,36.24404859064214],[-38.13437940371489,36.12212936440896],[-38.006703429852905,36.00019647949821],[-37.87841695653756,35.87824766942887],[-37.74950576323491,35.756280634791835],[-37.619955354352214,35.63429304197645],[-37.48975094902329,35.51228252184508],[-37.358877470465075,35.39024666835281],[-37.22731953488332,35.268183037109324],[-37.09506143990137,35.14608914388015],[-36.962087152486475,35.02396246302317],[-36.82838029634482,34.90180042585762],[-36.693924138755165,34.779600418961145],[-36.558701576809256,34.657359782391154],[-36.422695123024255,34.535075807826125],[-36.28588689029118,34.412745736621844],[-36.14825857611987,34.290366757778244],[-36.00979144613808,34.1679360058109],[-35.8704663168013,34.045450558521964],[-35.73026353726354,33.9229074346641],[-35.5891629703593,33.80030359149122],[-35.447143972640305,33.67763592218876],[-35.3041853734083,33.55490125317616],[-35.16026545268036,33.4320963412733],[-35.01536191801773,33.30921787072252],[-34.86945188014522,33.186262450056496],[-34.72251182728132,33.06322660880231],[-34.574517598093536,32.94010679401057],[-34.42544435318666,32.81689936659805],[-34.27526654502498,32.693600597491304],[-34.1239578861792,32.57020666355738],[-33.971491315783,32.446713643307106],[-33.81783896407205,32.32311751235486],[-33.66297211486892,32.19941413861757],[-33.506861165865246,32.075599277234005],[-33.349475586539654,31.95166856518424],[-33.19078387353605,31.82761751558679],[-33.030753503311104,31.703441511649437],[-32.86935088184265,31.579135800247407],[-32.70654129117119,31.45469548510017],[-32.54228883252736,31.330115519515388],[-32.376556365771876,31.205390698665916],[-32.20930544485208,31.080515651362084],[-32.04049624894765,30.95548483127818],[-31.87008750894728,30.830292507587824],[-31.698036428862622,30.704932754958605],[-31.52429860174496,30.579399442851116],[-31.348827919626245,30.453686224062192],[-31.171576476955693,30.32778652244541],[-30.99249446694742,30.201693519735464],[-30.8115300701908,30.075400141394557],[-30.62862933480477,29.94889904139017],[-30.4437360473369,29.822182585803674],[-30.256791593516652,29.695242835157515],[-30.06773480787001,29.568071525336062],[-29.876501811086,29.440660046960165],[-29.683025833890753,29.31299942305923],[-29.487237026035785,29.185080284864988],[-29.28906224883096,29.056892845529884],[-29.088424849454583,28.928426871547423],[-28.88524441504498,28.799671651623875],[-28.67943650431235,28.670615962716447],[-28.470912354107213,28.541248032916325],[-28.25957855802693,28.41155550080921],[-28.04533671373207,28.281525370895515],[-27.828083035166685,28.15114396459182],[-27.607707925315225,28.02039686626536],[-27.384095504473606,27.889268863670427],[-27.157123088238393,27.757743882059554],[-26.9266606085026,27.625804911126597],[-26.692569969664504,27.4934339238039],[-26.454704330960794,27.36061178577326],[-26.212907304292713,27.22731815435708],[-25.967012055054823,27.093531365223328],[-25.716840291235684,26.95922830505717],[-25.462201123339725,26.82438426801217],[-25.202889774365502,26.68897279333819],[-24.93868611501162,26.552965481075194],[-24.669352994272373,26.416331782075094],[-24.394634329371428,26.27903875783624],[-24.114252911227624,26.141050804665426],[-23.827907871899015,26.00232933546274],[-23.535271748115775,25.86283241088257],[-23.23598705927307,25.722514309656017],[-22.92966229801536,25.581325025330102],[-22.615867205281745,25.439209673397084],[-22.294127167282056,25.296107788489056],[-21.963916526361402,25.15195248562708],[-21.62465053682328,25.006669451908984]]}}]}