{"type":"FeatureCollection","features":[{"type":"Feature","properties":{"magnitude":0.9,"percentagem":90.0,"territorio":"acores"},"geometry":{"type":"LineString","coordinates":[[-26.16879330997658,36.0],[-26.200000000000124,36.02293195149565],[-26.223199761337405,36.04],[-26.240000000000123,36.05237644236503],[-26.277453624727208,36.08],[-26.280000000000122,36.08188056315542],[-26.320000000000118,36.111456367482575],[-26.331541481003676,36.12],[-26.36000000000012,36.14109464270428],[-26.38547556571228,36.16],[-26.40000000000012,36.170792917614214],[-26.439259884900878,36.199999999999996],[-26.44000000000012,36.200551336467406],[-26.480000000000118,36.23038346142648],[-26.492879443433253,36.239999999999995],[-26.520000000000117,36.26027671754332],[-26.546350254843418,36.279999999999994],[-26.560000000000116,36.290230479585944],[-26.599674066804017,36.31999999999999],[-26.600000000000115,36.32024488968199],[-26.640000000000114,36.350333591917206],[-26.65283601704527,36.35999999999999],[-26.680000000000113,36.380483497048914],[-26.705852459365317,36.39999999999999],[-26.720000000000113,36.41069440397769],[-26.758724613293488,36.43999999999999],[-26.76000000000011,36.44096645253955],[-26.80000000000011,36.47131193025857],[-26.811439393129234,36.47999999999999],[-26.84000000000011,36.50172010549005],[-26.86401018608705,36.51999999999999],[-26.88000000000011,36.53218976739849],[-26.916439348026753,36.55999999999999],[-26.92000000000011,36.562721053361074],[-26.960000000000107,36.593323444739546],[-26.968717150278678,36.59999999999999],[-27.000000000000107,36.623991461779845],[-27.02085083365014,36.639999999999986],[-27.040000000000106,36.654721438751665],[-27.07284549098329,36.679999999999986],[-27.080000000000105,36.685513510403524],[-27.120000000000104,36.71637289198966],[-27.124696269714466,36.719999999999985],[-27.160000000000103,36.74730227080432],[-27.176401207719053,36.759999999999984],[-27.200000000000102,36.778294070537385],[-27.22796967352458,36.79999999999998],[-27.2400000000001,36.80934842313634],[-27.279402437950324,36.83999999999998],[-27.2800000000001,36.8404654599372],[-27.3200000000001,36.871657014676714],[-27.33068753572205,36.87999999999998],[-27.3600000000001,36.902912090082964],[-27.381837953008286,36.91999999999998],[-27.400000000000098,36.93423016344842],[-27.432855158390325,36.95999999999998],[-27.440000000000097,36.96561136308678],[-27.480000000000096,36.997059943926374],[-27.48373548115783,36.99999999999998],[-27.520000000000095,37.02857969070994],[-27.5344758269729,37.03999999999998],[-27.560000000000095,37.06016286679416],[-27.585085401955247,37.07999999999998],[-27.600000000000094,37.09180959729274],[-27.635564944324127,37.119999999999976],[-27.640000000000093,37.123520006601986],[-27.680000000000092,37.15530082284772],[-27.68590824690804,37.159999999999975],[-27.72000000000009,37.18715042328854],[-27.73611795930791,37.199999999999974],[-27.76000000000009,37.219063991687904],[-27.786200019216388,37.239999999999974],[-27.80000000000009,37.25104164901435],[-27.83615514723056,37.27999999999997],[-27.84000000000009,37.2830835154585],[-27.880000000000088,37.31519646876119],[-27.885977092279564,37.31999999999997],[-27.920000000000087,37.347378118651264],[-27.93566923472564,37.35999999999997],[-27.960000000000086,37.379624252132416],[-27.985236766278263,37.39999999999997],[-28.000000000000085,37.411934985736735],[-28.03468039043078,37.43999999999997],[-28.040000000000084,37.444310435156574],[-28.080000000000084,37.476755284819454],[-28.083996184555765,37.47999999999996],[-28.12000000000008,37.509271055982154],[-28.13318348800743,37.51999999999997],[-28.160000000000082,37.54185180195746],[-28.18224914770262,37.55999999999997],[-28.20000000000008,37.574497634545715],[-28.231193850531604,37.599999999999966],[-28.24000000000008,37.607208664645036],[-28.28000000000008,37.63998502334847],[-28.28001825874183,37.639999999999965],[-28.320000000000075,37.672836857117126],[-28.32871313166459,37.679999999999964],[-28.360000000000078,37.70575413110997],[-28.377289255710068,37.71999999999996],[-28.400000000000077,37.738736952097256],[-28.42574730164897,37.75999999999996],[-28.440000000000076,37.771785425883635],[-28.47408793667038,37.79999999999996],[-28.480000000000075,37.804899657295095],[-28.520000000000074,37.83808245611068],[-28.52230919928061,37.83999999999996],[-28.560000000000077,37.871338035182994],[-28.570407813174278,37.87999999999995],[-28.600000000000072,37.90465959411075],[-28.618391158057783,37.91999999999996],[-28.64000000000007,37.93804723330368],[-28.66625988557007,37.95999999999996],[-28.68000000000007,37.97150105212857],[-28.714014643892988,37.99999999999996],[-28.72000000000007,38.005021148896034],[-28.76000000000007,38.03860958488005],[-28.761654215096275,38.039999999999964],[-28.800000000000068,38.07227148481212],[-28.809174515336007,38.079999999999956],[-28.840000000000067,38.10599986323243],[-28.85658292457446,38.119999999999955],[-28.880000000000067,38.139794813744686],[-28.90388007598978,38.159999999999954],[-28.920000000000066,38.173656428831634],[-28.951066599422735,38.19999999999995],[-28.960000000000065,38.207584799841236],[-28.998143121397923,38.23999999999995],[-29.000000000000064,38.24158001697309],[-29.040000000000063,38.27564832334954],[-29.045104581659512,38.279999999999944],[-29.080000000000062,38.309785793884295],[-29.09195536200322,38.31999999999995],[-29.120000000000058,38.34399028434817],[-29.138698146459944,38.35999999999995],[-29.16000000000006,38.37826187989083],[-29.18533354716878,38.39999999999995],[-29.20000000000006,38.41260066444836],[-29.231862173066613,38.43999999999995],[-29.24000000000006,38.44700672072952],[-29.278284629908903,38.47999999999995],[-29.280000000000058,38.48148013020181],[-29.320000000000057,38.516026597529255],[-29.324596460062896,38.519999999999946],[-29.360000000000056,38.55064257768709],[-29.3708015725039,38.559999999999945],[-29.400000000000055,38.58532605643804],[-29.41690245186428,38.59999999999995],[-29.440000000000055,38.62007710985603],[-29.462899690102923,38.639999999999944],[-29.480000000000054,38.654895812708624],[-29.508793876105926,38.67999999999994],[-29.520000000000053,38.689782238442824],[-29.554585595706,38.71999999999994],[-29.560000000000052,38.724736459171545],[-29.60000000000005,38.75975888721061],[-29.60027513222641,38.75999999999994],[-29.64000000000005,38.794855856122325],[-29.64585759891192,38.79999999999995],[-29.68000000000005,38.83002073536893],[-29.691339468452774,38.83999999999993],[-29.72000000000005,38.865253591327246],[-29.73672131344729,38.87999999999994],[-29.760000000000048,38.90055448897476],[-29.78200370354415,38.91999999999994],[-29.800000000000047,38.93592349187554],[-29.82718720546154,38.95999999999994],[-29.840000000000046,38.971360662166454],[-29.872272383005082,38.999999999999936],[-29.880000000000045,39.006866060543345],[-29.91725979708652,39.039999999999935],[-29.920000000000044,39.04243974624711],[-29.96000000000004,39.07808449305057],[-29.962147702424673,39.079999999999934],[-30.000000000000043,39.11380100063701],[-30.006936138240313,39.11999999999993],[-30.040000000000042,39.149585869885584],[-30.051628596371074,39.15999999999993],[-30.08000000000004,39.185439153860194],[-30.096225625191703,39.19999999999993],[-30.120000000000037,39.22136090410548],[-30.14072777028051,39.23999999999993],[-30.16000000000004,39.25735117063272],[-30.185135574437513,39.27999999999993],[-30.20000000000004,39.293410001906224],[-30.229449577701416,39.31999999999993],[-30.240000000000038,39.32953744482964],[-30.273670317366996,39.35999999999993],[-30.280000000000037,39.36573354473215],[-30.317798328002297,39.39999999999993],[-30.320000000000036,39.4019983453549],[-30.36000000000003,39.43833425246138],[-30.361832208942477,39.43999999999993],[-30.400000000000034,39.47474167823436],[-30.405772209229184,39.479999999999926],[-30.440000000000033,39.511217830313115],[-30.449621178062962,39.519999999999925],[-30.480000000000032,39.54776274577988],[-30.493379638206857,39.559999999999924],[-30.520000000000035,39.58437646006563],[-30.53704810978899,39.59999999999992],[-30.56000000000003,39.621059006936655],[-30.58062711031876,39.63999999999992],[-30.60000000000003,39.65781041848105],[-30.62411715470335,39.67999999999992],[-30.64000000000003,39.69463072509531],[-30.667518755263757,39.71999999999992],[-30.680000000000028,39.731519955470944],[-30.71083242175117,39.75999999999992],[-30.720000000000027,39.76847813658107],[-30.754058661362496,39.79999999999992],[-30.760000000000026,39.805505293667224],[-30.797197978756735,39.83999999999992],[-30.800000000000026,39.842601450225956],[-30.840000000000025,39.87976695883806],[-30.84025061703344,39.87999999999992],[-30.880000000000024,39.91700509916589],[-30.883214536206733,39.919999999999916],[-30.920000000000023,39.95431220170366],[-30.92609313065202,39.959999999999916],[-30.960000000000022,39.991688282728674],[-30.968886894048573,39.999999999999915],[-31.00000000000002,40.02913335671306],[-31.011596317622335,40.039999999999914],[-31.04000000000002,40.06664743631076],[-31.054221890161237,40.07999999999991],[-31.08000000000002,40.10423053234452],[-31.096764098030402,40.11999999999991],[-31.12000000000002,40.141882653793274],[-31.139223425186994,40.15999999999991],[-31.160000000000018,40.17960380777924],[-31.181600353195183,40.19999999999991],[-31.200000000000017,40.21739399955526],[-31.223895361241027,40.23999999999991],[-31.240000000000016,40.2552532324922],[-31.26610892614715,40.27999999999991],[-31.280000000000015,40.29318150806616],[-31.30824152238751,40.31999999999991],[-31.320000000000014,40.33117882584624],[-31.350293622101667,40.35999999999991],[-31.360000000000014,40.369245183481894],[-31.39226569510952,40.399999999999906],[-31.400000000000013,40.40738057669069],[-31.43415820892551,40.439999999999905],[-31.440000000000012,40.44558499924588],[-31.47597162877299,40.479999999999905]]}},{"type":"Feature","properties":{"magnitude":0.95,"percentagem":95.0,"territorio":"acores"},"geometry":{"type":"LineString","coordinates":[[-31.1311585812445,36.0],[-31.160000000000018,36.0242024484247],[-31.17880805480041,36.040000000000006],[-31.200000000000017,36.05782015357958],[-31.226352160890926,36.08],[-31.240000000000016,36.09150006407757],[-31.273791492396988,36.12],[-31.280000000000015,36.12524224280337],[-31.320000000000014,36.15904796375631],[-31.321125423961785,36.16],[-31.360000000000014,36.1929226639843],[-31.368349187691948,36.199999999999996],[-31.400000000000013,36.22685973697865],[-31.415470074711525,36.239999999999995],[-31.44000000000001,36.26085924068843],[-31.46248866500447,36.279999999999994],[-31.48000000000001,36.294921231858964],[-31.50940553568781,36.31999999999999],[-31.52000000000001,36.329045766019725],[-31.55622126102923,36.35999999999999],[-31.56000000000001,36.363232897472706],[-31.60000000000001,36.39748588058456],[-31.60293328015999,36.39999999999999],[-31.640000000000008,36.43180559869962],[-31.64954138700259,36.43999999999999],[-31.680000000000007,36.4661879913723],[-31.696050183821605,36.47999999999999],[-31.720000000000002,36.5006331076774],[-31.742460232497585,36.51999999999999],[-31.760000000000005,36.535140995406636],[-31.788772092156062,36.55999999999999],[-31.800000000000004,36.5697117010569],[-31.834986319184207,36.59999999999999],[-31.840000000000003,36.60434526981839],[-31.880000000000003,36.63904296388935],[-31.881102303297673,36.639999999999986],[-31.92,36.673809052722476],[-31.927116585447123,36.679999999999986],[-31.96,36.708638053267244],[-31.973035010226603,36.719999999999985],[-32.0,36.74353000519875]]}},{"type":"Feature","properties":{"magnitude":0.9,"percentagem":90.0,"territorio":"madeira"},"geometry":{"type":"LineString","coordinates":[[-15.040000000000063,29.95815324938134],[-15.080000000000062,29.9733628888132],[-15.09741909009832,29.97999999999999],[-15.120000000000061,29.988615619014368],[-15.16000000000006,30.003909036827743],[-15.200000000000058,30.019234874949266],[-15.201992953310233,30.01999999999999],[-15.240000000000059,30.03461137614775],[-15.280000000000058,30.050021319225337],[-15.305848452583026,30.059999999999988],[-15.320000000000057,30.0654705957821],[-15.360000000000056,30.08096490416184],[-15.400000000000057,30.096491778547115],[-15.409019668836839,30.099999999999987],[-15.440000000000055,30.112066320032127],[-15.480000000000054,30.127677884812535],[-15.511506632153832,30.139999999999986],[-15.520000000000053,30.143326258475124],[-15.560000000000052,30.15902277331039],[-15.600000000000051,30.174751997666046],[-15.613319148476151,30.179999999999986],[-15.64000000000005,30.190527136805947],[-15.68000000000005,30.206341634665687],[-15.714475494609143,30.219999999999985],[-15.720000000000049,30.22219166933706],[-15.760000000000048,30.238091699557753],[-15.800000000000047,30.254024580518482],[-15.814971632929055,30.259999999999984],[-15.840000000000046,30.270002887362438],[-15.880000000000045,30.28602162232277],[-15.91483396481311,30.299999999999983],[-15.920000000000044,30.302075894275614],[-15.960000000000043,30.318180741169254],[-16.000000000000043,30.334318577612134],[-16.014054493766416,30.339999999999982],[-16.040000000000042,30.35050263408641],[-16.08000000000004,30.36672690211904],[-16.112658154523018,30.37999999999998],[-16.12000000000004,30.382987999176894],[-16.16000000000004,30.3992989556861],[-16.20000000000004,30.415643038025344],[-16.21064235746888,30.419999999999984],[-16.240000000000038,30.43203543709302],[-16.280000000000037,30.448466525406534],[-16.308021483551965,30.45999999999998],[-16.320000000000036,30.464937046088014],[-16.360000000000035,30.481455396088094],[-16.400000000000034,30.498007005550065],[-16.404807223032307,30.499999999999982],[-16.440000000000033,30.514610350333793],[-16.480000000000032,30.53124953663989],[-16.50099479466933,30.539999999999978],[-16.52000000000003,30.547932089265636],[-16.56000000000003,30.56465910682244],[-16.596612544374977,30.579999999999977],[-16.60000000000003,30.581421314818705],[-16.64000000000003,30.59823641756761],[-16.680000000000028,30.61508496932767],[-16.691646462611754,30.619999999999976],[-16.720000000000027,30.631982171088858],[-16.760000000000026,30.648919119696522],[-16.786118969760633,30.659999999999975],[-16.800000000000026,30.66589707029626],[-16.840000000000025,30.682922668194806],[-16.880000000000024,30.6999818418461],[-16.880042497554925,30.699999999999974],[-16.920000000000023,30.717096317834468],[-16.960000000000022,30.734244449632797],[-16.973400105778694,30.739999999999974],[-17.00000000000002,30.75144077220274],[-17.04000000000002,30.768678112952905],[-17.06622258153531,30.779999999999973],[-17.08000000000002,30.785956735412235],[-17.12000000000002,30.803283535312673],[-17.15851611198736,30.819999999999972],[-17.160000000000018,30.82064491205024],[-17.200000000000017,30.838061420667938],[-17.240000000000016,30.855511739471588],[-17.250268947554353,30.859999999999975],[-17.280000000000015,30.873012473371865],[-17.320000000000014,30.890552804361718],[-17.34150339616354,30.89999999999997],[-17.360000000000014,30.908137398122484],[-17.400000000000013,30.925767988959215],[-17.432227953897833,30.93999999999997],[-17.440000000000012,30.943436899908807],[-17.48000000000001,30.961157997533327],[-17.52000000000001,30.97891307619969],[-17.52244424929513,30.979999999999972],[-17.56000000000001,30.996723534563287],[-17.60000000000001,31.014569418772062],[-17.612149817050486,31.019999999999968],[-17.640000000000008,31.032465304682532],[-17.680000000000007,31.05040223925231],[-17.70136369375156,31.059999999999967],[-17.720000000000006,31.06838401262222],[-17.760000000000005,31.08641224155994],[-17.79009145568712,31.099999999999966],[-17.800000000000004,31.104480363153694],[-17.840000000000003,31.122600129627166],[-17.878338603222538,31.139999999999965],[-17.880000000000003,31.140755061030134],[-17.92,31.15896660733989],[-17.96,31.17721239876401],[-17.966100250943008,31.179999999999964],[-18.0,31.1955123784783]]}}]}