{"type":"FeatureCollection","features":[{"type":"Feature","properties":{"magnitude":0.5,"de":0.5,"ate":0.8,"percentagem":50.0},"geometry":{"type":"Polygon","coordinates":[[[-34.5,30.0],[-17.99036059804603,30.0],[-16.29732880845428,30.899999999999977],[-14.611996700484287,31.91999999999996],[-12.933319958135462,33.05999999999993],[-11.219999999999118,34.34852181068449],[-9.479999999999052,35.779069839442954],[-7.679999999998984,37.37509975252822],[-5.759999999998911,39.18655651437225],[-3.5399999999988268,41.385297009263255],[-3.5399999999988268,44.939999999999685],[-34.5,44.939999999999685],[-34.5,30.0]]]}},{"type":"Feature","properties":{"magnitude":0.8,"de":0.8,"ate":0.95,"percentagem":80.0},"geometry":{"type":"Polygon","coordinates":[[[-17.99036059804603,30.0],[-4.252099776885195,30.0],[-3.5399999999988268,30.644079314753803],[-3.5399999999988268,41.385297009263255],[-5.759999999998911,39.18655651437224],[-7.6799999999989845,37.37509975252822],[-9.479999999999052,35.779069839442954],[-11.219999999999118,34.34852181068449],[-12.933319958135463,33.05999999999993],[-14.611996700484287,31.91999999999996],[-16.29732880845428,30.899999999999977],[-17.99036059804603,30.0]]]}},{"type":"Feature","properties":{"magnitude":0.95,"de":0.95,"ate":0.99,"percentagem":95.0},"geometry":{"type":"Polygon","coordinates":[[[-4.252099776885195,30.0],[-3.5399999999988268,30.0],[-3.5399999999988268,30.644079314753803],[-3.8999999999988404,30.316715846186476],[-4.252099776885195,30.0]]]}}]}