{"type":"FeatureCollection","properties":{"largura_maxima_km":326.17,"largura_sobre_pt_km":326.17,"linha_central_sobre_pt":false,"desenhavel_como_area":true,"perfil_largura":[{"t":1.85556,"lat":25.0524,"lon":-38.9606,"largura_km":323.678,"eixo_na_terra":true},{"t":1.86111,"lat":25.2958,"lon":-38.4951,"largura_km":324.421,"eixo_na_terra":true},{"t":1.86667,"lat":25.5495,"lon":-38.0075,"largura_km":325.242,"eixo_na_terra":true},{"t":1.87222,"lat":25.815,"lon":-37.4949,"largura_km":326.17,"eixo_na_terra":true},{"t":1.87778,"lat":27.4079,"lon":-34.5718,"largura_km":null,"eixo_na_terra":false},{"t":1.88333,"lat":27.7093,"lon":-33.9626,"largura_km":null,"eixo_na_terra":false},{"t":1.88889,"lat":27.9056,"lon":-33.4957,"largura_km":null,"eixo_na_terra":false},{"t":1.89444,"lat":28.0258,"lon":-33.1877,"largura_km":null,"eixo_na_terra":false},{"t":1.9,"lat":28.2295,"lon":-32.7851,"largura_km":null,"eixo_na_terra":false},{"t":1.90556,"lat":28.1463,"lon":-32.7918,"largura_km":null,"eixo_na_terra":false},{"t":1.91111,"lat":28.2742,"lon":-32.453,"largura_km":null,"eixo_na_terra":false},{"t":1.91667,"lat":28.3406,"lon":-32.2344,"largura_km":null,"eixo_na_terra":false},{"t":1.92222,"lat":28.6356,"lon":-31.6652,"largura_km":null,"eixo_na_terra":false},{"t":1.92778,"lat":28.5999,"lon":-31.6372,"largura_km":null,"eixo_na_terra":false},{"t":1.93333,"lat":28.5927,"lon":-31.5581,"largura_km":null,"eixo_na_terra":false},{"t":1.93889,"lat":28.6092,"lon":-31.4334,"largura_km":null,"eixo_na_terra":false},{"t":1.94444,"lat":28.9449,"lon":-30.7988,"largura_km":null,"eixo_na_terra":false},{"t":1.95,"lat":29.1639,"lon":-30.1202,"largura_km":null,"eixo_na_terra":false},{"t":1.95556,"lat":29.2683,"lon":-29.8056,"largura_km":null,"eixo_na_terra":false},{"t":1.96111,"lat":29.2624,"lon":-29.8706,"largura_km":null,"eixo_na_terra":false},{"t":1.96667,"lat":29.2976,"lon":-29.5793,"largura_km":null,"eixo_na_terra":false},{"t":1.97222,"lat":29.5858,"lon":-29.0092,"largura_km":null,"eixo_na_terra":false},{"t":1.97778,"lat":29.8841,"lon":-28.2936,"largura_km":null,"eixo_na_terra":false},{"t":1.98333,"lat":30.0801,"lon":-27.6558,"largura_km":null,"eixo_na_terra":false},{"t":1.98889,"lat":30.7936,"lon":-26.1152,"largura_km":null,"eixo_na_terra":false}]},"features":[{"type":"Feature","properties":{},"geometry":{"type":"Polygon","coordinates":[[[-36.10419275399046,28.224429021962482],[-35.69153033724703,28.442481432156086],[-35.435012702031116,28.57460212409571],[-35.06862419821582,28.758993699617946],[-34.68125185311072,28.9579412825994],[-34.26218802727177,29.167400499816747],[-33.841883160976636,29.38124507606436],[-33.35009930169964,29.625110689190596],[-32.88416314337323,29.85958744621797],[-32.28338986098242,30.15469458718478],[-31.747186296152194,30.420966816801542],[-30.288522436254027,31.130760426585987],[-29.63992137534254,31.44222765191488],[-27.890772374220546,32.27187069654804],[-27.8850446789902,32.26785561684123],[-27.821561423021592,32.297552420757434],[-27.799867239933526,32.28015852233277],[-27.287821983073755,32.51488111395687],[-26.581464524981413,32.84910581384274],[-26.578286897056095,32.8401334466504],[-25.89011300258852,33.155593765506],[-25.902392811547276,32.845519912912515],[-25.68902000316416,32.93940055997925],[-25.915905100346283,32.00171578148486],[-25.625189154167977,31.63909758493968],[-25.103834588568986,31.190561960716163],[-25.298683792099453,31.0941611000322],[-25.132477367377646,30.959825294311244],[-25.528932592599705,30.765528738007152],[-25.164403983431345,30.411349688515298],[-24.897521222199828,30.188805491168363],[-24.923452693776294,30.177239397587634],[-24.919182482741746,30.173090424784657],[-26.785812833465513,29.333502230805912],[-27.669279216655013,28.93093055684841],[-29.397805583058847,28.128227979965544],[-30.69957723642711,27.512671090765124],[-31.21107639853119,27.26603025573337],[-31.757386516641766,27.00563672834882],[-32.21070965400082,26.784243198245402],[-32.66658143868966,26.564973810483973],[-33.08005927402269,26.360863260676805],[-33.47309618538999,26.17034430431216],[-33.85691330775444,25.97910560101895],[-34.203235293572625,25.810084710524723],[-34.563752346881756,25.628971168347366],[-34.873723437690415,25.476768979745916],[-35.2152343453061,25.303931628132272],[-35.4959743955588,25.16532233189424],[-35.821543906304896,24.999445021605712],[-36.078187621657364,24.87209428628096],[-36.39009676661723,24.712199911236027],[-36.626487627958376,24.59435457346213],[-36.92649054653796,24.439693516763196],[-37.14559151717011,24.329997616758998],[-37.43507300936031,24.17997941872591],[-37.63922352251257,24.077358900864333],[-37.91930058706089,23.931508285703707],[-38.128528297820374,23.826128003161624],[-39.435169749499636,23.147558188623382],[-39.382435239996425,23.266676433491654],[-39.60968442032993,23.182160395524],[-39.741338270313975,23.136477247671245],[-39.869154203792164,23.094548179172396],[-39.9930914014609,23.056369789965395],[-40.11310866137711,23.021936776891888],[-40.229164455216875,22.991241940732962],[-40.341216983491904,22.964276195200842],[-40.449224229823955,22.941028577803614],[-40.55314401436141,22.921486262507564],[-40.65293404640545,22.9056345741287],[-40.74855197630333,22.893457004389585],[-40.83995544665217,22.884935229583707],[-40.92710214284986,22.880049129793274],[-41.009949843020166,22.87877680960999],[-41.08845646733198,22.88109462031206],[-41.16258012672748,22.88697718345301],[-41.23227917106783,22.8963974158212],[-41.297512236701294,22.909326555730438],[-41.358238293453724,22.925734190604842],[-41.41441669103929,22.945588285822453],[-41.466007204885045,22.96885521478423],[-41.512970081360976,22.99549979017659],[-41.5552660824049,23.025485296396845],[-41.59285652952883,23.05877352311299],[-41.62570334719223,23.095324799930047],[-41.65376910552462,23.13509803213717],[-41.67701706237932,23.178050737510453],[-41.69541120469748,23.22413908414842],[-41.708916289159305,23.273317929318278],[-41.71749788209857,23.325540859292346],[-41.72112239865288,23.38076023015608],[-41.719757141120795,23.438927209570142],[-41.71337033649334,23.499991819471077],[-41.7019311731255,23.56390297969697],[-41.68540983650871,23.630608552525995],[-41.6637775441028,23.70005538811829],[-41.637006579180195,23.7721893708537],[-41.60507032363162,23.846955466560246],[-41.56794328967641,23.92429777063093],[-41.52560115041396,24.004159557029777],[-41.478020769146525,24.086483328190404],[-41.42518022739526,24.17121086581491],[-41.367058851521904,24.2582832825843],[-41.30363723785922,24.347641074796215],[-41.23489727624025,24.439224175950518],[-41.160822171804796,24.53297201130947],[-41.08139646494536,24.6288235534644],[-40.99660604923798,24.726717378949225],[-40.90643818718431,24.826591725947818],[-40.81088152356875,24.928384553152767],[-40.709926096209614,25.03203359984241],[-40.60356334385335,25.137476447255995],[-40.491786110928956,25.244650581360233],[-40.37458864884033,25.35349345711653],[-40.25196661343125,25.46394256437732],[-40.123917058205706,25.575935495560717],[-39.99043842282822,25.689410015278963],[-39.85153051635953,25.804304132124614],[-39.70719449460313,25.920556172854184],[-39.557432830844306,26.038104859248506],[-39.402249279153295,26.15688938797863],[-39.241648829293865,26.276849513861883],[-39.07563765212555,26.397925636961705],[-38.90422303420499,26.520058894064952],[-38.72741330007355,26.64319125516792],[-38.54521772045902,26.767265625718533],[-38.35764640430432,26.89222595550282],[-38.16471017215807,27.018017355233905],[-37.96642040800262,27.144586222108703],[-37.762788886034116,27.271880375850788],[-37.55222357711631,27.400811804684636],[-37.50826292625038,27.50011140230576],[-36.927783501914035,27.80198938555558],[-36.10419275399046,28.224429021962482]]]}}]}