{"type":"FeatureCollection","features":[{"type":"Feature","properties":{"t_inicio":1.8555555555555348,"t_fim":1.9277777777777567},"geometry":{"type":"LineString","coordinates":[[-38.96059009105909,25.052426919156886],[-38.49506395851907,25.29578047905075],[-38.00748596540876,25.549527728325515],[-37.49493807147471,25.81500123988549],[-36.953806484225936,26.09384922016868],[-36.37952525153753,26.388151475051025],[-35.76618396779557,26.70059672672682],[-35.1058996571613,27.034766350863173],[-34.38775236750752,27.395614904400034],[-33.59584489701467,27.79034552620207],[-32.70540255921031,28.230168523660737],[-31.67376252556579,28.734361621131125],[-30.414478064980244,29.341930987900152],[-28.684204463702457,30.16251011842149]]}}]}