{"type":"FeatureCollection","features":[{"type":"Feature","properties":{"magnitude":0.2,"percentagem":20.0,"territorio":"acores"},"geometry":{"type":"LineString","coordinates":[[-26.769514305229173,36.0],[-26.80000000000011,36.03048569477094],[-26.80952945966532,36.040000000000006],[-26.80953991899215,36.08],[-26.84000000000011,36.11046008100796],[-26.849555139237193,36.12],[-26.84956564260335,36.16],[-26.88000000000011,36.190434357396754],[-26.889580928985975,36.199999999999996],[-26.88959147660197,36.239999999999995],[-26.889602042355307,36.279999999999994],[-26.92000000000011,36.310397957644795],[-26.929617421529645,36.31999999999999],[-26.929628031828095,36.35999999999999],[-26.960000000000107,36.390371968172005],[-26.969643477930447,36.39999999999999],[-26.969654132986626,36.43999999999999],[-27.000000000000107,36.470345867013464],[-27.009669646350865,36.47999999999999],[-27.009680346378303,36.51999999999999],[-27.00969106482968,36.55999999999999],[-27.040000000000106,36.59030893517041],[-27.049706672552933,36.59999999999999],[-27.04971743627494,36.639999999999986],[-27.08000000000011,36.67028256372515],[-27.08973311206277,36.679999999999986],[-27.08974392127103,36.719999999999985],[-27.120000000000104,36.750256078729066],[-27.12975966546252,36.759999999999984],[-27.129770520373533,36.79999999999998],[-27.12978139399882,36.83999999999999],[-27.160000000000107,36.87021860600127],[-27.169797234140468,36.87999999999998],[-27.169808153771964,36.91999999999998],[-27.2000000000001,36.950191846228115],[-27.209824063132277,36.95999999999998],[-27.209835028988604,36.999999999999986],[-27.240000000000105,37.03016497101149],[-27.249851007911857,37.03999999999998],[-27.249862020212493,37.07999999999998],[-27.2800000000001,37.11013797978758],[-27.28987806904453,37.119999999999976],[-27.28988912800985,37.159999999999975],[-27.289900206070584,37.199999999999974],[-27.3200000000001,37.23009979392949],[-27.32991635294931,37.239999999999974],[-27.329927477983453,37.27999999999997],[-27.3600000000001,37.31007252201661],[-27.369943695601954,37.31999999999997],[-27.36995486783196,37.35999999999997],[-27.400000000000098,37.39004513216811],[-27.409971156541296,37.39999999999997],[-27.409982376190488,37.43999999999997],[-27.440000000000094,37.47001762380957],[-27.44999873634326,37.47999999999996],[-27.450010003635867,37.51999999999997],[-27.450021290411115,37.55999999999997],[-27.480000000000096,37.58997870958895],[-27.49003775074733,37.599999999999966],[-27.490049085479907,37.639999999999965],[-27.520000000000095,37.66995091452016],[-27.53006561810656,37.679999999999964],[-27.530077001022732,37.71999999999996],[-27.560000000000095,37.749922998977326],[-27.570093606297654,37.75999999999996],[-27.57010503762456,37.79999999999996],[-27.600000000000094,37.82989496237549],[-27.61012171590714,37.83999999999996],[-27.61013319587278,37.87999999999996],[-27.610144695714293,37.91999999999996],[-27.640000000000093,37.94985530428576],[-27.650161476357198,37.95999999999996],[-27.65017302515651,37.99999999999996],[-27.680000000000092,38.02982697484354],[-27.69018987967004,38.03999999999996],[-27.690201477657183,38.079999999999956],[-27.72000000000009,38.109798522342864],[-27.730218406405935,38.119999999999955],[-27.730230053811802,38.159999999999954],[-27.76000000000009,38.18976994618825],[-27.77024705716193,38.19999999999995],[-27.77025875421826,38.23999999999995],[-27.80000000000009,38.26974124578178],[-27.810275832537464,38.27999999999995],[-27.81028757947686,38.31999999999995],[-27.81029934678272,38.35999999999995],[-27.84000000000009,38.389700653217325],[-27.85031653019028,38.39999999999995],[-27.850328347704465,38.43999999999995],[-27.880000000000088,38.469671652295574],[-27.890345606963617,38.47999999999995],[-27.890357474920705,38.51999999999995],[-27.920000000000087,38.549642525079335],[-27.930374810404334,38.559999999999945],[-27.930386729039746,38.599999999999945],[-27.960000000000086,38.629613270960284],[-27.970404141122273,38.639999999999944],[-27.970416110672268,38.67999999999994],[-28.00000000000009,38.70958388932777],[-28.010433599729666,38.71999999999994],[-28.010445620431327,38.75999999999994],[-28.0104576619986,38.79999999999994],[-28.040000000000084,38.829542338001424],[-28.050475258932334,38.83999999999994],[-28.050487351982568,38.87999999999994],[-28.080000000000084,38.909512648017454],[-28.090505026793068,38.919999999999945],[-28.09051717156528,38.95999999999994],[-28.120000000000083,38.98948282843474],[-28.130534924633654,38.999999999999936],[-28.130547121367677,39.039999999999935],[-28.16000000000008,39.06945287863233],[-28.170564953076546,39.079999999999934],[-28.170577202013032,39.11999999999993],[-28.20000000000008,39.149422797986986],[-28.21059511274654,39.159999999999926],[-28.210607414126937,39.19999999999993],[-28.210619736880297,39.23999999999993],[-28.24000000000008,39.269380263119714],[-28.250637758337326,39.27999999999993],[-28.250650133871712,39.31999999999993],[-28.28000000000008,39.34934986612829],[-28.29066823527443,39.35999999999993],[-28.290680663833164,39.39999999999993],[-28.32000000000008,39.42931933616684],[-28.330698845570783,39.43999999999993],[-28.330711327397964,39.479999999999926],[-28.360000000000078,39.50928867260204],[-28.370729589861202,39.519999999999925],[-28.370742125201723,39.559999999999924],[-28.400000000000077,39.58925787479828],[-28.410760468782797,39.59999999999992],[-28.410773057882313,39.63999999999992],[-28.440000000000076,39.66922694211768],[-28.450791482974946,39.67999999999992],[-28.450804126079884,39.71999999999992],[-28.450816791169167,39.75999999999992],[-28.480000000000075,39.78918320883083],[-28.490835330436827,39.79999999999992],[-28.490848049875254,39.83999999999992],[-28.520000000000074,39.86915195012474],[-28.530866671597778,39.879999999999924],[-28.530879445633538,39.919999999999916],[-28.560000000000073,39.949120554366445],[-28.57089815020959,39.959999999999916],[-28.570910979091636,39.999999999999915],[-28.600000000000072,40.029089020908344],[-28.61092976692135,40.039999999999914],[-28.610942650899354,40.07999999999991],[-28.64000000000007,40.10905734910063],[-28.65096152238432,40.11999999999991],[-28.6509744617087,40.15999999999991],[-28.68000000000007,40.18902553829128],[-28.69099341725197,40.19999999999991],[-28.69100641217385,40.23999999999991],[-28.720000000000066,40.268993587826124],[-28.73102545217992,40.27999999999991],[-28.731038502951158,40.31999999999991],[-28.76000000000007,40.34896149704882],[-28.771057627825968,40.35999999999991],[-28.77107073469912,40.399999999999906],[-28.800000000000068,40.42892926530085],[-28.811089944850032,40.439999999999905],[-28.811103108078356,40.479999999999905]]}},{"type":"Feature","properties":{"magnitude":0.4,"percentagem":40.0,"territorio":"acores"},"geometry":{"type":"LineString","coordinates":[[-26.779028610458234,36.0],[-26.80000000000011,36.02097138954188],[-26.81905891933053,36.04],[-26.819079837984198,36.08],[-26.84000000000011,36.10092016201591],[-26.859110278474276,36.12],[-26.85913128520659,36.16],[-26.88000000000011,36.18086871479351],[-26.89916185797184,36.199999999999996],[-26.899182953203834,36.239999999999995],[-26.899204084710505,36.279999999999994],[-26.92000000000011,36.3007959152896],[-26.939234843059186,36.31999999999999],[-26.939256063656075,36.35999999999999],[-26.960000000000107,36.38074393634402],[-26.979286955860786,36.39999999999999],[-26.979308265973145,36.43999999999999],[-27.000000000000107,36.46069173402695],[-27.019339292701623,36.47999999999999],[-27.019360692756493,36.51999999999999],[-27.019382129659263,36.55999999999999],[-27.040000000000106,36.58061787034083],[-27.05941334510576,36.59999999999999],[-27.059434872549772,36.639999999999986],[-27.080000000000105,36.66056512745032],[-27.09946622412544,36.679999999999986],[-27.099487842541954,36.719999999999985],[-27.120000000000104,36.740512157458134],[-27.139519330924934,36.759999999999984],[-27.139541040746963,36.79999999999998],[-27.139562787997534,36.83999999999998],[-27.160000000000103,36.86043721200255],[-27.179594468280833,36.87999999999998],[-27.179616307543828,36.91999999999998],[-27.200000000000102,36.94038369245625],[-27.219648126264456,36.95999999999998],[-27.219670057977098,36.99999999999998],[-27.2400000000001,37.02032994202298],[-27.259702015823613,37.03999999999998],[-27.259724040424885,37.07999999999998],[-27.2800000000001,37.10027595957519],[-27.299756138088952,37.119999999999976],[-27.2997782560196,37.15999999999998],[-27.299800412141067,37.199999999999974],[-27.3200000000001,37.220199587859],[-27.339832705898527,37.239999999999974],[-27.339854955966807,37.27999999999997],[-27.3600000000001,37.300145044033265],[-27.379887391203816,37.319999999999965],[-27.379909735663823,37.35999999999997],[-27.400000000000098,37.380090264336246],[-27.41994231308249,37.39999999999997],[-27.419964752380885,37.43999999999997],[-27.440000000000097,37.46003524761918],[-27.459997472686435,37.47999999999997],[-27.460020007271634,37.51999999999997],[-27.46004258082213,37.55999999999997],[-27.480000000000096,37.57995741917793],[-27.500075501494564,37.599999999999966],[-27.500098170959717,37.639999999999965],[-27.520000000000095,37.65990182904035],[-27.54013123621302,37.679999999999964],[-27.54015400204537,37.71999999999996],[-27.560000000000095,37.73984599795469],[-27.580187212595213,37.75999999999996],[-27.580210075249028,37.79999999999996],[-27.600000000000094,37.81978992475103],[-27.62024343181419,37.83999999999996],[-27.620266391745467,37.87999999999996],[-27.62028939142849,37.91999999999996],[-27.640000000000093,37.93971060857156],[-27.660322952714303,37.95999999999996],[-27.660346050312928,37.99999999999996],[-27.680000000000092,38.019653949687125],[-27.700379759339988,38.03999999999996],[-27.700402955314274,38.079999999999956],[-27.72000000000009,38.09959704468577],[-27.74043681281178,38.119999999999955],[-27.740460107623512,38.159999999999954],[-27.76000000000009,38.17953989237653],[-27.780494114323766,38.19999999999995],[-27.780517508436432,38.23999999999995],[-27.80000000000009,38.25948249156361],[-27.820551665074838,38.27999999999995],[-27.820575158953627,38.31999999999995],[-27.820598693565348,38.35999999999995],[-27.84000000000009,38.379401306434694],[-27.860633060380476,38.39999999999995],[-27.860656695408842,38.43999999999995],[-27.880000000000088,38.459343304591194],[-27.900691213927146,38.47999999999995],[-27.900714949841323,38.519999999999946],[-27.920000000000087,38.53928505015871],[-27.940749620808575,38.559999999999945],[-27.940773458079402,38.599999999999945],[-27.960000000000086,38.61922654192063],[-27.98080828224446,38.639999999999944],[-27.98083222134445,38.67999999999994],[-28.000000000000085,38.69916777865558],[-28.02086719945924,38.71999999999994],[-28.020891240862564,38.75999999999994],[-28.020915323997116,38.79999999999994],[-28.040000000000084,38.819084676002916],[-28.060950517864583,38.83999999999994],[-28.060974703965055,38.87999999999994],[-28.080000000000084,38.899025296034964],[-28.10101005358605,38.91999999999994],[-28.101034343130483,38.95999999999994],[-28.120000000000083,38.97896565686953],[-28.141069849267218,38.999999999999936],[-28.141094242735274,39.039999999999935],[-28.160000000000082,39.05890575726474],[-28.181129906153004,39.079999999999934],[-28.18115440402598,39.11999999999993],[-28.20000000000008,39.13884559597403],[-28.221190225493,39.15999999999993],[-28.221214828253796,39.19999999999993],[-28.221239473760505,39.23999999999993],[-28.24000000000008,39.258760526239506],[-28.261275516674576,39.27999999999993],[-28.261300267743348,39.31999999999993],[-28.28000000000008,39.33869973225666],[-28.301336470548783,39.35999999999993],[-28.30136132766625,39.39999999999993],[-28.32000000000008,39.418638672333756],[-28.34139769114148,39.43999999999993],[-28.341422654795853,39.479999999999926],[-28.360000000000078,39.498577345204154],[-28.381459179722327,39.519999999999925],[-28.381484250403368,39.559999999999924],[-28.400000000000077,39.57851574959663],[-28.421520937565518,39.59999999999992],[-28.42154611576455,39.63999999999992],[-28.440000000000076,39.65845388423545],[-28.46158296594981,39.67999999999992],[-28.461608252159692,39.71999999999992],[-28.461633582338266,39.75999999999992],[-28.480000000000075,39.77836641766173],[-28.50167066087358,39.79999999999992],[-28.501696099750433,39.83999999999992],[-28.520000000000074,39.85830390024956],[-28.541733343195478,39.87999999999992],[-28.54175889126701,39.919999999999916],[-28.560000000000073,39.93824110873298],[-28.58179630041911,39.959999999999916],[-28.5818219581832,39.999999999999915],[-28.600000000000072,40.01817804181678],[-28.621859533842624,40.039999999999914],[-28.621885301798635,40.07999999999991],[-28.64000000000007,40.09811469820135],[-28.66192304476857,40.11999999999991],[-28.661948923417327,40.15999999999991],[-28.68000000000007,40.17805107658266],[-28.70198683450387,40.19999999999991],[-28.702012824347634,40.23999999999991],[-28.72000000000007,40.257987175652346],[-28.742050904359775,40.27999999999991],[-28.742077005902253,40.31999999999991],[-28.76000000000007,40.337922994097724],[-28.782115255651867,40.35999999999991],[-28.78214146939817,40.399999999999906],[-28.800000000000068,40.417858530601805],[-28.8221798897,40.439999999999905],[-28.822206216156644,40.479999999999905]]}},{"type":"Feature","properties":{"magnitude":0.6,"percentagem":60.0,"territorio":"acores"},"geometry":{"type":"LineString","coordinates":[[-26.788542915687295,36.0],[-26.80000000000011,36.011457084312816],[-26.82858837899574,36.04],[-26.828619756976238,36.08],[-26.84000000000011,36.09138024302387],[-26.86866541771136,36.12],[-26.868696927809832,36.16],[-26.88000000000011,36.17130307219028],[-26.908742786957703,36.199999999999996],[-26.908774429805693,36.239999999999995],[-26.90880612706571,36.279999999999994],[-26.92000000000011,36.29119387293439],[-26.948852264588727,36.31999999999999],[-26.94888409548406,36.35999999999999],[-26.960000000000107,36.37111590451604],[-26.988930433791126,36.39999999999999],[-26.988962398959668,36.43999999999999],[-27.000000000000107,36.451037601040426],[-27.029008939052382,36.47999999999999],[-27.02904103913469,36.51999999999999],[-27.029073194488838,36.55999999999999],[-27.040000000000106,36.570926805511256],[-27.06912001765858,36.59999999999999],[-27.069152308824606,36.639999999999986],[-27.080000000000105,36.650847691175485],[-27.10919933618811,36.679999999999986],[-27.10923176381288,36.719999999999985],[-27.120000000000104,36.73076823618721],[-27.14927899638735,36.759999999999984],[-27.149311561120392,36.79999999999998],[-27.14934418199624,36.83999999999998],[-27.160000000000103,36.850655818003844],[-27.189391702421194,36.87999999999998],[-27.18942446131569,36.91999999999998],[-27.200000000000102,36.930575538684394],[-27.22947218939663,36.95999999999998],[-27.2295050869656,36.99999999999998],[-27.2400000000001,37.010494913034485],[-27.26955302373537,37.03999999999998],[-27.269586060637277,37.07999999999998],[-27.2800000000001,37.0904139393628],[-27.30963420713338,37.119999999999976],[-27.30966738402935,37.159999999999975],[-27.30970061821155,37.199999999999974],[-27.3200000000001,37.21029938178852],[-27.34974905884774,37.239999999999974],[-27.34978243395016,37.27999999999997],[-27.3600000000001,37.29021756604991],[-27.389831086805675,37.31999999999997],[-27.38986460349568,37.35999999999997],[-27.400000000000098,37.37013539650439],[-27.42991346962369,37.39999999999997],[-27.42994712857128,37.43999999999997],[-27.440000000000097,37.45005287142879],[-27.469996209029603,37.47999999999997],[-27.4700300109074,37.51999999999997],[-27.470063871233144,37.55999999999997],[-27.480000000000096,37.56993612876692],[-27.510113252241798,37.599999999999966],[-27.510147256439527,37.639999999999965],[-27.520000000000095,37.64985274356053],[-27.550196854319488,37.679999999999964],[-27.550231003068006,37.71999999999996],[-27.560000000000095,37.72976899693205],[-27.590280818892776,37.75999999999996],[-27.590315112873494,37.79999999999996],[-27.600000000000094,37.809684887126565],[-27.630365147721232,37.83999999999996],[-27.630399587618154,37.87999999999996],[-27.63043408714269,37.91999999999996],[-27.640000000000093,37.92956591285736],[-27.67048442907141,37.95999999999996],[-27.670519075469347,37.99999999999996],[-27.680000000000092,38.009480924530706],[-27.710569639009933,38.03999999999996],[-27.710604432971365,38.079999999999956],[-27.72000000000009,38.08939556702868],[-27.750655219217624,38.119999999999955],[-27.750690161435223,38.159999999999954],[-27.76000000000009,38.16930983856482],[-27.790741171485607,38.19999999999995],[-27.790776262654603,38.23999999999995],[-27.80000000000009,38.24922373734544],[-27.830827497612216,38.27999999999995],[-27.830862738430394,38.31999999999995],[-27.830898040347975,38.35999999999995],[-27.84000000000009,38.36910195965206],[-27.870949590570667,38.39999999999995],[-27.87098504311322,38.43999999999995],[-27.880000000000088,38.44901495688682],[-27.911036820890676,38.47999999999995],[-27.911072424761937,38.519999999999946],[-27.920000000000087,38.52892757523809],[-27.951124431212822,38.559999999999945],[-27.951160187119058,38.599999999999945],[-27.960000000000086,38.60883981288097],[-27.991212423366647,38.639999999999944],[-27.99124833201663,38.67999999999994],[-28.000000000000085,38.6887516679834],[-28.03130079918882,38.71999999999994],[-28.031336861293802,38.75999999999994],[-28.031372985995628,38.79999999999994],[-28.040000000000084,38.808627014004394],[-28.071425776796836,38.83999999999994],[-28.071462055947542,38.87999999999994],[-28.080000000000084,38.88853794405249],[-28.111515080379036,38.91999999999994],[-28.111551514695684,38.95999999999994],[-28.120000000000083,38.968448485304336],[-28.151604773900782,38.999999999999936],[-28.151641364102872,39.039999999999935],[-28.160000000000082,39.048358635897145],[-28.191694859229464,39.079999999999934],[-28.191731606038925,39.11999999999993],[-28.20000000000008,39.128268393961086],[-28.23178533823946,39.15999999999993],[-28.231822242380655,39.19999999999993],[-28.23185921064072,39.23999999999993],[-28.24000000000008,39.24814078935929],[-28.271913275011823,39.27999999999993],[-28.271950401614983,39.31999999999993],[-28.28000000000008,39.32804959838502],[-28.312004705823135,39.35999999999993],[-28.312041991499335,39.39999999999993],[-28.32000000000008,39.40795800850067],[-28.35209653671218,39.43999999999993],[-28.352133982193738,39.479999999999926],[-28.360000000000078,39.48786601780626],[-28.39218876958345,39.519999999999925],[-28.39222637560501,39.559999999999924],[-28.400000000000077,39.56777362439499],[-28.43228140634824,39.59999999999992],[-28.43231917364679,39.63999999999992],[-28.440000000000076,39.64768082635321],[-28.47237444892468,39.67999999999992],[-28.4724123782395,39.71999999999992],[-28.472450373507357,39.75999999999992],[-28.480000000000075,39.76754962649264],[-28.51250599131033,39.79999999999992],[-28.51254414962561,39.83999999999992],[-28.520000000000074,39.84745585037438],[-28.552600014793178,39.87999999999992],[-28.552638336900472,39.919999999999916],[-28.560000000000073,39.92736166309952],[-28.59269445062863,39.959999999999916],[-28.592732937274764,39.999999999999915],[-28.600000000000072,40.00726706272522],[-28.632789300763903,40.039999999999914],[-28.63282795269792,40.07999999999991],[-28.64000000000007,40.08717204730207],[-28.672884567152824,40.11999999999991],[-28.67292338512595,40.15999999999991],[-28.68000000000007,40.16707661487403],[-28.712980251755766,40.19999999999991],[-28.71301923652141,40.23999999999991],[-28.72000000000007,40.24698076347857],[-28.753076356539626,40.27999999999991],[-28.753115508853345,40.31999999999991],[-28.76000000000007,40.326884491146636],[-28.793172883477766,40.3599999999999],[-28.793212204097223,40.399999999999906],[-28.800000000000068,40.40678779590275],[-28.833269834549967,40.439999999999905],[-28.833309324234936,40.479999999999905]]}},{"type":"Feature","properties":{"magnitude":0.8,"percentagem":80.0,"territorio":"acores"},"geometry":{"type":"LineString","coordinates":[[-26.798057220916355,36.0],[-26.80000000000011,36.001942779083755],[-26.838117838660946,36.04],[-26.83815967596828,36.08],[-26.84000000000011,36.08184032403183],[-26.878220556948445,36.12],[-26.87826257041307,36.16],[-26.88000000000011,36.16173742958703],[-26.918323715943565,36.199999999999996],[-26.918365906407555,36.239999999999995],[-26.918408169420907,36.279999999999994],[-26.92000000000011,36.2815918305792],[-26.958469686118264,36.31999999999999],[-26.958512127312048,36.35999999999999],[-26.960000000000107,36.36148787268805],[-26.99857391172147,36.39999999999999],[-26.99861653194619,36.43999999999999],[-27.000000000000107,36.44138346805391],[-27.038678585403144,36.47999999999999],[-27.038721385512883,36.51999999999999],[-27.038764259318416,36.55999999999999],[-27.040000000000106,36.56123574068168],[-27.078826690211407,36.59999999999998],[-27.078869745099436,36.639999999999986],[-27.080000000000105,36.64113025490065],[-27.118932448250774,36.679999999999986],[-27.1189756850838,36.719999999999985],[-27.120000000000104,36.721024314916285],[-27.159038661849763,36.759999999999984],[-27.15908208149382,36.79999999999998],[-27.15912557599496,36.83999999999998],[-27.160000000000103,36.84087442400513],[-27.19918893656156,36.87999999999998],[-27.199232615087553,36.91999999999998],[-27.200000000000102,36.92076738491253],[-27.239296252528813,36.95999999999998],[-27.239340115954096,36.99999999999998],[-27.2400000000001,37.00065988404599],[-27.279404031647125,37.03999999999998],[-27.27944808084967,37.07999999999998],[-27.2800000000001,37.08055191915041],[-27.319512276177807,37.119999999999976],[-27.3195565120391,37.159999999999975],[-27.319600824282038,37.199999999999974],[-27.3200000000001,37.20039917571803],[-27.359665411796954,37.239999999999974],[-27.359709911933518,37.27999999999997],[-27.3600000000001,37.28029008806656],[-27.399774782407533,37.31999999999997],[-27.399819471327543,37.35999999999997],[-27.400000000000098,37.36018052867252],[-27.439884626164883,37.39999999999997],[-27.439929504761672,37.43999999999997],[-27.440000000000097,37.440070495238395],[-27.479994945372773,37.47999999999997],[-27.480000000000096,37.48449059411973],[-27.48986170120089,37.47999999999997],[-27.520000000000095,37.46628019442247],[-27.560000000000095,37.448059325391036],[-27.577682451224526,37.43999999999997],[-27.600000000000094,37.42983095426439],[-27.640000000000093,37.411593978265735],[-27.66541396375,37.39999999999997],[-27.680000000000092,37.39334765020368],[-27.72000000000009,37.37509456109191],[-27.753056507374918,37.35999999999997],[-27.760000000000094,37.35683029064336],[-27.80000000000009,37.338561082381716],[-27.84000000000009,37.3202790300794],[-27.84061021746428,37.31999999999997],[-27.880000000000088,37.301993550813776],[-27.920000000000087,37.28369537060792],[-27.928074008914557,37.27999999999997],[-27.960000000000083,37.26539197523559],[-28.000000000000085,37.24707766135862],[-28.01544966373094,37.239999999999974],[-28.040000000000084,37.22875636466589],[-28.080000000000084,37.21042591146346],[-28.102737448451165,37.199999999999974],[-28.120000000000083,37.192086728297134],[-28.160000000000082,37.173740130229234],[-28.18993762915408,37.159999999999975],[-28.20000000000008,37.155383075497866],[-28.24000000000008,37.13702032714009],[-28.2770504714639,37.119999999999976],[-28.28000000000008,37.11864541581522],[-28.32000000000008,37.10026651185997],[-28.360000000000078,37.081874735725734],[-28.36407537291546,37.07999999999998],[-28.400000000000077,37.06347869423508],[-28.440000000000076,37.04507075479996],[-28.45101286426418,37.03999999999998],[-28.480000000000075,37.026656884296536],[-28.520000000000074,37.00823277654158],[-28.537863839489795,36.99999999999998],[-28.560000000000073,36.98980109226271],[-28.600000000000072,36.97136081129016],[-28.624628562258064,36.95999999999998],[-28.640000000000068,36.95291132854197],[-28.68000000000007,36.93445486957641],[-28.711307295801255,36.91999999999998],[-28.72000000000007,36.9159876037352],[-28.76000000000007,36.89751496212487],[-28.797900302922372,36.87999999999998],[-28.80000000000007,36.87902992863837],[-28.840000000000067,36.860541099856476],[-28.880000000000067,36.842039372804166],[-28.884406928805603,36.83999999999998],[-28.920000000000066,36.82353329389123],[-28.960000000000065,36.80501537309208],[-28.970827941213027,36.79999999999998],[-29.000000000000064,36.7864915555508],[-29.040000000000063,36.76795743678741],[-29.057164039915765,36.759999999999984],[-29.080000000000062,36.74941589636135],[-29.12000000000006,36.7308655755458],[-29.143415485858277,36.719999999999985],[-29.16000000000006,36.712306328056066],[-29.20000000000006,36.693739801231374],[-29.22958253957676,36.679999999999986],[-29.24000000000006,36.6751628625781],[-29.280000000000058,36.65658012591945],[-29.315665461203242,36.639999999999986],[-29.320000000000057,36.63798551208313],[-29.360000000000056,36.61938656189936],[-29.400000000000055,36.600774689571196],[-29.401664172255405,36.59999999999999],[-29.440000000000055,36.58215912167718],[-29.480000000000054,36.56353103045946],[-29.48757841212788,36.55999999999999],[-29.520000000000053,36.54489781797869],[-29.560000000000052,36.52625350451147],[-29.573409323509136,36.51999999999999],[-29.60000000000005,36.507602663751975],[-29.64000000000005,36.48894212481387],[-29.659157164771322,36.47999999999999],[-29.68000000000005,36.470273672170556],[-29.72000000000005,36.45159690468001],[-29.74482219390325,36.43999999999999],[-29.760000000000048,36.43291085663611],[-29.800000000000047,36.41421785765294],[-29.830404668514475,36.39999999999999],[-29.840000000000046,36.39551423078151],[-29.880000000000045,36.37680499750828],[-29.915904845839545,36.35999999999999],[-29.920000000000044,36.35808380847366],[-29.960000000000043,36.339358338257185],[-30.000000000000043,36.32061992300837],[-30.001322721562282,36.31999999999999],[-30.040000000000042,36.301877894149385],[-30.08000000000004,36.283123238101666],[-30.086658026118613,36.279999999999994],[-30.12000000000004,36.26436367967612],[-30.16000000000004,36.2455927805345],[-30.17191182701425,36.239999999999995],[-30.20000000000004,36.226815709573245],[-30.240000000000038,36.20802856519225],[-30.257084379837934,36.199999999999996],[-30.28000000000004,36.18923399882425],[-30.320000000000036,36.17043060720935],[-30.342175939823754,36.16],[-30.360000000000035,36.15161856266336],[-30.400000000000034,36.13279892197254],[-30.427186761855534,36.12],[-30.440000000000033,36.11396941657871],[-30.480000000000032,36.09513352512398],[-30.512117100470913,36.08],[-30.52000000000003,36.076286576315404],[-30.56000000000003,36.05743443256442],[-30.5969672098655,36.04],[-30.60000000000003,36.038570057878744],[-30.64000000000003,36.019701660456334],[-30.680000000000028,36.000820297780436],[-30.681737012616708,36.0]]}}]}