{"type":"FeatureCollection","features":[{"type":"Feature","properties":{"t_inicio":1.0999999999999819,"t_fim":1.3333333333333144},"geometry":{"type":"LineString","coordinates":[[-25.560939216755628,25.126926092368425],[-25.313526290228538,25.290244585872678],[-25.061834379918906,25.45519053898514],[-24.805695218573845,25.62182058206683],[-24.544929797897282,25.790194860004597],[-24.27934738854799,25.960377348354953],[-24.008744442354953,26.132436207189514],[-23.732903358987812,26.30644417830002],[-23.45159109606749,26.482479032453266],[-23.164557597739815,26.6606240746434],[-22.871534011888258,26.84096871682636],[-22.57223066019361,27.023609129513396],[-22.26633471786073,27.20864898594176],[-21.95350755062674,27.396200315456454],[-21.63338164511788,27.58638448639274],[-21.305557054037052,27.779333343365575],[-20.969597259097895,27.97519052974433],[-20.625024330799704,28.174113033624273],[-20.27131323330812,28.37627300534913],[-19.907885082433666,28.581859907362993],[-19.534099111571635,28.791083073945554],[-19.14924302961782,29.004174780748308],[-18.75252135929918,29.22139395420248],[-18.34304121379435,29.443030692044996],[-17.91979478870195,29.669411823206204],[-17.48163759223314,29.90090781539137],[-17.027261073281807,30.13794145308375],[-16.55515777851116,30.380998875076628],[-16.063576384998896,30.63064380752943],[-15.550462763887168,30.887536203177746],[-15.01338137634869,31.152457080249267],[-14.449408333846208,31.42634228775509],[-13.854982542960755,31.710329466651736],[-13.225692921778347,32.00582512418947],[-12.555964551854913,32.31460348484327],[-11.83857808074859,32.63895773682234],[-11.063899360021907,32.98194226902553],[-10.218572094467646,33.347783421404365],[-9.283130064071827,33.74262906467931],[-8.227184183707607,34.17605822387852],[-6.998257299626744,34.66458014680543],[-5.489470263407611,35.24175218164285],[-3.396104959551195,36.00304779561738]]}}]}