{"type":"FeatureCollection","features":[{"type":"Feature","properties":{"magnitude":0.2,"de":0.2,"ate":0.5,"percentagem":20.0},"geometry":{"type":"Polygon","coordinates":[[[-14.182974811682268,34.619999999999905],[-10.053085217624247,30.0],[-4.838515404556977,30.0],[-17.783426502845025,44.939999999999685],[-24.654018606396143,44.939999999999685],[-22.979999999999563,43.45278176166411],[-21.284554920281145,41.87999999999975],[-19.559999999999434,40.21321736661909],[-17.8142832876041,38.45999999999982],[-16.026450627663053,36.59999999999986],[-14.182974811682268,34.619999999999905]]]}},{"type":"Feature","properties":{"magnitude":0.5,"de":0.5,"ate":0.8,"percentagem":50.0},"geometry":{"type":"Polygon","coordinates":[[[-17.783426502845025,44.939999999999685],[-4.838515404556977,30.0],[-3.5399999999988268,30.0],[-3.5399999999988268,44.939999999999685],[-17.783426502845025,44.939999999999685]]]}}]}