{"type":"FeatureCollection","features":[{"type":"Feature","properties":{"magnitude":0.4,"percentagem":40.0,"territorio":"continente"},"geometry":{"type":"LineString","coordinates":[[-5.540000000000106,37.66651118145639],[-5.580000000000105,37.65537174646364],[-5.620000000000104,37.6442121523461],[-5.635073425704252,37.639999999999965],[-5.660000000000103,37.63303360850795],[-5.700000000000102,37.621835650850066],[-5.7400000000001015,37.61061755973377],[-5.777791520311531,37.59999999999997],[-5.780000000000101,37.59937944918311],[-5.8200000000001,37.58812305267125],[-5.860000000000099,37.5768465488226],[-5.900000000000098,37.56554994487458],[-5.9196198015509705,37.55999999999997],[-5.940000000000097,37.554234240217895],[-5.980000000000096,37.5428994093044],[-6.0200000000000955,37.53154450500941],[-6.060000000000095,37.52016953474672],[-6.060595292671226,37.51999999999997],[-6.100000000000093,37.508776434729086],[-6.140000000000093,37.49736331762857],[-6.180000000000092,37.48593016187848],[-6.200713934964046,37.47999999999997],[-6.220000000000092,37.47447792254638],[-6.26000000000009,37.46300668160814],[-6.3000000000000895,37.45151542980318],[-6.340000000000089,37.4400041748618],[-6.340014486232259,37.43999999999997],[-6.380000000000088,37.428474899775864],[-6.420000000000087,37.41692564278844],[-6.460000000000086,37.4053564110547],[-6.478490575021841,37.39999999999997],[-6.500000000000085,37.39376827895144],[-6.540000000000084,37.38216110910446],[-6.580000000000084,37.370533993371545],[-6.616178404338149,37.35999999999997],[-6.620000000000083,37.358887129986236],[-6.660000000000082,37.3472221410635],[-6.700000000000081,37.33553723558797],[-6.74000000000008,37.32383242174969],[-6.753077325871543,37.31999999999997],[-6.780000000000078,37.31210905505881],[-6.820000000000078,37.30036645557058],[-6.860000000000078,37.288603977669176],[-6.889212095653775,37.27999999999997],[-6.900000000000077,37.27682217160291],[-6.940000000000076,37.26502197531512],[-6.980000000000075,37.25320193104153],[-7.020000000000074,37.24136204729391],[-7.024595090043531,37.23999999999997],[-7.060000000000073,37.22950412098392],[-7.1000000000000725,37.2176266095241],[-7.140000000000072,37.2057292896397],[-7.159233471470834,37.199999999999974],[-7.180000000000071,37.193813222942715],[-7.22000000000007,37.181878344986885],[-7.260000000000069,37.16992369013832],[-7.293151342896746,37.159999999999975],[-7.300000000000068,37.1579496157967],[-7.340000000000067,37.14595747354845],[-7.3800000000000665,37.13394558642367],[-7.420000000000066,37.12191396340023],[-7.426354316476742,37.119999999999976],[-7.460000000000065,37.1098643356112],[-7.500000000000064,37.09779532042219],[-7.540000000000063,37.08570660198012],[-7.558854724028624,37.07999999999998],[-7.580000000000063,37.073599275895816],[-7.620000000000061,37.061473238387094],[-7.6600000000000605,37.049327530759186],[-7.690671305424615,37.03999999999998],[-7.70000000000006,37.0371626434751],[-7.740000000000059,37.02497969093188],[-7.780000000000058,37.012777101893434],[-7.820000000000057,37.000554885806295],[-7.821813608874445,36.99999999999998],[-7.860000000000056,36.988315033063316],[-7.900000000000055,36.97605567193983],[-7.940000000000055,36.963776718027134],[-7.9522860712808825,36.95999999999998],[-7.980000000000054,36.95147962421338],[-8.020000000000053,36.93916360188828],[-8.060000000000052,36.926828021526745],[-8.08210889456845,36.91999999999997],[-8.100000000000051,36.9144738282706],[-8.14000000000005,36.902101257192584],[-8.18000000000005,36.889709163325676],[-8.21129267937516,36.87999999999998],[-8.220000000000049,36.87729801361076],[-8.260000000000048,36.86486900780074],[-8.300000000000047,36.85242051494549],[-8.339847800724428,36.83999999999998],[-8.340000000000046,36.83995255312654],[-8.380000000000045,36.82746722818451],[-8.420000000000044,36.814962452438316],[-8.460000000000043,36.80243823609359],[-8.467777130619579,36.79999999999998],[-8.500000000000043,36.78989629736806],[-8.540000000000042,36.777335356415016],[-8.580000000000041,36.76475501174745],[-8.595098479267273,36.759999999999984],[-8.62000000000004,36.75215659895582],[-8.66000000000004,36.73953961207297],[-8.700000000000038,36.72690325885922],[-8.721821692102598,36.719999999999985],[-8.740000000000038,36.71424852115966],[-8.780000000000037,36.70157560922275],[-8.820000000000036,36.68888336883921],[-8.84795626764823,36.679999999999986],[-8.860000000000035,36.67617245682499],[-8.900000000000034,36.663443742314165],[-8.940000000000033,36.65069573774239],[-8.973511506555312,36.639999999999986],[-8.980000000000032,36.63792880345617],[-9.020000000000032,36.62514441046121],[-9.06000000000003,36.61234076629321],[-9.098496516483292,36.59999999999999],[-9.10000000000003,36.59951796324109],[-9.140000000000029,36.58667801746639],[-9.180000000000028,36.5738188599095],[-9.220000000000027,36.56094050168078],[-9.222917674614523,36.55999999999999],[-9.260000000000026,36.548044971844014],[-9.300000000000026,36.53513042872551],[-9.340000000000025,36.52219672497388],[-9.346785498903108,36.51999999999999],[-9.380000000000024,36.509245686842625],[-9.420000000000023,36.496275887614104],[-9.460000000000022,36.48328696829504],[-9.470109845130592,36.47999999999999],[-9.500000000000021,36.47028058046668],[-9.54000000000002,36.45725565620803],[-9.58000000000002,36.444211652905736],[-9.592899071035538,36.43999999999999],[-9.620000000000019,36.43115007549703],[-9.660000000000018,36.418070158920195],[-9.700000000000017,36.404971204851286],[-9.715161364531172,36.39999999999999],[-9.740000000000016,36.3918545995108],[-9.780000000000015,36.3787198249632],[-9.820000000000014,36.36556605497992],[-9.83690474779441,36.35999999999999],[-9.860000000000014,36.352394584900104],[-9.900000000000013,36.339205088367805],[-9.940000000000012,36.3259966389612],[-9.958137081242537,36.31999999999999],[-9.980000000000011,36.31277046888996],[-10.02000000000001,36.29952638800047],[-10.06000000000001,36.286263397303095],[-10.078866067400142,36.279999999999994],[-10.100000000000009,36.27298269355524],[-10.140000000000008,36.25968416758009],[-10.180000000000007,36.24636677536841],[-10.199099254660254,36.239999999999995],[-10.220000000000006,36.233031705836574],[-10.260000000000005,36.2196788756935],[-10.300000000000004,36.206307223390084],[-10.318844040943326,36.199999999999996],[-10.340000000000003,36.19291795755546],[-10.380000000000003,36.17951096581037],[-10.420000000000002,36.166085196485646],[-10.438107677256667,36.16],[-10.46,36.1526419054283],[-10.5,36.13918089629679]]}},{"type":"Feature","properties":{"magnitude":0.2,"percentagem":20.0,"territorio":"acores"},"geometry":{"type":"LineString","coordinates":[[-24.04000000000017,38.90556326454908],[-24.08000000000017,38.88888959519982],[-24.10131141579584,38.87999999999994],[-24.120000000000168,38.87220406026701],[-24.160000000000167,38.85550698449653],[-24.19711883177719,38.83999999999994],[-24.200000000000166,38.83879628494335],[-24.240000000000165,38.822075901067365],[-24.280000000000165,38.80534160792117],[-24.292760273594958,38.79999999999994],[-24.320000000000164,38.78859655053014],[-24.360000000000163,38.77183909228058],[-24.388239223913626,38.75999999999994],[-24.400000000000162,38.755069139249514],[-24.44000000000016,38.738288615211204],[-24.48000000000016,38.72149428553129],[-24.483557150070645,38.71999999999994],[-24.52000000000016,38.70469038422503],[-24.56000000000016,38.6878731331732],[-24.57871424270436,38.67999999999994],[-24.600000000000158,38.67104460756969],[-24.640000000000157,38.65420453544302],[-24.673714121967137,38.639999999999944],[-24.680000000000152,38.63735149422422],[-24.720000000000155,38.62048870171766],[-24.760000000000154,38.60361225329961],[-24.76855688984795,38.599999999999945],[-24.800000000000153,38.58672584209805],[-24.840000000000153,38.569826819675164],[-24.863244516111575,38.559999999999945],[-24.88000000000015,38.552916167404696],[-24.92000000000015,38.53599467263042],[-24.95777954500049,38.51999999999995],[-24.96000000000015,38.5190598891731],[-25.00000000000015,38.50211602408878],[-25.04000000000015,38.48515865477846],[-25.052161560110328,38.47999999999995],[-25.080000000000148,38.46819108668077],[-25.120000000000147,38.45121149534409],[-25.146393668525437,38.43999999999995],[-25.160000000000146,38.43422007373948],[-25.200000000000145,38.41721836335145],[-25.240000000000144,38.400203256075095],[-25.240477599797636,38.39999999999995],[-25.280000000000143,38.383179473208735],[-25.320000000000142,38.366142396484086],[-25.334412898682473,38.35999999999995],[-25.36000000000014,38.34909504001359],[-25.40000000000014,38.332036097731226],[-25.428203051380137,38.31999999999995],[-25.44000000000014,38.31496527954805],[-25.48000000000014,38.29788457596857],[-25.520000000000138,38.28079063039231],[-25.521849211380655,38.27999999999995],[-25.560000000000137,38.26368804802436],[-25.600000000000136,38.24657249257407],[-25.615351453016224,38.23999999999995],[-25.640000000000136,38.22944673139755],[-25.680000000000135,38.21230967122314],[-25.708712840366786,38.19999999999995],[-25.720000000000137,38.19516084425252],[-25.760000000000133,38.17800238486308],[-25.800000000000132,38.16083084017802],[-25.801934496656703,38.159999999999954],[-25.84000000000013,38.14365085267418],[-25.88000000000013,38.1264580619632],[-25.895016626350237,38.119999999999955],[-25.92000000000013,38.109255294487916],[-25.96000000000013,38.0920413641224],[-25.98796208099808,38.079999999999956],[-26.000000000000128,38.07481593078143],[-26.040000000000127,38.057580967480575],[-26.080000000000126,38.04033307733873],[-26.080772107305133,38.03999999999996],[-26.120000000000125,38.023077093499296],[-26.160000000000124,38.005808325321894],[-26.173446721966194,37.99999999999996],[-26.200000000000124,37.98852996427089],[-26.240000000000123,37.971240425611725],[-26.265988732296705,37.95999999999996],[-26.280000000000122,37.95393980251258],[-26.32000000000012,37.93662960126179],[-26.358399444857053,37.919999999999966],[-26.36000000000012,37.919306831560455],[-26.40000000000012,37.901976075941164],[-26.44000000000012,37.884632601961975],[-26.45067898562859,37.87999999999996],[-26.480000000000118,37.86728007392853],[-26.520000000000117,37.84991620260749],[-26.542829708693837,37.83999999999996],[-26.560000000000116,37.83254182010589],[-26.600000000000115,37.81515766046367],[-26.634853067677767,37.79999999999996],[-26.640000000000118,37.79776153995241],[-26.680000000000113,37.780357201330844],[-26.720000000000113,37.762940306614674],[-26.72674964629052,37.75999999999996],[-26.76000000000011,37.74551505159668],[-26.80000000000011,37.728078136506326],[-26.818520920216137,37.71999999999996],[-26.840000000000114,37.710631438230116],[-26.88000000000011,37.69317461287551],[-26.910168664177107,37.679999999999964],[-26.92000000000011,37.67570658877473],[-26.960000000000107,37.658229963574726],[-27.000000000000107,37.64074094610601],[-27.001693955143317,37.639999999999965],[-27.040000000000106,37.623244417021034],[-27.080000000000105,37.605735759830935],[-27.093097311040733,37.599999999999966],[-27.1200000000001,37.588218202189694],[-27.160000000000103,37.57069001643533],[-27.184380875141915,37.55999999999997],[-27.200000000000102,37.55315154860741],[-27.2400000000001,37.535603945742324],[-27.275545850634806,37.51999999999997],[-27.2800000000001,37.51804468634571],[-27.3200000000001,37.500477778116206],[-27.3600000000001,37.48289869277941],[-27.366592896488676,37.47999999999997],[-27.400000000000095,37.465311744455704],[-27.440000000000097,37.44771351575151],[-27.457523423801,37.43999999999997],[-27.480000000000096,37.43010607618713],[-27.520000000000095,37.412488816560554],[-27.548338979397688,37.39999999999997],[-27.560000000000095,37.394861005257525],[-27.600000000000094,37.37722482743355],[-27.639040728708842,37.35999999999997],[-27.640000000000093,37.359576764127745],[-27.680000000000092,37.34192178110759],[-27.72000000000009,37.32425483853553],[-27.72962915088164,37.31999999999997],[-27.76000000000009,37.306579910822805],[-27.80000000000009,37.288894326820824],[-27.82010606031227,37.27999999999997],[-27.84000000000009,37.27119945031531],[-27.880000000000088,37.25349533854292],[-27.910472664765955,37.239999999999974],[-27.920000000000087,37.23578063381016],[-27.960000000000086,37.21805810819001],[-28.000000000000085,37.2003237919508],[-28.000730048260877,37.199999999999974],[-28.040000000000084,37.18258287072827],[-28.080000000000084,37.16483030570385],[-28.090878817618847,37.159999999999975],[-28.120000000000083,37.14706986159449],[-28.160000000000082,37.12929916233396],[-28.1809206993561,37.119999999999976],[-28.20000000000008,37.11151931668882],[-28.24000000000008,37.093730597991254],[-28.270856796650715,37.07999999999998],[-28.28000000000008,37.0759314723675],[-28.32000000000008,37.05812484927813],[-28.360000000000078,37.0403066570279],[-28.36068816890858,37.03999999999998],[-28.400000000000077,37.02248215324165],[-28.440000000000076,37.004646223242375],[-28.450415495348516,36.99999999999998],[-28.48000000000007,36.9868027473663],[-28.520000000000074,36.968949195247845],[-28.540040348468043,36.95999999999998],[-28.560000000000073,36.95108686956645],[-28.600000000000072,36.93321581119127],[-28.62956379826014,36.91999999999998],[-28.64000000000007,36.9153347581788],[-28.68000000000007,36.89744630963802],[-28.71898690692006,36.87999999999998],[-28.72000000000007,36.87954665195483],[-28.76000000000007,36.861640929564246],[-28.800000000000068,36.84372391328202],[-28.808310402887834,36.83999999999998],[-28.840000000000067,36.825799910349424],[-28.880000000000067,36.807865788649245],[-28.897535663289297,36.79999999999998],[-28.920000000000066,36.78992349176841],[-28.960000000000065,36.77197238149874],[-28.986663768511605,36.759999999999984],[-29.000000000000064,36.75401191398396],[-29.040000000000063,36.73604393220426],[-29.075695749418255,36.719999999999985],[-29.080000000000062,36.71806541753898],[-29.12000000000006,36.700080681515644],[-29.16000000000006,36.682084877354065],[-29.164632493950183,36.679999999999986],[-29.20000000000006,36.66408287055101],[-29.24000000000006,36.646070481913654],[-29.25347506090869,36.639999999999986],[-29.280000000000058,36.628050740788964],[-29.320000000000057,36.610021885431905],[-29.342224594007096,36.599999999999994],[-29.360000000000056,36.591984534060686],[-29.400000000000055,36.57393932993308],[-29.43088209419411,36.55999999999999],[-29.440000000000055,36.555884492542134],[-29.480000000000054,36.537823057782184],[-29.51944855537491,36.51999999999999],[-29.520000000000056,36.519750858746],[-29.560000000000052,36.50167331167691],[-29.60000000000005,36.483584976590215],[-29.60792482752676,36.47999999999999],[-29.64000000000005,36.46549033463968],[-29.68000000000005,36.4473860584974],[-29.69631205540394,36.43999999999999],[-29.72000000000005,36.42927437000977],[-29.760000000000048,36.41115427157136],[-29.784611222133577,36.39999999999999],[-29.800000000000047,36.393025661435075],[-29.840000000000046,36.374889859631026],[-29.872823293367123,36.35999999999999],[-29.88000000000004,36.3567444528642],[-29.920000000000044,36.33859306679189],[-29.960000000000043,36.32043112204712],[-29.960949220752155,36.31999999999999],[-30.000000000000043,36.30226413745801],[-30.040000000000042,36.28408678078484],[-30.048989928488457,36.279999999999994],[-30.08000000000004,36.26590331631372],[-30.12000000000004,36.24771066720201],[-30.13694643269399,36.239999999999995],[-30.160000000000043,36.22951084831568],[-30.20000000000004,36.21130302640807],[-30.22481967203739,36.2],[-30.240000000000038,36.193086978684654],[-30.280000000000037,36.17486410377241],[-30.31261057882054,36.16],[-30.320000000000036,36.15663195289724],[-30.360000000000035,36.13839414491616],[-30.400000000000034,36.12014606236524],[-30.400320080241,36.12],[-30.440000000000033,36.101893395704096],[-30.480000000000032,36.08363055360142],[-30.487949138827275,36.08],[-30.52000000000003,36.06536210223632],[-30.56000000000003,36.04708462085613],[-30.575498655478533,36.04],[-30.60000000000003,36.02880051084006],[-30.64000000000003,36.01050851058693],[-30.6629695370044,36.0]]}},{"type":"Feature","properties":{"magnitude":0.4,"percentagem":40.0,"territorio":"madeira"},"geometry":{"type":"LineString","coordinates":[[-16.86897583212519,33.77999999999991],[-16.880000000000024,33.77557192492567],[-16.920000000000023,33.759493040303155],[-16.960000000000022,33.74339859986356],[-16.968440488278564,33.73999999999991],[-17.00000000000002,33.72729097000008],[-17.04000000000002,33.71116846158303],[-17.067684948853955,33.69999999999991],[-17.08000000000002,33.69503138651418],[-17.12000000000002,33.67888091938946],[-17.160000000000018,33.6627150176192],[-17.16671315276158,33.65999999999991],[-17.200000000000017,33.64653619865687],[-17.240000000000016,33.63034249906279],[-17.265525505471693,33.61999999999991],[-17.280000000000015,33.614134525561184],[-17.320000000000014,33.59791313849496],[-17.360000000000014,33.58167643903288],[-17.364127213315,33.57999999999991],[-17.400000000000013,33.56542716332822],[-17.440000000000012,33.549162938804926],[-17.462517023308866,33.539999999999914],[-17.48000000000001,33.53288480176584],[-17.52000000000001,33.51659316359633],[-17.56000000000001,33.50028633633639],[-17.560701923195694,33.499999999999915],[-17.60000000000001,33.483967342827995],[-17.640000000000008,33.46763326583166],[-17.658678522596382,33.459999999999916],[-17.680000000000007,33.451285706699736],[-17.720000000000006,33.43492449242618],[-17.756454882592205,33.419999999999916],[-17.760000000000005,33.41854848618593],[-17.800000000000004,33.402160247517585],[-17.840000000000003,33.38575699659455],[-17.854028538859822,33.37999999999992],[-17.880000000000003,33.36934076327016],[-17.92,33.35291065393328],[-17.951405126394327,33.33999999999992],[-17.96,33.33646627261012],[-18.0,33.32000941875817]]}}]}