{"type":"FeatureCollection","features":[{"type":"Feature","properties":{"t_inicio":-1.044444444444455,"t_fim":0.06666666666665222},"geometry":{"type":"LineString","coordinates":[[-20.773457840194055,25.075003017237375],[-20.609081010379782,25.159620230061577],[-20.445700509191965,25.243962574728698],[-20.28329592180222,25.32803413504505],[-20.121847371833383,25.411838883242034],[-19.961335500905136,25.495380684101278],[-19.80174144915702,25.57866329888328],[-19.64304683669485,25.66169038907085],[-19.485233745905987,25.74446551993806],[-19.328284704595035,25.826992163954362],[-19.172182669893346,25.90927370403316],[-19.016911012899754,25.991313436633437],[-18.862453504012137,26.073114574722528],[-18.708794298912096,26.154680250607306],[-18.555917925167478,26.236013518641357],[-18.403809269420265,26.31711735781403],[-18.252453565127553,26.397994674228233],[-18.1018363808285,26.47864830347235],[-17.95194360890821,26.5590810128919],[-17.802761454833785,26.6392955037661],[-17.654276426838976,26.71929441339395],[-17.506475326033183,26.799080317094653],[-17.359345236915544,26.878655730126475],[-17.212873518272204,26.958023109527954],[-17.06704779443936,27.037184855885517],[-16.921855946913695,27.11614331503086],[-16.777286106292593,27.194900779671475],[-16.6333266445302,27.27345949095769],[-16.489966167492412,27.351821639988867],[-16.347193507797954,27.429989369261925],[-16.204997717931974,27.507964774064767],[-16.063368063618896,27.58574990381699],[-15.922294017443392,27.663346763360508],[-15.781765252707942,27.740757314202103],[-15.641771637516115,27.817983475710392],[-15.502303229071572,27.89502712626884],[-15.36335026818324,27.97189010438696],[-15.224903173967562,28.048574209771715],[-15.086952538739297,28.12508120436035],[-14.949489123081946,28.20141281331686],[-14.81250385109206,28.277570725993193],[-14.675987805786463,28.35355659685703],[-14.539932224670281,28.42937204638725],[-14.40432849545374,28.505018661938692],[-14.269168151916233,28.580497998577293],[-14.13444286990807,28.655811579886834],[-14.000144463486265,28.730960898748595],[-13.866264881178381,28.805947418094835],[-13.73279620236832,28.88077257163725],[-13.599730633800903,28.955437764571347],[-13.467060506198493,29.0299443742578],[-13.334778270987215,29.104293750881453],[-13.202876497126738,29.178487218089174],[-13.071347868040277,29.252526073606997],[-12.940185178641684,29.326411589837683],[-12.809381332453995,29.400145014439282],[-12.678929338817795,29.473727570885305],[-12.54882231018513,29.54716045900758],[-12.419053459495444,29.62044485552184],[-12.289616097631267,29.69358191453734],[-12.160503630949904,29.766572768050573],[-12.031709558888565,29.839418526423913],[-11.903227471640776,29.912120278849734],[-11.77505104790032,29.984679093800317],[-11.647174052671403,30.05709601946442],[-11.519590335141743,30.129372084170612],[-11.392293826617106,30.20150829679802],[-11.265278538514224,30.273505647174918],[-11.138538560411007,30.345365106465575],[-11.01206805815093,30.417087627545776],[-10.885861272000852,30.48867414536725],[-10.759912514859423,30.560125577311723],[-10.634216170514833,30.63144282353457],[-10.508766691949916,30.702626767298614],[-10.383558599693743,30.773678275298433],[-10.258586480216536,30.844598197975333],[-10.133844984368409,30.9153873698235],[-10.009328825858915,30.98604660968732],[-9.885032779776452,31.05657672105055],[-9.760951681147048,31.12697849231719],[-9.63708042352954,31.19725269708466],[-9.513413957647913,31.26740009440934],[-9.389947290057421,31.33742142906469],[-9.266675481845652,31.407317431792357],[-9.14359364736572,31.477088819546292],[-9.02069695300088,31.546736295730206],[-8.897980615960478,31.616260550428606],[-8.775439903104768,31.685662260631467],[-8.653070129799175,31.75494209045277],[-8.530866658795446,31.824100691343244],[-8.408824899140768,31.893138702297342],[-8.286940305112353,31.96205675005454],[-8.16520837517686,32.0308554492954],[-8.043624650975573,32.099535402832224],[-7.922184716331685,32.16809720179472],[-7.800884196281913,32.23654142581075],[-7.679718756129716,32.30486864318212],[-7.5586841005198835,32.37307941105584],[-7.437775972535064,32.441174275590846],[-7.316990152811115,32.509153772120165],[-7.196322458673478,32.577018425308985],[-7.075768743291917,32.64476874930845],[-6.955324894853845,32.71240524790533],[-6.8349868357560695,32.77992841466794],[-6.714750521813016,32.84733873308805],[-6.594611941482981,32.91463667671909],[-6.474567115110062,32.9818227093108],[-6.354612094182073,33.0488972849402],[-6.234742960604308,33.11586084813928],[-6.114955825987806,33.18271383401919],[-5.995246830952624,33.249456668391176],[-5.875612144444915,33.316089767884435],[-5.756047963067942,33.382613540060674],[-5.636550510426389,33.44902838352583],[-5.517116036483287,33.51533468803875],[-5.397740816930309,33.58153283461685],[-5.278421152569251,33.647623195639305],[-5.159153368706143,33.71360613494711],[-5.039933814556775,33.77948200794072],[-4.920758862662694,33.84525116167497],[-4.801624908319525,33.91091393495146],[-4.682528369013937,33.97647065840846],[-4.563465683872664,34.04192165460835],[-4.4444333131204985,34.10726723812273],[-4.325427737547841,34.17250771561517],[-4.206445457988593,34.23764338592157],[-4.08748299480618,34.30267454012864],[-3.9685368873887796,34.367601461649805],[-3.849603693653762,34.43242442629917],[-3.730679989559519,34.49714370236349],[-3.6117623686262164,34.561759550671894],[-3.4928474414639936,34.626272224663815],[-3.373931835309179,34.690681970454804],[-3.255012193567836,34.75498902690055],[-3.136085175366361,34.81919362565899],[-3.01714745510958,34.88329599125051],[-2.898195722045159,34.94729634111654],[-2.7792266798353467,35.01119488567607],[-2.6602370461341707,35.07499182838082],[-2.5412235521720277,35.13868736576835],[-2.422182942345785,35.20228168751378],[-2.3031119738144525,35.26577497647972],[-2.184007416101508,35.32916740876462],[-2.0648660507018803,35.3924591537496],[-1.9456846706949023,35.45565037414371],[-1.8264600803625513,35.51874122602757],[-1.7071890948121222,35.58173185889574],[-1.5878685396047558,35.64462241569729],[-1.4684952503881732,35.70741303287531],[-1.349066072534015,35.77010384040466],[-1.2295778607800685,35.83269496182852],[-1.1100274788766455,35.89518651429355],[-0.9904117992371653,35.95757860858351],[-0.8707277025928306,36.01987134915182],[-0.7509720776513973,36.08206483415262],[-0.6311418207598081,36.14415915547056],[-0.511233835570124,36.20615439874932],[-0.39124503270977584,36.26805064341896],[-0.27117232945460046,36.32984796272183],[-0.15101264940579995,36.391546423737424],[-0.03076292216951515,36.45314608740599],[0.08957991695967849,36.51464700855088],[0.21001892731283078,36.57604923589972],[0.33055716315783457,36.637352812104524],[0.4511976740070054,36.69855777376051],[0.5719435049231265,36.75966415142386],[0.6927976968220833,36.82067196962834],[0.8137632867729394,36.88158124690075],[0.9348433082961947,36.94239199577529],[1.0560407916593135,37.00310422280693],[1.1773587641700374,37.0637179285835],[1.2988002504678775,37.124233107736885],[1.4203682728128229,37.18464974895305],[1.5420658513734224,37.24496783498097],[1.6638960045116278,37.30518734264072],[1.7858617490667257,37.3653082428302],[1.9079661006374522,37.4253305005311],[2.03021207386206,37.485254074813724],[2.152602682697818,37.54507891884076],[2.275140940697895,37.60480497987011],[2.3978298612880735,37.66443219925666],[2.5206724580414743,37.72396051245305],[2.643671744952087,37.78338984900949],[2.7668307367079024,37.842720132572474],[2.8901524489621124,37.901951280882635],[3.01363989860414,37.96108320577147],[3.1372961040293603,38.02011581315726],[3.261124085408369,38.079049003039806],[3.385126864955282,38.13788266949431],[3.5093074671951854,38.19661670066421],[3.6336689192320932,38.25525097875319],[3.75821425101509,38.31378538001596],[3.88294649560504,38.37221977474827],[4.007868689440556,38.430554027275896],[4.132983872603688,38.48878799594252],[4.258295089085948,38.546921533096935],[4.383805387053371,38.60495448507893],[4.509517819112489,38.662886692204374],[4.635435442575783,38.72071798874939],[4.7615613197273206,38.778448202933404],[4.887898518088946,38.836077156901254]]}}]}