{"type":"FeatureCollection","features":[{"type":"Feature","properties":{"magnitude":0.2,"de":0.2,"ate":0.5,"percentagem":20.0},"geometry":{"type":"Polygon","coordinates":[[[-34.5,30.0],[-20.299145267147743,30.0],[-17.209630758116536,32.27999999999995],[-13.93648807365988,34.8599999999999],[-10.979999999999109,37.30271294586831],[-3.5399999999988268,43.58476346018675],[-3.5399999999988268,44.939999999999685],[-28.948782617673814,44.939999999999685],[-31.739999999999895,42.703066263339046],[-34.5,40.65920751208661],[-34.5,30.0]]]}},{"type":"Feature","properties":{"magnitude":0.5,"de":0.5,"ate":0.8,"percentagem":50.0},"geometry":{"type":"Polygon","coordinates":[[[-20.299145267147743,30.0],[-3.5399999999988268,30.0],[-3.5399999999988268,43.58476346018675],[-10.979999999999109,37.30271294586831],[-13.93648807365988,34.8599999999999],[-17.209630758116536,32.27999999999995],[-20.299145267147743,30.0]]]}}]}