{"type":"FeatureCollection","features":[{"type":"Feature","properties":{"magnitude":0.4,"percentagem":40.0,"territorio":"continente"},"geometry":{"type":"LineString","coordinates":[[-10.5,39.303982199092744],[-10.46467248160457,39.31999999999993],[-10.46,39.32211869761934],[-10.420000000000002,39.34024305233309],[-10.380000000000003,39.358348261596234],[-10.37634814679336,39.35999999999993],[-10.340000000000003,39.37644153168367],[-10.300000000000004,39.39451638598633],[-10.287854875114409,39.39999999999993],[-10.260000000000005,39.41257762206114],[-10.220000000000006,39.43062212962285],[-10.199193262299335,39.43999999999993],[-10.180000000000007,39.448651309565406],[-10.140000000000008,39.466665479243964],[-10.110362373303152,39.479999999999926],[-10.100000000000009,39.48466258146316],[-10.06000000000001,39.502646422746594],[-10.021361269933408,39.519999999999925],[-10.02000000000001,39.52061142617198],[-9.980000000000011,39.53856494917051],[-9.940000000000012,39.55649937324197],[-9.93218633862979,39.559999999999924],[-9.900000000000013,39.574421048682154],[-9.860000000000014,39.59232517301346],[-9.842838743293855,39.59999999999992],[-9.820000000000014,39.61021471255927],[-9.780000000000015,39.62808854877122],[-9.75331799749165,39.63999999999992],[-9.740000000000016,39.64594593317497],[-9.700000000000017,39.66378949348288],[-9.663623148992793,39.679999999999914],[-9.660000000000018,39.68161470398235],[-9.620000000000019,39.699428001188224],[-9.58000000000002,39.71722224565665],[-9.573751040646714,39.71999999999992],[-9.54000000000002,39.73500406698392],[-9.500000000000021,39.75276807081626],[-9.483701539755563,39.75999999999992],[-9.460000000000022,39.77051768700831],[-9.420000000000023,39.78825146443021],[-9.393474951862235,39.79999999999992],[-9.380000000000024,39.80596885842638],[-9.340000000000025,39.82367242422349],[-9.303070310414117,39.83999999999992],[-9.300000000000026,39.84135757941485],[-9.260000000000026,39.85903094892524],[-9.220000000000027,39.876685317380215],[-9.212483920867758,39.87999999999992],[-9.180000000000028,39.894327038254026],[-9.140000000000029,39.911951236580464],[-9.121716315544337,39.919999999999916],[-9.10000000000003,39.92956069290333],[-9.06000000000003,39.94715473777901],[-9.03076762324475,39.959999999999916],[-9.020000000000032,39.96473191452695],[-8.980000000000032,39.9822958231564],[-8.940000000000033,39.99984077642777],[-8.939636728260913,39.999999999999915],[-8.900000000000034,40.01737449583192],[-8.860000000000035,40.03488934172934],[-8.848318697794298,40.039999999999914],[-8.820000000000036,40.05239075984943],[-8.780000000000037,40.069875516854026],[-8.756816508373255,40.07999999999991],[-8.740000000000038,40.087344620163336],[-8.700000000000038,40.104799307257984],[-8.66512916734962,40.11999999999991],[-8.66000000000004,40.1222360826247],[-8.62000000000004,40.13966071928692],[-8.580000000000041,40.15706646121883],[-8.573253112885935,40.15999999999991],[-8.540000000000042,40.17445976016246],[-8.500000000000043,40.19183548383942],[-8.481187848182307,40.19999999999991],[-8.460000000000043,40.20919643796847],[-8.420000000000044,40.226542164066146],[-8.388934309141117,40.23999999999991],[-8.380000000000045,40.243870761637595],[-8.340000000000046,40.26118651130227],[-8.300000000000047,40.27848341848113],[-8.296490126356622,40.27999999999991],[-8.260000000000048,40.29576853577972],[-8.220000000000049,40.313035501126436],[-8.203852074599638,40.31999999999991],[-8.18000000000005,40.33028824854601],[-8.14000000000005,40.347525294346],[-8.111022585939553,40.359999999999914],[-8.100000000000051,40.364745661450996],[-8.060000000000052,40.38195281043702],[-8.020000000000053,40.399141171807244],[-8.017999849625234,40.399999999999906],[-7.980000000000054,40.416318062479675],[-7.940000000000055,40.433476563939145],[-7.9247791636766935,40.439999999999905],[-7.900000000000055,40.4506210643244],[-7.860000000000056,40.46774972968789],[-7.831363837860253,40.479999999999905],[-7.820000000000057,40.48486183057921],[-7.780000000000058,40.501960684086185],[-7.740000000000059,40.51904080733735],[-7.73775193447546,40.519999999999904],[-7.70000000000006,40.53610944290557],[-7.6600000000000605,40.55315979338851],[-7.643938630031126,40.5599999999999],[-7.620000000000061,40.570196022643906],[-7.580000000000062,40.58721662562481],[-7.549927441773624,40.5999999999999],[-7.540000000000063,40.604220440513316],[-7.500000000000064,40.62121132166125],[-7.460000000000065,40.63818353227165],[-7.455715567398819,40.6399999999999],[-7.420000000000066,40.65514389980877],[-7.3800000000000665,40.672086429745946],[-7.361299521147004,40.6799999999999],[-7.340000000000067,40.68901437906243],[-7.300000000000068,40.70592725496848],[-7.2666823055620915,40.7199999999999],[-7.260000000000069,40.72282277908963],[-7.22000000000007,40.73970602798829],[-7.180000000000071,40.75657066829874],[-7.171859463790778,40.7599999999999],[-7.140000000000072,40.77342276950911],[-7.1000000000000725,40.79025782593345],[-7.0768304115258704,40.7999999999999],[-7.060000000000073,40.80707750087784],[-7.020000000000074,40.82388300136104],[-6.9815968622249835,40.8399999999999],[-6.980000000000075,40.84067024407316],[-6.940000000000076,40.85744621692143],[-6.900000000000077,40.87420364523832],[-6.886151861992401,40.879999999999896],[-6.860000000000078,40.89094749556928],[-6.820000000000078,40.90767544122754],[-6.790499396681464,40.919999999999895],[-6.780000000000079,40.92438686086297],[-6.74000000000008,40.94108535303987],[-6.700000000000081,40.95776535001544],[-6.6946367569828915,40.959999999999894],[-6.660000000000082,40.97443340516779],[-6.620000000000083,40.991083994895504],[-6.598560517171963,40.99999999999989],[-6.580000000000084,41.00771962268003],[-6.540000000000084,41.02434083517355],[-6.502274086972537,41.03999999999989],[-6.500000000000085,41.04094403121091],[-6.460000000000086,41.05753589681156],[-6.420000000000087,41.0741093345922],[-6.405770153570524,41.07999999999989],[-6.380000000000088,41.09066920632113],[-6.340000000000089,41.10721334512327],[-6.309052695039773,41.11999999999989],[-6.3000000000000895,41.123740790753004],[-6.26000000000009,41.14025566170703],[-6.220000000000091,41.1567521564033],[-6.2121181150491225,41.15999999999989],[-6.180000000000092,41.17323631223205],[-6.140000000000093,41.18970358813118],[-6.114964645700899,41.19999999999989],[-6.100000000000094,41.206155325100305],[-6.060000000000095,41.22259341408905],[-6.0200000000000955,41.23901317923841],[-6.017594089108375,41.23999999999989],[-5.980000000000096,41.25542166347835],[-5.940000000000097,41.27181229185674],[-5.919999574493325,41.27999999999989],[-5.900000000000098,41.28818836598883],[-5.860000000000099,41.30454989020739],[-5.822186651000591,41.31999999999989],[-5.8200000000001,41.320893551788735],[-5.780000000000101,41.337226004742234],[-5.7400000000001015,41.353540205378366],[-5.724146993817079,41.359999999999886],[-5.700000000000102,41.36984066637698],[-5.660000000000103,41.38612584733869],[-5.625885517841466,41.399999999999885],[-5.620000000000105,41.402393906481656],[-5.580000000000105,41.41865010134477],[-5.540000000000106,41.43488809822083]]}},{"type":"Feature","properties":{"magnitude":0.6,"percentagem":60.0,"territorio":"acores"},"geometry":{"type":"LineString","coordinates":[[-32.0,37.26664162640378],[-31.97566012669695,37.27999999999997],[-31.96,37.28859658322112],[-31.92,37.3105548078303],[-31.902794211132274,37.31999999999997],[-31.880000000000003,37.33251570839181],[-31.840000000000003,37.35447733520228],[-31.82994186413371,37.35999999999997],[-31.800000000000004,37.376443869430254],[-31.760000000000005,37.39840858588786],[-31.75710223623669,37.39999999999997],[-31.720000000000006,37.42038044469255],[-31.684276801762078,37.43999999999997],[-31.680000000000007,37.44234936787035],[-31.640000000000008,37.46432481487041],[-31.611463928926185,37.47999999999997],[-31.60000000000001,37.486298605648344],[-31.56000000000001,37.50827636302909],[-31.538661196684956,37.51999999999997],[-31.52000000000001,37.530254714752715],[-31.48000000000001,37.55223447464469],[-31.465867773464787,37.55999999999997],[-31.440000000000012,37.57421708171846],[-31.400000000000013,37.59619853764067],[-31.393082832068867,37.599999999999966],[-31.360000000000014,37.61818509554737],[-31.32030570926298,37.639999999999965],[-31.320000000000014,37.6401680444421],[-31.280000000000015,37.66215814774358],[-31.24753901189024,37.679999999999964],[-31.240000000000016,37.68414459692522],[-31.200000000000017,37.706135632348776],[-31.174778280397824,37.71999999999996],[-31.160000000000018,37.72812527995575],[-31.12000000000002,37.75011694597619],[-31.102022704100932,37.75999999999996],[-31.08000000000002,37.77210949129075],[-31.04000000000002,37.79410148784435],[-31.029271476335218,37.79999999999996],[-31.000000000000025,37.81609663131042],[-30.960000000000022,37.83808865981009],[-30.956523794384808,37.83999999999996],[-30.920000000000023,37.860086103050826],[-30.883780743055095,37.87999999999996],[-30.880000000000024,37.88207912653546],[-30.840000000000025,37.904077312235636],[-30.81104132996127,37.91999999999996],[-30.800000000000026,37.926072193633686],[-30.760000000000026,37.94806966730749],[-30.738303015873235,37.95999999999995],[-30.720000000000027,37.97006611114334],[-30.680000000000028,37.99206257945867],[-30.665565013014383,37.99999999999996],[-30.64000000000003,38.01406029149467],[-30.60000000000003,38.036055462660904],[-30.592826537222475,38.03999999999996],[-30.56000000000003,38.058054149913474],[-30.52008684946404,38.079999999999956],[-30.52000000000003,38.08004776261373],[-30.480000000000032,38.102047104449895],[-30.44734853502805,38.119999999999955],[-30.440000000000033,38.12404125814916],[-30.400000000000034,38.14603857600667],[-30.374607353376778,38.159999999999954],[-30.360000000000035,38.16803298080406],[-30.320000000000036,38.19002798836681],[-30.301862534061588,38.19999999999995],[-30.280000000000037,38.21202235566878],[-30.240000000000038,38.234014768220405],[-30.229113309931613,38.23999999999995],[-30.20000000000004,38.25600881075522],[-30.16000000000004,38.27799834519101],[-30.15635891706972,38.27999999999995],[-30.12000000000004,38.29999177702263],[-30.083600234280915,38.31999999999996],[-30.08000000000004,38.32197934891335],[-30.040000000000042,38.343970688403],[-30.010836474930972,38.35999999999995],[-30.000000000000043,38.36595722539721],[-29.960000000000043,38.38794498182549],[-29.93806521023817,38.39999999999995],[-29.920000000000044,38.40993020126764],[-29.880000000000045,38.43191409724047],[-29.865285688599982,38.43999999999995],[-29.840000000000046,38.4538977178575],[-29.800000000000047,38.475877477642655],[-29.792497161350376,38.47999999999995],[-29.760000000000044,38.49785921955649],[-29.72000000000005,38.51983456909386],[-29.719698882700147,38.519999999999946],[-29.68000000000005,38.54181415383346],[-29.646893090132018,38.559999999999945],[-29.64000000000005,38.563787109049464],[-29.60000000000005,38.585761971258066],[-29.574076130424324,38.599999999999945],[-29.560000000000052,38.60773235574517],[-29.520000000000053,38.629702125521604],[-29.501247134636095,38.639999999999944],[-29.480000000000054,38.65166966426084],[-29.440000000000055,38.673634073457414],[-29.428405367979238,38.67999999999994],[-29.40000000000006,38.69559849287701],[-29.360000000000056,38.71755727506052],[-29.355550098263677,38.71999999999994],[-29.320000000000057,38.73951830304647],[-29.282681705499527,38.75999999999994],[-29.28000000000006,38.76147208265567],[-29.24000000000006,38.783428559412954],[-29.209800148923566,38.79999999999994],[-29.20000000000006,38.80537854309604],[-29.16000000000006,38.827328729829205],[-29.13690284371144,38.83999999999994],[-29.12000000000006,38.849274649045554],[-29.080000000000062,38.87121828537438],[-29.0639890676487,38.87999999999994],[-29.040000000000063,38.89315987307594],[-29.000000000000064,38.91509670037081],[-28.99105810085451,38.91999999999994],[-28.960000000000065,38.93703369101115],[-28.920000000000066,38.9589634524001],[-28.918109225728056,38.95999999999994],[-28.880000000000067,38.98089558194329],[-28.845143740297715,38.999999999999936],[-28.840000000000067,39.002819724806116],[-28.800000000000068,39.024745028247715],[-28.772159602137613,39.039999999999935],[-28.76000000000007,39.046663917058886],[-28.72000000000007,39.068581515597636],[-28.699155352389003,39.07999999999994],[-28.68000000000007,39.0904948900199],[-28.64000000000007,39.11240453297816],[-28.626130282254618,39.11999999999993],[-28.600000000000072,39.13431213421302],[-28.560000000000073,39.15621357269946],[-28.55308368496891,39.15999999999993],[-28.520000000000074,39.17811514349469],[-28.480014861296556,39.19999999999994],[-28.480000000000075,39.200008135321816],[-28.440000000000076,39.22190341506629],[-28.406925650249732,39.23999999999993],[-28.400000000000077,39.24378999318541],[-28.360000000000078,39.265676449485916],[-28.333812740386424,39.27999999999993],[-28.32000000000008,39.28755636042778],[-28.28000000000008,39.30943375067966],[-28.260675432828307,39.31999999999993],[-28.24000000000008,39.331306742544676],[-28.20000000000008,39.35317482595219],[-28.18751303049252,39.35999999999993],[-28.160000000000082,39.37504064841631],[-28.120000000000083,39.39689918599689],[-28.114324838044258,39.39999999999993],[-28.080000000000084,39.418757590317256],[-28.0411105523903,39.43999999999993],[-28.040000000000084,39.440606711284836],[-28.000000000000085,39.46245708392546],[-27.967871047319537,39.479999999999926],[-27.960000000000086,39.484298415647054],[-27.920000000000087,39.50613864833097],[-27.894603614193365,39.519999999999925],[-27.880000000000088,39.52797194592814],[-27.84000000000009,39.54980180604387],[-27.82130756451574,39.559999999999924],[-27.80000000000009,39.57162682623685],[-27.76000000000009,39.59344608300177],[-27.747982211316554,39.59999999999992],[-27.72000000000009,39.6152625841138],[-27.680000000000092,39.637071008576754],[-27.67462686910668,39.63999999999992],[-27.640000000000093,39.658878750538015],[-27.601241263836208,39.67999999999992],[-27.60000000000009,39.68067652428323],[-27.560000000000095,39.70247485993296],[-27.52782603795555,39.71999999999992],[-27.520000000000095,39.724263515827374],[-27.480000000000096,39.74605045017216],[-27.454378714519034,39.75999999999992],[-27.440000000000097,39.767829752069126],[-27.400000000000098,39.78960506258405],[-27.380898613889286,39.79999999999992],[-27.3600000000001,39.8113747759558],[-27.3200000000001,39.83313824195656],[-27.307385057701033,39.83999999999992],[-27.2800000000001,39.85489813389691],[-27.2400000000001,39.876649536540924],[-27.233837368818694,39.87999999999992],[-27.200000000000102,39.89839937576768],[-27.160254950153696,39.919999999999916],[-27.160000000000103,39.92013858183148],[-27.120000000000104,39.94187805491228],[-27.086638918860952,39.959999999999916],[-27.080000000000105,39.963606862127676],[-27.040000000000106,39.98533372814638],[-27.01298667164918,39.999999999999915],[-27.000000000000107,40.00705190919171],[-26.960000000000107,40.02876595575931],[-26.939297536304238,40.039999999999914],[-26.920000000000105,40.05047328494345],[-26.88000000000011,40.072174301515666],[-26.865570841645074,40.07999999999991],[-26.84000000000011,40.093870554779336],[-26.80000000000011,40.11555833265637],[-26.791805917483757,40.11999999999991],[-26.76000000000011,40.13724328757306],[-26.720000000000113,40.15891761989932],[-26.71800209458625,40.15999999999991],[-26.680000000000113,40.1805910556761],[-26.644159890054436,40.19999999999991],[-26.640000000000114,40.20225310084168],[-26.600000000000115,40.22391343491746],[-26.570277971152365,40.23999999999991],[-26.560000000000116,40.245563629811876],[-26.520000000000117,40.26721000460324],[-26.496355094851047,40.279999999999916],[-26.48000000000012,40.288848132412014],[-26.44000000000012,40.310480347515416],[-26.422390595813958,40.31999999999991],[-26.40000000000012,40.3321061930584],[-26.36000000000012,40.353724049910525],[-26.348383809474985,40.35999999999991],[-26.32000000000012,40.37533739964148],[-26.280000000000122,40.39694070151754],[-26.274334072000745,40.399999999999906],[-26.240000000000123,40.41854134352347],[-26.200240783996087,40.439999999999905],[-26.200000000000124,40.440129974284275],[-26.160000000000124,40.461717619535946],[-26.126104685697367,40.479999999999905]]}}]}