{"type":"FeatureCollection","properties":{"largura_maxima_km":21.518,"largura_sobre_pt_km":10.365,"linha_central_sobre_pt":true,"desenhavel_como_area":true,"perfil_largura":[{"t":1.05556,"lat":32.5695,"lon":-39.7936,"largura_km":21.518,"eixo_na_terra":true},{"t":1.06111,"lat":32.6992,"lon":-39.5492,"largura_km":21.18,"eixo_na_terra":true},{"t":1.06667,"lat":32.8311,"lon":-39.3012,"largura_km":20.837,"eixo_na_terra":true},{"t":1.07222,"lat":32.9651,"lon":-39.0493,"largura_km":20.489,"eixo_na_terra":true},{"t":1.07778,"lat":33.1015,"lon":-38.7935,"largura_km":20.135,"eixo_na_terra":true},{"t":1.08333,"lat":33.2402,"lon":-38.5336,"largura_km":19.776,"eixo_na_terra":true},{"t":1.08889,"lat":33.3814,"lon":-38.2693,"largura_km":19.412,"eixo_na_terra":true},{"t":1.09444,"lat":33.5251,"lon":-38.0006,"largura_km":19.041,"eixo_na_terra":true},{"t":1.1,"lat":33.6715,"lon":-37.7272,"largura_km":18.664,"eixo_na_terra":true},{"t":1.10556,"lat":33.8207,"lon":-37.4488,"largura_km":18.281,"eixo_na_terra":true},{"t":1.11111,"lat":33.9728,"lon":-37.1653,"largura_km":17.891,"eixo_na_terra":true},{"t":1.11667,"lat":34.1278,"lon":-36.8764,"largura_km":17.494,"eixo_na_terra":true},{"t":1.12222,"lat":34.2861,"lon":-36.5818,"largura_km":17.089,"eixo_na_terra":true},{"t":1.12778,"lat":34.4477,"lon":-36.2812,"largura_km":16.677,"eixo_na_terra":true},{"t":1.13333,"lat":34.6127,"lon":-35.9743,"largura_km":16.257,"eixo_na_terra":true},{"t":1.13889,"lat":34.7814,"lon":-35.6607,"largura_km":15.828,"eixo_na_terra":true},{"t":1.14444,"lat":34.954,"lon":-35.3401,"largura_km":15.39,"eixo_na_terra":true},{"t":1.15,"lat":35.1306,"lon":-35.012,"largura_km":14.942,"eixo_na_terra":true},{"t":1.15556,"lat":35.3115,"lon":-34.6759,"largura_km":14.484,"eixo_na_terra":true},{"t":1.16111,"lat":35.497,"lon":-34.3314,"largura_km":14.016,"eixo_na_terra":true},{"t":1.16667,"lat":35.6873,"lon":-33.9778,"largura_km":13.536,"eixo_na_terra":true},{"t":1.17222,"lat":35.8828,"lon":-33.6145,"largura_km":13.044,"eixo_na_terra":true},{"t":1.17778,"lat":36.0839,"lon":-33.2408,"largura_km":12.538,"eixo_na_terra":true},{"t":1.18333,"lat":36.2908,"lon":-32.8559,"largura_km":12.019,"eixo_na_terra":true},{"t":1.18889,"lat":36.5042,"lon":-32.4589,"largura_km":11.484,"eixo_na_terra":true},{"t":1.19444,"lat":36.7244,"lon":-32.0487,"largura_km":10.934,"eixo_na_terra":true},{"t":1.2,"lat":36.9522,"lon":-31.6241,"largura_km":10.365,"eixo_na_terra":true},{"t":1.20556,"lat":37.1881,"lon":-31.1839,"largura_km":9.776,"eixo_na_terra":true},{"t":1.21111,"lat":37.433,"lon":-30.7262,"largura_km":9.167,"eixo_na_terra":true},{"t":1.21667,"lat":37.6879,"lon":-30.2493,"largura_km":8.533,"eixo_na_terra":true},{"t":1.22222,"lat":37.9538,"lon":-29.7509,"largura_km":7.873,"eixo_na_terra":true},{"t":1.22778,"lat":38.232,"lon":-29.2282,"largura_km":7.184,"eixo_na_terra":true},{"t":1.23333,"lat":38.5243,"lon":-28.6779,"largura_km":6.461,"eixo_na_terra":true},{"t":1.23889,"lat":38.8327,"lon":-28.0958,"largura_km":5.699,"eixo_na_terra":true},{"t":1.24444,"lat":39.1599,"lon":-27.4765,"largura_km":4.892,"eixo_na_terra":true},{"t":1.25,"lat":39.5092,"lon":-26.813,"largura_km":4.032,"eixo_na_terra":true},{"t":1.25556,"lat":39.8853,"lon":-26.0959,"largura_km":3.108,"eixo_na_terra":true},{"t":1.26111,"lat":40.2948,"lon":-25.3115,"largura_km":2.107,"eixo_na_terra":true},{"t":1.26667,"lat":40.7475,"lon":-24.4399,"largura_km":1.008,"eixo_na_terra":true},{"t":1.27222,"lat":41.2593,"lon":-23.4484,"largura_km":0.203,"eixo_na_terra":true},{"t":1.27778,"lat":41.8609,"lon":-22.2741,"largura_km":null,"eixo_na_terra":false},{"t":1.28333,"lat":42.6199,"lon":-20.778,"largura_km":null,"eixo_na_terra":false},{"t":1.28889,"lat":43.8505,"lon":-18.3171,"largura_km":null,"eixo_na_terra":false}]},"features":[{"type":"Feature","properties":{},"geometry":{"type":"Polygon","coordinates":[[[-39.754388511744025,32.70377345075094],[-38.228398509029034,33.50610098996878],[-37.12165434932001,34.09122770463607],[-31.57336528458663,37.03496429217663],[-30.19957678605971,37.76021704403576],[-29.18044318196121,38.29599238040755],[-27.43536807709762,39.20787591680256],[-26.064980054852583,39.91821785116007],[-25.287888049190315,40.3185100401559],[-23.445003782837432,41.26217086001546],[-23.45116734644006,41.25667407506555],[-24.454320475898754,40.73427842061797],[-25.33746908448134,40.269417825269386],[-26.129666957222923,39.85021090821045],[-27.521328649525458,39.10907774653294],[-29.278450574111332,38.165700017272805],[-30.77905034898984,37.35448092271422],[-32.10207549486361,36.63599814250499],[-37.494290569733266,33.69784642035157],[-38.8354796769346,32.97112816567001],[-39.83278494223964,32.43374112761841],[-39.754388511744025,32.70377345075094]]]}},{"type":"Feature","properties":{},"geometry":{"type":"Polygon","coordinates":[[[-22.2365092353578,41.87712841952442],[-22.29988920539921,41.83874970969115],[-22.32498838643076,41.82649871952649],[-22.335716284089756,41.82418518917668],[-22.33173146913228,41.829529214477255],[-22.31996007916473,41.838885792269245],[-22.27705398126085,41.86677202043191],[-22.232513008394562,41.89112465647851],[-22.21788797016808,41.89732789564772],[-22.212298897982777,41.89795036150058],[-22.21733031321608,41.89145758567908],[-22.2365092353578,41.87712841952442]]]}},{"type":"Feature","properties":{},"geometry":{"type":"Polygon","coordinates":[[[-20.6775162097058,42.66408407329023],[-20.764759215536913,42.61185354977021],[-20.85725020151392,42.5609652735349],[-20.924479409114838,42.52827072292886],[-20.943579852103568,42.521133524977834],[-20.951559714725448,42.5206420093887],[-20.94998174878117,42.524629790278624],[-20.941923052528978,42.53222479034506],[-20.907269195582217,42.55726082700102],[-20.851338234363084,42.59272923987733],[-20.787499149724283,42.630279474360194],[-20.720201857766284,42.6674232905357],[-20.659972365683046,42.69820477252832],[-20.617808516595005,42.71685275702711],[-20.607112359396922,42.72012919844712],[-20.602482885931323,42.719857106588094],[-20.605194769958644,42.71485010187255],[-20.619414702232604,42.70297525872623],[-20.6775162097058,42.66408407329023]]]}},{"type":"Feature","properties":{},"geometry":{"type":"Polygon","coordinates":[[[-18.032344572690135,43.97637847831298],[-18.39290015648524,43.783948388162614],[-18.70593647287245,43.62228281840496],[-18.82085021332813,43.565518527227276],[-18.90494202904489,43.52622913001601],[-18.95718881606598,43.504717566328026],[-18.971185959313942,43.50063387177653],[-18.977034073669586,43.50097573283317],[-18.97469674853727,43.5057150984955],[-18.96755461270294,43.512134136993126],[-18.932879590909238,43.536544255171584],[-18.801783769147164,43.615857451522885],[-18.625115213423214,43.71499096377781],[-18.394754797488986,43.838476414592144],[-18.12666561083182,43.97669230223204],[-17.87943561321333,44.09939424663575],[-17.680429274487324,44.193159321443616],[-17.621101602256942,44.21835823906024],[-17.603213410339322,44.22422961939353],[-17.59933189637411,44.22399336045445],[-17.605757525508125,44.217367196799415],[-17.62642180597834,44.203497321332364],[-17.705199404189017,44.15687933325854],[-18.032344572690135,43.97637847831298]]]}}]}