{"type":"FeatureCollection","features":[{"type":"Feature","properties":{"t_inicio":1.0555555555555376,"t_fim":1.28888888888887},"geometry":{"type":"LineString","coordinates":[[-39.79362714188562,32.56945389141646],[-39.549220651806564,32.69918967599305],[-39.30116296224051,32.831054085298874],[-39.049306670581814,32.96512228893171],[-38.793494826122185,33.10147425526519],[-38.53356004578305,33.2401951908161],[-38.26932352210113,33.38137603280487],[-38.000593907000734,33.52511400300409],[-37.72716605183143,33.67151323246559],[-37.44881958042086,33.82068546854539],[-37.165317267315544,33.97275087788413],[-36.87640318773782,34.127838961766436],[-36.581800598774976,34.286089603711055],[-36.28120950255817,34.44765427342776],[-35.974303831165514,34.61269741666627],[-35.66072817901707,34.78139806730585],[-35.34009399068745,34.953951726749786],[-35.011975089086576,35.130572566906224],[-34.675902399107116,35.31149602760508],[-34.33135768267471,35.49698189840441],[-33.97776604924357,35.68731800004542],[-33.61448693623669,35.88282461470921],[-33.240803159622374,36.0838598601763],[-32.85590750525165,36.29082626608788],[-32.45888615102797,36.50417889839868],[-32.04869795444171,36.72443550244948],[-31.624148272116372,36.95218931401673],[-31.18385543829362,37.188125450083355],[-30.726207220616402,37.43304218399744],[-30.249303331512664,37.687879012025704],[-29.750878120866787,37.95375436634922],[-29.228194407653575,38.23201736702226],[-28.6778940891258,38.524320585688],[-28.095781874170626,38.832725299361975],[-27.476501482918025,39.15985895411403],[-26.813030766290268,39.5091604911996],[-26.09585417700964,39.88528212641815],[-25.311518113082684,40.29479018288319],[-24.439892179614844,40.74749261030961],[-23.448355531981633,41.25925460034338],[-22.277215474490617,41.85905437609006],[-20.791331060199838,42.612370480142566],[-18.471623938077528,43.77015557108832]]}}]}