{"type":"FeatureCollection","features":[{"type":"Feature","properties":{"magnitude":0.9,"percentagem":90.0,"territorio":"acores"},"geometry":{"type":"LineString","coordinates":[[-24.679831985182012,36.0],[-24.640000000000157,36.02081503084312],[-24.603266081122914,36.04],[-24.600000000000158,36.0417063183328],[-24.56000000000016,36.06259721404132],[-24.526660246026246,36.08],[-24.520000000000156,36.08347765144827],[-24.48000000000016,36.1043565378434],[-24.450014231048826,36.12],[-24.44000000000016,36.125226065290384],[-24.400000000000162,36.14609289640259],[-24.373327793367075,36.16],[-24.360000000000163,36.16695145441364],[-24.320000000000164,36.187806184754535],[-24.29660069040497,36.199999999999996],[-24.280000000000165,36.20865371425175],[-24.240000000000165,36.22949629881059],[-24.219832679826773,36.239999999999995],[-24.200000000000166,36.25033274111088],[-24.160000000000167,36.27116313535114],[-24.14302351952984,36.279999999999994],[-24.120000000000168,36.291988432163144],[-24.08000000000017,36.31280659201896],[-24.066172967637243,36.31999999999999],[-24.04000000000017,36.33362068543982]]}},{"type":"Feature","properties":{"magnitude":0.95,"percentagem":95.0,"territorio":"acores"},"geometry":{"type":"LineString","coordinates":[[-28.939620285082754,36.0],[-28.920000000000062,36.010527107876335],[-28.880000000000067,36.031980747433124],[-28.86504321325652,36.04],[-28.840000000000067,36.05343187365987],[-28.800000000000068,36.074876688944144],[-28.79044096236618,36.08],[-28.760000000000073,36.09632097141246],[-28.72000000000007,36.11775688674223],[-28.71581326585751,36.12],[-28.68000000000007,36.1391942406655],[-28.64116002004549,36.16],[-28.640000000000068,36.160621615018194],[-28.600000000000072,36.182051522205114],[-28.566481366692926,36.199999999999996],[-28.560000000000073,36.20347183809098],[-28.520000000000074,36.22489265806349],[-28.491776448395235,36.239999999999995],[-28.480000000000075,36.24630583206579],[-28.440000000000076,36.26771749151043],[-28.417045001833554,36.279999999999994],[-28.400000000000077,36.28912344077189],[-28.360000000000078,36.31052586704497],[-28.342286764397397,36.31999999999999],[-28.32000000000008,36.33192450926371],[-28.28000000000008,36.35331763038687],[-28.26750147417296,36.35999999999999],[-28.24000000000008,36.37470888381257],[-28.20000000000008,36.39609262846821],[-28.192688869931104,36.39999999999999],[-28.160000000000082,36.41747641189816],[-28.120000000000083,36.438850709425076],[-28.11784869111598,36.43999999999999],[-28.080000000000084,36.46022694220028],[-28.04298105221746,36.47999999999999],[-28.040000000000084,36.48159283902925],[-28.000000000000085,36.502960324590575],[-27.96808557115088,36.51999999999998],[-27.960000000000086,36.52431854661876],[-27.920000000000087,36.54567641012413],[-27.893161715323167,36.55999999999999],[-27.880000000000084,36.56702687798953],[-27.84000000000009,36.58837505103146],[-27.818209227030145,36.59999999999999],[-27.80000000000009,36.609717685902226],[-27.76000000000009,36.631056100710055],[-27.74322784918349,36.639999999999986],[-27.72000000000009,36.65239082428079],[-27.680000000000092,36.6737194137165],[-27.668217325300347,36.679999999999986],[-27.640000000000093,36.695046148204376],[-27.600000000000094,36.71636484575808],[-27.59317739949195,36.719999999999985],[-27.560000000000095,36.737683513899086],[-27.520000000000095,36.75899225368488],[-27.518107816453362,36.759999999999984],[-27.480000000000096,36.78030277873003],[-27.443008658333614,36.79999999999998],[-27.4400000000001,36.80160262334052],[-27.400000000000098,36.82290380119326],[-27.36787952839677,36.83999999999998],[-27.3600000000001,36.84419538401612],[-27.3200000000001,36.8654864409078],[-27.292719957975024,36.87999999999998],[-27.2800000000001,36.88676968642015],[-27.2400000000001,36.908050558607634],[-27.217529694261813,36.91999999999998],[-27.2000000000001,36.92932539178855],[-27.160000000000103,36.950596016133865],[-27.142308484981783,36.95999999999998],[-27.120000000000104,36.971862362460655],[-27.080000000000105,36.993122676426786],[-27.067056078380567,36.99999999999998],[-27.040000000000106,37.01438046187123],[-27.000000000000107,37.035630403518006],[-26.991772223215,37.03999999999998],[-26.960000000000107,37.056879554542874],[-26.92000000000011,37.078119062522795],[-26.916456668743304,37.07999999999998],[-26.88000000000011,37.09935950607796],[-26.841109274387573,37.119999999999976],[-26.84000000000011,37.120588935818986],[-26.80000000000011,37.14182018315105],[-26.765730017937997,37.159999999999975],[-26.76000000000011,37.163040791872625],[-26.720000000000113,37.184261453501136],[-26.690318293823672,37.199999999999974],[-26.680000000000113,37.20547316931067],[-26.640000000000114,37.226683185924024],[-26.614873853474997,37.239999999999974],[-26.60000000000012,37.24788593740351],[-26.560000000000116,37.26908525026458],[-26.539396448774934,37.27999999999997],[-26.520000000000113,37.290278966466936],[-26.480000000000118,37.31146751740927],[-26.463885832049996,37.31999999999997],[-26.44000000000012,37.332652127854814],[-26.40000000000012,37.35382985927854],[-26.38834175606105,37.35999999999997],[-26.36000000000012,37.3750052939514],[-26.32000000000012,37.396172148819254],[-26.312763973994063,37.39999999999997],[-26.280000000000122,37.4173383381639],[-26.240000000000123,37.43849425999728],[-26.237152239451234,37.43999999999997],[-26.200000000000124,37.459651134914935],[-26.161506433862865,37.47999999999996],[-26.160000000000124,37.48079663337938],[-26.120000000000125,37.50194355963517],[-26.085826412504947,37.51999999999997],[-26.080000000000126,37.523079635596794],[-26.040000000000127,37.54421548875595],[-26.010111684775083,37.559999999999974],[-26.000000000000128,37.565342074198426],[-25.96000000000013,37.58646679970188],[-25.934362006109126,37.599999999999966],[-25.92000000000013,37.607583827053475],[-25.88000000000013,37.62869737088353],[-25.85857713231442,37.63999999999996],[-25.84000000000013,37.64980477301373],[-25.800000000000132,37.67090708169022],[-25.782756819561364,37.679999999999964],[-25.760000000000133,37.692004791906236],[-25.720000000000134,37.71309581248276],[-25.706900824375015,37.71999999999996],[-25.68000000000014,37.73418376452612],[-25.640000000000136,37.7552634445862],[-25.6310089036265,37.75999999999996],[-25.600000000000136,37.776341572629335],[-25.560000000000137,37.79740986028265],[-25.55508081452492,37.79999999999996],[-25.520000000000138,37.81847809892564],[-25.48000000000014,37.83953494280438],[-25.479116314609314,37.83999999999996],[-25.44000000000014,37.86059322707139],[-25.4031153776276,37.87999999999996],[-25.400000000000144,37.88163974658326],[-25.36000000000014,37.90268684166256],[-25.32707759330812,37.91999999999996],[-25.320000000000142,37.92372330440861],[-25.280000000000143,37.94475882822759],[-25.251002657729558,37.95999999999996],[-25.240000000000144,37.96578517023409],[-25.200000000000145,37.98680907322057],[-25.17489032991911,37.99999999999996],[-25.160000000000146,38.007825230926336],[-25.120000000000147,38.0288374640141],[-25.09874036919271,38.03999999999996],[-25.080000000000148,38.0498433742673],[-25.04000000000015,38.07084388889259],[-25.02255253514739,38.079999999999956],[-25.00000000000015,38.091839488947315],[-24.96000000000015,38.112828237045115],[-24.94632658765332,38.119999999999955],[-24.92000000000015,38.133813464558386],[-24.88000000000015,38.1547903985589],[-24.870062286846498,38.159999999999954],[-24.840000000000153,38.17576519158718],[-24.800000000000153,38.19673026441224],[-24.793759393120713,38.19999999999995],[-24.760000000000154,38.21769456140832],[-24.720000000000155,38.2386477264679],[-24.717417667120408,38.23999999999995],[-24.680000000000156,38.25960146627775],[-24.64103692645819,38.27999999999995],[-24.640000000000157,38.28054306711482],[-24.600000000000158,38.3014857993258],[-24.564617007648092,38.31999999999995],[-24.56000000000016,38.322416745826175],[-24.52000000000016,38.343347454550724],[-24.488157527071863,38.35999999999995],[-24.48000000000016,38.36426768648567],[-24.44000000000016,38.385186326812],[-24.411658246544388,38.39999999999995],[-24.400000000000162,38.406095784334774],[-24.360000000000163,38.427002311823664],[-24.33511892809358,38.439999999999955],[-24.320000000000164,38.44790093546659],[-24.280000000000165,38.46879530614788],[-24.258539333952648,38.47999999999995],[-24.240000000000165,38.489683036819066],[-24.200000000000166,38.51056520718836],[-24.181919226553294,38.519999999999946],[-24.16000000000017,38.53144198616865],[-24.120000000000168,38.552311913183814],[-24.105258368518413,38.559999999999945],[-24.08000000000017,38.57317768212371],[-24.04000000000017,38.594035323201695]]}},{"type":"Feature","properties":{"magnitude":0.95,"percentagem":95.0,"territorio":"acores"},"geometry":{"type":"LineString","coordinates":[[-29.671121606061988,40.479999999999905],[-29.68000000000005,40.47531227151844],[-29.72000000000005,40.45418638645839],[-29.746847878638583,40.439999999999905],[-29.760000000000048,40.433053624516226],[-29.800000000000047,40.4119203148543],[-29.822552434907777,40.399999999999906],[-29.840000000000046,40.39078214396545],[-29.880000000000045,40.36964148858124],[-29.8982355597019,40.35999999999991],[-29.920000000000048,40.34849799720554],[-29.960000000000043,40.327350075669486],[-29.97389753881973,40.31999999999991],[-30.000000000000043,40.3062013528055],[-30.040000000000042,40.28504624538345],[-30.04953865904202,40.27999999999991],[-30.08000000000004,40.263892380572216],[-30.12000000000004,40.24273016822968],[-30.125159208147032,40.23999999999991],[-30.16000000000004,40.2215712515586],[-30.20000000000004,40.20040201596547],[-30.20075947492689,40.19999999999991],[-30.240000000000038,40.17923813807194],[-30.276340578855535,40.15999999999991],[-30.280000000000037,40.1580636425758],[-30.320000000000036,40.13689321368219],[-30.351902175276557,40.11999999999991],[-30.360000000000035,40.11571389854736],[-30.400000000000034,40.094536653230364],[-30.427444385819015,40.07999999999991],[-30.440000000000033,40.07335261043087],[-30.480000000000032,40.05216863283688],[-30.502967503704205,40.039999999999914],[-30.52000000000003,40.03097995491008],[-30.56000000000003,40.00978932990995],[-30.578471823249423,39.999999999999915],[-30.60000000000003,39.988596109960355],[-30.64000000000003,39.96739892315408],[-30.653957639885384,39.959999999999916],[-30.680000000000028,39.946201254857215],[-30.720000000000027,39.92499759257849],[-30.729425250173254,39.919999999999916],[-30.760000000000026,39.903795570184684],[-30.800000000000026,39.882585519505575],[-30.804874951822235,39.87999999999992],[-30.84000000000003,39.86137923784388],[-30.880000000000024,39.84016288657949],[-30.88030704370745,39.83999999999992],[-30.920000000000023,39.81895244106161],[-30.955722874864044,39.79999999999992],[-30.960000000000022,39.79773183735117],[-31.00000000000002,39.77651536439875],[-31.031121797115034,39.75999999999992],[-31.04000000000002,39.75529074514647],[-31.08000000000002,39.734068193759],[-31.106504038553574,39.71999999999992],[-31.12000000000002,39.71283965579436],[-31.160000000000018,39.69161111639743],[-31.18186990310552,39.67999999999992],[-31.20000000000002,39.670378757146096],[-31.240000000000016,39.64914432092912],[-31.257219695954184,39.63999999999992],[-31.280000000000015,39.62790823841679],[-31.320000000000014,39.606667997337816],[-31.33255372355955,39.59999999999992],[-31.360000000000014,39.58542829019427],[-31.400000000000013,39.56418233698463],[-31.4078722936773,39.559999999999924],[-31.44000000000001,39.542939104447605],[-31.48000000000001,39.52168753261682],[-31.483175715378703,39.519999999999925],[-31.520000000000014,39.50044087453594],[-31.558464701778117,39.479999999999926],[-31.56000000000001,39.479184479931796],[-31.60000000000001,39.4579337952172],[-31.633740013248932,39.43999999999993],[-31.640000000000008,39.43667412965492],[-31.680000000000007,39.4154180626569],[-31.70900113779294,39.39999999999993],[-31.720000000000006,39.39415522747693],[-31.760000000000005,39.37289387443688],[-31.78424839014181,39.35999999999993],[-31.800000000000004,39.351627971605325],[-31.840000000000003,39.33036142956419],[-31.859482086443773,39.31999999999993],[-31.88,39.3090925616769],[-31.92,39.28782092847993],[-31.934702544284512,39.27999999999993],[-31.959999999999997,39.266549198766405],[-32.0,39.24527257306808]]}},{"type":"Feature","properties":{"magnitude":0.99,"percentagem":99.0,"territorio":"acores"},"geometry":{"type":"LineString","coordinates":[[-32.0,36.21428109147266],[-31.96,36.236015322511975],[-31.952665113188925,36.239999999999995],[-31.92,36.257751982951056],[-31.880000000000003,36.27948073136124],[-31.879043957714977,36.279999999999994],[-31.840000000000003,36.30121445411464],[-31.805410935540905,36.31999999999999],[-31.800000000000004,36.32293981926682],[-31.760000000000005,36.3446682928041],[-31.731764629855533,36.359999999999985],[-31.720000000000006,36.36639055619666],[-31.680000000000007,36.38811328843168],[-31.658104503920768,36.39999999999999],[-31.640000000000004,36.409832342926535],[-31.60000000000001,36.431549231971736],[-31.584430256776084,36.43999999999999],[-31.56000000000001,36.45326497113265],[-31.52000000000001,36.47497591595105],[-31.5107415887799,36.47999999999999],[-31.48000000000001,36.496688234039446],[-31.440000000000012,36.51839313443951],[-31.437038201590607,36.51999999999999],[-31.400000000000013,36.5401019264099],[-31.363320561534003,36.55999999999999],[-31.360000000000014,36.561802037673395],[-31.320000000000014,36.58350584453636],[-31.28958826461709,36.59999999999999],[-31.280000000000012,36.60520227098236],[-31.240000000000016,36.62689978623076],[-31.215840328555224,36.639999999999986],[-31.200000000000017,36.648592424476604],[-31.160000000000018,36.670283550815384],[-31.142076460296884,36.679999999999986],[-31.12000000000002,36.69197229815667],[-31.08000000000002,36.713656939113385],[-31.068296367996773,36.719999999999985],[-31.04000000000002,36.73534169351964],[-31.00000000000002,36.75701975343942],[-30.994499760998142,36.759999999999984],[-30.960000000000022,36.77870041354989],[-30.92068649908633,36.79999999999998],[-30.920000000000023,36.800372078134494],[-30.880000000000024,36.822048262709586],[-30.846857321650493,36.83999999999998],[-30.84000000000002,36.84371567948232],[-30.800000000000026,36.8653850469295],[-30.77301073303807,36.87999999999998],[-30.760000000000026,36.887048116134196],[-30.720000000000027,36.90871057359959],[-30.699146447452364,36.91999999999998],[-30.680000000000028,36.93036919613494],[-30.64000000000003,36.952024651559874],[-30.625264180198563,36.95999999999998],[-30.600000000000026,36.97367872897514],[-30.56000000000003,36.995327091091],[-30.551363647666886,36.99999999999998],[-30.52000000000003,37.01697652558189],[-30.480000000000032,37.03861770390526],[-30.477444567316475,37.03999999999998],[-30.440000000000033,37.060262398309604],[-30.403507370203954,37.07999999999998],[-30.400000000000034,37.08189773895776],[-30.360000000000035,37.10353616093083],[-30.329551557842294,37.119999999999976],[-30.32000000000004,37.125166613875706],[-30.280000000000037,37.14679762862707],[-30.25557632621004,37.159999999999975],[-30.240000000000038,37.16842309824329],[-30.20000000000004,37.1900466179798],[-30.1815813971619,37.199999999999974],[-30.16000000000004,37.21166700926945],[-30.12000000000004,37.23328294696119],[-30.10756649354173,37.239999999999974],[-30.08000000000004,37.25489816554989],[-30.040000000000042,37.2765064349252],[-30.03353133916719,37.27999999999997],[-30.000000000000043,37.29811638705777],[-29.960000000000043,37.319716902598515],[-29.959475658814785,37.31999999999997],[-29.920000000000044,37.341321495134906],[-29.8854002008436,37.35999999999997],[-29.880000000000045,37.36291638635455],[-29.840000000000046,37.38451331248272],[-29.811303740733393,37.39999999999997],[-29.800000000000047,37.40610270212828],[-29.760000000000048,37.427691663153254],[-29.737185905902766,37.43999999999997],[-29.72000000000005,37.44927545955468],[-29.68000000000005,37.470856372540304],[-29.6630464250959,37.47999999999997],[-29.64000000000005,37.492434484628305],[-29.60000000000005,37.51400726737053],[-29.588885027942425,37.51999999999997],[-29.560000000000052,37.53557960467252],[-29.520000000000053,37.55714417569465],[-29.51470144494352,37.55999999999997],[-29.480000000000054,37.5787106483307],[-29.44049549570937,37.599999999999966],[-29.440000000000058,37.60026713034279],[-29.400000000000055,37.62182744555723],[-29.366267751175425,37.639999999999965],[-29.360000000000056,37.643377925482405],[-29.320000000000057,37.66492982760897],[-29.292016989851952,37.679999999999964],[-29.280000000000058,37.686474216981765],[-29.24000000000006,37.708017627036384],[-29.217742945867172,37.71999999999996],[-29.20000000000006,37.72955583796988],[-29.16000000000006,37.75109067767487],[-29.14344535415225,37.75999999999996],[-29.12000000000006,37.77262262285674],[-29.080000000000062,37.794148814636095],[-29.0691239504282,37.79999999999996],[-29.040000000000063,37.815674407324494],[-29.000000000000064,37.83719187429938],[-28.994778471193026,37.83999999999996],[-28.960000000000065,37.858711028319064],[-28.920408721221047,37.87999999999996],[-28.920000000000066,37.880219862372975],[-28.880000000000067,37.90173232404136],[-28.846015217658927,37.91999999999996],[-28.840000000000067,37.92323458717567],[-28.800000000000068,37.944738133938884],[-28.771596826503078,37.95999999999996],[-28.76000000000007,37.966233741328516],[-28.72000000000007,37.98772829869711],[-28.697153287508524,37.99999999999996],[-28.68000000000007,38.00921716606968],[-28.64000000000007,38.03070266023107],[-28.62268434114415,38.03999999999996],[-28.600000000000072,38.05218470386317],[-28.560000000000073,38.07366106167686],[-28.548189728580077,38.079999999999956],[-28.520000000000074,38.09513619839002],[-28.480000000000075,38.11660334738329],[-28.473669191676073,38.119999999999955],[-28.440000000000076,38.138071494540135],[-28.400000000000077,38.1595293629036],[-28.39912247296982,38.159999999999954],[-28.360000000000078,38.18099043840386],[-28.32455000166574,38.19999999999996],[-28.32000000000008,38.20244082850823],[-28.28000000000008,38.22389287726367],[-28.24995094494585,38.23999999999995],[-28.24000000000008,38.24533606913416],[-28.20000000000008,38.266778659585924],[-28.175324913577732,38.27999999999995],[-28.160000000000082,38.28821457240007],[-28.120000000000083,38.30964763501252],[-28.100671652965808,38.31999999999995],[-28.080000000000084,38.33107618847165],[-28.040000000000084,38.352499654352805],[-28.025990909134283,38.35999999999995],[-28.000000000000085,38.37392076867829],[-27.960000000000086,38.39533456957539],[-27.951282428715782,38.39999999999995],[-27.920000000000087,38.416748165504785],[-27.880000000000088,38.43815223379994],[-27.87654595894055,38.43999999999995],[-27.84000000000009,38.459558232583284],[-27.801781494814954,38.479999999999954],[-27.80000000000009,38.48095323571966],[-27.76000000000009,38.50235082468511],[-27.726989000023156,38.519999999999946],[-27.72000000000009,38.52373810874403],[-27.680000000000092,38.54512579771283],[-27.6521677380588,38.559999999999945],[-27.640000000000093,38.56650528516096],[-27.600000000000094,38.58788300869227],[-27.577317458703227,38.599999999999945],[-27.560000000000095,38.60925462249563],[-27.520000000000095,38.6306223157644],[-27.502437912281156,38.639999999999944],[-27.480000000000096,38.651985979384776],[-27.440000000000097,38.67334357817754],[-27.427528849650503,38.67999999999994],[-27.400000000000098,38.69469921556866],[-27.3600000000001,38.71604665627937],[-27.352590022192164,38.71999999999994],[-27.3200000000001,38.737394191883396],[-27.2800000000001,38.75873141150921],[-27.277621181800008,38.75999999999994],[-27.2400000000001,38.78007077025294],[-27.202622409583793,38.79999999999994],[-27.200000000000102,38.80139878868681],[-27.160000000000103,38.82272881368132],[-27.127593410620676,38.83999999999994],[-27.120000000000104,38.8440485384078],[-27.080000000000105,38.865368186244936],[-27.052533636082746,38.87999999999994],[-27.040000000000106,38.88667954333897],[-27.000000000000107,38.90798875308481],[-26.97744284007978,38.91999999999993],[-26.960000000000107,38.9292916690934],[-26.92000000000011,38.9505903803989],[-26.90232077718445,38.95999999999994],[-26.88000000000011,38.97188478233748],[-26.84000000000011,38.993172935434394],[-26.827167202422828,38.999999999999936],[-26.80000000000011,39.014458750783405],[-26.76000000000011,39.03573628648022],[-26.751981871265045,39.039999999999935],[-26.720000000000113,39.05701344318138],[-26.680000000000113,39.0782803028594],[-26.67676453961584,39.079999999999934],[-26.640000000000114,39.09954872931227],[-26.601515134167897,39.11999999999993],[-26.600000000000115,39.12080548085011],[-26.560000000000116,39.142064479979936],[-26.526233590817014,39.15999999999993],[-26.520000000000117,39.16331238920458],[-26.480000000000118,39.18456056700383],[-26.45091929757085,39.19999999999993],[-26.44000000000012,39.20579956339664],[-26.40000000000012,39.22703686321155],[-26.37557201223978,39.23999999999993],[-26.36000000000012,39.24826687669961],[-26.32000000000012,39.26949324243142],[-26.30019149302208,39.27999999999993],[-26.280000000000122,39.29071420338392],[-26.240000000000123,39.31192957948512],[-26.224777498495786,39.31999999999993],[-26.200000000000124,39.333141418710014],[-26.160000000000124,39.35434575018041],[-26.14932978760966,39.35999999999993],[-26.120000000000125,39.375548398920905],[-26.080000000000126,39.396741631303755],[-26.073848119674516,39.39999999999993],[-26.040000000000127,39.41793502123502],[-26.000000000000128,39.439117100613174],[-25.99833225435473,39.43999999999993],[-25.96000000000013,39.46030116383883],[-25.922782225310797,39.479999999999926],[-25.92000000000013,39.48147318718706],[-25.88000000000013,39.50264670587977],[-25.84719766805343,39.519999999999925],[-25.840000000000128,39.52380929553645],[-25.800000000000132,39.54497152745907],[-25.77157817670639,39.559999999999924],[-25.760000000000133,39.56612461653723],[-25.720000000000134,39.587275509624554],[-25.695923512515932,39.59999999999992],[-25.680000000000135,39.60841903165401],[-25.640000000000136,39.62955853436366],[-25.620233437039154,39.63999999999992],[-25.600000000000136,39.65069242328773],[-25.560000000000137,39.67182048459637],[-25.544507712135584,39.67999999999992],[-25.520000000000138,39.692944674768476],[-25.48000000000014,39.71406124416817],[-25.468746099959464,39.71999999999992],[-25.44000000000014,39.73517567034869],[-25.40000000000014,39.75628069784317],[-25.392948362951483,39.75999999999992],[-25.36000000000014,39.777385295196],[-25.320000000000142,39.79847873129705],[-25.317114263830895,39.79999999999992],[-25.280000000000143,39.81957343538653],[-25.241243671111,39.83999999999992],[-25.240000000000144,39.84065574568968],[-25.200000000000145,39.86173997789788],[-25.165336475849813,39.87999999999992],[-25.160000000000146,39.882812292669605],[-25.120000000000147,39.90388481060232],[-25.089392192358655,39.919999999999916],[-25.080000000000148,39.924947066346846],[-25.04000000000015,39.94600782226007],[-25.01341058463903,39.959999999999916],[-25.00000000000015,39.967059955870745],[-24.96000000000015,39.98810890251245],[-24.937391416931376,39.999999999999915],[-24.920000000000154,40.009150851268586],[-24.88000000000015,40.0301879418752],[-24.861334453707435,40.039999999999914],[-24.840000000000153,40.05121964343893],[-24.800000000000153,40.07224483173183],[-24.785239459662797,40.07999999999991],[-24.760000000000158,40.09326622414489],[-24.720000000000155,40.114279464326934],[-24.709106199709424,40.11999999999991],[-24.680000000000156,40.135290486007584],[-24.640000000000157,40.15629173275953],[-24.632934438968277,40.15999999999991],[-24.600000000000158,40.17729232249954],[-24.56000000000016,40.19828153097665],[-24.556723942762037,40.19999999999991],[-24.52000000000016,40.21927162793804],[-24.480474509997794,40.23999999999991],[-24.48000000000016,40.24024895020051],[-24.44000000000016,40.26122829747873],[-24.404186094462002,40.27999999999991],[-24.400000000000162,40.28219502956883],[-24.360000000000163,40.303162227109055],[-24.327858226770196,40.31999999999991],[-24.320000000000164,40.324118309054434],[-24.280000000000165,40.345073313641876],[-24.25149067321872,40.35999999999991],[-24.240000000000165,40.36601868582993],[-24.200000000000166,40.386961454709066],[-24.17508320026851,40.399999999999906],[-24.160000000000167,40.40789605788372],[-24.120000000000168,40.428826548755055],[-24.098635574538527,40.439999999999905],[-24.08000000000017,40.44975032401391],[-24.04000000000017,40.47066849503062]]}},{"type":"Feature","properties":{"magnitude":0.99,"percentagem":99.0,"territorio":"acores"},"geometry":{"type":"LineString","coordinates":[[-25.908373936153616,40.479999999999905],[-25.92000000000013,40.47399928158889],[-25.96000000000013,40.4533455137991],[-25.985832629762157,40.439999999999905],[-26.000000000000128,40.432684079527256],[-26.040000000000127,40.41201989283858],[-26.063255530838287,40.399999999999906],[-26.080000000000126,40.39134914633149],[-26.120000000000125,40.3706745922483],[-26.14064289685244,40.35999999999991],[-26.160000000000124,40.349994600150154],[-26.200000000000124,40.329309730685324],[-26.21799498568461,40.31999999999991],[-26.24000000000012,40.30862056003514],[-26.280000000000122,40.2879254277135],[-26.29531205563375,40.27999999999991],[-26.32000000000012,40.26722714594827],[-26.36000000000012,40.246521803810296],[-26.37259436542752,40.23999999999991],[-26.40000000000012,40.22581447876809],[-26.44000000000012,40.20509898037347],[-26.449842174232085,40.19999999999991],[-26.480000000000118,40.18438268029682],[-26.520000000000117,40.1636570797281],[-26.52705574166202,40.15999999999991],[-26.560000000000116,40.14293187326703],[-26.600000000000115,40.12219622513328],[-26.604235327790228,40.11999999999991],[-26.640000000000114,40.10146218134861],[-26.680000000000113,40.080716540789105],[-26.681381193158018,40.07999999999991],[-26.720000000000113,40.059973729155715],[-26.75849378163092,40.03999999999991],[-26.76000000000011,40.03921878322856],[-26.80000000000011,40.01846664225362],[-26.835573351204978,39.999999999999915],[-26.84000000000011,39.99770303993371],[-26.88000000000011,39.97694104716588],[-26.91261999883052,39.959999999999916],[-26.92000000000011,39.95616885892801],[-26.960000000000107,39.93539707138114],[-26.98963398723931,39.919999999999916],[-27.000000000000107,39.91461636812567],[-27.040000000000106,39.89383484336042],[-27.066615579683557,39.87999999999991],[-27.080000000000105,39.87304569641642],[-27.120000000000104,39.85225449254405],[-27.14356503994678,39.83999999999992],[-27.160000000000103,39.83145697367273],[-27.200000000000102,39.81065614935884],[-27.220482632354383,39.79999999999991],[-27.2400000000001,39.7898503307569],[-27.2800000000001,39.769039945225344],[-27.297368621784592,39.75999999999992],[-27.3200000000001,39.74822589952823],[-27.3600000000001,39.727406012564934],[-27.374223273679426,39.71999999999992],[-27.400000000000098,39.706583812850354],[-27.440000000000097,39.685754484807134],[-27.45104685405565,39.67999999999992],[-27.480000000000096,39.66492420459835],[-27.520000000000095,39.64408549639689],[-27.527839629516066,39.63999999999992],[-27.560000000000095,39.62324720966613],[-27.600000000000094,39.60239918280177],[-27.60460186726054,39.59999999999992],[-27.640000000000093,39.58155296397369],[-27.680000000000092,39.56069568051947],[-27.68133383509777,39.559999999999924],[-27.72000000000009,39.53984160447455],[-27.758036083138908,39.519999999999925],[-27.76000000000009,39.518975949066316],[-27.80000000000009,39.49811326916314],[-27.83470880404398,39.479999999999926],[-27.84000000000009,39.47723987553884],[-27.880000000000088,39.45636809708216],[-27.911352078892087,39.43999999999993],[-27.92000000000009,39.435487041227155],[-27.960000000000086,39.41460622833014],[-27.98796617825957,39.39999999999993],[-28.000000000000085,39.393717586697655],[-28.040000000000084,39.372827804068876],[-28.064551373390508,39.35999999999993],[-28.080000000000084,39.35193165358356],[-28.120000000000083,39.331032966531005],[-28.141107936208932,39.319999999999936],[-28.160000000000082,39.31012938459253],[-28.20000000000008,39.28922185902758],[-28.217636139330722,39.27999999999993],[-28.240000000000084,39.26831092351399],[-28.28000000000008,39.24739462595564],[-28.294136256076385,39.23999999999993],[-28.320000000000075,39.226476415227054],[-28.360000000000078,39.2055514128059],[-28.37060856048316,39.19999999999993],[-28.400000000000077,39.184626005708004],[-28.440000000000076,39.163692366170395],[-28.44705332731793,39.15999999999993],[-28.480000000000075,39.14275984203806],[-28.520000000000074,39.1218176337502],[-28.523470832089746,39.11999999999993],[-28.560000000000073,39.10087807241098],[-28.599861373660445,39.079999999999934],[-28.600000000000076,39.07992742228356],[-28.64000000000007,39.05898084614103],[-28.676225783827757,39.039999999999935],[-28.68000000000007,39.038023284750096],[-28.72000000000007,39.01706831367062],[-28.752563781634656,38.999999999999936],[-28.76000000000007,38.996103922040994],[-28.800000000000068,38.975140626578124],[-28.828875645907132,38.95999999999994],[-28.840000000000067,38.95416948623999],[-28.880000000000067,38.93319793758587],[-28.90516165627985,38.91999999999994],[-28.920000000000062,38.91222013057842],[-28.960000000000065,38.891240400567895],[-28.981422093209236,38.87999999999994],[-29.000000000000064,38.87025600944298],[-29.040000000000063,38.84926817055802],[-29.05765723798785,38.83999999999994],[-29.080000000000062,38.82827727838386],[-29.12000000000006,38.807281403757656],[-29.13386737275762,38.79999999999994],[-29.16000000000006,38.78628409412245],[-29.20000000000006,38.76528025754389],[-29.210052780524506,38.75999999999994],[-29.24000000000006,38.744276614559666],[-29.280000000000058,38.72326489047752],[-29.286213745172308,38.71999999999994],[-29.320000000000054,38.702254998783744],[-29.360000000000056,38.68123546231113],[-29.362350551477373,38.67999999999994],[-29.400000000000055,38.66021940707842],[-29.43846376729797,38.639999999999944],[-29.440000000000058,38.639192774569324],[-29.480000000000054,38.618170000931045],[-29.514553844219424,38.59999999999995],[-29.520000000000053,38.59713733836056],[-29.560000000000052,38.57610694304073],[-29.590620643117752,38.559999999999945],[-29.600000000000055,38.5550683368729],[-29.64000000000005,38.53403039732643],[-29.666664452702193,38.51999999999995],[-29.68000000000005,38.51298593456965],[-29.72000000000005,38.49194052893525],[-29.742685562648898,38.47999999999995],[-29.760000000000048,38.47089029714597],[-29.800000000000047,38.449837504250674],[-29.818684263616404,38.43999999999995],[-29.840000000000046,38.42878159153721],[-29.880000000000045,38.407721490900705],[-29.894660847261154,38.39999999999995],[-29.920000000000044,38.38665998592716],[-29.960000000000043,38.36559265776639],[-29.970615606253382,38.35999999999995],[-30.000000000000043,38.344525649756356],[-30.040000000000042,38.32345117498993],[-30.046548834292782,38.31999999999995],[-30.08000000000004,38.302378753730395],[-30.12000000000004,38.281297213983166],[-30.12246082612502,38.27999999999995],[-30.16000000000004,38.26021946982833],[-30.19835221266677,38.239999999999945],[-30.200000000000035,38.23913163303035],[-30.240000000000038,38.218047971311094],[-30.274223472682735,38.19999999999995],[-30.280000000000037,38.19695495243077],[-30.320000000000036,38.17586443272996],[-30.350074409281458,38.159999999999954],[-30.360000000000035,38.15476632350478],[-30.400000000000034,38.13366902993482],[-30.425905321769577,38.11999999999995],[-30.44000000000003,38.11256592268312],[-30.480000000000032,38.09146194008294],[-30.501716510583144,38.079999999999956],[-30.52000000000003,38.07035392770766],[-30.56000000000003,38.04924334164727],[-30.577508277304723,38.03999999999996],[-30.60000000000003,38.028130517639894],[-30.64000000000003,38.00701341442512],[-30.65328092468117,37.99999999999996],[-30.680000000000028,37.98589587286962],[-30.720000000000027,37.964772339546684],[-30.72903475664132,37.95999999999996],[-30.760000000000026,37.94365017512344],[-30.800000000000026,37.92252029948362],[-30.804770078313844,37.91999999999996],[-30.840000000000025,37.901393607473395],[-30.880000000000024,37.8802574780577],[-30.880487196045557,37.87999999999996],[-30.920000000000023,37.859126354345605],[-30.956187271792295,37.83999999999996],[-30.960000000000022,37.837985642944346],[-31.00000000000002,37.816848601528946],[-31.03186989152151,37.79999999999996],[-31.04000000000002,37.79570360709064],[-31.08000000000002,37.774560536183756],[-31.10753525750154,37.75999999999996],[-31.12000000000002,37.75341135606924],[-31.160000000000018,37.73226234685052],[-31.18318368134469,37.71999999999996],[-31.200000000000017,37.711109079038735],[-31.240000000000016,37.68995422345866],[-31.258815475975794,37.679999999999964],[-31.280000000000015,37.668796966550765],[-31.320000000000014,37.64763635733531],[-31.334430955651328,37.639999999999965],[-31.360000000000014,37.6264752105586],[-31.400000000000013,37.60530894121401],[-31.410030435979476,37.599999999999966],[-31.440000000000012,37.584144004426044],[-31.48000000000001,37.562972169243686],[-31.485614233940144,37.55999999999997],[-31.52000000000001,37.541803542936165],[-31.56000000000001,37.52062623699737],[-31.561182667905445,37.51999999999997],[-31.60000000000001,37.49945402230034],[-31.636736852317675,37.47999999999997],[-31.640000000000008,37.47827269244872],[-31.680000000000007,37.457095640166926],[-31.712276623577527,37.43999999999997],[-31.720000000000002,37.43591087805359],[-31.760000000000005,37.41472859563028],[-31.787802019406634,37.39999999999997],[-31.800000000000004,37.39354050394533],[-31.840000000000003,37.37235308923965],[-31.863313364152226,37.35999999999997],[-31.880000000000003,37.35116177132558],[-31.92,37.329969323008115],[-31.938810983658623,37.31999999999997],[-31.96,37.308774882863766],[-32.0,37.28757750042157]]}}]}