{"type":"FeatureCollection","properties":{"largura_maxima_km":469.857,"largura_sobre_pt_km":469.857,"linha_central_sobre_pt":false,"desenhavel_como_area":true,"perfil_largura":[{"t":1.62778,"lat":46.8872,"lon":-39.7128,"largura_km":400.891,"eixo_na_terra":true},{"t":1.63333,"lat":46.6756,"lon":-39.3712,"largura_km":402.278,"eixo_na_terra":true},{"t":1.63889,"lat":46.4603,"lon":-39.0228,"largura_km":403.739,"eixo_na_terra":true},{"t":1.64444,"lat":46.2413,"lon":-38.667,"largura_km":405.284,"eixo_na_terra":true},{"t":1.65,"lat":46.0181,"lon":-38.3033,"largura_km":406.953,"eixo_na_terra":true},{"t":1.65556,"lat":45.7905,"lon":-37.9311,"largura_km":408.757,"eixo_na_terra":true},{"t":1.66111,"lat":45.5583,"lon":-37.5497,"largura_km":410.723,"eixo_na_terra":true},{"t":1.66667,"lat":45.321,"lon":-37.1584,"largura_km":412.91,"eixo_na_terra":true},{"t":1.67222,"lat":45.0783,"lon":-36.7563,"largura_km":415.371,"eixo_na_terra":true},{"t":1.67778,"lat":44.8297,"lon":-36.3425,"largura_km":418.209,"eixo_na_terra":true},{"t":1.68333,"lat":44.5746,"lon":-35.9157,"largura_km":421.561,"eixo_na_terra":true},{"t":1.68889,"lat":44.3125,"lon":-35.4748,"largura_km":425.659,"eixo_na_terra":true},{"t":1.69444,"lat":44.0427,"lon":-35.0182,"largura_km":430.902,"eixo_na_terra":true},{"t":1.7,"lat":43.7643,"lon":-34.5441,"largura_km":438.051,"eixo_na_terra":true},{"t":1.70556,"lat":43.4763,"lon":-34.0503,"largura_km":448.914,"eixo_na_terra":true},{"t":1.71111,"lat":43.1775,"lon":-33.5342,"largura_km":469.857,"eixo_na_terra":true},{"t":1.71667,"lat":42.0021,"lon":-30.572,"largura_km":null,"eixo_na_terra":false},{"t":1.72222,"lat":41.7381,"lon":-30.2227,"largura_km":null,"eixo_na_terra":false},{"t":1.72778,"lat":41.3982,"lon":-29.6642,"largura_km":null,"eixo_na_terra":false},{"t":1.73333,"lat":41.1476,"lon":-29.3739,"largura_km":null,"eixo_na_terra":false},{"t":1.73889,"lat":40.8906,"lon":-29.1271,"largura_km":null,"eixo_na_terra":false},{"t":1.74444,"lat":40.7334,"lon":-29.0559,"largura_km":null,"eixo_na_terra":false},{"t":1.75,"lat":40.4832,"lon":-28.7901,"largura_km":null,"eixo_na_terra":false},{"t":1.75556,"lat":40.2702,"lon":-28.6301,"largura_km":null,"eixo_na_terra":false},{"t":1.76111,"lat":40.0803,"lon":-28.5348,"largura_km":null,"eixo_na_terra":false},{"t":1.76667,"lat":39.8991,"lon":-28.465,"largura_km":null,"eixo_na_terra":false},{"t":1.77222,"lat":39.5647,"lon":-27.9102,"largura_km":null,"eixo_na_terra":false},{"t":1.77778,"lat":39.2041,"lon":-27.5044,"largura_km":null,"eixo_na_terra":false},{"t":1.78333,"lat":39.0285,"lon":-27.4555,"largura_km":null,"eixo_na_terra":false},{"t":1.78889,"lat":38.8079,"lon":-27.3,"largura_km":null,"eixo_na_terra":false},{"t":1.79444,"lat":38.5331,"lon":-27.0189,"largura_km":null,"eixo_na_terra":false},{"t":1.8,"lat":38.4132,"lon":-27.0043,"largura_km":null,"eixo_na_terra":false},{"t":1.80556,"lat":38.0062,"lon":-26.3992,"largura_km":null,"eixo_na_terra":false},{"t":1.81111,"lat":37.7719,"lon":-26.2255,"largura_km":null,"eixo_na_terra":false},{"t":1.81667,"lat":37.3313,"lon":-25.5665,"largura_km":null,"eixo_na_terra":false},{"t":1.82222,"lat":36.9193,"lon":-24.886,"largura_km":null,"eixo_na_terra":false},{"t":1.82778,"lat":36.0975,"lon":-23.44,"largura_km":null,"eixo_na_terra":false}]},"features":[{"type":"Feature","properties":{},"geometry":{"type":"Polygon","coordinates":[[[-33.65492676406291,40.959535500454805],[-33.79536981892463,41.03455102595307],[-33.92694333994348,41.10739521734106],[-34.049750242591585,41.17810557118002],[-34.22497162940193,41.28522032317592],[-34.36686961342801,41.36125083560813],[-34.49169141425375,41.43082758379062],[-34.60826757050347,41.498517747101026],[-34.77560917782118,41.60194416956853],[-34.90846104186508,41.67349950686625],[-35.02749614231155,41.7402620496721],[-35.1387159794437,41.805342956163386],[-35.24215606935542,41.86874635720817],[-35.29919280611553,41.90553792401937],[-35.424287443091856,41.97323734982928],[-35.53829466671189,42.037542499369515],[-35.644849022095826,42.100339197063875],[-35.74396825014395,42.16162337743822],[-35.79926982776699,42.19766571333345],[-35.91763380535275,42.26200393799943],[-36.02722258356931,42.324138584178876],[-36.129668470721356,42.384913460703004],[-36.2249754868497,42.444318196206844],[-36.278703594443314,42.47967433324164],[-36.391156690491414,42.54104525448889],[-36.496825218909464,42.60124417885694],[-36.59561949956324,42.66021268583803],[-36.687532780154896,42.71793547331339],[-36.740073160889295,42.752823936285864],[-36.84704059050503,42.81138659032102],[-36.9492023109469,42.86984483720796],[-37.04472520793314,42.92718647742413],[-37.133593950391884,42.98339230132576],[-37.18501250942151,43.01782709090043],[-37.28710758573436,43.073883694998294],[-37.38611008154447,43.13076540389892],[-37.478682043204515,43.186631616694186],[-37.56480122473272,43.24145999247347],[-37.61515553795726,43.275452917623525],[-37.71289629435313,43.329259620414035],[-37.8090350962774,43.384704483316874],[-37.8989291740549,43.43922443572131],[-37.982550650161585,43.49279460426313],[-38.031891432696874,43.52635570517184],[-38.125720009832634,43.57813186514491],[-38.21924889312865,43.63225994565658],[-38.306700009728104,43.68554487141004],[-38.38804085496744,43.737959705279025],[-38.4632410256842,43.78947630335169],[-38.5472362928326,43.85188461752444],[-39.106370151911705,44.18741437641922],[-39.481406594849574,44.41707588711774],[-39.895264349768354,44.66714174209362],[-40.94409597806012,45.316469979915986],[-41.32288081333286,45.54871026926374],[-42.292143653205954,46.155645418414565],[-42.643823520950946,46.373824738101845],[-43.55103330042746,46.94662110904537],[-34.816579164366175,46.330922316710236],[-34.349592171643366,46.048528149339425],[-33.44481647504736,45.514145993272464],[-32.925950275424896,45.20577534907282],[-32.42605397358369,44.915485258323216],[-31.860463993972445,44.583997813708415],[-31.308958285399882,44.26893028120395],[-30.68060514058567,43.90691947530131],[-30.011224379109535,43.52492380629435],[-29.291309120261786,43.11856505363565],[-28.507189349158608,42.68155128302924],[-26.74900595654028,41.71651818200827],[-26.24148809025536,41.48396890523258],[-25.936030663235584,41.34095594097359],[-25.316461203601193,41.04448041098934],[-25.00163894691576,40.890712487823606],[-24.35910589939877,40.57089991607905],[-23.659260891270755,40.214531501184],[-21.525253014820777,39.18877406333229],[-21.53093725129481,39.18039061156391],[-20.563407468725245,38.73247002608043],[-21.01505064662384,38.58176202094752],[-20.69089534957837,37.96478055037183],[-21.672416087634623,38.36240692137755],[-21.788365522786975,38.323715961515376],[-21.586269065508645,38.236042738416316],[-22.065700731208356,38.02427363103974],[-22.25614791841366,37.25595348581444],[-22.674286085710786,37.4317196428577],[-22.976165966023355,36.594434219916806],[-22.961860271759065,36.58861533140352],[-22.980147904259503,36.5833900296358],[-23.116729783077858,36.20457042743482],[-23.448828303621667,36.352211634247006],[-23.488521511094376,36.22130511416985],[-23.55922206738468,36.252840648558525],[-23.570870604862264,36.14624027795718],[-23.52259425313079,36.15496134370855],[-23.200261686932095,36.05332558769471],[-23.52854349135464,36.06862536222261],[-23.573718284674808,36.12018003443259],[-23.586343452784575,36.004642130897864],[-23.965166768935802,36.17664744679046],[-24.09599938389826,35.962621620650495],[-24.997920845260012,36.39642158159847],[-25.580910207272694,36.68419114630072],[-25.74521588402665,36.76741080202814],[-25.977091378038864,36.87872814285012],[-26.455382684473534,37.11210505187567],[-26.85784360317038,37.31215777389633],[-27.205112859873367,37.48845657930724],[-27.509132287107747,37.646534038817016],[-27.621750758222177,37.70669738155646],[-28.04669758601014,37.91795523255682],[-28.32886335417146,38.06191494276689],[-28.583568321751216,38.1950066246848],[-28.90908763308085,38.37132307303341],[-29.23112439121033,38.534012986103086],[-29.460585242725415,38.653283886511026],[-29.670892379291047,38.76555507675845],[-29.9487005867469,38.919956903990766],[-30.213855684858203,39.05560351661333],[-30.41207317017117,39.16017264241547],[-30.59509754316801,39.259590471383035],[-30.842248172034918,39.39991369717984],[-31.070269623006993,39.517787130819656],[-31.247257783277462,39.61232120279321],[-31.411377079966712,39.70279128395032],[-31.636638795580513,39.83305271664094],[-31.83810645813884,39.938137265258185],[-31.99948473904368,40.02525869295144],[-32.149530023836604,40.10903645268421],[-32.35811727156272,40.23161760568826],[-32.53946629829085,40.326955506513656],[-32.68875778085041,40.40831062098459],[-32.8278120850716,40.48683740314274],[-33.02312575763626,40.60328693009928],[-33.188609173774665,40.69089563755633],[-33.32819358141825,40.767597945898316],[-33.458365628308655,40.84186093293533],[-33.65492676406291,40.959535500454805]]]}}]}