{"type":"FeatureCollection","features":[{"type":"Feature","properties":{"magnitude":0.9,"percentagem":90.0,"territorio":"acores"},"geometry":{"type":"LineString","coordinates":[[-32.0,37.63848912724966],[-31.96,37.61785898841306],[-31.925363808298723,37.599999999999966],[-31.92,37.59723638574816],[-31.880000000000003,37.57663474462246],[-31.84769316811594,37.55999999999997],[-31.840000000000003,37.556041742109315],[-31.800000000000004,37.53546865532116],[-31.769915862200737,37.51999999999997],[-31.760000000000005,37.51490525773661],[-31.720000000000006,37.49436078116732],[-31.69203134021262,37.47999999999997],[-31.680000000000007,37.473826992461014],[-31.640000000000008,37.453311181249916],[-31.61403905009147,37.43999999999997],[-31.60000000000001,37.432807004551094],[-31.56000000000001,37.41231991309878],[-31.535938438047445,37.39999999999997],[-31.52000000000001,37.39184535072278],[-31.48000000000001,37.37138703269431],[-31.457728948550784,37.35999999999997],[-31.440000000000012,37.350942086149246],[-31.400000000000013,37.33051259447763],[-31.37941002432149,37.31999999999997],[-31.360000000000014,37.31009726447075],[-31.320000000000018,37.28969665136019],[-31.30098110631902,37.27999999999997],[-31.280000000000015,37.269310937804704],[-31.240000000000016,37.24893925473389],[-31.222441633731925,37.23999999999997],[-31.200000000000017,37.22858315675545],[-31.160000000000018,37.208240454480986],[-31.143791043967326,37.199999999999974],[-31.12000000000002,37.18791397042416],[-31.08000000000002,37.167600298984],[-31.06502877264042,37.15999999999997],[-31.04000000000002,37.14730342641898],[-31.00000000000002,37.127018835135615],[-30.986154253564134,37.119999999999976],[-30.960000000000022,37.1067515708647],[-30.920000000000027,37.08649610834874],[-30.90716691873823,37.07999999999998],[-30.880000000000024,37.06625844841294],[-30.840000000000025,37.04603216256637],[-30.828066198338927,37.03999999999998],[-30.800000000000026,37.02582410225187],[-30.760000000000026,37.00562704027157],[-30.748851520708058,36.99999999999998],[-30.720000000000027,36.985448574116404],[-30.680000000000028,36.96528078249748],[-30.669522312342345,36.95999999999998],[-30.64000000000003,36.94513190429796],[-30.60000000000003,36.92499342883726],[-30.59007799788253,36.91999999999998],[-30.56000000000003,36.90487413165449],[-30.52000000000003,36.88476501745397],[-30.510518000102763,36.87999999999998],[-30.480000000000032,36.86467529362041],[-30.440000000000033,36.84459558509064],[-30.43084173989935,36.83999999999998],[-30.400000000000034,36.8245354262167],[-30.360000000000035,36.80448516708029],[-30.35104863627985,36.79999999999998],[-30.320000000000036,36.78445456406063],[-30.280000000000037,36.7644337973557],[-30.271138106352264,36.759999999999984],[-30.240000000000038,36.74443274037584],[-30.20000000000004,36.724441508459535],[-30.191109565313692,36.719999999999985],[-30.16000000000004,36.70446998700234],[-30.120000000000037,36.68450833155419],[-30.1109624264394,36.679999999999986],[-30.08000000000004,36.66456633440628],[-30.040000000000042,36.644634296431825],[-30.030696101071445,36.639999999999986],[-30.000000000000043,36.624721811690115],[-29.96000000000004,36.60481943152436],[-29.950309998607253,36.59999999999999],[-29.920000000000044,36.58493644660234],[-29.880000000000045,36.56506376391315],[-29.86980352648895,36.55999999999999],[-29.840000000000046,36.54521026554751],[-29.800000000000047,36.525367319339345],[-29.789176090191017,36.51999999999999],[-29.760000000000048,36.50554329359618],[-29.720000000000052,36.48573012221337],[-29.708427093209735,36.47999999999999],[-29.68000000000005,36.46593555449478],[-29.640000000000054,36.44615219562514],[-29.62755593705109,36.43999999999999],[-29.60000000000005,36.426387070675496],[-29.560000000000052,36.40663356135386],[-29.546562021219508,36.39999999999999],[-29.520000000000053,36.38689786326616],[-29.480000000000054,36.36717423987793],[-29.465444743205985,36.35999999999999],[-29.440000000000055,36.34746795210026],[-29.400000000000055,36.32777425038482],[-29.384203498476715,36.31999999999999],[-29.360000000000056,36.30809735572658],[-29.320000000000057,36.28843361078096],[-29.30283768046099,36.279999999999994],[-29.280000000000058,36.268786091419216],[-29.24000000000006,36.2491523377016],[-29.221346680539526,36.239999999999995],[-29.20000000000006,36.22953417518744],[-29.16000000000006,36.209930446520644],[-29.139729888032647,36.199999999999996],[-29.12000000000006,36.1903416217854],[-29.08000000000006,36.17076795136045],[-29.057986690188173,36.16],[-29.040000000000063,36.15120844472202],[-29.000000000000064,36.13166486510175],[-28.9761164721695,36.12],[-28.960000000000065,36.11213465627083],[-28.920000000000066,36.09262119939333],[-28.89411861704349,36.08],[-28.880000000000067,36.073120267479624],[-28.840000000000067,36.05363696466181],[-28.811992505768394,36.04],[-28.800000000000068,36.0341652881803],[-28.76000000000007,36.01471217012159],[-28.729737517181334,36.0]]}},{"type":"Feature","properties":{"magnitude":0.95,"percentagem":95.0,"territorio":"acores"},"geometry":{"type":"LineString","coordinates":[[-24.04000000000017,39.30943823814028],[-24.060929035719923,39.31999999999993],[-24.08000000000017,39.329632650771934],[-24.120000000000168,39.349844089840595],[-24.140091822885203,39.35999999999993],[-24.160000000000167,39.370072024438045],[-24.200000000000166,39.3903165313298],[-24.21912585394589,39.39999999999993],[-24.240000000000165,39.410578019216075],[-24.280000000000165,39.43085555604888],[-24.298031768957763,39.43999999999993],[-24.320000000000164,39.45115062781687],[-24.36000000000016,39.47146115595275],[-24.376810205561906,39.479999999999926],[-24.400000000000162,39.49178984145719],[-24.440000000000158,39.512133321497956],[-24.455461798998627,39.519999999999925],[-24.48000000000016,39.53249564984744],[-24.520000000000156,39.55287204163029],[-24.533987182121855,39.559999999999924],[-24.56000000000016,39.57326804117901],[-24.600000000000158,39.5936773037724],[-24.612386985412787,39.59999999999992],[-24.640000000000157,39.61410700211231],[-24.680000000000156,39.634549093811515],[-24.690661836993893,39.63999999999992],[-24.720000000000155,39.65501251776388],[-24.760000000000154,39.67548739608682],[-24.76881236264275,39.67999999999992],[-24.800000000000153,39.69598457169438],[-24.840000000000153,39.71649219337729],[-24.84683918580561,39.71999999999992],[-24.88000000000015,39.73702314589585],[-24.920000000000147,39.75756346688911],[-24.924742927611113,39.75999999999992],[-24.96000000000015,39.778128220779436],[-25.000000000000153,39.79870119624319],[-25.002524206883923,39.79999999999992],[-25.04000000000015,39.81929977516285],[-25.080000000000148,39.83990535946281],[-25.080183640157994,39.83999999999992],[-25.120000000000147,39.86053778625784],[-25.15772052829395,39.879999999999924],[-25.160000000000146,39.88117714836667],[-25.200000000000145,39.901842229657824],[-25.235136625277786,39.919999999999916],[-25.240000000000144,39.922515489080155],[-25.280000000000143,39.94321307932532],[-25.31243264752382,39.959999999999916],[-25.320000000000142,39.96392025692751],[-25.36000000000014,39.98465030757948],[-25.38960920318219,39.999999999999915],[-25.40000000000014,40.005391423386634],[-25.44000000000014,40.02615388508345],[-25.46666689817576,40.039999999999914],[-25.48000000000014,40.04692895827101],[-25.520000000000138,40.067723780832154],[-25.543606336212584,40.07999999999991],[-25.560000000000137,40.08853282971741],[-25.600000000000136,40.10935996213935],[-25.620428118799012,40.11999999999991],[-25.640000000000136,40.13020300417341],[-25.68000000000013,40.15106239462546],[-25.69713284525274,40.15999999999991],[-25.720000000000134,40.17193944638458],[-25.760000000000133,40.19283104220494],[-25.773721112715165,40.19999999999991],[-25.800000000000132,40.21374211938229],[-25.84000000000013,40.234665867073716],[-25.850193516164477,40.23999999999991],[-25.88000000000013,40.25561098447098],[-25.92000000000013,40.276566829696684],[-25.92655064842824,40.27999999999991],[-25.96000000000013,40.29754600121557],[-26.000000000000128,40.31853388879516],[-26.00279310019595,40.3199999999999],[-26.040000000000127,40.33954712742907],[-26.07892084856264,40.35999999999991],[-26.080000000000126,40.3605675882876],[-26.120000000000125,40.38161431916005],[-26.15493344775413,40.399999999999906],[-26.160000000000124,40.40266888259882],[-26.200000000000124,40.42374753067995],[-26.23083306856269,40.439999999999905],[-26.240000000000123,40.444836207459204],[-26.28000000000012,40.465946714470796],[-26.306620293859837,40.479999999999905]]}},{"type":"Feature","properties":{"magnitude":0.95,"percentagem":95.0,"territorio":"acores"},"geometry":{"type":"LineString","coordinates":[[-31.008103326875204,40.479999999999905],[-31.00000000000002,40.47567248180027],[-30.960000000000022,40.454317599755555],[-30.93317525870726,40.439999999999905],[-30.920000000000023,40.43297328505262],[-30.880000000000024,40.41164658124998],[-30.85815018532361,40.399999999999906],[-30.840000000000025,40.39033304210297],[-30.80000000000003,40.369034594122006],[-30.783027572081835,40.35999999999991],[-30.760000000000026,40.347751851589386],[-30.720000000000027,40.326481736138405],[-30.707806882679304,40.31999999999991],[-30.680000000000028,40.305229810241265],[-30.64000000000003,40.283988103160205],[-30.63248757914321,40.279999999999916],[-30.60000000000003,40.26276701288931],[-30.56000000000003,40.24155378915282],[-30.557069121820046,40.23999999999991],[-30.52000000000003,40.220363552475895],[-30.48155013586657,40.19999999999991],[-30.480000000000032,40.199179677395605],[-30.440000000000033,40.17801952006507],[-30.405929385716462,40.15999999999991],[-30.400000000000034,40.156866507120405],[-30.360000000000035,40.13573500485295],[-30.330207899843025,40.11999999999991],[-30.320000000000036,40.11461286953339],[-30.28000000000004,40.093510094177915],[-30.25438513231271,40.07999999999991],[-30.240000000000038,40.07241885097597],[-30.20000000000004,40.05134487353096],[-30.178460535461454,40.039999999999914],[-30.16000000000004,40.03028453594936],[-30.120000000000037,40.009239426566154],[-30.102433559883913,39.999999999999915],[-30.08000000000004,39.98821000712496],[-30.040000000000042,39.96719383511093],[-30.02630365442272,39.959999999999916],[-30.000000000000043,39.94619534535488],[-29.960000000000043,39.92520817917671],[-29.95007026615796,39.919999999999916],[-29.920000000000044,39.90424062968222],[-29.880000000000045,39.883282536969006],[-29.87373284039664,39.87999999999992],[-29.840000000000046,39.862345937351776],[-29.800000000000047,39.84141698489845],[-29.797290820661342,39.83999999999992],[-29.760000000000048,39.82051134382037],[-29.72074324324547,39.79999999999992],[-29.72000000000005,39.79961197200951],[-29.68000000000005,39.77873692276755],[-29.64408853080135,39.75999999999992],[-29.64000000000005,39.757868504770634],[-29.60000000000005,39.73702274610608],[-29.567327596846656,39.71999999999992],[-29.560000000000052,39.71618528828994],[-29.52000000000005,39.69536888399256],[-29.490459878228716,39.67999999999992],[-29.480000000000054,39.67456239179676],[-29.440000000000055,39.65377540483814],[-29.413484809958554,39.63999999999992],[-29.400000000000055,39.63299988278214],[-29.360000000000056,39.61224237531911],[-29.336401825199676,39.59999999999992],[-29.320000000000057,39.591497827009604],[-29.280000000000058,39.57076986038757],[-29.25921035525716,39.559999999999924],[-29.24000000000006,39.550056288525745],[-29.20000000000006,39.52935792328227],[-29.18190982956613,39.519999999999925],[-29.16000000000006,39.50867532967105],[-29.12000000000006,39.488006625539086],[-29.104499675680998,39.479999999999926],[-29.080000000000062,39.46735501109053],[-29.04000000000006,39.44671602700217],[-29.02697931926349,39.43999999999993],[-29.000000000000064,39.42609539174457],[-28.960000000000065,39.40548618583431],[-28.94934818407195,39.39999999999993],[-28.920000000000066,39.38489652891957],[-28.880000000000067,39.3643171585279],[-28.87160569194965,39.35999999999993],[-28.840000000000067,39.34375847823884],[-28.80000000000007,39.323208999915856],[-28.793751262813032,39.31999999999993],[-28.76000000000007,39.30268129367342],[-28.72000000000007,39.28216176318217],[-28.715784314640775,39.27999999999994],[-28.68000000000007,39.26166502755275],[-28.64000000000007,39.241175499873044],[-28.637704263461476,39.23999999999993],[-28.600000000000072,39.22070973057569],[-28.560000000000073,39.20025025990743],[-28.55951052334283,39.199999999999925],[-28.520000000000074,39.1798154518212],[-28.481201835665203,39.15999999999993],[-28.480000000000075,39.1593866833047],[-28.440000000000076,39.138982238759226],[-28.40277807007862,39.11999999999993],[-28.400000000000077,39.11858440731506],[-28.360000000000078,39.09821013726171],[-28.324238907923874,39.07999999999994],[-28.32000000000008,39.07784323577112],[-28.28000000000008,39.0574991916132],[-28.24558375591691,39.039999999999935],[-28.24000000000008,39.03716321214355],[-28.20000000000008,39.01684944452195],[-28.166812018755607,38.999999999999936],[-28.160000000000082,38.99654437833401],[-28.120000000000083,38.9762609371307],[-28.08792309910834,38.95999999999994],[-28.080000000000084,38.95598677468577],[-28.040000000000084,38.93573370902748],[-28.008916397601553,38.91999999999994],[-28.000000000000085,38.915490439994755],[-27.960000000000086,38.89526779825672],[-27.929791312807815,38.87999999999994],[-27.920000000000087,38.8750554115203],[-27.880000000000088,38.85486324132995],[-27.85054724123337,38.83999999999994],[-27.84000000000009,38.83468172499619],[-27.800000000000086,38.81452007323672],[-27.7711835773063,38.79999999999994],[-27.76000000000009,38.794369414641324],[-27.72000000000009,38.774238327455585],[-27.691699713363715,38.75999999999994],[-27.680000000000092,38.7541185131708],[-27.640000000000093,38.73401803596488],[-27.612095039639744,38.71999999999994],[-27.600000000000094,38.71392905180664],[-27.560000000000095,38.6938592292537],[-27.53236894425273,38.67999999999994],[-27.520000000000095,38.67380106028879],[-27.480000000000096,38.65376193633273],[-27.452520813192926,38.639999999999944],[-27.440000000000097,38.63373456688592],[-27.400000000000095,38.6137261847451],[-27.3725500303098,38.599999999999945],[-27.3600000000001,38.593729598406306],[-27.3200000000001,38.57375200057739],[-27.2924559772994,38.559999999999945],[-27.2800000000001,38.553786180208654],[-27.2400000000001,38.533839408470385],[-27.212238033691442,38.519999999999946],[-27.200000000000102,38.51390433621307],[-27.160000000000103,38.49398843162991],[-27.13189557683673,38.47999999999995],[-27.120000000000104,38.47408408891178],[-27.080000000000105,38.45419909183781],[-27.051427981894186,38.43999999999995],[-27.040000000000106,38.434325459379984],[-27.000000000000107,38.41447140946265],[-26.970834621817733,38.39999999999995],[-26.960000000000107,38.394628467286786],[-26.92000000000011,38.37480540347072],[-26.89011486734334,38.35999999999995],[-26.88000000000011,38.35499313090593],[-26.84000000000011,38.33520109143669],[-26.809268086976143,38.31999999999995],[-26.80000000000011,38.315419467126574],[-26.76000000000011,38.295658489554526],[-26.728293646976653,38.27999999999995],[-26.720000000000113,38.275907491464245],[-26.680000000000113,38.25617761264826],[-26.64719091134842,38.23999999999995],[-26.640000000000114,38.23645721807132],[-26.600000000000115,38.216758474182775],[-26.565959241823585,38.19999999999995],[-26.560000000000116,38.19706865974821],[-26.520000000000117,38.177401086274614],[-26.484597997850365,38.159999999999954],[-26.480000000000118,38.15774182795371],[-26.44000000000012,38.13810545970264],[-26.403106536579152,38.119999999999955],[-26.40000000000012,38.11847673281596],[-26.36000000000012,38.09887160391884],[-26.321484212848883,38.079999999999956],[-26.32000000000012,38.07927338314315],[-26.280000000000122,38.05969952705912],[-26.240000000000123,38.040131913223895],[-26.239730222659166,38.03999999999996],[-26.200000000000124,38.02058923595379],[-26.160000000000124,38.001052960774594],[-26.157843132673424,37.99999999999996],[-26.120000000000125,37.98154073613858],[-26.080000000000126,37.962035831479625],[-26.075823150414347,37.95999999999995],[-26.040000000000127,37.94255403186499],[-26.000000000000128,37.92308052893077],[-25.99366962063781,37.91999999999996],[-25.96000000000013,37.90362912611107],[-25.920000000000126,37.88418705545012],[-25.9113818857157,37.87999999999996],[-25.88000000000013,37.864766020592114],[-25.84000000000013,37.845355412100865],[-25.828959285621806,37.83999999999996],[-25.800000000000132,37.82596471577109],[-25.760000000000133,37.806585598697716],[-25.746401157917624,37.79999999999996],[-25.720000000000134,37.78722521086944],[-25.680000000000135,37.76787761381766],[-25.66370683773805,37.75999999999996],[-25.640000000000136,37.74854750387743],[-25.600000000000136,37.72923145481047],[-25.5808756577772,37.71999999999996],[-25.560000000000137,37.70993159156471],[-25.520000000000138,37.69064711780911],[-25.497906948273634,37.679999999999964],[-25.48000000000014,37.6713774694911],[-25.44000000000014,37.65212459774045],[-25.414800036996247,37.639999999999965],[-25.40000000000014,37.632885132016646],[-25.36000000000014,37.613663888335594],[-25.331554249229374,37.599999999999966],[-25.320000000000142,37.59445457231235],[-25.280000000000143,37.57526498214037],[-25.248168907758284,37.55999999999997],[-25.240000000000144,37.556085782370545],[-25.200000000000145,37.536927870525794],[-25.164643332854098,37.51999999999997],[-25.160000000000146,37.51777875301531],[-25.120000000000147,37.49865254369848],[-25.080976842259172,37.47999999999997],[-25.080000000000148,37.47953347391283],[-25.04000000000015,37.46043899071097],[-25.00000000000015,37.441351228745724],[-24.997167072738662,37.43999999999997],[-24.96000000000015,37.42228719947203],[-24.92000000000015,37.40323121576667],[-24.91321434648312,37.39999999999997],[-24.88000000000015,37.38419715675714],[-24.84000000000015,37.3651729734367],[-24.829118551117396,37.35999999999997],[-24.800000000000153,37.34616884821857],[-24.760000000000158,37.32717648680708],[-24.744878993359613,37.31999999999997],[-24.720000000000155,37.30820225839574],[-24.680000000000156,37.28924173982005],[-24.660494977319125,37.27999999999997],[-24.640000000000157,37.27029737072553],[-24.600000000000158,37.251368715318996],[-24.575965804481275,37.239999999999974],[-24.56000000000016,37.23245416755222],[-24.52000000000016,37.21355739505873],[-24.49129077369161,37.199999999999974],[-24.48000000000016,37.194672630137845],[-24.44000000000016,37.17580775971556],[-24.406469181140235,37.159999999999975],[-24.400000000000162,37.156952738672324],[-24.360000000000163,37.13811978889747],[-24.321500320345972,37.119999999999976],[-24.320000000000164,37.119294472283485],[-24.280000000000165,37.10049346115413],[-24.24000000000017,37.08169943463543],[-24.23638131089306,37.07999999999997],[-24.200000000000166,37.062928753987094],[-24.160000000000167,37.04416671046415],[-24.15111261500492,37.03999999999998],[-24.120000000000168,37.02542564385966],[-24.08000000000017,37.00669559994929],[-24.065694416840095,36.99999999999998],[-24.04000000000017,36.98798410620691]]}}]}