{"type":"FeatureCollection","properties":{"largura_maxima_km":253.201,"largura_sobre_pt_km":250.752,"linha_central_sobre_pt":true,"desenhavel_como_area":true,"perfil_largura":[{"t":0.07778,"lat":41.9664,"lon":-39.8844,"largura_km":253.201,"eixo_na_terra":true},{"t":0.08333,"lat":41.9518,"lon":-39.7076,"largura_km":253.168,"eixo_na_terra":true},{"t":0.08889,"lat":41.9368,"lon":-39.5307,"largura_km":253.135,"eixo_na_terra":true},{"t":0.09444,"lat":41.9214,"lon":-39.3535,"largura_km":253.102,"eixo_na_terra":true},{"t":0.1,"lat":41.9056,"lon":-39.1761,"largura_km":253.068,"eixo_na_terra":true},{"t":0.10556,"lat":41.8894,"lon":-38.9985,"largura_km":253.033,"eixo_na_terra":true},{"t":0.11111,"lat":41.8728,"lon":-38.8207,"largura_km":252.998,"eixo_na_terra":true},{"t":0.11667,"lat":41.8559,"lon":-38.6427,"largura_km":252.963,"eixo_na_terra":true},{"t":0.12222,"lat":41.8385,"lon":-38.4645,"largura_km":252.927,"eixo_na_terra":true},{"t":0.12778,"lat":41.8207,"lon":-38.2861,"largura_km":252.891,"eixo_na_terra":true},{"t":0.13333,"lat":41.8026,"lon":-38.1075,"largura_km":252.854,"eixo_na_terra":true},{"t":0.13889,"lat":41.784,"lon":-37.9286,"largura_km":252.817,"eixo_na_terra":true},{"t":0.14444,"lat":41.7651,"lon":-37.7495,"largura_km":252.779,"eixo_na_terra":true},{"t":0.15,"lat":41.7457,"lon":-37.5702,"largura_km":252.741,"eixo_na_terra":true},{"t":0.15556,"lat":41.726,"lon":-37.3907,"largura_km":252.702,"eixo_na_terra":true},{"t":0.16111,"lat":41.7058,"lon":-37.211,"largura_km":252.663,"eixo_na_terra":true},{"t":0.16667,"lat":41.6852,"lon":-37.031,"largura_km":252.624,"eixo_na_terra":true},{"t":0.17222,"lat":41.6643,"lon":-36.8508,"largura_km":252.586,"eixo_na_terra":true},{"t":0.17778,"lat":41.6429,"lon":-36.6704,"largura_km":252.548,"eixo_na_terra":true},{"t":0.18333,"lat":41.6211,"lon":-36.4897,"largura_km":252.511,"eixo_na_terra":true},{"t":0.18889,"lat":41.5989,"lon":-36.3088,"largura_km":252.473,"eixo_na_terra":true},{"t":0.19444,"lat":41.5763,"lon":-36.1276,"largura_km":252.434,"eixo_na_terra":true},{"t":0.2,"lat":41.5533,"lon":-35.9463,"largura_km":252.395,"eixo_na_terra":true},{"t":0.20556,"lat":41.5299,"lon":-35.7646,"largura_km":252.356,"eixo_na_terra":true},{"t":0.21111,"lat":41.506,"lon":-35.5828,"largura_km":252.316,"eixo_na_terra":true},{"t":0.21667,"lat":41.4817,"lon":-35.4006,"largura_km":252.275,"eixo_na_terra":true},{"t":0.22222,"lat":41.457,"lon":-35.2183,"largura_km":252.234,"eixo_na_terra":true},{"t":0.22778,"lat":41.4319,"lon":-35.0356,"largura_km":252.193,"eixo_na_terra":true},{"t":0.23333,"lat":41.4064,"lon":-34.8528,"largura_km":252.151,"eixo_na_terra":true},{"t":0.23889,"lat":41.3805,"lon":-34.6696,"largura_km":252.108,"eixo_na_terra":true},{"t":0.24444,"lat":41.3541,"lon":-34.4862,"largura_km":252.065,"eixo_na_terra":true},{"t":0.25,"lat":41.3273,"lon":-34.3026,"largura_km":252.021,"eixo_na_terra":true},{"t":0.25556,"lat":41.3,"lon":-34.1186,"largura_km":251.977,"eixo_na_terra":true},{"t":0.26111,"lat":41.2724,"lon":-33.9344,"largura_km":251.932,"eixo_na_terra":true},{"t":0.26667,"lat":41.2443,"lon":-33.75,"largura_km":251.887,"eixo_na_terra":true},{"t":0.27222,"lat":41.2157,"lon":-33.5652,"largura_km":251.841,"eixo_na_terra":true},{"t":0.27778,"lat":41.1868,"lon":-33.3802,"largura_km":251.794,"eixo_na_terra":true},{"t":0.28333,"lat":41.1574,"lon":-33.1949,"largura_km":251.749,"eixo_na_terra":true},{"t":0.28889,"lat":41.1275,"lon":-33.0093,"largura_km":251.703,"eixo_na_terra":true},{"t":0.29444,"lat":41.0972,"lon":-32.8234,"largura_km":251.658,"eixo_na_terra":true},{"t":0.3,"lat":41.0665,"lon":-32.6372,"largura_km":251.613,"eixo_na_terra":true},{"t":0.30556,"lat":41.0353,"lon":-32.4508,"largura_km":251.567,"eixo_na_terra":true},{"t":0.31111,"lat":41.0037,"lon":-32.264,"largura_km":251.521,"eixo_na_terra":true},{"t":0.31667,"lat":40.9717,"lon":-32.077,"largura_km":251.474,"eixo_na_terra":true},{"t":0.32222,"lat":40.9391,"lon":-31.8896,"largura_km":251.427,"eixo_na_terra":true},{"t":0.32778,"lat":40.9062,"lon":-31.7019,"largura_km":251.378,"eixo_na_terra":true},{"t":0.33333,"lat":40.8728,"lon":-31.5139,"largura_km":251.33,"eixo_na_terra":true},{"t":0.33889,"lat":40.8389,"lon":-31.3256,"largura_km":251.28,"eixo_na_terra":true},{"t":0.34444,"lat":40.8045,"lon":-31.137,"largura_km":251.23,"eixo_na_terra":true},{"t":0.35,"lat":40.7697,"lon":-30.948,"largura_km":251.18,"eixo_na_terra":true},{"t":0.35556,"lat":40.7345,"lon":-30.7588,"largura_km":251.129,"eixo_na_terra":true},{"t":0.36111,"lat":40.6987,"lon":-30.5691,"largura_km":251.077,"eixo_na_terra":true},{"t":0.36667,"lat":40.6625,"lon":-30.3792,"largura_km":251.024,"eixo_na_terra":true},{"t":0.37222,"lat":40.6259,"lon":-30.1889,"largura_km":250.971,"eixo_na_terra":true},{"t":0.37778,"lat":40.5887,"lon":-29.9983,"largura_km":250.917,"eixo_na_terra":true},{"t":0.38333,"lat":40.5511,"lon":-29.8073,"largura_km":250.863,"eixo_na_terra":true},{"t":0.38889,"lat":40.513,"lon":-29.616,"largura_km":250.807,"eixo_na_terra":true},{"t":0.39444,"lat":40.4744,"lon":-29.4243,"largura_km":250.752,"eixo_na_terra":true},{"t":0.4,"lat":40.4354,"lon":-29.2322,"largura_km":250.696,"eixo_na_terra":true},{"t":0.40556,"lat":40.3958,"lon":-29.0398,"largura_km":250.641,"eixo_na_terra":true},{"t":0.41111,"lat":40.3558,"lon":-28.847,"largura_km":250.585,"eixo_na_terra":true},{"t":0.41667,"lat":40.3153,"lon":-28.6538,"largura_km":250.53,"eixo_na_terra":true},{"t":0.42222,"lat":40.2743,"lon":-28.4602,"largura_km":250.474,"eixo_na_terra":true},{"t":0.42778,"lat":40.2328,"lon":-28.2663,"largura_km":250.418,"eixo_na_terra":true},{"t":0.43333,"lat":40.1907,"lon":-28.072,"largura_km":250.36,"eixo_na_terra":true},{"t":0.43889,"lat":40.1482,"lon":-27.8772,"largura_km":250.302,"eixo_na_terra":true},{"t":0.44444,"lat":40.1052,"lon":-27.6821,"largura_km":250.243,"eixo_na_terra":true},{"t":0.45,"lat":40.0617,"lon":-27.4865,"largura_km":250.184,"eixo_na_terra":true},{"t":0.45556,"lat":40.0176,"lon":-27.2905,"largura_km":250.124,"eixo_na_terra":true},{"t":0.46111,"lat":39.9731,"lon":-27.0942,"largura_km":250.062,"eixo_na_terra":true},{"t":0.46667,"lat":39.928,"lon":-26.8973,"largura_km":250.001,"eixo_na_terra":true},{"t":0.47222,"lat":39.8824,"lon":-26.7001,"largura_km":249.938,"eixo_na_terra":true},{"t":0.47778,"lat":39.8363,"lon":-26.5024,"largura_km":249.875,"eixo_na_terra":true},{"t":0.48333,"lat":39.7897,"lon":-26.3042,"largura_km":249.81,"eixo_na_terra":true},{"t":0.48889,"lat":39.7425,"lon":-26.1056,"largura_km":249.745,"eixo_na_terra":true},{"t":0.49444,"lat":39.6948,"lon":-25.9066,"largura_km":249.679,"eixo_na_terra":true},{"t":0.5,"lat":39.6466,"lon":-25.7071,"largura_km":249.613,"eixo_na_terra":true},{"t":0.50556,"lat":39.5978,"lon":-25.507,"largura_km":249.545,"eixo_na_terra":true},{"t":0.51111,"lat":39.5484,"lon":-25.3066,"largura_km":249.477,"eixo_na_terra":true},{"t":0.51667,"lat":39.4986,"lon":-25.1056,"largura_km":249.407,"eixo_na_terra":true},{"t":0.52222,"lat":39.4481,"lon":-24.9041,"largura_km":249.337,"eixo_na_terra":true},{"t":0.52778,"lat":39.3971,"lon":-24.7021,"largura_km":249.268,"eixo_na_terra":true},{"t":0.53333,"lat":39.3456,"lon":-24.4997,"largura_km":249.198,"eixo_na_terra":true},{"t":0.53889,"lat":39.2934,"lon":-24.2966,"largura_km":249.127,"eixo_na_terra":true},{"t":0.54444,"lat":39.2408,"lon":-24.0931,"largura_km":249.057,"eixo_na_terra":true},{"t":0.55,"lat":39.1875,"lon":-23.889,"largura_km":248.985,"eixo_na_terra":true},{"t":0.55556,"lat":39.1337,"lon":-23.6844,"largura_km":248.913,"eixo_na_terra":true},{"t":0.56111,"lat":39.0792,"lon":-23.4792,"largura_km":248.839,"eixo_na_terra":true},{"t":0.56667,"lat":39.0242,"lon":-23.2735,"largura_km":248.765,"eixo_na_terra":true},{"t":0.57222,"lat":38.9686,"lon":-23.0672,"largura_km":248.689,"eixo_na_terra":true},{"t":0.57778,"lat":38.9124,"lon":-22.8603,"largura_km":248.613,"eixo_na_terra":true},{"t":0.58333,"lat":38.8556,"lon":-22.6528,"largura_km":248.535,"eixo_na_terra":true},{"t":0.58889,"lat":38.7982,"lon":-22.4447,"largura_km":248.457,"eixo_na_terra":true},{"t":0.59444,"lat":38.7402,"lon":-22.236,"largura_km":248.377,"eixo_na_terra":true},{"t":0.6,"lat":38.6815,"lon":-22.0266,"largura_km":248.297,"eixo_na_terra":true},{"t":0.60556,"lat":38.6222,"lon":-21.8166,"largura_km":248.215,"eixo_na_terra":true},{"t":0.61111,"lat":38.5624,"lon":-21.606,"largura_km":248.132,"eixo_na_terra":true},{"t":0.61667,"lat":38.5018,"lon":-21.3947,"largura_km":248.048,"eixo_na_terra":true},{"t":0.62222,"lat":38.4406,"lon":-21.1828,"largura_km":247.963,"eixo_na_terra":true},{"t":0.62778,"lat":38.3788,"lon":-20.9702,"largura_km":247.876,"eixo_na_terra":true},{"t":0.63333,"lat":38.3164,"lon":-20.7568,"largura_km":247.789,"eixo_na_terra":true},{"t":0.63889,"lat":38.2532,"lon":-20.5428,"largura_km":247.7,"eixo_na_terra":true},{"t":0.64444,"lat":38.1894,"lon":-20.3281,"largura_km":247.61,"eixo_na_terra":true},{"t":0.65,"lat":38.125,"lon":-20.1126,"largura_km":247.519,"eixo_na_terra":true},{"t":0.65556,"lat":38.0598,"lon":-19.8963,"largura_km":247.427,"eixo_na_terra":true},{"t":0.66111,"lat":37.994,"lon":-19.6793,"largura_km":247.334,"eixo_na_terra":true},{"t":0.66667,"lat":37.9275,"lon":-19.4616,"largura_km":247.24,"eixo_na_terra":true},{"t":0.67222,"lat":37.8602,"lon":-19.243,"largura_km":247.146,"eixo_na_terra":true},{"t":0.67778,"lat":37.7923,"lon":-19.0237,"largura_km":247.052,"eixo_na_terra":true},{"t":0.68333,"lat":37.7237,"lon":-18.8035,"largura_km":246.955,"eixo_na_terra":true},{"t":0.68889,"lat":37.6543,"lon":-18.5825,"largura_km":246.858,"eixo_na_terra":true},{"t":0.69444,"lat":37.5842,"lon":-18.3606,"largura_km":246.759,"eixo_na_terra":true},{"t":0.7,"lat":37.5134,"lon":-18.1378,"largura_km":246.659,"eixo_na_terra":true},{"t":0.70556,"lat":37.4418,"lon":-17.9142,"largura_km":246.557,"eixo_na_terra":true},{"t":0.71111,"lat":37.3694,"lon":-17.6897,"largura_km":246.453,"eixo_na_terra":true},{"t":0.71667,"lat":37.2963,"lon":-17.4642,"largura_km":246.348,"eixo_na_terra":true},{"t":0.72222,"lat":37.2224,"lon":-17.2378,"largura_km":246.242,"eixo_na_terra":true},{"t":0.72778,"lat":37.1478,"lon":-17.0104,"largura_km":246.134,"eixo_na_terra":true},{"t":0.73333,"lat":37.0723,"lon":-16.7821,"largura_km":246.024,"eixo_na_terra":true},{"t":0.73889,"lat":36.996,"lon":-16.5527,"largura_km":245.913,"eixo_na_terra":true},{"t":0.74444,"lat":36.9189,"lon":-16.3223,"largura_km":245.8,"eixo_na_terra":true},{"t":0.75,"lat":36.841,"lon":-16.0909,"largura_km":245.685,"eixo_na_terra":true},{"t":0.75556,"lat":36.7623,"lon":-15.8584,"largura_km":245.568,"eixo_na_terra":true},{"t":0.76111,"lat":36.6827,"lon":-15.6248,"largura_km":245.45,"eixo_na_terra":true},{"t":0.76667,"lat":36.6022,"lon":-15.39,"largura_km":245.33,"eixo_na_terra":true},{"t":0.77222,"lat":36.5209,"lon":-15.1542,"largura_km":245.208,"eixo_na_terra":true},{"t":0.77778,"lat":36.4387,"lon":-14.9171,"largura_km":245.084,"eixo_na_terra":true},{"t":0.78333,"lat":36.3556,"lon":-14.6789,"largura_km":244.958,"eixo_na_terra":true},{"t":0.78889,"lat":36.2715,"lon":-14.4394,"largura_km":244.83,"eixo_na_terra":true},{"t":0.79444,"lat":36.1866,"lon":-14.1987,"largura_km":244.7,"eixo_na_terra":true},{"t":0.8,"lat":36.1007,"lon":-13.9567,"largura_km":244.568,"eixo_na_terra":true},{"t":0.80556,"lat":36.0138,"lon":-13.7134,"largura_km":244.434,"eixo_na_terra":true},{"t":0.81111,"lat":35.926,"lon":-13.4687,"largura_km":244.297,"eixo_na_terra":true},{"t":0.81667,"lat":35.8372,"lon":-13.2227,"largura_km":244.16,"eixo_na_terra":true},{"t":0.82222,"lat":35.7474,"lon":-12.9752,"largura_km":244.022,"eixo_na_terra":true},{"t":0.82778,"lat":35.6566,"lon":-12.7263,"largura_km":243.881,"eixo_na_terra":true},{"t":0.83333,"lat":35.5648,"lon":-12.4759,"largura_km":243.738,"eixo_na_terra":true},{"t":0.83889,"lat":35.4718,"lon":-12.224,"largura_km":243.592,"eixo_na_terra":true},{"t":0.84444,"lat":35.3779,"lon":-11.9705,"largura_km":243.445,"eixo_na_terra":true},{"t":0.85,"lat":35.2828,"lon":-11.7154,"largura_km":243.294,"eixo_na_terra":true},{"t":0.85556,"lat":35.1866,"lon":-11.4587,"largura_km":243.141,"eixo_na_terra":true},{"t":0.86111,"lat":35.0893,"lon":-11.2003,"largura_km":242.985,"eixo_na_terra":true},{"t":0.86667,"lat":34.9908,"lon":-10.9401,"largura_km":242.826,"eixo_na_terra":true},{"t":0.87222,"lat":34.8911,"lon":-10.6781,"largura_km":242.665,"eixo_na_terra":true},{"t":0.87778,"lat":34.7903,"lon":-10.4143,"largura_km":242.5,"eixo_na_terra":true},{"t":0.88333,"lat":34.6882,"lon":-10.1487,"largura_km":242.333,"eixo_na_terra":true},{"t":0.88889,"lat":34.5849,"lon":-9.881,"largura_km":242.162,"eixo_na_terra":true},{"t":0.89444,"lat":34.4802,"lon":-9.6114,"largura_km":241.989,"eixo_na_terra":true},{"t":0.9,"lat":34.3743,"lon":-9.3397,"largura_km":241.812,"eixo_na_terra":true},{"t":0.90556,"lat":34.267,"lon":-9.0659,"largura_km":241.631,"eixo_na_terra":true},{"t":0.91111,"lat":34.1584,"lon":-8.7899,"largura_km":241.448,"eixo_na_terra":true},{"t":0.91667,"lat":34.0484,"lon":-8.5116,"largura_km":241.26,"eixo_na_terra":true},{"t":0.92222,"lat":33.9369,"lon":-8.231,"largura_km":241.069,"eixo_na_terra":true},{"t":0.92778,"lat":33.824,"lon":-7.948,"largura_km":240.875,"eixo_na_terra":true},{"t":0.93333,"lat":33.7095,"lon":-7.6626,"largura_km":240.676,"eixo_na_terra":true},{"t":0.93889,"lat":33.5935,"lon":-7.3745,"largura_km":240.474,"eixo_na_terra":true},{"t":0.94444,"lat":33.476,"lon":-7.0838,"largura_km":240.267,"eixo_na_terra":true},{"t":0.95,"lat":33.3568,"lon":-6.7904,"largura_km":240.056,"eixo_na_terra":true},{"t":0.95556,"lat":33.2359,"lon":-6.4941,"largura_km":239.841,"eixo_na_terra":true},{"t":0.96111,"lat":33.1133,"lon":-6.1949,"largura_km":239.621,"eixo_na_terra":true},{"t":0.96667,"lat":32.989,"lon":-5.8927,"largura_km":239.397,"eixo_na_terra":true},{"t":0.97222,"lat":32.8628,"lon":-5.5872,"largura_km":239.169,"eixo_na_terra":true},{"t":0.97778,"lat":32.7347,"lon":-5.2785,"largura_km":238.936,"eixo_na_terra":true},{"t":0.98333,"lat":32.6047,"lon":-4.9664,"largura_km":238.698,"eixo_na_terra":true},{"t":0.98889,"lat":32.4727,"lon":-4.6508,"largura_km":238.454,"eixo_na_terra":true},{"t":0.99444,"lat":32.3387,"lon":-4.3315,"largura_km":238.205,"eixo_na_terra":true},{"t":1.0,"lat":32.2025,"lon":-4.0083,"largura_km":237.95,"eixo_na_terra":true},{"t":1.00556,"lat":32.064,"lon":-3.6811,"largura_km":237.689,"eixo_na_terra":true},{"t":1.01111,"lat":31.9233,"lon":-3.3498,"largura_km":237.421,"eixo_na_terra":true},{"t":1.01667,"lat":31.7803,"lon":-3.0141,"largura_km":237.147,"eixo_na_terra":true},{"t":1.02222,"lat":31.6347,"lon":-2.6739,"largura_km":236.866,"eixo_na_terra":true},{"t":1.02778,"lat":31.4866,"lon":-2.3288,"largura_km":236.578,"eixo_na_terra":true},{"t":1.03333,"lat":31.3358,"lon":-1.9788,"largura_km":236.283,"eixo_na_terra":true},{"t":1.03889,"lat":31.1823,"lon":-1.6236,"largura_km":235.98,"eixo_na_terra":true},{"t":1.04444,"lat":31.0258,"lon":-1.2628,"largura_km":235.668,"eixo_na_terra":true},{"t":1.05,"lat":30.8663,"lon":-0.8963,"largura_km":235.348,"eixo_na_terra":true},{"t":1.05556,"lat":30.7036,"lon":-0.5236,"largura_km":235.019,"eixo_na_terra":true},{"t":1.06111,"lat":30.5375,"lon":-0.1445,"largura_km":234.68,"eixo_na_terra":true},{"t":1.06667,"lat":30.368,"lon":0.2415,"largura_km":234.331,"eixo_na_terra":true},{"t":1.07222,"lat":30.1948,"lon":0.6346,"largura_km":233.971,"eixo_na_terra":true},{"t":1.07778,"lat":30.0176,"lon":1.0354,"largura_km":233.601,"eixo_na_terra":true},{"t":1.08333,"lat":29.8364,"lon":1.4444,"largura_km":233.218,"eixo_na_terra":true},{"t":1.08889,"lat":29.6507,"lon":1.8621,"largura_km":232.822,"eixo_na_terra":true},{"t":1.09444,"lat":29.4605,"lon":2.2891,"largura_km":232.414,"eixo_na_terra":true},{"t":1.1,"lat":29.2652,"lon":2.7261,"largura_km":231.992,"eixo_na_terra":true},{"t":1.10556,"lat":29.0647,"lon":3.1739,"largura_km":231.554,"eixo_na_terra":true},{"t":1.11111,"lat":28.8585,"lon":3.6332,"largura_km":231.099,"eixo_na_terra":true},{"t":1.11667,"lat":28.6462,"lon":4.1051,"largura_km":230.626,"eixo_na_terra":true},{"t":1.12222,"lat":28.4273,"lon":4.5907,"largura_km":230.132,"eixo_na_terra":true}]},"features":[{"type":"Feature","properties":{},"geometry":{"type":"Polygon","coordinates":[[[-3.906746546523351,33.36117589489989],[-2.5946886652275793,32.79929765244712],[-1.5652427273609248,32.35262718482356],[-0.49046133663432556,31.88130356369477],[0.6370237495891047,31.38189426321573],[2.2390693440387963,30.664551124111355],[3.531702138113019,30.08005905468434],[4.967388188089615,29.425760207712347],[6.488590467068491,28.72816105263956],[2.9195808041084206,28.01674228193784],[1.1576338000378428,28.79369043372032],[0.33532130039853314,29.153493318058498],[-0.8381521568816481,29.66334248980055],[-2.308746214884195,30.295500200923346],[-3.009758696299542,30.59388029239847],[-4.0243037466980525,31.021993419851217],[-4.678496284844073,31.29555758439434],[-5.630106115809554,31.68976748529145],[-6.246500268109401,31.942626975246625],[-7.146685553777871,32.30819235657279],[-7.731857630863459,32.54335915167892],[-8.589163048446409,32.884203018090844],[-9.148076322023684,33.10396140943475],[-9.969044107249914,33.42310189871884],[-10.505549309567868,33.6292326008147],[-11.295314698498004,33.92904997966143],[-12.068386828536688,34.21821746327063],[-12.826069191907294,34.497343844089514],[-13.323217770047307,34.67811983368636],[-14.057760133663379,34.94168714169312],[-14.751436248511766,35.18658118921822],[-15.461937353016936,35.43333050824026],[-15.929476937253924,35.59339147111359],[-16.62212644894558,35.82707740070419],[-17.304968365162495,36.05335470176327],[-17.97860603062645,36.27251127360196],[-18.643590345741814,36.48481083664561],[-19.300425673587597,36.690495634817516],[-19.949574918529578,36.88978876209802],[-20.59146391424386,37.082896175327555],[-21.199614659977925,37.26209457295643],[-21.828250454214583,37.44354644610374],[-22.450708782308226,37.619340409895955],[-23.067301356395944,37.78962957098253],[-23.678317610535828,37.95455670532359],[-24.284026701762087,38.1142551815902],[-24.884679287214794,38.268849781723375],[-25.67808546368957,38.46723759886515],[-26.43714090011821,38.65066644696567],[-27.02120925567698,38.78762983621226],[-27.601184240288575,38.919975627608096],[-28.17723746208864,39.047791850798134],[-28.749529939195156,39.17116160230532],[-29.31821288961106,39.29016340953649],[-29.88342844950668,39.404871561316185],[-30.605839134717712,39.54617212551188],[-31.16351960477084,39.6512537528096],[-31.718146286872553,39.75226106306353],[-32.26982901397881,39.84925320479753],[-33.00100480640336,39.972427042159445],[-33.54621147032,40.06026445964794],[-34.24317524840367,40.16746458744378],[-34.78243940911574,40.246538766698436],[-35.49769361136208,40.34617485822417],[-36.031408013757584,40.41661000678091],[-36.56286431035798,40.48341139274274],[-37.0921293825248,40.54661761158907],[-37.7687097963169,40.622511442016105],[-38.29313714259271,40.677583224188616],[-38.989283487577325,40.745606287408584],[-39.50914483206947,40.79261028721963],[-40.19939132620502,40.8499887309001],[-39.548097397143664,43.085005462655666],[-38.820700414996395,43.02052534165028],[-38.09004081815766,42.9495652806138],[-37.35600909521787,42.8720489311172],[-36.80320158729802,42.809560697166134],[-36.221730246989296,42.74008021011668],[-35.4786877044732,42.64564556075341],[-34.731813585921714,42.544348718758975],[-34.169050232782666,42.46381331067335],[-33.41508796572958,42.350265110969424],[-32.84680977678045,42.260417778121706],[-32.249312084385906,42.16206722934878],[-31.484197900067386,42.03024785245447],[-30.714268891511296,41.89096626117178],[-30.133518832873733,41.78152467155203],[-29.3545739048769,41.628843554449276],[-28.766754497320335,41.509177588151864],[-28.148873750652342,41.379337270818944],[-27.3554658913024,41.206479566233],[-26.5557151751527,41.025302925513536],[-25.749243862195186,40.835603483635836],[-24.935638799563662,40.6371607101382],[-24.32048285708288,40.48244775402262],[-23.466201944131143,40.261034765827574],[-22.84017765265918,40.09394707193171],[-21.997619556462894,39.86266995542262],[-21.35946111614166,39.68266493131341],[-20.49971026968464,39.433647124568424],[-19.847830238964065,39.239916892412374],[-18.96857193039591,38.97198750677508],[-18.273417807222785,38.75489894377464],[-17.59839640449391,38.53967582480711],[-16.91553220085453,38.31759005096997],[-15.991974630618245,38.010369798287876],[-15.28878174433359,37.77127066250505],[-14.575884931642918,37.52439354524798],[-13.852602943023754,37.26940576179431],[-13.118183786095983,37.005941235696916],[-12.371794518184544,36.73359571550364],[-11.583249865559196,36.441032185400715],[-10.809722091684847,36.14927249044986],[-10.021074280528637,35.84711286271913],[-9.215995783373785,35.533924495647014],[-8.393001154655337,35.20899667477671],[-7.550396560004202,34.871521191702044],[-6.686237404898634,34.52057271777345],[-5.798274210178732,34.15508377639097],[-4.8838824929271425,33.773812374586505],[-3.906746546523351,33.36117589489989]]]}}]}