{"type":"FeatureCollection","features":[{"type":"Feature","properties":{"t_inicio":0.07777777777776329,"t_fim":1.122222222222204},"geometry":{"type":"LineString","coordinates":[[-39.88439723960215,41.96639852643704],[-39.707629910697904,41.951776422351934],[-39.530661454407465,41.93676630788982],[-39.35349020127637,41.92136709338911],[-39.17611445348979,41.905577674065164],[-38.99853248420908,41.88939692975121],[-38.82074253689606,41.87282372463242],[-38.64274282462415,41.85585690697374],[-38.464531529376615,41.8384953088404],[-38.28610680133113,41.82073774581168],[-38.10746675813013,41.802583016687365],[-37.92860948413741,41.7840299031867],[-37.749533029679185,41.76507716963977],[-37.57023541027053,41.745723562671024],[-37.39071460582588,41.72596781087491],[-37.210968559853455,41.705808624483055],[-37.03099517863325,41.685244695022966],[-36.8507923303776,41.66427469496822],[-36.670357844374564,41.64289727737952],[-36.48968951011295,41.62111107553653],[-36.308785076388546,41.598914702560386],[-36.127642250391546,41.57630675102634],[-35.9462586967737,41.55328579256638],[-35.76463203669525,41.529850377461734],[-35.58275984685085,41.505999034224516],[-35.40063965847364,41.48173026916862],[-35.21826895631699,41.45704256596943],[-35.03564517761333,41.43193438521178],[-34.8527657110086,41.4064041639262],[-34.669627895472956,41.3804503151128],[-34.48622901918537,41.35407122725255],[-34.30256631839245,41.327265263805515],[-34.1186369762402,41.3000307626958],[-33.934438121577784,41.27236603578245],[-33.74996682773255,41.2442693683163],[-33.565220111255314,41.2157390183821],[-33.380194930634815,41.186773216325264],[-33.19488818498073,41.15737016416333],[-33.009296712673375,41.127528034981],[-32.823417289979886,41.09724497230855],[-32.63724662963534,41.066519089483386],[-32.45078137938734,41.035348468993185],[-32.26401812050338,41.00373116180144],[-32.07695336623931,40.971665186653496],[-31.88958356026771,40.939148529363386],[-31.701905075064758,40.90617914208012],[-31.513914210254086,40.872754942533454],[-31.325607190906283,40.83887381325769],[-31.13698016579201,40.804533600793214],[-30.948029205588,40.769732114865135],[-30.75875030103282,40.73446712753776],[-30.569139361032228,40.69873637234427],[-30.37919221071104,40.66253754339109],[-30.188904589409958,40.62586829443524],[-29.99827214862563,40.58872623793477],[-29.807290449891298,40.551108944070236],[-29.61595496259622,40.51301393973691],[-29.42426106174156,40.47443870750649],[-29.232204025629926,40.43538068455686],[-29.039779033486553,40.39583726156927],[-28.846981163009332,40.35580578159126],[-28.653805387844557,40.31528353886418],[-28.460246574986343,40.27426777761421],[-28.266299482095917,40.23275569080508],[-28.07195875473792,40.190744418851295],[-27.877218923530734,40.14823104829035],[-27.68207440120682,40.105212610412124],[-27.486519479580096,40.06168607984402],[-27.290548326415887,40.01764837308989],[-27.094154982200337,39.97309634702119],[-26.897333356804097,39.92802679731799],[-26.700077226037138,39.8824364568583],[-26.502380228088924,39.836321994053435],[-26.30423585985028,39.789680011126855],[-26.105637473110903,39.74250704233482],[-25.906578270628188,39.694799552125765],[-25.707051302061018,39.646553933236326],[-25.507049459763437,39.59776650472092],[-25.306565474431295,39.548433509912364],[-25.10559191059633,39.498551114310494],[-24.904121161960234,39.44811540339537],[-24.70214544656153,39.39712238036217],[-24.49965680176865,39.345567963774144],[-24.296647079090235,39.293447985129845],[-24.093107938795015,39.24075818634101],[-23.889030844332183,39.18749421711697],[-23.684407056543336,39.13365163225115],[-23.47922762765583,39.079225888805546],[-23.27348339504752,39.02421234318792],[-23.06716497477214,38.968606248117204],[-22.860262754833172,38.91240274947133],[-22.65276688819509,38.85559688301245],[-22.444667285518335,38.79818357098301],[-22.235953607604472,38.740157618566855],[-22.026615257537912,38.68151371020876],[-21.816641372508002,38.62224640578497],[-21.60602081529592,38.56235013661781],[-21.394742165409355,38.50181920132624],[-21.18279370984638,38.44064776150392],[-20.970163433469793,38.378829837216436],[-20.7568390089711,38.316359302307546],[-20.542807786402562,38.253229879505106],[-20.328056782254635,38.189435135315875],[-20.11257266805339,38.124968474697816],[-19.896341758452706,38.0598231354981],[-19.6793499987931,37.99399218264385],[-19.461582952097302,37.92746850207239],[-19.243025785471445,37.860244794386105],[-19.023663255877864,37.792313568216656],[-18.803479695243965,37.72366713328234],[-18.58245899486812,37.65429759312048],[-18.360584589082094,37.58419683747642],[-18.137839438126093,37.51335653432908],[-17.914206010188906,37.44176812153117],[-17.689666262563293,37.36942279804149],[-17.464201621862713,37.29631151472443],[-17.23779296324102,37.22242496469005],[-17.010420588553615,37.14775357314685],[-16.78206420339251,37.07228748673605],[-16.552702892924515,36.99601656231521],[-16.322315096454503,36.91893035515568],[-16.090878580630715,36.84101810651581],[-15.858370411202856,36.76226873054919],[-15.62476692323574,36.6826708005038],[-15.390043689674144,36.60221253416438],[-15.154175488146421,36.52088177848659],[-14.91713626588367,36.43866599336721],[-14.678899102623518,36.35555223449055],[-14.43943617135406,36.27152713518531],[-14.198718696743128,36.186576887221285],[-13.956716911083333,36.100687220469446],[-13.713400007569561,36.013843381341076],[-13.468736090709172,35.92603010991586],[-13.222692123646226,35.837231615659505],[-12.97523387216279,35.747431551622924],[-12.726325845097392,35.65661298700524],[-12.475931230896776,35.56475837795175],[-12.224011829989905,35.47184953644562],[-11.970527982643489,35.37786759713885],[-11.715438491925369,35.282792981952994],[-11.458700541363612,35.186605362263016],[-11.20026960684956,35.08928361845941],[-10.94009936228511,34.990805796662244],[-10.678141578423919,34.89114906233829],[-10.414346014296768,34.79028965054473],[-10.148660300547164,34.68820281249518],[-9.881029813928677,34.584862758108834],[-9.611397542132607,34.48024259416753],[-9.339703938021046,34.374314257662135],[-9.065886762233589,34.26704844386252],[-8.789880913015367,34.15841452859059],[-8.511618241976464,34.048380484114105],[-8.231027354337158,33.93691278800873],[-7.948033392033011,33.82397632425512],[-7.662557797850155,33.70953427574594],[-7.374518058525609,33.5935480072713],[-7.08382742447543,33.475976937930504],[-6.79039460350279,33.356778401776175],[-6.494123425473674,33.235907495335255],[-6.194912474529644,33.113316910462174],[-5.892654684915982,32.98895675075997],[-5.587236895932733,32.86277432954809],[-5.278539360845144,32.734713947056115],[-4.966435203802206,32.60471664416762],[-4.650789817880764,32.47271992962259],[-4.331460196271621,32.338657477092056],[-4.00829418731027,32.20245878795157],[-3.681129662491827,32.064048814878596],[-3.3497935847280473,31.923347540557845],[-3.0141009618428143,31.780269504765716],[-2.6738536675605644,31.634723271878574],[-2.328839108907516,31.486610829358277],[-1.9788287148665233,31.335826905944323],[-1.6235762161078924,31.182258196039307],[-1.262815679409556,31.02578247399978],[-0.8962592526488038,30.86626757859139],[-0.5235945665584438,30.703570243540554],[-0.1444817272082446,30.537534744654376],[0.24145018238294824,30.367991327039576],[0.6346071930381925,30.194754367055104],[1.0354352599350989,30.017620212134723],[1.44442595380292,29.836364626616714],[1.862123238100878,29.650739751957623],[2.2891315965280796,29.460470463398394],[2.726125854767247,29.265249969717424],[3.1738631488892395,29.06473445438539],[3.633197642899006,28.85853648964617],[4.10509880847701,28.64621686135061],[4.590674380305586,28.427274308774553]]}}]}