{"type":"FeatureCollection","features":[{"type":"Feature","properties":{"magnitude":0.5,"de":0.5,"ate":0.8,"percentagem":50.0},"geometry":{"type":"MultiPolygon","coordinates":[[[[-34.5,30.0],[-34.5,33.995573220367945],[-32.69999999999993,33.66490809397326],[-30.83999999999986,33.279783218749195],[-28.97999999999979,32.85185008386847],[-27.11999999999972,32.382599808441206],[-23.279999999999575,31.290287490159372],[-19.307899166037416,30.0],[-34.5,30.0]]],[[[-3.5399999999988268,40.80944363724089],[-6.719999999998947,42.037397940149106],[-9.659999999999059,43.10508101305387],[-12.479999999999166,44.062751383773545],[-15.262711956563152,44.939999999999685],[-3.5399999999988268,44.939999999999685],[-3.5399999999988268,40.80944363724089]]]]}},{"type":"Feature","properties":{"magnitude":0.8,"de":0.8,"ate":0.95,"percentagem":80.0},"geometry":{"type":"MultiPolygon","coordinates":[[[[-19.307899166037416,30.0],[-23.45999999999958,31.345036884503465],[-27.239999999999725,32.41408965063617],[-30.899999999999864,33.29288179153706],[-32.69999999999993,33.66490809397326],[-34.5,33.995573220367945],[-34.5,38.63810795159006],[-31.199999999999875,38.06812441987896],[-27.899999999999753,37.37120386118643],[-24.539999999999623,36.5366307405303],[-21.05999999999949,35.546598014158256],[-17.519999999999357,34.41785139313422],[-13.859999999999218,33.134316043320105],[-10.019999999999072,31.676625807296436],[-5.880799466556188,30.000000000000004],[-19.307899166037416,30.0]]],[[[-3.5399999999988268,35.06825143926961],[-7.979999999998995,36.87529315948162],[-12.05999999999915,38.41460564547415],[-15.959999999999297,39.75887837222948],[-19.73999999999944,40.92986041927573],[-23.45999999999958,41.9459322795219],[-27.179999999999723,42.82001001577179],[-30.83999999999986,43.53687325958407],[-34.5,44.10873599287377],[-34.5,44.939999999999685],[-15.262711956563152,44.939999999999685],[-13.499999999999204,44.392297511796],[-11.099999999999113,43.60251456295545],[-8.63999999999902,42.74241357686704],[-6.1199999999989245,41.81129692258298],[-3.5399999999988268,40.80944363724089],[-3.5399999999988268,35.06825143926961]]]]}},{"type":"Feature","properties":{"magnitude":0.95,"de":0.95,"ate":0.99,"percentagem":95.0},"geometry":{"type":"MultiPolygon","coordinates":[[[[-5.880799466556188,30.000000000000004],[-10.19999999999908,31.747225946927863],[-14.039999999999225,33.199992997095144],[-17.699999999999363,34.47803064730886],[-21.1708035003761,35.579999999999885],[-24.599999999999625,36.55260327433551],[-27.959999999999752,37.38497845327463],[-31.259999999999877,38.07963481880206],[-34.5,38.63810795159006],[-34.5,39.891393210322214],[-30.959999999999866,39.29433359812972],[-27.35999999999973,38.540744100484325],[-23.759999999999593,37.64548332787068],[-20.039999999999452,36.57971902313862],[-16.25999999999931,35.36124875638339],[-12.299999999999159,33.95320935657453],[-8.099999999999,32.33331350806571],[-3.5399999999988268,30.455795147885325],[-3.5399999999988268,30.0],[-5.880799466556188,30.000000000000004]]],[[[-3.5399999999988268,33.57553341114064],[-8.039999999998997,35.4323849802],[-12.119999999999152,36.998094845269094],[-16.0199999999993,38.369909656645746],[-19.799999999999443,39.56836838031275],[-23.519999999999584,40.610918981236225],[-27.239999999999725,41.50971455664229],[-30.899999999999864,42.24815185566704],[-34.5,42.82955641433627],[-34.5,44.10873599287377],[-32.09999999999991,43.750231991491724],[-29.639999999999816,43.31768610112072],[-27.179999999999723,42.82001001577179],[-24.71999999999963,42.258164833552506],[-22.259999999999536,41.63340439274889],[-19.73999999999944,40.92986041927573],[-17.159999999999343,40.145218028487584],[-14.579999999999245,39.29838349909423],[-11.939999999999145,38.37119012920508],[-9.239999999999043,37.364104092539506],[-6.479999999998938,36.27888193201103],[-3.5399999999988268,35.06825143926961],[-3.5399999999988268,33.57553341114064]]]]}},{"type":"Feature","properties":{"magnitude":0.99,"de":0.99,"ate":2.0,"percentagem":99.0},"geometry":{"type":"Polygon","coordinates":[[[-8.159999999999002,32.35726198497403],[-3.5399999999988268,30.455795147885325],[-3.5399999999988268,33.57553341114064],[-7.8599999999989905,35.36054468055043],[-11.51999999999913,36.77576699441025],[-14.999999999999261,38.02384632341591],[-18.35999999999939,39.12781394429328],[-21.659999999999513,40.1071757710292],[-24.899999999999636,40.96146455330698],[-28.13999999999976,41.70488486453472],[-31.31999999999988,42.32344943058837],[-34.5,42.82955641433627],[-34.5,39.891393210322214],[-30.959999999999866,39.29433359812972],[-27.35999999999973,38.540744100484325],[-23.759999999999593,37.64548332787068],[-20.039999999999452,36.579719023138615],[-16.25999999999931,35.36124875638338],[-12.299999999999159,33.95320935657453],[-8.159999999999002,32.35726198497403]]]}}]}