{"type":"FeatureCollection","features":[{"type":"Feature","properties":{"magnitude":0.2,"de":0.2,"ate":0.5,"percentagem":20.0},"geometry":{"type":"Polygon","coordinates":[[[-10.859999999999104,31.997841970214974],[-6.482128209028267,30.0],[-3.5399999999988268,30.0],[-3.5399999999988268,41.19959248721135],[-8.339999999999009,43.22135115362539],[-12.792526576014012,44.939999999999685],[-34.5,44.939999999999685],[-34.5,40.01193115494294],[-31.31999999999988,39.2894366755629],[-28.13999999999976,38.44488076356642],[-24.899999999999636,37.4630807690224],[-21.59999999999951,36.34382242921287],[-18.17999999999938,35.066751732393456],[-14.639999999999247,33.63342426367103],[-10.859999999999104,31.997841970214974]]]}},{"type":"Feature","properties":{"magnitude":0.5,"de":0.5,"ate":0.8,"percentagem":50.0},"geometry":{"type":"Polygon","coordinates":[[[-34.5,30.0],[-34.44,30.0],[-6.482128209028267,30.0],[-10.7399999999991,31.944402685438714],[-14.579999999999245,33.60825064297118],[-18.11999999999938,35.04335583458481],[-21.53999999999951,36.32241178591733],[-24.899999999999636,37.4630807690224],[-28.13999999999976,38.44488076356642],[-31.319999999999883,39.289436675562904],[-34.5,40.01193115494294],[-34.5,30.0]]]}}]}