{"type":"FeatureCollection","properties":{"largura_maxima_km":144.26,"largura_sobre_pt_km":136.485,"linha_central_sobre_pt":false,"desenhavel_como_area":true,"perfil_largura":[{"t":1.15556,"lat":38.62,"lon":-39.9834,"largura_km":144.26,"eixo_na_terra":true},{"t":1.16111,"lat":38.7696,"lon":-39.7969,"largura_km":143.958,"eixo_na_terra":true},{"t":1.16667,"lat":38.9206,"lon":-39.6085,"largura_km":143.656,"eixo_na_terra":true},{"t":1.17222,"lat":39.0728,"lon":-39.418,"largura_km":143.352,"eixo_na_terra":true},{"t":1.17778,"lat":39.2265,"lon":-39.2255,"largura_km":143.046,"eixo_na_terra":true},{"t":1.18333,"lat":39.3816,"lon":-39.0308,"largura_km":142.739,"eixo_na_terra":true},{"t":1.18889,"lat":39.5382,"lon":-38.8338,"largura_km":142.429,"eixo_na_terra":true},{"t":1.19444,"lat":39.6963,"lon":-38.6346,"largura_km":142.118,"eixo_na_terra":true},{"t":1.2,"lat":39.8558,"lon":-38.4331,"largura_km":141.805,"eixo_na_terra":true},{"t":1.20556,"lat":40.017,"lon":-38.2291,"largura_km":141.49,"eixo_na_terra":true},{"t":1.21111,"lat":40.1797,"lon":-38.0226,"largura_km":141.174,"eixo_na_terra":true},{"t":1.21667,"lat":40.3442,"lon":-37.8135,"largura_km":140.855,"eixo_na_terra":true},{"t":1.22222,"lat":40.5102,"lon":-37.6018,"largura_km":140.534,"eixo_na_terra":true},{"t":1.22778,"lat":40.6781,"lon":-37.3873,"largura_km":140.211,"eixo_na_terra":true},{"t":1.23333,"lat":40.8477,"lon":-37.17,"largura_km":139.885,"eixo_na_terra":true},{"t":1.23889,"lat":41.0191,"lon":-36.9497,"largura_km":139.557,"eixo_na_terra":true},{"t":1.24444,"lat":41.1925,"lon":-36.7264,"largura_km":139.227,"eixo_na_terra":true},{"t":1.25,"lat":41.3678,"lon":-36.4999,"largura_km":138.894,"eixo_na_terra":true},{"t":1.25556,"lat":41.545,"lon":-36.2702,"largura_km":138.559,"eixo_na_terra":true},{"t":1.26111,"lat":41.7244,"lon":-36.0371,"largura_km":138.22,"eixo_na_terra":true},{"t":1.26667,"lat":41.9058,"lon":-35.8005,"largura_km":137.879,"eixo_na_terra":true},{"t":1.27222,"lat":42.0895,"lon":-35.5602,"largura_km":137.535,"eixo_na_terra":true},{"t":1.27778,"lat":42.2754,"lon":-35.3162,"largura_km":137.188,"eixo_na_terra":true},{"t":1.28333,"lat":42.4636,"lon":-35.0682,"largura_km":136.838,"eixo_na_terra":true},{"t":1.28889,"lat":42.6543,"lon":-34.8161,"largura_km":136.485,"eixo_na_terra":true},{"t":1.29444,"lat":42.8475,"lon":-34.5597,"largura_km":136.129,"eixo_na_terra":true},{"t":1.3,"lat":43.0432,"lon":-34.299,"largura_km":135.769,"eixo_na_terra":true},{"t":1.30556,"lat":43.2417,"lon":-34.0335,"largura_km":135.405,"eixo_na_terra":true},{"t":1.31111,"lat":43.4429,"lon":-33.7633,"largura_km":135.038,"eixo_na_terra":true},{"t":1.31667,"lat":43.6471,"lon":-33.488,"largura_km":134.667,"eixo_na_terra":true},{"t":1.32222,"lat":43.8543,"lon":-33.2074,"largura_km":134.291,"eixo_na_terra":true},{"t":1.32778,"lat":44.0646,"lon":-32.9212,"largura_km":133.91,"eixo_na_terra":true},{"t":1.33333,"lat":44.2782,"lon":-32.6292,"largura_km":133.525,"eixo_na_terra":true},{"t":1.33889,"lat":44.4952,"lon":-32.3311,"largura_km":133.135,"eixo_na_terra":true},{"t":1.34444,"lat":44.7158,"lon":-32.0266,"largura_km":132.74,"eixo_na_terra":true},{"t":1.35,"lat":44.9401,"lon":-31.7153,"largura_km":132.339,"eixo_na_terra":true},{"t":1.35556,"lat":45.1684,"lon":-31.3969,"largura_km":131.932,"eixo_na_terra":true},{"t":1.36111,"lat":45.4008,"lon":-31.0709,"largura_km":131.519,"eixo_na_terra":true},{"t":1.36667,"lat":45.6375,"lon":-30.7369,"largura_km":131.1,"eixo_na_terra":true},{"t":1.37222,"lat":45.8788,"lon":-30.3945,"largura_km":130.673,"eixo_na_terra":true},{"t":1.37778,"lat":46.125,"lon":-30.043,"largura_km":130.24,"eixo_na_terra":true},{"t":1.38333,"lat":46.3763,"lon":-29.682,"largura_km":129.799,"eixo_na_terra":true},{"t":1.38889,"lat":46.633,"lon":-29.3106,"largura_km":129.35,"eixo_na_terra":true},{"t":1.39444,"lat":46.8954,"lon":-28.9284,"largura_km":128.892,"eixo_na_terra":true},{"t":1.4,"lat":47.1641,"lon":-28.5343,"largura_km":128.424,"eixo_na_terra":true},{"t":1.40556,"lat":47.4393,"lon":-28.1275,"largura_km":127.946,"eixo_na_terra":true},{"t":1.41111,"lat":47.7217,"lon":-27.707,"largura_km":127.456,"eixo_na_terra":true},{"t":1.41667,"lat":48.0116,"lon":-27.2717,"largura_km":126.953,"eixo_na_terra":true},{"t":1.42222,"lat":48.3099,"lon":-26.8201,"largura_km":126.435,"eixo_na_terra":true},{"t":1.42778,"lat":48.6171,"lon":-26.3508,"largura_km":125.904,"eixo_na_terra":true},{"t":1.43333,"lat":48.9341,"lon":-25.8619,"largura_km":125.356,"eixo_na_terra":true},{"t":1.43889,"lat":49.2619,"lon":-25.3515,"largura_km":124.788,"eixo_na_terra":true},{"t":1.44444,"lat":49.6016,"lon":-24.817,"largura_km":124.197,"eixo_na_terra":true},{"t":1.45,"lat":49.9546,"lon":-24.2554,"largura_km":123.579,"eixo_na_terra":true}]},"features":[{"type":"Feature","properties":{},"geometry":{"type":"Polygon","coordinates":[[[-40.129022239779346,39.43445565962248],[-39.35322997173665,40.04881846607688],[-38.74774750723884,40.52503080554498],[-37.68769473102722,41.35116479045318],[-37.01725739506037,41.86828885921811],[-36.55424929593579,42.22284602597741],[-35.585260734097005,42.95775071376566],[-35.07696863862566,43.33926031023575],[-34.53454483088353,43.74326330991498],[-33.988924623379376,44.14633422822198],[-33.4222408513707,44.56135984244356],[-32.528088056570766,45.20859036968871],[-31.898901828095177,45.658329773904356],[-31.573276952036338,45.889212730738386],[-30.89777667340573,46.36406161525195],[-30.546898725194637,46.60850969487502],[-29.794782960579568,47.12730687685629],[-29.019351598575412,47.65493675645073],[-28.613214759988438,47.92829339155542],[-27.759039712192987,48.496472312777186],[-27.308554806726818,48.7924408853572],[-26.84053789955439,49.09723089338993],[-26.353252056893524,49.41164900726057],[-25.817385416342574,49.75382731319257],[-25.28403749001282,50.09099625355397],[-24.72399471498349,50.441213670112546],[-24.13375961853822,50.80607915040241],[-23.50902890450297,51.18755305745458],[-24.82064962254023,48.820560461464055],[-25.334821529154482,48.48895952003645],[-25.826898291717697,48.168447883007666],[-26.299041201724748,47.8580106856132],[-26.753090824212393,47.556780581699165],[-27.61302894820082,46.97904592750463],[-28.417058542627615,46.430328056857334],[-29.152207383521926,45.9215059320195],[-29.51475618592133,45.667991463528594],[-30.21122080518856,45.17633401748891],[-30.54628680108391,44.93763218066617],[-31.19257607676164,44.473267113727],[-32.1086455498328,43.80625222331301],[-32.96896407796717,43.1705847519383],[-33.78105712176662,42.56252149992098],[-34.29870073227809,42.17095869822861],[-34.799137925063434,41.789541294885396],[-35.75357138667894,41.05451603381221],[-36.65333214400016,40.35286979815738],[-37.085012518502765,40.013381211636],[-37.71196761675006,39.51718718248077],[-38.70751718064869,38.72212438818064],[-39.818648596533535,37.82541239457806],[-40.129022239779346,39.43445565962248]]]}}]}