{"type":"FeatureCollection","features":[{"type":"Feature","properties":{"t_inicio":1.1555555555555372,"t_fim":1.4499999999999806},"geometry":{"type":"LineString","coordinates":[[-39.983412914850845,38.62002481302481],[-39.796947723880464,38.76962193367458],[-39.60850820086293,38.92055088683623],[-39.41803785063581,39.0728412560895],[-39.225477817836406,39.22652381930321],[-39.030766747472995,39.38163061668513],[-38.8338406348509,39.53819502392051],[-38.63463266384679,39.696251830872946],[-38.43307303241269,39.85583732637396],[-38.22908876406137,40.016989389688085],[-38.022603503938,40.1797475893076],[-37.813537297917236,40.34415328980923],[-37.60180635297516,40.51024976759225],[-37.38732277686796,40.67808233641862],[-37.16999429490147,40.84769848379059],[-36.9497239412901,41.01914801933301],[-36.7264097222764,41.19248323649903],[-36.499944247801864,41.36775908909372],[-36.27021432808249,41.545033384311196],[-36.03710053093289,41.724366994216325],[-35.80047669508977,41.90582408787457],[-35.56020939409339,42.089472386651785],[-35.31615734447482,42.275383445578335],[-35.068170751041635,42.46363296411033],[-34.81609058093062,42.65430113013532],[-34.55974775676202,42.84747300168148],[-34.29896225764517,43.04323893151367],[-34.03354211489335,43.24169504066404],[-33.763282287037526,43.4429437479812],[-33.48796339599676,43.64709436402638],[-33.20735030295714,43.85426375915177],[-32.92119049849387,44.06457711742387],[-32.62921227655667,44.27816879028857],[-32.331122655902504,44.49518326661541],[-32.02660500509512,44.71577627914495],[-31.71531631790768,44.94011607156798],[-31.396884074340733,45.16838485572824],[-31.070902607814617,45.400780495064396],[-30.736928880485323,45.637518458812785],[-30.394477544809007,45.87883410224041],[-30.04301513872781,46.12498534203738],[-29.681953221794572,46.37625581402973],[-29.310640206867248,46.632958624066504],[-28.928351571989367,46.89544083438531],[-28.534278042969248,47.1640888699845],[-28.127511209139954,47.439335086916685],[-27.707025858278087,47.72166582343771],[-27.271658069773366,48.011631365359555],[-26.820077754308073,48.30985841367517],[-26.350753820982078,48.61706586889768],[-25.86190940492213,48.93408507990167],[-25.351463461951766,49.26188620655906],[-24.816953299000318,49.601613118302154],[-24.2554298541082,49.95463047440521]]}}]}