{"type":"FeatureCollection","features":[{"type":"Feature","properties":{"magnitude":0.2,"de":0.2,"ate":0.5,"percentagem":20.0},"geometry":{"type":"Polygon","coordinates":[[[-19.659009316377798,30.0],[-3.5399999999988268,30.0],[-3.5399999999988268,38.88288193209618],[-5.639999999998906,37.90062763907249],[-7.739999999998986,36.869875239525925],[-9.779999999999063,35.82012934094297],[-11.784937990379206,34.739999999999895],[-13.799999999999216,33.60419326387572],[-15.77999999999929,32.437382718496146],[-17.699999999999363,31.25641691581086],[-19.659009316377798,30.0]]]}},{"type":"Feature","properties":{"magnitude":0.5,"de":0.5,"ate":0.8,"percentagem":50.0},"geometry":{"type":"Polygon","coordinates":[[[-34.5,30.0],[-19.659009316377798,30.0],[-17.699999999999363,31.25641691581086],[-15.77999999999929,32.437382718496146],[-13.799999999999216,33.604193263875715],[-11.784937990379204,34.739999999999895],[-9.779999999999063,35.82012934094297],[-7.739999999998986,36.869875239525925],[-5.639999999998906,37.90062763907249],[-3.5399999999988268,38.88288193209618],[-3.5399999999988268,44.939999999999685],[-15.3034105000647,44.939999999999685],[-17.63999999999936,43.62233924330405],[-19.919999999999447,42.271862556523814],[-22.199999999999537,40.85554105383983],[-24.419999999999618,39.41188176963646],[-26.639999999999706,37.90380082474479],[-28.919999999999785,36.28821891766911],[-31.199999999999875,34.6068217663928],[-33.599999999999966,32.770176973911546],[-34.5,32.06525980042817],[-34.5,30.0]]]}},{"type":"Feature","properties":{"magnitude":0.8,"de":0.8,"ate":0.95,"percentagem":80.0},"geometry":{"type":"Polygon","coordinates":[[[-34.5,39.38726015990852],[-34.5,32.06525980042817],[-31.7999999999999,34.15384283779404],[-29.2199999999998,36.07068194358402],[-26.939999999999714,37.69506665540305],[-24.71999999999963,39.21185926606552],[-22.37999999999954,40.74087538675106],[-20.039999999999452,42.19897484078385],[-17.699999999999363,43.58763376589836],[-15.3034105000647,44.939999999999685],[-26.801055433932433,44.939999999999685],[-30.59999999999985,42.291352228244634],[-34.5,39.38726015990852]]]}},{"type":"Feature","properties":{"magnitude":0.95,"de":0.95,"ate":0.99,"percentagem":95.0},"geometry":{"type":"MultiPolygon","coordinates":[[[[-34.5,39.38726015990852],[-34.5,41.481340260977824],[-32.219999999999914,43.190317918974365],[-29.99999999999983,44.79432714249956],[-29.794074985923203,44.939999999999685],[-26.801055433932433,44.939999999999685],[-30.599999999999852,42.291352228244634],[-34.5,39.38726015990852]]],[[[-34.5,44.321566867841284],[-34.5,44.939999999999685],[-33.65945233462624,44.939999999999685],[-34.5,44.321566867841284]]]]}},{"type":"Feature","properties":{"magnitude":0.99,"de":0.99,"ate":2.0,"percentagem":99.0},"geometry":{"type":"Polygon","coordinates":[[[-34.5,44.321566867841284],[-34.5,41.481340260977824],[-32.09999999999991,43.27856820214152],[-29.794074985923203,44.939999999999685],[-33.65945233462624,44.939999999999685],[-34.5,44.321566867841284]]]}}]}