{"type":"FeatureCollection","properties":{"largura_maxima_km":194.677,"largura_sobre_pt_km":191.371,"linha_central_sobre_pt":true,"desenhavel_como_area":true,"perfil_largura":[{"t":0.39444,"lat":46.7613,"lon":-39.899,"largura_km":194.101,"eixo_na_terra":true},{"t":0.4,"lat":46.7352,"lon":-39.7207,"largura_km":194.118,"eixo_na_terra":true},{"t":0.40556,"lat":46.7088,"lon":-39.5424,"largura_km":194.134,"eixo_na_terra":true},{"t":0.41111,"lat":46.6821,"lon":-39.3643,"largura_km":194.151,"eixo_na_terra":true},{"t":0.41667,"lat":46.655,"lon":-39.1864,"largura_km":194.167,"eixo_na_terra":true},{"t":0.42222,"lat":46.6276,"lon":-39.0086,"largura_km":194.182,"eixo_na_terra":true},{"t":0.42778,"lat":46.5999,"lon":-38.8309,"largura_km":194.198,"eixo_na_terra":true},{"t":0.43333,"lat":46.5719,"lon":-38.6533,"largura_km":194.213,"eixo_na_terra":true},{"t":0.43889,"lat":46.5436,"lon":-38.4759,"largura_km":194.227,"eixo_na_terra":true},{"t":0.44444,"lat":46.5149,"lon":-38.2986,"largura_km":194.242,"eixo_na_terra":true},{"t":0.45,"lat":46.4859,"lon":-38.1214,"largura_km":194.256,"eixo_na_terra":true},{"t":0.45556,"lat":46.4566,"lon":-37.9443,"largura_km":194.271,"eixo_na_terra":true},{"t":0.46111,"lat":46.4269,"lon":-37.7674,"largura_km":194.286,"eixo_na_terra":true},{"t":0.46667,"lat":46.397,"lon":-37.5906,"largura_km":194.302,"eixo_na_terra":true},{"t":0.47222,"lat":46.3667,"lon":-37.4139,"largura_km":194.317,"eixo_na_terra":true},{"t":0.47778,"lat":46.3361,"lon":-37.2374,"largura_km":194.332,"eixo_na_terra":true},{"t":0.48333,"lat":46.3051,"lon":-37.0609,"largura_km":194.346,"eixo_na_terra":true},{"t":0.48889,"lat":46.2739,"lon":-36.8846,"largura_km":194.36,"eixo_na_terra":true},{"t":0.49444,"lat":46.2423,"lon":-36.7084,"largura_km":194.374,"eixo_na_terra":true},{"t":0.5,"lat":46.2104,"lon":-36.5323,"largura_km":194.387,"eixo_na_terra":true},{"t":0.50556,"lat":46.1781,"lon":-36.3563,"largura_km":194.4,"eixo_na_terra":true},{"t":0.51111,"lat":46.1456,"lon":-36.1804,"largura_km":194.413,"eixo_na_terra":true},{"t":0.51667,"lat":46.1127,"lon":-36.0047,"largura_km":194.425,"eixo_na_terra":true},{"t":0.52222,"lat":46.0795,"lon":-35.829,"largura_km":194.437,"eixo_na_terra":true},{"t":0.52778,"lat":46.046,"lon":-35.6535,"largura_km":194.449,"eixo_na_terra":true},{"t":0.53333,"lat":46.0122,"lon":-35.478,"largura_km":194.46,"eixo_na_terra":true},{"t":0.53889,"lat":45.978,"lon":-35.3027,"largura_km":194.471,"eixo_na_terra":true},{"t":0.54444,"lat":45.9435,"lon":-35.1275,"largura_km":194.481,"eixo_na_terra":true},{"t":0.55,"lat":45.9087,"lon":-34.9523,"largura_km":194.491,"eixo_na_terra":true},{"t":0.55556,"lat":45.8736,"lon":-34.7773,"largura_km":194.501,"eixo_na_terra":true},{"t":0.56111,"lat":45.8381,"lon":-34.6024,"largura_km":194.511,"eixo_na_terra":true},{"t":0.56667,"lat":45.8024,"lon":-34.4275,"largura_km":194.52,"eixo_na_terra":true},{"t":0.57222,"lat":45.7663,"lon":-34.2528,"largura_km":194.528,"eixo_na_terra":true},{"t":0.57778,"lat":45.7299,"lon":-34.0781,"largura_km":194.537,"eixo_na_terra":true},{"t":0.58333,"lat":45.6931,"lon":-33.9036,"largura_km":194.545,"eixo_na_terra":true},{"t":0.58889,"lat":45.6561,"lon":-33.7291,"largura_km":194.553,"eixo_na_terra":true},{"t":0.59444,"lat":45.6187,"lon":-33.5547,"largura_km":194.562,"eixo_na_terra":true},{"t":0.6,"lat":45.581,"lon":-33.3804,"largura_km":194.571,"eixo_na_terra":true},{"t":0.60556,"lat":45.5429,"lon":-33.2062,"largura_km":194.58,"eixo_na_terra":true},{"t":0.61111,"lat":45.5046,"lon":-33.0321,"largura_km":194.589,"eixo_na_terra":true},{"t":0.61667,"lat":45.4659,"lon":-32.858,"largura_km":194.597,"eixo_na_terra":true},{"t":0.62222,"lat":45.4269,"lon":-32.684,"largura_km":194.604,"eixo_na_terra":true},{"t":0.62778,"lat":45.3876,"lon":-32.5101,"largura_km":194.612,"eixo_na_terra":true},{"t":0.63333,"lat":45.3479,"lon":-32.3363,"largura_km":194.619,"eixo_na_terra":true},{"t":0.63889,"lat":45.308,"lon":-32.1625,"largura_km":194.625,"eixo_na_terra":true},{"t":0.64444,"lat":45.2677,"lon":-31.9889,"largura_km":194.631,"eixo_na_terra":true},{"t":0.65,"lat":45.2271,"lon":-31.8152,"largura_km":194.637,"eixo_na_terra":true},{"t":0.65556,"lat":45.1861,"lon":-31.6417,"largura_km":194.642,"eixo_na_terra":true},{"t":0.66111,"lat":45.1449,"lon":-31.4682,"largura_km":194.647,"eixo_na_terra":true},{"t":0.66667,"lat":45.1033,"lon":-31.2948,"largura_km":194.652,"eixo_na_terra":true},{"t":0.67222,"lat":45.0614,"lon":-31.1214,"largura_km":194.656,"eixo_na_terra":true},{"t":0.67778,"lat":45.0191,"lon":-30.9481,"largura_km":194.66,"eixo_na_terra":true},{"t":0.68333,"lat":44.9766,"lon":-30.7749,"largura_km":194.663,"eixo_na_terra":true},{"t":0.68889,"lat":44.9337,"lon":-30.6017,"largura_km":194.666,"eixo_na_terra":true},{"t":0.69444,"lat":44.8905,"lon":-30.4285,"largura_km":194.669,"eixo_na_terra":true},{"t":0.7,"lat":44.8469,"lon":-30.2554,"largura_km":194.671,"eixo_na_terra":true},{"t":0.70556,"lat":44.8031,"lon":-30.0824,"largura_km":194.673,"eixo_na_terra":true},{"t":0.71111,"lat":44.7589,"lon":-29.9094,"largura_km":194.674,"eixo_na_terra":true},{"t":0.71667,"lat":44.7144,"lon":-29.7364,"largura_km":194.675,"eixo_na_terra":true},{"t":0.72222,"lat":44.6695,"lon":-29.5635,"largura_km":194.675,"eixo_na_terra":true},{"t":0.72778,"lat":44.6244,"lon":-29.3906,"largura_km":194.675,"eixo_na_terra":true},{"t":0.73333,"lat":44.5789,"lon":-29.2177,"largura_km":194.675,"eixo_na_terra":true},{"t":0.73889,"lat":44.533,"lon":-29.0449,"largura_km":194.676,"eixo_na_terra":true},{"t":0.74444,"lat":44.4869,"lon":-28.8721,"largura_km":194.677,"eixo_na_terra":true},{"t":0.75,"lat":44.4404,"lon":-28.6993,"largura_km":194.677,"eixo_na_terra":true},{"t":0.75556,"lat":44.3936,"lon":-28.5266,"largura_km":194.677,"eixo_na_terra":true},{"t":0.76111,"lat":44.3464,"lon":-28.3539,"largura_km":194.677,"eixo_na_terra":true},{"t":0.76667,"lat":44.299,"lon":-28.1812,"largura_km":194.676,"eixo_na_terra":true},{"t":0.77222,"lat":44.2512,"lon":-28.0085,"largura_km":194.675,"eixo_na_terra":true},{"t":0.77778,"lat":44.203,"lon":-27.8358,"largura_km":194.673,"eixo_na_terra":true},{"t":0.78333,"lat":44.1546,"lon":-27.6631,"largura_km":194.67,"eixo_na_terra":true},{"t":0.78889,"lat":44.1058,"lon":-27.4905,"largura_km":194.668,"eixo_na_terra":true},{"t":0.79444,"lat":44.0566,"lon":-27.3178,"largura_km":194.664,"eixo_na_terra":true},{"t":0.8,"lat":44.0072,"lon":-27.1452,"largura_km":194.661,"eixo_na_terra":true},{"t":0.80556,"lat":43.9574,"lon":-26.9725,"largura_km":194.657,"eixo_na_terra":true},{"t":0.81111,"lat":43.9072,"lon":-26.7999,"largura_km":194.652,"eixo_na_terra":true},{"t":0.81667,"lat":43.8568,"lon":-26.6272,"largura_km":194.647,"eixo_na_terra":true},{"t":0.82222,"lat":43.8059,"lon":-26.4545,"largura_km":194.641,"eixo_na_terra":true},{"t":0.82778,"lat":43.7548,"lon":-26.2819,"largura_km":194.635,"eixo_na_terra":true},{"t":0.83333,"lat":43.7033,"lon":-26.1092,"largura_km":194.628,"eixo_na_terra":true},{"t":0.83889,"lat":43.6515,"lon":-25.9364,"largura_km":194.621,"eixo_na_terra":true},{"t":0.84444,"lat":43.5993,"lon":-25.7637,"largura_km":194.613,"eixo_na_terra":true},{"t":0.85,"lat":43.5468,"lon":-25.5909,"largura_km":194.605,"eixo_na_terra":true},{"t":0.85556,"lat":43.494,"lon":-25.4181,"largura_km":194.596,"eixo_na_terra":true},{"t":0.86111,"lat":43.4408,"lon":-25.2453,"largura_km":194.587,"eixo_na_terra":true},{"t":0.86667,"lat":43.3873,"lon":-25.0724,"largura_km":194.577,"eixo_na_terra":true},{"t":0.87222,"lat":43.3334,"lon":-24.8995,"largura_km":194.567,"eixo_na_terra":true},{"t":0.87778,"lat":43.2792,"lon":-24.7266,"largura_km":194.556,"eixo_na_terra":true},{"t":0.88333,"lat":43.2247,"lon":-24.5536,"largura_km":194.545,"eixo_na_terra":true},{"t":0.88889,"lat":43.1698,"lon":-24.3805,"largura_km":194.533,"eixo_na_terra":true},{"t":0.89444,"lat":43.1146,"lon":-24.2074,"largura_km":194.521,"eixo_na_terra":true},{"t":0.9,"lat":43.059,"lon":-24.0343,"largura_km":194.509,"eixo_na_terra":true},{"t":0.90556,"lat":43.003,"lon":-23.861,"largura_km":194.498,"eixo_na_terra":true},{"t":0.91111,"lat":42.9467,"lon":-23.6878,"largura_km":194.485,"eixo_na_terra":true},{"t":0.91667,"lat":42.8901,"lon":-23.5144,"largura_km":194.473,"eixo_na_terra":true},{"t":0.92222,"lat":42.8331,"lon":-23.341,"largura_km":194.459,"eixo_na_terra":true},{"t":0.92778,"lat":42.7758,"lon":-23.1675,"largura_km":194.445,"eixo_na_terra":true},{"t":0.93333,"lat":42.7181,"lon":-22.9939,"largura_km":194.43,"eixo_na_terra":true},{"t":0.93889,"lat":42.66,"lon":-22.8202,"largura_km":194.415,"eixo_na_terra":true},{"t":0.94444,"lat":42.6016,"lon":-22.6465,"largura_km":194.399,"eixo_na_terra":true},{"t":0.95,"lat":42.5429,"lon":-22.4726,"largura_km":194.382,"eixo_na_terra":true},{"t":0.95556,"lat":42.4838,"lon":-22.2986,"largura_km":194.365,"eixo_na_terra":true},{"t":0.96111,"lat":42.4243,"lon":-22.1246,"largura_km":194.347,"eixo_na_terra":true},{"t":0.96667,"lat":42.3644,"lon":-21.9504,"largura_km":194.329,"eixo_na_terra":true},{"t":0.97222,"lat":42.3042,"lon":-21.7761,"largura_km":194.309,"eixo_na_terra":true},{"t":0.97778,"lat":42.2437,"lon":-21.6017,"largura_km":194.29,"eixo_na_terra":true},{"t":0.98333,"lat":42.1828,"lon":-21.4272,"largura_km":194.269,"eixo_na_terra":true},{"t":0.98889,"lat":42.1215,"lon":-21.2526,"largura_km":194.248,"eixo_na_terra":true},{"t":0.99444,"lat":42.0598,"lon":-21.0778,"largura_km":194.226,"eixo_na_terra":true},{"t":1.0,"lat":41.9978,"lon":-20.9029,"largura_km":194.203,"eixo_na_terra":true},{"t":1.00556,"lat":41.9354,"lon":-20.7279,"largura_km":194.18,"eixo_na_terra":true},{"t":1.01111,"lat":41.8726,"lon":-20.5527,"largura_km":194.156,"eixo_na_terra":true},{"t":1.01667,"lat":41.8095,"lon":-20.3773,"largura_km":194.131,"eixo_na_terra":true},{"t":1.02222,"lat":41.746,"lon":-20.2018,"largura_km":194.106,"eixo_na_terra":true},{"t":1.02778,"lat":41.6821,"lon":-20.0262,"largura_km":194.08,"eixo_na_terra":true},{"t":1.03333,"lat":41.6178,"lon":-19.8504,"largura_km":194.053,"eixo_na_terra":true},{"t":1.03889,"lat":41.5532,"lon":-19.6744,"largura_km":194.025,"eixo_na_terra":true},{"t":1.04444,"lat":41.4881,"lon":-19.4982,"largura_km":193.997,"eixo_na_terra":true},{"t":1.05,"lat":41.4227,"lon":-19.3218,"largura_km":193.967,"eixo_na_terra":true},{"t":1.05556,"lat":41.3569,"lon":-19.1453,"largura_km":193.937,"eixo_na_terra":true},{"t":1.06111,"lat":41.2907,"lon":-18.9685,"largura_km":193.907,"eixo_na_terra":true},{"t":1.06667,"lat":41.2242,"lon":-18.7916,"largura_km":193.875,"eixo_na_terra":true},{"t":1.07222,"lat":41.1572,"lon":-18.6144,"largura_km":193.842,"eixo_na_terra":true},{"t":1.07778,"lat":41.0898,"lon":-18.4371,"largura_km":193.81,"eixo_na_terra":true},{"t":1.08333,"lat":41.0221,"lon":-18.2595,"largura_km":193.777,"eixo_na_terra":true},{"t":1.08889,"lat":40.9539,"lon":-18.0817,"largura_km":193.744,"eixo_na_terra":true},{"t":1.09444,"lat":40.8854,"lon":-17.9036,"largura_km":193.709,"eixo_na_terra":true},{"t":1.1,"lat":40.8164,"lon":-17.7254,"largura_km":193.674,"eixo_na_terra":true},{"t":1.10556,"lat":40.7471,"lon":-17.5468,"largura_km":193.638,"eixo_na_terra":true},{"t":1.11111,"lat":40.6773,"lon":-17.3681,"largura_km":193.601,"eixo_na_terra":true},{"t":1.11667,"lat":40.6072,"lon":-17.189,"largura_km":193.563,"eixo_na_terra":true},{"t":1.12222,"lat":40.5366,"lon":-17.0097,"largura_km":193.525,"eixo_na_terra":true},{"t":1.12778,"lat":40.4656,"lon":-16.8301,"largura_km":193.485,"eixo_na_terra":true},{"t":1.13333,"lat":40.3942,"lon":-16.6503,"largura_km":193.444,"eixo_na_terra":true},{"t":1.13889,"lat":40.3224,"lon":-16.4701,"largura_km":193.402,"eixo_na_terra":true},{"t":1.14444,"lat":40.2501,"lon":-16.2897,"largura_km":193.36,"eixo_na_terra":true},{"t":1.15,"lat":40.1775,"lon":-16.109,"largura_km":193.316,"eixo_na_terra":true},{"t":1.15556,"lat":40.1044,"lon":-15.9279,"largura_km":193.271,"eixo_na_terra":true},{"t":1.16111,"lat":40.0308,"lon":-15.7465,"largura_km":193.226,"eixo_na_terra":true},{"t":1.16667,"lat":39.9569,"lon":-15.5648,"largura_km":193.179,"eixo_na_terra":true},{"t":1.17222,"lat":39.8825,"lon":-15.3828,"largura_km":193.131,"eixo_na_terra":true},{"t":1.17778,"lat":39.8077,"lon":-15.2004,"largura_km":193.082,"eixo_na_terra":true},{"t":1.18333,"lat":39.7324,"lon":-15.0177,"largura_km":193.032,"eixo_na_terra":true},{"t":1.18889,"lat":39.6567,"lon":-14.8346,"largura_km":192.981,"eixo_na_terra":true},{"t":1.19444,"lat":39.5806,"lon":-14.6511,"largura_km":192.928,"eixo_na_terra":true},{"t":1.2,"lat":39.504,"lon":-14.4673,"largura_km":192.875,"eixo_na_terra":true},{"t":1.20556,"lat":39.4269,"lon":-14.283,"largura_km":192.82,"eixo_na_terra":true},{"t":1.21111,"lat":39.3494,"lon":-14.0984,"largura_km":192.765,"eixo_na_terra":true},{"t":1.21667,"lat":39.2714,"lon":-13.9134,"largura_km":192.708,"eixo_na_terra":true},{"t":1.22222,"lat":39.193,"lon":-13.7279,"largura_km":192.649,"eixo_na_terra":true},{"t":1.22778,"lat":39.1141,"lon":-13.542,"largura_km":192.59,"eixo_na_terra":true},{"t":1.23333,"lat":39.0347,"lon":-13.3557,"largura_km":192.529,"eixo_na_terra":true},{"t":1.23889,"lat":38.9548,"lon":-13.1689,"largura_km":192.467,"eixo_na_terra":true},{"t":1.24444,"lat":38.8745,"lon":-12.9817,"largura_km":192.404,"eixo_na_terra":true},{"t":1.25,"lat":38.7937,"lon":-12.7939,"largura_km":192.34,"eixo_na_terra":true},{"t":1.25556,"lat":38.7124,"lon":-12.6057,"largura_km":192.274,"eixo_na_terra":true},{"t":1.26111,"lat":38.6306,"lon":-12.4171,"largura_km":192.206,"eixo_na_terra":true},{"t":1.26667,"lat":38.5483,"lon":-12.2279,"largura_km":192.138,"eixo_na_terra":true},{"t":1.27222,"lat":38.4655,"lon":-12.0381,"largura_km":192.068,"eixo_na_terra":true},{"t":1.27778,"lat":38.3822,"lon":-11.8479,"largura_km":191.996,"eixo_na_terra":true},{"t":1.28333,"lat":38.2983,"lon":-11.6571,"largura_km":191.923,"eixo_na_terra":true},{"t":1.28889,"lat":38.214,"lon":-11.4658,"largura_km":191.849,"eixo_na_terra":true},{"t":1.29444,"lat":38.1292,"lon":-11.2738,"largura_km":191.773,"eixo_na_terra":true},{"t":1.3,"lat":38.0438,"lon":-11.0813,"largura_km":191.696,"eixo_na_terra":true},{"t":1.30556,"lat":37.9579,"lon":-10.8882,"largura_km":191.617,"eixo_na_terra":true},{"t":1.31111,"lat":37.8714,"lon":-10.6945,"largura_km":191.536,"eixo_na_terra":true},{"t":1.31667,"lat":37.7844,"lon":-10.5002,"largura_km":191.455,"eixo_na_terra":true},{"t":1.32222,"lat":37.6969,"lon":-10.3052,"largura_km":191.371,"eixo_na_terra":true},{"t":1.32778,"lat":37.6088,"lon":-10.1096,"largura_km":191.287,"eixo_na_terra":true},{"t":1.33333,"lat":37.5202,"lon":-9.9133,"largura_km":191.201,"eixo_na_terra":true},{"t":1.33889,"lat":37.4309,"lon":-9.7163,"largura_km":191.113,"eixo_na_terra":true},{"t":1.34444,"lat":37.3412,"lon":-9.5186,"largura_km":191.023,"eixo_na_terra":true},{"t":1.35,"lat":37.2508,"lon":-9.3202,"largura_km":190.932,"eixo_na_terra":true},{"t":1.35556,"lat":37.1598,"lon":-9.121,"largura_km":190.839,"eixo_na_terra":true},{"t":1.36111,"lat":37.0683,"lon":-8.9211,"largura_km":190.744,"eixo_na_terra":true},{"t":1.36667,"lat":36.9762,"lon":-8.7205,"largura_km":190.647,"eixo_na_terra":true},{"t":1.37222,"lat":36.8834,"lon":-8.519,"largura_km":190.548,"eixo_na_terra":true},{"t":1.37778,"lat":36.79,"lon":-8.3167,"largura_km":190.447,"eixo_na_terra":true},{"t":1.38333,"lat":36.6961,"lon":-8.1136,"largura_km":190.344,"eixo_na_terra":true},{"t":1.38889,"lat":36.6014,"lon":-7.9096,"largura_km":190.239,"eixo_na_terra":true},{"t":1.39444,"lat":36.5062,"lon":-7.7048,"largura_km":190.132,"eixo_na_terra":true},{"t":1.4,"lat":36.4103,"lon":-7.499,"largura_km":190.022,"eixo_na_terra":true},{"t":1.40556,"lat":36.3137,"lon":-7.2924,"largura_km":189.911,"eixo_na_terra":true},{"t":1.41111,"lat":36.2165,"lon":-7.0848,"largura_km":189.797,"eixo_na_terra":true},{"t":1.41667,"lat":36.1186,"lon":-6.8762,"largura_km":189.682,"eixo_na_terra":true},{"t":1.42222,"lat":36.02,"lon":-6.6667,"largura_km":189.564,"eixo_na_terra":true},{"t":1.42778,"lat":35.9207,"lon":-6.4561,"largura_km":189.443,"eixo_na_terra":true},{"t":1.43333,"lat":35.8208,"lon":-6.2445,"largura_km":189.32,"eixo_na_terra":true},{"t":1.43889,"lat":35.7201,"lon":-6.0319,"largura_km":189.195,"eixo_na_terra":true},{"t":1.44444,"lat":35.6186,"lon":-5.8181,"largura_km":189.067,"eixo_na_terra":true},{"t":1.45,"lat":35.5165,"lon":-5.6033,"largura_km":188.937,"eixo_na_terra":true},{"t":1.45556,"lat":35.4136,"lon":-5.3873,"largura_km":188.804,"eixo_na_terra":true},{"t":1.46111,"lat":35.3099,"lon":-5.1701,"largura_km":188.668,"eixo_na_terra":true},{"t":1.46667,"lat":35.2055,"lon":-4.9517,"largura_km":188.53,"eixo_na_terra":true},{"t":1.47222,"lat":35.1003,"lon":-4.732,"largura_km":188.389,"eixo_na_terra":true},{"t":1.47778,"lat":34.9942,"lon":-4.5111,"largura_km":188.245,"eixo_na_terra":true},{"t":1.48333,"lat":34.8874,"lon":-4.2889,"largura_km":188.098,"eixo_na_terra":true},{"t":1.48889,"lat":34.7797,"lon":-4.0654,"largura_km":187.949,"eixo_na_terra":true},{"t":1.49444,"lat":34.6712,"lon":-3.8404,"largura_km":187.796,"eixo_na_terra":true},{"t":1.5,"lat":34.5619,"lon":-3.6141,"largura_km":187.64,"eixo_na_terra":true},{"t":1.50556,"lat":34.4517,"lon":-3.3862,"largura_km":187.481,"eixo_na_terra":true},{"t":1.51111,"lat":34.3405,"lon":-3.1569,"largura_km":187.319,"eixo_na_terra":true},{"t":1.51667,"lat":34.2285,"lon":-2.9261,"largura_km":187.153,"eixo_na_terra":true},{"t":1.52222,"lat":34.1156,"lon":-2.6936,"largura_km":186.984,"eixo_na_terra":true},{"t":1.52778,"lat":34.0017,"lon":-2.4596,"largura_km":186.812,"eixo_na_terra":true},{"t":1.53333,"lat":33.8868,"lon":-2.2238,"largura_km":186.636,"eixo_na_terra":true},{"t":1.53889,"lat":33.771,"lon":-1.9864,"largura_km":186.457,"eixo_na_terra":true},{"t":1.54444,"lat":33.6541,"lon":-1.7471,"largura_km":186.273,"eixo_na_terra":true},{"t":1.55,"lat":33.5363,"lon":-1.506,"largura_km":186.086,"eixo_na_terra":true},{"t":1.55556,"lat":33.4174,"lon":-1.2631,"largura_km":185.895,"eixo_na_terra":true},{"t":1.56111,"lat":33.2974,"lon":-1.0181,"largura_km":185.7,"eixo_na_terra":true},{"t":1.56667,"lat":33.1763,"lon":-0.7712,"largura_km":185.501,"eixo_na_terra":true},{"t":1.57222,"lat":33.0541,"lon":-0.5222,"largura_km":185.297,"eixo_na_terra":true},{"t":1.57778,"lat":32.9307,"lon":-0.2711,"largura_km":185.09,"eixo_na_terra":true},{"t":1.58333,"lat":32.8062,"lon":-0.0178,"largura_km":184.877,"eixo_na_terra":true},{"t":1.58889,"lat":32.6805,"lon":0.2379,"largura_km":184.66,"eixo_na_terra":true},{"t":1.59444,"lat":32.5535,"lon":0.4958,"largura_km":184.439,"eixo_na_terra":true},{"t":1.6,"lat":32.4253,"lon":0.7562,"largura_km":184.212,"eixo_na_terra":true},{"t":1.60556,"lat":32.2957,"lon":1.0192,"largura_km":183.981,"eixo_na_terra":true},{"t":1.61111,"lat":32.1648,"lon":1.2847,"largura_km":183.744,"eixo_na_terra":true},{"t":1.61667,"lat":32.0326,"lon":1.5529,"largura_km":183.502,"eixo_na_terra":true},{"t":1.62222,"lat":31.8989,"lon":1.824,"largura_km":183.254,"eixo_na_terra":true},{"t":1.62778,"lat":31.7637,"lon":2.0979,"largura_km":183.001,"eixo_na_terra":true},{"t":1.63333,"lat":31.6271,"lon":2.3749,"largura_km":182.742,"eixo_na_terra":true},{"t":1.63889,"lat":31.4889,"lon":2.6549,"largura_km":182.476,"eixo_na_terra":true},{"t":1.64444,"lat":31.3491,"lon":2.9383,"largura_km":182.205,"eixo_na_terra":true},{"t":1.65,"lat":31.2077,"lon":3.225,"largura_km":181.927,"eixo_na_terra":true},{"t":1.65556,"lat":31.0645,"lon":3.5152,"largura_km":181.642,"eixo_na_terra":true},{"t":1.66111,"lat":30.9196,"lon":3.8091,"largura_km":181.351,"eixo_na_terra":true},{"t":1.66667,"lat":30.7728,"lon":4.1067,"largura_km":181.052,"eixo_na_terra":true},{"t":1.67222,"lat":30.6242,"lon":4.4084,"largura_km":180.745,"eixo_na_terra":true},{"t":1.67778,"lat":30.4735,"lon":4.7142,"largura_km":180.431,"eixo_na_terra":true}]},"features":[{"type":"Feature","properties":{},"geometry":{"type":"Polygon","coordinates":[[[-1.8901584825111968,34.700830694572026],[-0.6895616676808913,34.10785287991665],[0.8156304318883656,33.36016537474081],[5.925265332843537,30.809872475861074],[3.5454851166851142,30.114824190524292],[-0.3177266252916411,31.996238738678855],[-2.297464744350492,32.95611270040754],[-3.240902147834788,33.41092504472917],[-4.157919329555227,33.85080488385131],[-5.051298866245645,34.27686514112999],[-5.923443240215846,34.69006444478852],[-6.776444074387285,35.091234867596384],[-7.612135965223501,35.48110353743015],[-8.432138899525683,35.86030969816691],[-9.237892077103737,36.22941834052954],[-10.030681172655875,36.58893121059801],[-10.81166052532285,36.93929578798583],[-11.564532201684358,37.27326183535028],[-12.324990237113013,37.606593173275044],[-13.26303045147543,38.0119485410773],[-14.004381632332354,38.3275388727573],[-14.738426066978207,38.63568376445204],[-15.465809513704471,38.93661848937972],[-16.18712729725104,39.2305570221473],[-16.902929698745083,39.517694258568014],[-17.61372661526633,39.79820793922585],[-18.319991605875657,40.07226032379036],[-19.022165419548628,40.339999654510635],[-19.703418388019116,40.595142686481275],[-20.39860784672203,40.850735124630944],[-21.09085580549791,41.10038646997301],[-21.78049945093224,41.344200426329316],[-22.46785532808181,41.58227176238802],[-23.153221015598263,41.81468701660943],[-23.83687662154773,42.04152512796273],[-24.348655455527876,42.20803721682373],[-24.859726965203066,42.37148064812505],[-25.35256729726845,42.526368566189284],[-25.86249680113633,42.68381264105192],[-26.37200891491483,42.838260400932924],[-26.881193048328186,42.989732548797],[-27.39013501292726,43.138248199549245],[-27.89891720228323,43.283824956164175],[-28.40761876018567,43.426478980594815],[-28.916315737907667,43.56622505987854],[-29.425081241501914,43.703076667815665],[-29.91590071168565,43.83232963430065],[-30.424974594995064,43.96349111051048],[-30.934318902907307,44.091791341188355],[-31.443996313637484,44.21723910478682],[-31.954067173651993,44.33984211858718],[-32.46458960121211,44.45960707995882],[-32.975619584707914,44.57653970498581],[-33.48721107626116,44.690644764630434],[-33.99941608104041,44.80192611858769],[-34.49370448371468,44.90649464303167],[-35.00724334375903,45.01220254225952],[-35.52154022884008,45.11509339568419],[-36.036640215532344,45.215167727604076],[-36.552586827976114,45.31242528967728],[-37.06942210918308,45.406865083444494],[-37.58718669040013,45.49848538127312],[-38.10591985879006,45.587283745789414],[-38.60663207590096,45.670153851171115],[-39.127372569292845,45.7533669700637],[-39.64919174545827,45.83374706405915],[-40.172124195752104,45.91128903245496],[-39.61580284394989,47.61289666426401],[-38.8867894046069,47.50430415362361],[-38.523155901715086,47.447995960179526],[-37.97877106115121,47.3610241121671],[-37.235428767654184,47.23708985369123],[-36.87431459885522,47.17472245935611],[-36.33362318356944,47.078674703797084],[-35.973799509025554,47.01298001867557],[-35.43499156984299,46.9119459922072],[-35.07638754234259,46.84292969321499],[-34.539353006768806,46.73691614074732],[-34.181892624751555,46.6645815157658],[-33.64651341103874,46.55359150443232],[-32.915198634054434,46.39684624308112],[-32.204410812145454,46.2388113202229],[-31.849558449112294,46.15780036653081],[-31.317912949708926,46.03378920630107],[-30.963881000729884,45.9494500683166],[-30.433388678371045,45.82043996042423],[-30.080072178230864,45.73276299081602],[-29.550569997096176,45.598737002193246],[-29.197856407404856,45.50770921847677],[-28.669169568586625,45.368645239956024],[-27.946528596085955,45.17351569222227],[-27.594617826164267,45.07636819447319],[-27.066957318738787,44.928096263091504],[-26.187880413754698,44.674139190054426],[-25.660516561900636,44.51763668155583],[-24.957283475000963,44.30411327759906],[-24.253760827065094,44.084999467591054],[-23.549722123765264,43.860242333832424],[-22.827133049948145,43.623933420144425],[-22.121363512762855,43.38761989291912],[-21.414308784838,43.14546603179173],[-20.70568122814757,42.897391903718095],[-20.172995049302642,42.7073984906266],[-19.460866831159535,42.448746771113015],[-18.74627536603424,42.183911044115995],[-18.028855612398843,41.91277719855209],[-17.29082984792899,41.628477669973634],[-16.56655715023234,41.34426985392629],[-15.838193305428462,41.05334925819315],[-15.105255993414971,40.75555025357612],[-14.367225710674745,40.45069095003053],[-13.623541638385973,40.13857143149195],[-12.873596876964939,39.818971726234885],[-12.116732925535274,39.4916494624895],[-11.352233256388558,39.156337147337304],[-10.57931579810392,38.81273899193894],[-9.77968401285483,38.452620444953304],[-8.987190994227802,38.09131932908873],[-8.183429713149337,37.72063001633049],[-7.367247854048969,37.34009815204946],[-6.537362592942998,36.949213873614035],[-5.692338584992086,36.547402644087974],[-4.830560920165084,36.134014014310374],[-3.9502015715166863,35.708307709721595],[-3.049177320869461,35.269436218515956],[-1.8901584825111968,34.700830694572026]]]}}]}