{"type":"FeatureCollection","features":[{"type":"Feature","properties":{"t_inicio":0.39444444444442883,"t_fim":1.6777777777777576},"geometry":{"type":"LineString","coordinates":[[-39.899024110519576,46.7612512194386],[-39.720660818484674,46.73517763144908],[-39.542434195200485,46.70877842626694],[-39.36434306049017,46.68205384109155],[-39.18638622049215,46.65500410521207],[-39.00856246739684,46.62762943995398],[-38.83087057918286,46.59993005862416],[-38.65330931935293,46.57190616645402],[-38.47587743666901,46.54355796054065],[-38.298573664887016,46.51488562978649],[-38.12139672249043,46.48588935483686],[-37.94434531242331,46.456569308015716],[-37.76741812182226,46.4269256532596],[-37.59061382174727,46.39695854604952],[-37.41393106691143,46.36666813334117],[-37.23736849540941,46.33605455349291],[-37.060924728444576,46.30511793619206],[-36.884598370054476,46.273858402379034],[-36.70838800683495,46.24227606416956],[-36.53229220766235,46.21037102477492],[-36.356309523414126,46.17814337842004],[-36.180438486687365,46.14559321025948],[-36.00467761151532,46.11272059629152],[-35.82902539308179,46.07952560326992],[-35.6534803074332,46.04600828861358],[-35.47804081118838,46.01216870031408],[-35.30270534124571,45.97800687684093],[-35.127472314487676,45.94352284704453],[-34.95234012748247,45.90871663005692],[-34.77730715618313,45.87358823519021],[-34.60237175562307,45.83813766183265],[-34.427532259608796,45.8023648993421],[-34.25278698040921,45.76626992693748],[-34.0781342084415,45.729852713587185],[-33.903572211953104,45.6931132178956],[-33.72909923670045,45.65605138798652],[-33.55471350562337,45.61866716138417],[-33.38041321851546,45.5809604648916],[-33.20619655169054,45.54293121446634],[-33.03206165764419,45.50457931509322],[-32.8580066647113,45.46590466065438],[-32.68402967671847,45.426907133796576],[-32.51012877263162,45.38758660579526],[-32.336302006198565,45.34794293641602],[-32.16254740558628,45.30797597377256],[-31.988862973012715,45.267685554181966],[-31.81524668437291,45.227071502016635],[-31.64169648885931,45.18613362955278],[-31.46821030857592,45.144871736815894],[-31.294786038146498,45.10328561142269],[-31.12142154431575,45.0613750284196],[-30.948114665544352,45.01913975011764],[-30.774863211596767,44.97657952592392],[-30.60166496312189,44.93369409216909],[-30.428517671226473,44.890483171931315],[-30.25541905704077,44.84694647485615],[-30.08236681127633,44.80308369697253],[-29.909358593775693,44.7588945205048],[-29.73639203305362,44.714378613680395],[-29.563464725829647,44.6695356305333],[-29.390574236551885,44.62436521070341],[-29.217718096911028,44.57886697923092],[-29.04489380534551,44.533040546346605],[-28.872098826536273,44.486885507257185],[-28.699330590891748,44.44040144192581],[-28.526586494022013,44.39358791484776],[-28.35386389620237,44.346444474821],[-28.181160121825712,44.29897065471154],[-28.008472458843357,44.25116597121346],[-27.835798158193967,44.20302992460341],[-27.663134433220193,44.15456199848966],[-27.490478459072904,44.10576165955516],[-27.31782737210196,44.0566283572948],[-27.145178269233952,44.007161523746575],[-26.972528207335927,43.957360573216434],[-26.79987420256458,43.90722490199686],[-26.62721322970097,43.856753888078565],[-26.45454222146992,43.805946890855665],[-26.281858067843615,43.754803250823805],[-26.109157615329025,43.703322289271],[-25.93643766623873,43.65150330796117],[-25.763694977944198,43.599345588810195],[-25.590926262111594,43.54684839355391],[-25.41812818391884,43.494010963408236],[-25.24529736125413,43.44083251872108],[-25.072430363894455,43.387312258615474],[-24.899523712664177,43.33344936062428],[-24.726573878572623,43.27924298031549],[-24.553577281930274,43.22469225090858],[-24.380530291442625,43.16979628288102],[-24.20742922328094,43.11455416356503],[-24.03427034012975,43.05896495673406],[-23.861049850209383,43.0030277021789],[-23.68776390627346,42.94674141527292],[-23.514408604580296,42.89010508652609],[-23.340979983837116,42.83311768112751],[-23.16747402411673,42.77577813847619],[-22.993886645744965,42.71808537169944],[-22.820213708158803,42.660038267158626],[-22.646451008733123,42.60163568394196],[-22.47259428157639,42.5428764533438],[-22.298639196292925,42.483759378329914],[-22.124581356710962,42.42428323298854],[-21.950416299576432,42.36444676196651],[-21.776139493209143,42.30424867989004],[-21.60174633612243,42.24368767076969],[-21.42723215560295,42.182762387388934],[-21.252592206250768,42.12147145067574],[-21.077821668477355,42.05981344905673],[-20.90291564696048,41.99778693779308],[-20.72786916905443,41.93539043829779],[-20.552677183153747,41.87262243743348],[-20.37733455700908,41.80948138679016],[-20.20183607599313,41.745965701942104],[-20.026176441315272,41.68207376168333],[-19.850350268182467,41.61780390724066],[-19.674352083905177,41.553154441463796],[-19.49817632594548,41.488123627991286],[-19.32181733990572,41.4227096903919],[-19.14526937745555,41.356910811280066],[-18.968526594194486,41.29072513140477],[-18.7915830474484,41.22415074871074],[-18.61443269399649,41.15718571737098],[-18.437069387726666,41.089828046789336],[-18.259486877216716,41.022075700572415],[-18.081678803237594,40.95392659546921],[-17.903638696176728,40.88537860027734],[-17.72535997337755,40.8164295347149],[-17.546835936392114,40.747077168256006],[-17.368059768143524,40.67731921892924],[-17.189024529994185,40.60715335207695],[-17.009723158716582,40.53657717907419],[-16.830148463361866,40.46558825600571],[-16.6502931220229,40.394184082298935],[-16.470149678486905,40.32236209931158],[-16.289710538773022,40.250119688871706],[-16.10896796755037,40.177454171768396],[-15.92791408443128,40.104362806190935],[-15.746540860134473,40.030842786114356],[-15.564840112512542,39.9568912396291],[-15.382803502438009,39.882505227212306],[-15.200422529541697,39.807681739938246],[-15.017688527796821,39.73241769762543],[-14.83459266094252,39.65670994691721],[-14.651125917738739,39.58055525929359],[-14.467279107046096,39.50395032901027],[-14.283042852721394,39.426891770962634],[-14.098407588321834,39.34937611847066],[-13.913363551607944,39.27139982098122],[-13.727900778836613,39.19295924168422],[-13.54200909883403,39.11405065503829],[-13.355678126838484,39.03467024420208],[-13.168897258101481,38.95481409836644],[-12.981655661236402,38.87447820998285],[-12.793942271301887,38.79365847188323],[-12.605745782607073,38.71235067428585],[-12.417054641225434,38.63055050168147],[-12.227857037201716,38.548253529594284],[-12.038140896438051,38.46545522121103],[-11.847893872241798,38.38215092387195],[-11.657103336518162,38.29833586541631],[-11.465756370589816,38.21400515037523],[-11.273839755623328,38.12915375600397],[-11.081339962642318,38.04377652814511],[-10.888243142105068,37.95786817691393],[-10.694535113023818,37.87142327219629],[-10.500201351600197,37.784436238949425],[-10.305226979351033,37.69690135229416],[-10.109596750696312,37.6088127323881],[-9.913295039979033,37.52016433906685],[-9.716305827885463,37.43094996624089],[-9.518612687231382,37.34116323603392],[-9.320198768078058,37.25079759264812],[-9.121046782139445,37.15984629594071],[-8.921138986437938,37.06830241469452],[-8.72045716616583,36.976158819565335],[-8.518982616703369,36.88340817568593],[-8.316696124743316,36.7900429349067],[-8.11357794846694,36.69605532765066],[-7.909607796712919,36.601437354359064],[-7.704764807075833,36.50618077650199],[-7.499027522866754,36.410277107127],[-7.292373868863336,36.31371760091585],[-7.084781125769979,36.2164932437181],[-6.876225903304743,36.11859474152724],[-6.666684111821155,36.02001250886265],[-6.4561309323667615,35.92073665651767],[-6.24454078507199,35.820756978631046],[-6.0318872957547,35.720062939035365],[-5.818143260616125,35.61864365683243],[-5.603280608892874,35.51648789114114],[-5.387270363320027,35.41358402495944],[-5.170082598245358,35.30992004807606],[-4.9516863952239305,35.205483538963016],[-4.732049795904004,35.100261645573354],[-4.511139752001554,34.99424106496189],[-4.28892207214011,34.88740802164006],[-4.065361365312754,34.77974824456612],[-3.8404209807017082,34.67124694266534],[-3.614062943564022,34.56188877876262],[-3.3862478868661015,34.45165784179994],[-3.1569349783171106,34.34053761719886],[-2.9260818424183412,34.228510955213565],[-2.693644477107,34.11556003710597],[-2.4595771645292075,34.00166633895603],[-2.2238323754299927,33.886810592901995],[-1.9863606665948055,33.77097274558375],[-1.7471105707150514,33.65413191353815],[-1.506028477984188,33.53626633526839],[-1.2630585086536712,33.41735331967871],[-1.0181423756916672,33.29736919053153],[-0.7712192365902979,33.1762892265451],[-0.5222255332560053,33.054087596705266],[-0.2710948187925908,32.93073729031557],[-0.01775756984244481,32.806210041251965],[0.23785901701080547,32.68047624582385],[0.4958312464631547,32.553504873568414],[0.7562391652326141,32.42526337022009],[1.019166824468357,32.29571755199851],[1.2847025662557314,32.16483149024538],[1.552939336974248,32.032567385310045],[1.8239750306468352,31.898885428431814],[2.0979128658605077,31.76374365019141],[2.3748618003556885,31.62709775389811],[2.6549369879837172,31.488900932039435],[2.9382602834428724,31.349103663638196],[3.224960801037355,31.207653490029795],[3.5151755346908544,31.06449476618008],[3.809050047619735,30.919568384198907],[4.106739241467153,30.77281146514909],[4.408408216371072,30.624157014587247],[4.714233235449683,30.47353353647493]]}}]}