{"type":"FeatureCollection","features":[{"type":"Feature","properties":{"magnitude":0.9,"percentagem":90.0,"territorio":"continente"},"geometry":{"type":"LineString","coordinates":[[-5.540000000000106,40.701411171246455],[-5.580000000000105,40.71985115325421],[-5.580322994511987,40.7199999999999],[-5.620000000000104,40.73828465501023],[-5.660000000000102,40.75670523682767],[-5.667157544244571,40.7599999999999],[-5.700000000000102,40.77511816078379],[-5.7400000000001015,40.79351922435009],[-5.754094660290258,40.7999999999999],[-5.780000000000101,40.811911441873455],[-5.8200000000001,40.83029286953618],[-5.84113537865602,40.8399999999999],[-5.860000000000099,40.84866425235384],[-5.900000000000098,40.86702592687319],[-5.928280742511411,40.879999999999896],[-5.940000000000097,40.88537634707581],[-5.980000000000096,40.9037181516285],[-6.015531802264801,40.919999999999895],[-6.0200000000000955,40.922047481673935],[-6.060000000000095,40.94036929985733],[-6.100000000000093,40.95867787544659],[-6.102889694681405,40.95999999999989],[-6.140000000000093,40.976979128410264],[-6.180000000000092,40.99526755138279],[-6.190355555392051,40.99999999999989],[-6.220000000000091,41.01354739494074],[-6.26000000000009,41.03181554993933],[-6.277930346238059,41.03999999999989],[-6.3000000000000895,41.05007385791246],[-6.340000000000089,41.06832163001391],[-6.365615148366979,41.07999999999989],[-6.380000000000088,41.086558276606624],[-6.420000000000087,41.104785551325634],[-6.453411050572259,41.11999999999989],[-6.460000000000086,41.123000411129226],[-6.500000000000085,41.14120707442215],[-6.540000000000084,41.159400230632095],[-6.541319202341587,41.15999999999989],[-6.580000000000084,41.17758596068681],[-6.620000000000083,41.19575834265868],[-6.629340946601676,41.19999999999989],[-6.660000000000082,41.21392197234552],[-6.700000000000081,41.232073467131514],[-6.717477147872648,41.239999999999895],[-6.74000000000008,41.25021487247377],[-6.780000000000079,41.268345367580515],[-6.805728927452172,41.27999999999989],[-6.820000000000078,41.28646442500332],[-6.860000000000078,41.30457380839569],[-6.894097414714543,41.31999999999989],[-6.900000000000077,41.32267039472902],[-6.940000000000076,41.34075855483365],[-6.980000000000075,41.35883294914236],[-6.982583884701234,41.359999999999886],[-7.020000000000074,41.37689937302423],[-7.060000000000073,41.39495238482431],[-7.071189693608639,41.399999999999885],[-7.1000000000000725,41.41299602997699],[-7.140000000000072,41.431027548838635],[-7.1599156970365225,41.439999999999884],[-7.180000000000071,41.44904829358754],[-7.22000000000007,41.46705820955493],[-7.248763058730285,41.47999999999988],[-7.260000000000069,41.48505593264388],[-7.300000000000069,41.50304413623853],[-7.337732950967822,41.51999999999988],[-7.340000000000067,41.52101871683251],[-7.3800000000000665,41.538985099056745],[-7.420000000000066,41.55693746278808],[-7.426827009017084,41.55999999999988],[-7.460000000000065,41.57488086908491],[-7.500000000000064,41.592811255963795],[-7.516046167512433,41.59999999999988],[-7.540000000000063,41.61073121831221],[-7.580000000000062,41.62863952052978],[-7.605391480922642,41.63999999999988],[-7.620000000000061,41.64653591964765],[-7.66000000000006,41.66442202988718],[-7.6948641578724235,41.67999999999988],[-7.70000000000006,41.68229474692572],[-7.740000000000059,41.70015855836593],[-7.780000000000058,41.71800815086667],[-7.784465762653759,41.71999999999987],[-7.820000000000057,41.73584888123025],[-7.860000000000056,41.753676022602995],[-7.874197620289523,41.75999999999988],[-7.900000000000055,41.771492774684155],[-7.9400000000000555,41.78929735933121],[-7.964060582438192,41.799999999999876],[-7.980000000000054,41.80709001587682],[-8.020000000000053,41.82487193870669],[-8.05405589575283,41.839999999999876],[-8.060000000000052,41.84264038290792],[-8.100000000000051,41.8603995393384],[-8.14000000000005,41.87814428063772],[-8.144185188303927,41.879999999999875],[-8.18000000000005,41.89587994079379],[-8.220000000000049,41.9136017666063],[-8.234449931479803,41.919999999999874],[-8.260000000000048,41.93131292360402],[-8.300000000000047,41.949011730603935],[-8.324850888929182,41.95999999999987],[-8.340000000000046,41.96669826926875],[-8.380000000000045,41.98437395464974],[-8.415389347095198,41.99999999999987],[-8.420000000000044,42.00203576026097],[-8.460000000000043,42.01968822173892],[-8.500000000000043,42.03732607626073],[-8.506067211018113,42.039999999999864],[-8.540000000000042,42.05495431584758],[-8.580000000000041,42.07256880070323],[-8.596885699369867,42.07999999999987],[-8.62000000000004,42.09017202193718],[-8.66000000000004,42.107763036129896],[-8.687845679480006,42.11999999999987],[-8.700000000000038,42.125341125958876],[-8.740000000000038,42.14290856902364],[-8.77894847942761,42.15999999999987],[-8.780000000000037,42.16046141485799],[-8.820000000000036,42.17800518686419],[-8.860000000000035,42.195534164562076],[-8.870196579387187,42.19999999999987],[-8.900000000000034,42.213052678132144],[-8.940000000000033,42.230557842410505],[-8.96159037821013,42.23999999999987],[-8.980000000000032,42.24805083231302],[-9.020000000000032,42.26553208455739],[-9.053131121929049,42.279999999999866],[-9.06000000000003,42.282999439901204],[-9.10000000000003,42.30045668204036],[-9.140000000000029,42.31789898924395],[-9.144820766031962,42.319999999999865],[-9.180000000000028,42.33533142691209],[-9.220000000000027,42.35274958433292],[-9.236661004397309,42.359999999999864],[-9.260000000000026,42.370156112244096],[-9.300000000000026,42.38755002314794],[-9.328652418665271,42.399999999999864],[-9.340000000000025,42.40493053213021],[-9.380000000000024,42.4223001003343],[-9.420000000000025,42.43965459573994],[-9.420796518768904,42.43999999999986],[-9.460000000000022,42.45699961156534],[-9.500000000000021,42.47432962731818],[-9.513096153640596,42.47999999999986],[-9.54000000000002,42.491648353545656],[-9.58000000000002,42.508953794819575],[-9.605551305223274,42.51999999999986],[-9.620000000000019,42.526246124014364],[-9.660000000000018,42.5435268965424],[-9.698163415290347,42.55999999999986],[-9.700000000000017,42.56079272174795],[-9.740000000000016,42.57804873182445],[-9.780000000000014,42.59528949356096],[-9.790935495634432,42.59999999999986],[-9.820000000000014,42.61251910104607],[-9.860000000000014,42.629734966954615],[-9.883867803968572,42.63999999999986],[-9.900000000000013,42.64693780563279],[-9.940000000000012,42.66412868338767],[-9.976961562343641,42.67999999999986],[-9.980000000000011,42.681304648057974],[-10.02000000000001,42.69847044590178],[-10.06000000000001,42.71562086404391],[-10.070219815329278,42.71999999999986],[-10.100000000000009,42.73276005859091],[-10.140000000000008,42.74988526625449],[-10.163643065694991,42.759999999999856],[-10.180000000000007,42.766997326603644],[-10.220000000000006,42.784097233427715],[-10.257232376931134,42.799999999999855],[-10.260000000000005,42.80118205614542],[-10.300000000000004,42.8182565723438],[-10.340000000000003,42.83531558037081],[-10.350991055710622,42.839999999999854],[-10.380000000000003,42.85236309084362],[-10.420000000000002,42.86939658051895],[-10.444919412914892,42.87999999999985],[-10.46,42.88641659783073],[-10.5,42.90342448077985]]}},{"type":"Feature","properties":{"magnitude":0.95,"percentagem":95.0,"territorio":"continente"},"geometry":{"type":"LineString","coordinates":[[-5.540000000000106,38.568819602860735],[-5.580000000000105,38.58762920535089],[-5.606321102725428,38.599999999999945],[-5.620000000000104,38.60642912063169],[-5.660000000000103,38.62522133047223],[-5.691474811266854,38.639999999999944],[-5.700000000000102,38.644002972700825],[-5.7400000000001015,38.66277766207418],[-5.77671511802124,38.67999999999994],[-5.780000000000101,38.68154089422421],[-5.8200000000001,38.70029793562314],[-5.860000000000099,38.71904294366686],[-5.86204294761513,38.71999999999994],[-5.900000000000098,38.737781887168666],[-5.940000000000097,38.75650906436574],[-5.947459252600856,38.75999999999994],[-5.980000000000096,38.77522925335279],[-6.020000000000096,38.79393847297618],[-6.032965014170513,38.79999999999994],[-6.060000000000095,38.81263977141933],[-6.100000000000094,38.8313309070685],[-6.118561190389791,38.83999999999995],[-6.140000000000093,38.850013179223254],[-6.180000000000092,38.86868610482871],[-6.204248745785101,38.87999999999994],[-6.220000000000091,38.88734921523985],[-6.26000000000009,38.90600380506784],[-6.290028651412969,38.91999999999994],[-6.3000000000000895,38.924647618573815],[-6.340000000000089,38.94328374723095],[-6.375901884930625,38.95999999999994],[-6.380000000000088,38.961908128968396],[-6.420000000000087,38.98052567140624],[-6.460000000000086,38.99913077617003],[-6.4618694497603775,38.999999999999936],[-6.500000000000085,39.01772931833401],[-6.5400000000000835,39.03631565761834],[-6.547932379205973,39.039999999999935],[-6.580000000000084,39.05489442941559],[-6.620000000000083,39.07346187903508],[-6.634091639667385,39.079999999999934],[-6.660000000000082,39.09202074672222],[-6.70000000000008,39.11056918285188],[-6.720348236788578,39.11999999999993],[-6.74000000000008,39.12910801300379],[-6.780000000000079,39.14763731218367],[-6.8067031831931155,39.15999999999993],[-6.820000000000078,39.16615597169754],[-6.860000000000078,39.18466601083698],[-6.893157498559863,39.19999999999993],[-6.900000000000077,39.20316436693677],[-6.940000000000076,39.221655023318974],[-6.979712209698392,39.23999999999993],[-6.980000000000075,39.24013294355932],[-7.020000000000074,39.2586040948457],[-7.060000000000073,39.27706241272358],[-7.066368526820665,39.27999999999993],[-7.1000000000000725,39.295512971350654],[-7.140000000000072,39.313951608837186],[-7.153127357354283,39.31999999999993],[-7.180000000000071,39.3323813994931],[-7.22000000000007,39.35080023519238],[-7.2399897436575795,39.35999999999993],[-7.260000000000069,39.369209126666476],[-7.300000000000068,39.38760803957566],[-7.326956742823468,39.39999999999993],[-7.340000000000067,39.40599590100651],[-7.3800000000000665,39.42437477052005],[-7.414029419485888,39.43999999999993],[-7.420000000000066,39.44274147139942],[-7.460000000000065,39.46110017731337],[-7.500000000000064,39.479445768004],[-7.501208895135532,39.479999999999926],[-7.540000000000063,39.49778401000612],[-7.580000000000061,39.5161092649129],[-7.588496468908248,39.519999999999925],[-7.620000000000061,39.53442601941953],[-7.660000000000061,39.552730819336986],[-7.6758930010253525,39.559999999999924],[-7.70000000000006,39.57102595715334],[-7.740000000000059,39.589310183291886],[-7.763399588180276,39.59999999999992],[-7.780000000000058,39.60758357559369],[-7.820000000000057,39.625847109583674],[-7.85101733504154,39.63999999999992],[-7.860000000000056,39.64409862792067],[-7.900000000000055,39.66234135181644],[-7.938747354338657,39.67999999999992],[-7.940000000000055,39.680570868116014],[-7.980000000000054,39.69879266440001],[-8.020000000000053,39.717001017500046],[-8.026591139874284,39.71999999999992],[-8.060000000000052,39.735200802557266],[-8.100000000000051,39.753388059770444],[-8.114549561809389,39.75999999999992],[-8.14000000000005,39.77156552233167],[-8.18000000000005,39.78973156720229],[-8.202623691015791,39.79999999999992],[-8.220000000000049,39.807886580594484],[-8.260000000000048,39.82603129710836],[-8.29081467453845,39.83999999999992],[-8.300000000000047,39.844163735052],[-8.340000000000046,39.862287007640475],[-8.379123667947857,39.87999999999992],[-8.380000000000045,39.88039674425262],[-8.420000000000044,39.89849845779639],[-8.460000000000043,39.91658645813689],[-8.467552366156315,39.919999999999916],[-8.500000000000043,39.93466540742682],[-8.540000000000042,39.952731683929606],[-8.556101522781528,39.959999999999916],[-8.580000000000041,39.9707876172423],[-8.62000000000004,39.98883205590075],[-8.644772261463142,39.999999999999915],[-8.66000000000004,40.00686484882008],[-8.700000000000038,40.0248873360898],[-8.733565774104232,40.039999999999914],[-8.740000000000038,40.04289686461068],[-8.780000000000037,40.06089728741318],[-8.820000000000036,40.07888378203369],[-8.822483464396797,40.07999999999991],[-8.860000000000035,40.09686167367086],[-8.900000000000034,40.11482594198841],[-8.911526905375853,40.11999999999991],[-8.940000000000033,40.1327802595529],[-8.980000000000032,40.1507221896413],[-9.000696809043017,40.15999999999991],[-9.020000000000032,40.16865281064567],[-9.06000000000003,40.18657229105699],[-9.089994405353384,40.19999999999991],[-9.10000000000003,40.20447909343821],[-9.140000000000029,40.22237601320626],[-9.17942093369944,40.23999999999991],[-9.180000000000028,40.24025887532831],[-9.220000000000027,40.25813312397209],[-9.260000000000026,40.275993185143626],[-9.268978503959477,40.27999999999991],[-9.300000000000026,40.29384339215572],[-9.340000000000025,40.31168062413009],[-9.35866763180032,40.31999999999991],[-9.380000000000024,40.329506587482555],[-9.420000000000023,40.34732088097721],[-9.448489533042743,40.35999999999991],[-9.460000000000022,40.36512248060797],[-9.500000000000021,40.382913726837096],[-9.538445487374839,40.399999999999906],[-9.54000000000002,40.40069084312294],[-9.58000000000002,40.4184589338008],[-9.620000000000019,40.43621263108627],[-9.6285377041673,40.439999999999905],[-9.660000000000018,40.45395627490388],[-9.700000000000017,40.471686661740314],[-9.71876679673153,40.479999999999905],[-9.740000000000016,40.48940552413177],[-9.780000000000015,40.50711249346738],[-9.809133913365702,40.519999999999904],[-9.820000000000014,40.52480645642511],[-9.860000000000014,40.54248990171914],[-9.899640375967186,40.5599999999999],[-9.900000000000013,40.56015884768507],[-9.940000000000012,40.577818662910815],[-9.980000000000011,40.59546388309005],[-9.990288749117088,40.5999999999999],[-10.02000000000001,40.61309855442626],[-10.06000000000001,40.63071999290476],[-10.081079261932864,40.6399999999999],[-10.100000000000009,40.64832935462288],[-10.140000000000008,40.66592690664142],[-10.172013227623776,40.6799999999999],[-10.180000000000007,40.683510842836455],[-10.220000000000006,40.701084404160255],[-10.260000000000005,40.71864321850593],[-10.263092411897853,40.7199999999999],[-10.300000000000004,40.7361922663075],[-10.340000000000003,40.75372694091166],[-10.354318883449762,40.7599999999999],[-10.380000000000003,40.771250274920014],[-10.420000000000002,40.788760706839895],[-10.445693022347248,40.7999999999999],[-10.46,40.8062582128297],[-10.5,40.82374429965677]]}},{"type":"Feature","properties":{"magnitude":0.99,"percentagem":99.0,"territorio":"continente"},"geometry":{"type":"LineString","coordinates":[[-10.5,36.40094584381663],[-10.497898268740386,36.39999999999999],[-10.46,36.382944200764804],[-10.420000000000003,36.364930465573],[-10.409056802442814,36.35999999999999],[-10.380000000000003,36.346908135928686],[-10.340000000000003,36.32887490991975],[-10.320324633116016,36.31999999999999],[-10.300000000000004,36.31083202712916],[-10.260000000000005,36.292779436284114],[-10.231700603524665,36.279999999999994],[-10.220000000000006,36.2747161340715],[-10.180000000000007,36.256644304695264],[-10.143183565130801,36.239999999999995],[-10.140000000000008,36.238560717058824],[-10.100000000000009,36.2204697757756],[-10.06000000000001,36.20236671899015],[-10.054772663833392,36.19999999999999],[-10.02000000000001,36.18425611073209],[-9.980000000000011,36.166134126028176],[-9.966466615292722,36.16],[-9.940000000000012,36.14800357134742],[-9.900000000000013,36.129862786108625],[-9.878264115207628,36.12],[-9.860000000000014,36.1117124199711],[-9.820000000000014,36.093552961884356],[-9.79016405001156,36.08],[-9.780000000000015,36.07538291951063],[-9.740000000000016,36.05720491656154],[-9.702165314342185,36.040000000000006],[-9.700000000000017,36.03901533342253],[-9.660000000000018,36.02081891389055],[-9.620000000000019,36.002610685602455],[-9.614267044216458,36.0]]}},{"type":"Feature","properties":{"magnitude":0.99,"percentagem":99.0,"territorio":"continente"},"geometry":{"type":"LineString","coordinates":[[-5.540000000000106,36.890193618636644],[-5.580000000000105,36.90926433080054],[-5.602527560305765,36.91999999999998],[-5.620000000000104,36.928326808509965],[-5.660000000000103,36.94738180915359],[-5.686500538266492,36.95999999999998],[-5.700000000000102,36.96642788867512],[-5.7400000000001015,36.98546704371631],[-5.7705483530094455,36.99999999999998],[-5.780000000000101,37.00449658274686],[-5.8200000000001,37.02351975832798],[-5.854671873782772,37.03999999999998],[-5.860000000000099,37.04253261474874],[-5.900000000000098,37.061539677241704],[-5.938871975417311,37.07999999999998],[-5.940000000000097,37.08053570912347],[-5.980000000000096,37.099526525134834],[-6.0200000000000955,37.118506077105984],[-6.02314946557437,37.11999999999998],[-6.060000000000095,37.13748002711917],[-6.100000000000094,37.15644314080155],[-6.10750529207184,37.159999999999975],[-6.140000000000093,37.17539990875126],[-6.180000000000092,37.194346451348395],[-6.191940376065718,37.199999999999974],[-6.220000000000091,37.21328589604254],[-6.26000000000009,37.23221573500988],[-6.276455615975975,37.239999999999974],[-6.3000000000000895,37.251137715469554],[-6.340000000000089,37.2700507185194],[-6.36105191613126,37.27999999999997],[-6.380000000000088,37.28895509398405],[-6.420000000000086,37.30785112909059],[-6.445730186833526,37.31999999999997],[-6.460000000000086,37.32673775902302],[-6.500000000000085,37.345616694427335],[-6.53049134442336,37.35999999999997],[-6.540000000000084,37.36448543851883],[-6.580000000000084,37.383347142733825],[-6.615336311346283,37.39999999999997],[-6.620000000000083,37.40219786090907],[-6.660000000000082,37.421042202724465],[-6.700000000000081,37.43987479527485],[-6.700266015116358,37.43999999999997],[-6.74000000000008,37.45870160363381],[-6.780000000000079,37.477516645209725],[-6.785281384169962,37.47999999999996],[-6.820000000000078,37.49632507522649],[-6.860000000000077,37.515122435315824],[-6.8703833904561,37.51999999999997],[-6.900000000000077,37.53391234780692],[-6.940000000000076,37.55269189619128],[-6.955572982265359,37.55999999999997],[-6.980000000000075,37.571463152229164],[-7.020000000000074,37.59022475898858],[-7.040851114349596,37.599999999999966],[-7.060000000000073,37.60897721990657],[-7.100000000000073,37.627720755424434],[-7.12621874799259,37.639999999999965],[-7.140000000000072,37.646454282821416],[-7.180000000000071,37.66517961778936],[-7.211676851081311,37.679999999999964],[-7.22000000000007,37.6838940735346],[-7.260000000000069,37.70260107895729],[-7.297226398178514,37.71999999999996],[-7.300000000000068,37.72129632519509],[-7.340000000000067,37.739984872394984],[-7.3800000000000665,37.75866119406832],[-7.3828684150397725,37.75999999999996],[-7.420000000000066,37.77733073217158],[-7.460000000000065,37.795988410771166],[-7.46860391030955,37.79999999999996],[-7.500000000000064,37.81463839296796],[-7.540000000000064,37.833277300612984],[-7.554433843492732,37.83999999999996],[-7.580000000000062,37.85190759008606],[-7.620000000000061,37.87052759922978],[-7.6403592174674415,37.87999999999996],[-7.6600000000000605,37.889138059458176],[-7.700000000000061,37.90773904289265],[-7.726381042177367,37.91999999999996],[-7.740000000000059,37.92632953765612],[-7.780000000000058,37.9449113685169],[-7.812500334709017,37.95999999999996],[-7.820000000000057,37.96348176190041],[-7.860000000000056,37.98204431367115],[-7.898718119370131,37.99999999999996],[-7.900000000000055,38.00059447006926],[-7.940000000000055,38.01913761658645],[-7.980000000000054,38.037668126831726],[-7.9850355958059085,38.03999999999996],[-8.020000000000053,38.056191016165116],[-8.060000000000052,38.074701939983484],[-8.071453709277646,38.079999999999956],[-8.100000000000051,38.09320425198973],[-8.14000000000005,38.111695464098155],[-8.157973467574505,38.119999999999955],[-8.18000000000005,38.13017706433195],[-8.220000000000049,38.14864843981587],[-8.244595925682923,38.159999999999954],[-8.260000000000048,38.167109194161284],[-8.300000000000047,38.185560608479065],[-8.331322146233038,38.19999999999995],[-8.340000000000046,38.20400038315367],[-8.380000000000045,38.22243171214113],[-8.41815319958215,38.23999999999995],[-8.420000000000044,38.240850373700155],[-8.460000000000043,38.25926149357507],[-8.500000000000043,38.27765962939755],[-8.505090414732246,38.27999999999995],[-8.540000000000042,38.29604969628193],[-8.580000000000041,38.31442744528947],[-8.592134753845924,38.31999999999995],[-8.62000000000004,38.332796064499234],[-8.66000000000004,38.35115330385996],[-8.67928722570253,38.35999999999995],[-8.700000000000038,38.36950034320931],[-8.740000000000038,38.38783695048833],[-8.766548933533436,38.39999999999995],[-8.780000000000037,38.40616227814751],[-8.820000000000036,38.424478131311304],[-8.853920988749758,38.439999999999955],[-8.860000000000035,38.44278161581052],[-8.900000000000034,38.461076593231084],[-8.940000000000033,38.47935829913484],[-8.94140459955894,38.47999999999995],[-8.980000000000032,38.497632083923534],[-9.020000000000032,38.51589273951326],[-9.029001218979793,38.51999999999994],[-9.06000000000003,38.53414435184605],[-9.10000000000003,38.552383836501],[-9.11671161717267,38.559999999999945],[-9.140000000000029,38.5706131462455],[-9.180000000000028,38.58883133976503],[-9.204536940388028,38.599999999999945],[-9.220000000000027,38.60703821716592],[-9.260000000000026,38.625234999773724],[-9.292478343536239,38.639999999999944],[-9.300000000000026,38.643419315456406],[-9.340000000000025,38.661594567804485],[-9.380000000000022,38.67975626640801],[-9.380537031681795,38.67999999999994],[-9.420000000000023,38.697909795951446],[-9.460000000000022,38.716049793033385],[-9.468714747962629,38.71999999999994],[-9.500000000000021,38.734180437132856],[-9.54000000000002,38.75229861440705],[-9.557012115049574,38.75999999999995],[-9.58000000000002,38.77040624509852],[-9.620000000000019,38.78850248472108],[-9.64543032477833,38.79999999999994],[-9.660000000000018,38.806586974437074],[-9.700000000000017,38.82466115901042],[-9.733970578153658,38.83999999999994],[-9.740000000000016,38.842722380583275],[-9.780000000000015,38.86077439315997],[-9.820000000000014,38.87881257527998],[-9.82263432641168,38.87999999999994],[-9.860000000000014,38.89684194391172],[-9.900000000000013,38.91485778625248],[-9.911423142027582,38.91999999999994],[-9.940000000000012,38.9328635688717],[-9.980000000000011,38.950856955599804],[-10.000337720197859,38.95999999999994],[-10.02000000000001,38.96883902651689],[-10.06000000000001,38.98680984226234],[-10.089379301067668,38.999999999999936],[-10.100000000000009,39.00476807620198],[-10.140000000000008,39.02271620606197],[-10.178549134491982,39.039999999999935],[-10.180000000000007,39.04065047816608],[-10.220000000000006,39.05857580770869],[-10.260000000000005,39.076487035867075],[-10.267849313556294,39.079999999999934],[-10.300000000000004,39.09438840880721],[-10.340000000000003,39.11227667250754],[-10.357280490101324,39.11999999999993],[-10.380000000000003,39.13015377186329],[-10.420000000000002,39.148018957837316],[-10.446843795229114,39.15999999999993],[-10.46,39.1658716602902],[-10.5,39.18371365575303]]}},{"type":"Feature","properties":{"magnitude":0.8,"percentagem":80.0,"territorio":"acores"},"geometry":{"type":"LineString","coordinates":[[-32.0,37.480329462100876],[-31.998814493057598,37.47999999999997],[-31.96,37.469211904057104],[-31.92,37.45807345680231],[-31.880000000000003,37.44691406562261],[-31.855260672887177,37.43999999999997],[-31.840000000000003,37.43573450558404],[-31.800000000000004,37.42453526385836],[-31.760000000000005,37.413315097597206],[-31.720000000000006,37.40207401190562],[-31.71263180794372,37.39999999999997],[-31.680000000000007,37.390813666954294],[-31.640000000000008,37.379532790919484],[-31.60000000000001,37.36823101554789],[-31.570919631945138,37.35999999999997],[-31.56000000000001,37.35690890179703],[-31.52000000000001,37.345567382927776],[-31.48000000000001,37.3342049853575],[-31.440000000000012,37.32282171457407],[-31.430100613499267,37.31999999999997],[-31.400000000000013,37.31141911545468],[-31.360000000000014,37.299996164816605],[-31.320000000000014,37.28855236231554],[-31.290158655134316,37.27999999999997],[-31.280000000000015,37.277088234877226],[-31.240000000000016,37.26560480196592],[-31.200000000000017,37.25410053909207],[-31.160000000000018,37.24257545213023],[-31.151075436940708,37.23999999999998],[-31.12000000000002,37.23103114945434],[-31.08000000000002,37.21946649923372],[-31.04000000000002,37.207881047549634],[-31.01283597313723,37.199999999999974],[-31.00000000000002,37.19627546458795],[-30.960000000000022,37.184650501741444],[-30.92000000000002,37.173004760613956],[-30.880000000000024,37.16133824747033],[-30.87541858802639,37.159999999999975],[-30.840000000000025,37.14965281033548],[-30.800000000000026,37.13794685675505],[-30.760000000000026,37.12622015507411],[-30.738817373828255,37.119999999999976],[-30.720000000000027,37.11447369350314],[-30.680000000000028,37.10270760618502],[-30.64000000000003,37.09092079524725],[-30.603003112679907,37.07999999999998],[-30.60000000000003,37.0791134245462],[-30.56000000000003,37.067287283943294],[-30.52000000000003,37.05544044476994],[-30.480000000000032,37.04357291385774],[-30.46797573710687,37.03999999999998],[-30.440000000000033,37.0316861699431],[-30.400000000000034,37.01977938530881],[-30.360000000000035,37.007851934730205],[-30.33371046129697,36.99999999999998],[-30.320000000000036,36.99590454901741],[-30.280000000000037,36.98393790346255],[-30.240000000000038,36.97195061833284],[-30.200190813051506,36.95999999999998],[-30.20000000000004,36.9599427109642],[-30.16000000000004,36.947916290806866],[-30.120000000000044,36.935869258022],[-30.08000000000004,36.92380162001388],[-30.067417782559517,36.91999999999998],[-30.040000000000042,36.91171484393901],[-30.000000000000043,36.899608152187255],[-29.960000000000043,36.887480882915725],[-29.93536428640865,36.87999999999998],[-29.920000000000044,36.875333864521394],[-29.880000000000045,36.86316760429484],[-29.840000000000046,36.850980794835706],[-29.804017959242238,36.83999999999998],[-29.800000000000047,36.838773659324644],[-29.760000000000048,36.82654792293038],[-29.72000000000005,36.814301666177],[-29.68000000000005,36.80203489704635],[-29.673373885896524,36.79999999999998],[-29.64000000000005,36.78974942184093],[-29.60000000000005,36.77744381251504],[-29.560000000000052,36.76511772045103],[-29.543416771639393,36.759999999999984],[-29.520000000000053,36.75277241997635],[-29.480000000000054,36.74040755463852],[-29.440000000000055,36.728022236793244],[-29.414131001045938,36.719999999999985],[-29.400000000000055,36.71561724152978],[-29.360000000000056,36.703193218589774],[-29.320000000000057,36.690748773966654],[-29.28550547470578,36.679999999999986],[-29.280000000000058,36.67828421597745],[-29.24000000000006,36.66580113570411],[-29.20000000000006,36.65329766516784],[-29.16000000000006,36.640773813109796],[-29.15753180669328,36.639999999999986],[-29.12000000000006,36.6282316426486],[-29.080000000000062,36.615669248934665],[-29.040000000000063,36.60308650589531],[-29.030201657984396,36.59999999999999],[-29.000000000000064,36.59048508145986],[-28.960000000000065,36.5778638691838],[-28.920000000000066,36.56522234037873],[-28.903499078409023,36.55999999999999],[-28.880000000000067,36.5525617995811],[-28.840000000000067,36.53988187524753],[-28.800000000000068,36.527181667783175],[-28.77741391644171,36.51999999999999],[-28.76000000000007,36.51446214989833],[-28.72000000000007,36.50172362190945],[-28.68000000000007,36.488964844791624],[-28.651936234326215,36.47999999999999],[-28.64000000000007,36.47618649077552],[-28.600000000000072,36.4633894694396],[-28.560000000000073,36.450572233581696],[-28.527056302821357,36.43999999999999],[-28.520000000000074,36.437735186089114],[-28.480000000000075,36.424879783628406],[-28.440000000000076,36.412004201859325],[-28.40276459609553,36.39999999999999],[-28.400000000000077,36.399108605261404],[-28.360000000000078,36.38619493581987],[-28.32000000000008,36.37326112289165],[-28.28000000000008,36.36030717651914],[-28.279052661317323,36.35999999999999],[-28.24000000000008,36.34733530294383],[-28.20000000000008,36.33434337553884],[-28.160000000000082,36.32133135129991],[-28.155912471373693,36.31999999999999],[-28.120000000000083,36.30830126754714],[-28.080000000000084,36.295251344285056],[-28.040000000000084,36.282181361409954],[-28.033332529111505,36.279999999999994],[-28.000000000000085,36.269093217824015],[-27.96000000000009,36.25598541926843],[-27.92000000000009,36.24285759893228],[-27.9113041001265,36.239999999999995],[-27.880000000000088,36.22971154764538],[-27.84000000000009,36.21654599631001],[-27.80000000000009,36.20336046163909],[-27.789818629131883,36.199999999999996],[-27.76000000000009,36.19015665658712],[-27.72000000000009,36.17693347694178],[-27.680000000000092,36.16369035301927],[-27.66886773566948,36.16],[-27.640000000000093,36.15042894995742],[-27.600000000000094,36.13714826843356],[-27.560000000000095,36.12384768230503],[-27.548443209937275,36.120000000000005],[-27.520000000000095,36.110528838823065],[-27.480000000000096,36.097190783819045],[-27.440000000000097,36.08383286449757],[-27.42853700873006,36.08],[-27.400000000000098,36.07045674003462],[-27.3600000000001,36.0570614419206],[-27.3200000000001,36.04364632039154],[-27.309141251489706,36.04],[-27.2800000000001,36.0302130762507],[-27.2400000000001,36.0167606673731],[-27.200000000000102,36.003288476598534],[-27.19024821646161,36.0]]}},{"type":"Feature","properties":{"magnitude":0.9,"percentagem":90.0,"territorio":"acores"},"geometry":{"type":"LineString","coordinates":[[-30.489244107767824,40.479999999999905],[-30.480000000000032,40.47745535533937],[-30.440000000000033,40.46642723768923],[-30.400000000000034,40.45537928230161],[-30.360000000000035,40.44431149107472],[-30.344442818159862,40.439999999999905],[-30.320000000000036,40.43322535942307],[-30.280000000000037,40.42212035089026],[-30.240000000000038,40.4109955173453],[-30.20053512126202,40.399999999999906],[-30.20000000000004,40.399850893665636],[-30.16000000000004,40.38868887217428],[-30.12000000000004,40.3775070369491],[-30.08000000000004,40.36630539020515],[-30.057520746219758,40.35999999999991],[-30.040000000000042,40.355085013348145],[-30.000000000000043,40.34384621844821],[-29.960000000000043,40.33258762390357],[-29.920000000000048,40.321309232109414],[-29.91536352754574,40.31999999999991],[-29.880000000000045,40.310013234105924],[-29.840000000000046,40.29869773560894],[-29.800000000000047,40.28736245233845],[-29.774061754039934,40.27999999999991],[-29.760000000000048,40.276008259937456],[-29.72000000000005,40.264635902737666],[-29.68000000000005,40.25324377370573],[-29.640000000000054,40.241831875561054],[-29.633588480780027,40.2399999999999],[-29.60000000000005,40.23040230652314],[-29.560000000000052,40.218953378864455],[-29.520000000000053,40.20748469564723],[-29.49393721350471,40.19999999999991],[-29.480000000000054,40.19599713206574],[-29.440000000000055,40.184491454349185],[-29.400000000000055,40.172966035102284],[-29.36000000000006,40.161420877373224],[-29.355084188679278,40.15999999999991],[-29.320000000000057,40.14985819062553],[-29.280000000000058,40.13827608584409],[-29.24000000000006,40.12667425723206],[-29.217024900810344,40.11999999999991],[-29.20000000000006,40.11505378213939],[-29.16000000000006,40.10341504378492],[-29.12000000000006,40.09175659673374],[-29.080000000000062,40.08007844436705],[-29.07973168036373,40.07999999999991],[-29.040000000000063,40.06838310888029],[-29.000000000000064,40.05666809731767],[-28.960000000000065,40.0449333962069],[-28.943208629088947,40.03999999999991],[-28.920000000000066,40.03318048517743],[-28.880000000000067,40.021408964528746],[-28.840000000000067,40.009617770589564],[-28.807425447545437,39.999999999999915],[-28.800000000000068,39.99780738086348],[-28.76000000000007,39.9859794080652],[-28.72000000000007,39.974131778727944],[-28.68000000000007,39.962264496719264],[-28.672377905242726,39.959999999999916],[-28.64000000000007,39.95037964182623],[-28.600000000000072,39.93847563604917],[-28.560000000000073,39.92655199499948],[-28.53805310857089,39.919999999999916],[-28.520000000000074,39.91460988395917],[-28.480000000000075,39.9026495622416],[-28.440000000000076,39.89066962315156],[-28.404431997179184,39.87999999999992],[-28.400000000000077,39.878670356906134],[-28.360000000000078,39.866653781301366],[-28.32000000000008,39.85461760672891],[-28.28000000000008,39.84256183755045],[-28.271511681999552,39.83999999999992],[-28.24000000000008,39.83048852157851],[-28.20000000000008,39.81839617565151],[-28.160000000000085,39.80628425418347],[-28.139276314083855,39.79999999999992],[-28.120000000000083,39.79415401582249],[-28.080000000000084,39.782005564251264],[-28.040000000000084,39.769837556715544],[-28.007710778864897,39.75999999999992],[-28.000000000000085,39.757650501227445],[-27.960000000000086,39.74544601131697],[-27.920000000000087,39.73322198553329],[-27.88000000000009,39.72097842873921],[-27.876807587740455,39.71999999999992],[-27.84000000000009,39.70871776013882],[-27.80000000000009,39.69643778553659],[-27.76000000000009,39.68413830068728],[-27.746559961806913,39.67999999999992],[-27.72000000000009,39.67182105855218],[-27.680000000000092,39.65948520618238],[-27.640000000000093,39.64712986484997],[-27.616950471684532,39.63999999999992],[-27.600000000000094,39.63475615898098],[-27.560000000000095,39.62236450152773],[-27.520000000000095,39.609953376920245],[-27.487969258024734,39.59999999999992],[-27.480000000000096,39.59752331848044],[-27.440000000000097,39.585075930272346],[-27.4000000000001,39.572609097245085],[-27.3600000000001,39.56012282492495],[-27.35960701262484,39.55999999999993],[-27.3200000000001,39.54761975580067],[-27.2800000000001,39.535097290867164],[-27.2400000000001,39.52255540966192],[-27.23186047102757,39.519999999999925],[-27.200000000000102,39.509996246223075],[-27.160000000000103,39.497418227566016],[-27.120000000000104,39.48482081619069],[-27.10471310672078,39.479999999999926],[-27.080000000000105,39.47220567441675],[-27.040000000000106,39.45957218189851],[-27.000000000000107,39.446919320750325],[-26.978155845365883,39.43999999999993],[-26.960000000000107,39.434248318065684],[-26.92000000000011,39.4215594332387],[-26.88000000000011,39.408851204407355],[-26.852179790560136,39.39999999999993],[-26.84000000000011,39.39612445970011],[-26.80000000000011,39.38338026581703],[-26.76000000000011,39.37061675309474],[-26.726776219775914,39.35999999999993],[-26.720000000000113,39.35783438673532],[-26.680000000000113,39.345034968758846],[-26.640000000000114,39.332216257650074],[-26.60193658040629,39.319999999999936],[-26.600000000000115,39.31937839150968],[-26.560000000000116,39.30652383612219],[-26.520000000000117,39.293650013853295],[-26.480000000000114,39.280756931378704],[-26.477654440289324,39.27999999999993],[-26.44000000000012,39.267847166934956],[-26.40000000000012,39.254918322463375],[-26.360000000000117,39.241970244742696],[-26.353920721100494,39.239999999999924],[-26.32000000000012,39.22900526523121],[-26.280000000000122,39.21602148925452],[-26.240000000000123,39.20301850753365],[-26.230725749500543,39.19999999999993],[-26.200000000000124,39.189998440086804],[-26.160000000000124,39.176959825051554],[-26.120000000000125,39.163902032327194],[-26.108061636917157,39.15999999999993],[-26.080000000000126,39.150827005654385],[-26.040000000000127,39.137733645764484],[-26.00000000000013,39.124621136792534],[-25.985920645767145,39.11999999999993],[-25.96000000000013,39.11149128119728],[-25.92000000000013,39.098343272422355],[-25.88000000000013,39.08517614372609],[-25.864295186091237,39.079999999999934],[-25.84000000000013,39.07199159112306],[-25.800000000000132,39.05878903120629],[-25.760000000000133,39.04556738108422],[-25.743177812274958,39.039999999999935],[-25.720000000000134,39.03232826501583],[-25.680000000000135,39.01907125348171],[-25.640000000000132,39.00579518201515],[-25.62256121985141,38.999999999999936],[-25.600000000000136,38.99250163766805],[-25.560000000000137,38.979190275829794],[-25.520000000000138,38.965859884890214],[-25.502438242384514,38.95999999999994],[-25.48000000000014,38.95251204911135],[-25.44000000000014,38.939146440077984],[-25.40000000000014,38.92576183333405],[-25.382801848429985,38.919999999999945],[-25.36000000000014,38.912359844646566],[-25.320000000000142,38.89894009332978],[-25.280000000000143,38.88550137625409],[-25.263645138572116,38.87999999999994],[-25.240000000000144,38.8720453748729],[-25.200000000000145,38.858571587993595],[-25.160000000000146,38.84507886786915],[-25.14496134253369,38.83999999999994],[-25.120000000000147,38.83156899571619],[-25.080000000000148,38.818041281810764],[-25.04000000000015,38.804494667737124],[-25.026743816357715,38.79999999999994],[-25.00000000000015,38.79093106845631],[-24.96000000000015,38.777349537882614],[-24.92000000000015,38.76374914078181],[-24.908986039657954,38.759999999999934],[-24.88000000000015,38.750131959753716],[-24.840000000000153,38.73649672469672],[-24.800000000000153,38.72284265731882],[-24.79168161293722,38.71999999999994],[-24.760000000000154,38.70917204167504],[-24.720000000000155,38.69548321615221],[-24.680000000000156,38.68177559308062],[-24.674824254970954,38.67999999999994],[-24.640000000000157,38.668051691717764],[-24.600000000000158,38.654309391584135],[-24.56000000000016,38.64054832924055],[-24.558407800254617,38.639999999999944],[-24.52000000000016,38.626771292833936],[-24.480000000000157,38.61297563578691],[-24.442427857635153,38.599999999999945],[-24.44000000000016,38.59916142845943],[-24.400000000000162,38.58533123345303],[-24.360000000000163,38.57148233903685],[-24.32687815214109,38.559999999999945],[-24.320000000000164,38.55761525536474],[-24.280000000000165,38.543731907503826],[-24.240000000000165,38.5298298971137],[-24.211751733891568,38.519999999999946],[-24.200000000000166,38.515910092469454],[-24.160000000000167,38.50197371443525],[-24.120000000000168,38.48801871132125],[-24.097042862738263,38.47999999999995],[-24.08000000000017,38.47404634290447],[-24.04000000000017,38.46005705923633]]}},{"type":"Feature","properties":{"magnitude":0.95,"percentagem":95.0,"territorio":"acores"},"geometry":{"type":"LineString","coordinates":[[-24.65366546530037,40.479999999999905],[-24.640000000000157,40.47547317419615],[-24.600000000000158,40.46220706043026],[-24.56000000000016,40.44892228438457],[-24.533169976619916,40.439999999999905],[-24.52000000000016,40.43561986224551],[-24.48000000000016,40.422300853534665],[-24.44000000000016,40.40896320924983],[-24.413153547696595,40.399999999999906],[-24.400000000000162,40.395607948003864],[-24.360000000000163,40.38223613571127],[-24.320000000000164,40.368845715084696],[-24.293609584277277,40.35999999999991],[-24.280000000000165,40.35543774366601],[-24.240000000000165,40.34201322088007],[-24.200000000000166,40.328570117535875],[-24.174531611453006,40.31999999999991],[-24.160000000000167,40.31510956649269],[-24.120000000000168,40.301632428034324],[-24.08000000000017,40.28813673733066],[-24.05591327114491,40.27999999999991],[-24.04000000000017,40.274623738840845]]}},{"type":"Feature","properties":{"magnitude":0.8,"percentagem":80.0,"territorio":"madeira"},"geometry":{"type":"LineString","coordinates":[[-18.0,32.4423786179906],[-17.96,32.42510893764923],[-17.948174257683554,32.41999999999994],[-17.92,32.407826964542146],[-17.880000000000003,32.39053135483984],[-17.855661595481337,32.37999999999994],[-17.840000000000003,32.373222461992256],[-17.800000000000004,32.35590105381434],[-17.763309914198775,32.33999999999994],[-17.760000000000005,32.33856537849878],[-17.720000000000006,32.32121830316822],[-17.680000000000007,32.30385674032101],[-17.67111965799699,32.29999999999994],[-17.640000000000008,32.28648337231216],[-17.60000000000001,32.26909633506233],[-17.579087674084978,32.25999999999994],[-17.56000000000001,32.25169653146421],[-17.52000000000001,32.23428415217733],[-17.487211479616967,32.21999999999994],[-17.48000000000001,32.21685805164171],[-17.440000000000012,32.19942046310473],[-17.400000000000013,32.18196859417774],[-17.39549045496724,32.17999999999994],[-17.360000000000014,32.16450554006966],[-17.320000000000014,32.147028656689315],[-17.3039234873757,32.139999999999944],[-17.280000000000015,32.12953965607528],[-17.240000000000016,32.1120378920307],[-17.21250727666842,32.099999999999945],[-17.200000000000017,32.09452308489452],[-17.160000000000018,32.07699657437956],[-17.12124021789216,32.059999999999945],[-17.12000000000002,32.05945610106145],[-17.08000000000002,32.04190497866992],[-17.04000000000002,32.0243398471514],[-17.030122827985334,32.019999999999946],[-17.00000000000002,32.006763380583585],[-16.960000000000022,31.989173834508883],[-16.939151583629396,31.979999999999947],[-16.920000000000023,31.97157205654142],[-16.880000000000024,31.953958231452887],[-16.848324657818466,31.939999999999948],[-16.840000000000025,31.936331283694486],[-16.800000000000026,31.918693315517338],[-16.760000000000026,31.90104154973662],[-16.757640981425862,31.89999999999995],[-16.720000000000027,31.883379364952518],[-16.680000000000028,31.86570365525574],[-16.667100150905036,31.85999999999995],[-16.64000000000003,31.848016658716077],[-16.60000000000003,31.830317141934582],[-16.576698949564165,31.81999999999995],[-16.56000000000003,31.812605476464054],[-16.52000000000003,31.794882289794423],[-16.486435878172863,31.77999999999995],[-16.480000000000032,31.7771460985415],[-16.440000000000033,31.759399379540618],[-16.400000000000034,31.74163913960174],[-16.396310136556412,31.73999999999995],[-16.360000000000035,31.723868692553268],[-16.320000000000036,31.70608512172317],[-16.306320690313118,31.699999999999953],[-16.280000000000037,31.688290510877863],[-16.240000000000038,31.670483747563587],[-16.216464865329456,31.659999999999954],[-16.20000000000004,31.65266511721587],[-16.16000000000004,31.634835300166852],[-16.126741218115207,31.619999999999955],[-16.12000000000004,31.61699279491519],[-16.08000000000004,31.599140063218],[-16.040000000000042,31.581274090023836],[-16.03714880481435,31.57999999999996],[-16.000000000000043,31.563398321033695],[-15.960000000000043,31.54550963675034],[-15.947686807988909,31.539999999999953],[-15.920000000000044,31.52761035855252],[-15.880000000000043,31.50969910305971],[-15.858352651260105,31.499999999999957],[-15.840000000000046,31.49177646132526],[-15.800000000000047,31.473842774821613],[-15.769144943972458,31.459999999999958],[-15.760000000000048,31.45589691550499],[-15.720000000000049,31.437940938502734],[-15.680062307760052,31.41999999999996],[-15.68000000000005,31.41997200783727],[-15.64000000000005,31.40199388115683],[-15.600000000000051,31.384002859699237],[-15.591104734524386,31.37999999999996],[-15.560000000000052,31.366001890414807],[-15.520000000000053,31.347988925232983],[-15.502269444686497,31.33999999999996],[-15.480000000000054,31.32996525447459],[-15.440000000000055,31.311930487110914],[-15.41355508796653,31.29999999999996],[-15.400000000000055,31.29388426209108],[-15.360000000000056,31.275827834377573],[-15.324960335465297,31.259999999999962],[-15.320000000000057,31.257759202565904],[-15.280000000000058,31.23968125661876],[-15.240000000000059,31.22159070079415],[-15.23648435621788,31.219999999999963],[-15.20000000000006,31.203491043951406],[-15.160000000000059,31.185379177627304],[-15.148125989814856,31.179999999999964],[-15.120000000000061,31.16725748701318],[-15.080000000000062,31.149124452968696],[-15.059883241036626,31.139999999999965],[-15.040000000000063,31.130980876952137]]}}]}