{"type":"FeatureCollection","properties":{"largura_maxima_km":172.75,"largura_sobre_pt_km":166.936,"linha_central_sobre_pt":false,"desenhavel_como_area":true,"perfil_largura":[{"t":-1.45556,"lat":37.1182,"lon":-9.2688,"largura_km":null,"eixo_na_terra":false},{"t":-1.45,"lat":38.0484,"lon":-7.2813,"largura_km":null,"eixo_na_terra":false},{"t":-1.44444,"lat":38.475,"lon":-6.5084,"largura_km":null,"eixo_na_terra":false},{"t":-1.43889,"lat":38.8182,"lon":-5.9805,"largura_km":null,"eixo_na_terra":false},{"t":-1.43333,"lat":39.1476,"lon":-5.4099,"largura_km":null,"eixo_na_terra":false},{"t":-1.42778,"lat":39.4343,"lon":-4.9041,"largura_km":null,"eixo_na_terra":false},{"t":-1.42222,"lat":39.7066,"lon":-4.4571,"largura_km":null,"eixo_na_terra":false},{"t":-1.41667,"lat":40.2503,"lon":-3.2611,"largura_km":null,"eixo_na_terra":false},{"t":-1.41111,"lat":41.2876,"lon":-0.6278,"largura_km":166.936,"eixo_na_terra":true},{"t":-1.40556,"lat":41.7269,"lon":0.4368,"largura_km":168.368,"eixo_na_terra":true},{"t":-1.4,"lat":42.1247,"lon":1.4102,"largura_km":169.499,"eixo_na_terra":true},{"t":-1.39444,"lat":42.49,"lon":2.3132,"largura_km":170.452,"eixo_na_terra":true},{"t":-1.38889,"lat":42.8293,"lon":3.1598,"largura_km":171.294,"eixo_na_terra":true},{"t":-1.38333,"lat":43.1469,"lon":3.96,"largura_km":172.056,"eixo_na_terra":true},{"t":-1.37778,"lat":43.4461,"lon":4.7211,"largura_km":172.75,"eixo_na_terra":true}]},"features":[{"type":"Feature","properties":{},"geometry":{"type":"Polygon","coordinates":[[[-9.151136256425957,37.1678915389764],[-9.16374563035157,37.13981867475104],[-9.272337594868645,37.07076374439811],[-9.41363768947815,37.10084875160239],[-9.221168207287747,37.160691841012685],[-9.151136256425957,37.1678915389764]]]}},{"type":"Feature","properties":{},"geometry":{"type":"Polygon","coordinates":[[[-5.6979862019694565,38.314491140258035],[-6.635593863626752,37.91326679180397],[-8.08691577973957,37.29887250666422],[-9.004826707913367,36.908253070843664],[-9.045776949981255,37.266134578369254],[-9.594124426697817,37.04266171899006],[-9.680301263030401,37.25228434958452],[-10.294206494747868,37.001043482662844],[-10.643714709725657,37.80224153309592],[-8.695533814952285,38.67165188060272],[-7.913474585499216,39.01516999105715],[-7.567305916291616,39.16520367410597],[-6.9644094979277025,39.42267058074364],[-6.376893936417559,39.68946899971946],[-5.937711136289181,39.8836632131829],[-5.503758262250358,40.07097846790973],[-5.288760729758508,40.16203932277994],[-4.814932540118202,40.35840155617102],[-4.831314812414462,40.355709437857335],[-3.115155862435131,41.1000748989492],[-1.803133003288508,41.65988110859063],[-0.6445294743436989,42.14894808109258],[0.40626321678303157,42.58779599488969],[1.3257286832388786,42.96726188429719],[2.2338396210595874,43.33894211644651],[6.818750248861193,43.37406121050591],[6.120615520760623,43.10924944722862],[5.393138385655334,42.83066143734077],[4.5825710608746135,42.51787792654255],[3.779558361106524,42.20424529130477],[2.8741005086918108,41.848059845797444],[1.9032886398339883,41.4624148424148],[1.845029491951609,41.452841047271036],[1.6085355309995748,41.34620176162126],[1.3943425029967784,41.255172043029035],[1.0405867245524405,41.1130480760562],[0.6982602152016152,40.982875410658494],[0.4697627006370908,40.88297687024611],[0.2277042962939504,40.78183352720165],[-0.03380225852430385,40.67671783615046],[-0.41390659664400364,40.52990769905026],[-0.6770454305306544,40.41451434172623],[-0.9457539356143911,40.30149096050928],[-1.2375195622323076,40.18287159918323],[-1.672461529367369,40.012029923545605],[-1.9866854882059783,39.87395087760735],[-2.2961392009232213,39.7429178742496],[-2.635352762696982,39.60331572317809],[-3.1601154521417287,39.39329153840709],[-3.561495797516386,39.216807814795764],[-3.9447863351146566,39.053401376875804],[-4.374668819426347,38.87405137178016],[-5.088508121202526,38.58189562790614],[-5.6979862019694565,38.314491140258035]]]}}]}