{"type":"FeatureCollection","features":[{"type":"Feature","properties":{"t_inicio":-1.4333333333333425,"t_fim":-1.377777777777787},"geometry":{"type":"LineString","coordinates":[[-7.374643450928318,38.418145865433345],[-4.885051603380759,39.49174571655554],[-3.1915010910352635,40.21297715446207],[-1.8170341196973823,40.79190990289797],[-0.6277806522437004,41.28763966613872],[0.43678712442130063,41.72694100788757],[1.4101570910621604,42.12465691450205],[2.3131563373935933,42.49003680059795],[3.159779564803273,42.82930786871015],[3.9599645229691305,43.14690065118436],[4.721067327776495,43.44610102894226]]}}]}