{"type":"FeatureCollection","features":[{"type":"Feature","properties":{"magnitude":0.2,"de":0.2,"ate":0.5,"percentagem":20.0},"geometry":{"type":"Polygon","coordinates":[[[-20.1517607686699,35.15999999999989],[-15.506092070616763,29.999999999999996],[-11.042530672155078,30.0],[-13.979999999999222,33.03282435561637],[-21.419999999999504,40.94585174828238],[-25.319041433458814,44.93999999999968],[-29.832324824769685,44.939999999999685],[-26.778962298795047,42.05999999999975],[-23.57394914081901,38.81999999999981],[-20.1517607686699,35.15999999999989]]]}},{"type":"Feature","properties":{"magnitude":0.5,"de":0.5,"ate":0.8,"percentagem":50.0},"geometry":{"type":"Polygon","coordinates":[[[-14.039999999999225,33.09611864768034],[-11.042530672155078,30.0],[-3.5399999999988268,30.0],[-3.5399999999988268,31.126964153419664],[-4.739999999998872,30.61772100396383],[-4.979999999998881,30.569231958143384],[-5.279999999998893,30.576176190139613],[-5.759999999998911,30.682456965529983],[-6.299999999998931,30.89208159724071],[-6.899999999998954,31.201114233776572],[-7.619999999998981,31.648756320981324],[-8.399999999999011,32.205444616606854],[-9.299999999999045,32.920241802499135],[-10.259999999999081,33.75145022534201],[-11.219999999999118,34.64133499003681],[-13.34201758150422,36.77999999999986],[-15.44675473868353,39.119999999999806],[-16.670278233129558,40.61999999999978],[-17.532989655509763,41.81999999999975],[-17.860083005223082,42.35999999999974],[-18.067008501088655,42.77999999999973],[-18.18651330382246,43.139999999999716],[-18.21080488254463,43.37999999999971],[-18.169428476647084,43.55999999999971],[-17.999999999999375,43.72682466665752],[-15.339469518502849,44.939999999999685],[-25.319041433458814,44.93999999999968],[-21.419999999999504,40.94585174828238],[-14.039999999999225,33.09611864768034]]]}},{"type":"Feature","properties":{"magnitude":0.8,"de":0.8,"ate":0.95,"percentagem":80.0},"geometry":{"type":"Polygon","coordinates":[[[-5.434611014273903,30.599999999999984],[-5.099999999998886,30.564813342162484],[-4.7999999999988745,30.59931234031253],[-3.5399999999988268,31.126964153419664],[-3.5399999999988268,37.137593502571654],[-8.579999999999018,34.98765193796607],[-8.819999999999027,34.98709337660916],[-9.239999999999043,35.15348310759612],[-9.839999999999065,35.53455249665032],[-10.49999999999909,36.06282814271313],[-11.159999999999116,36.678322560415744],[-11.8163310243623,37.37999999999984],[-12.341526044758083,38.03999999999983],[-12.673008461517616,38.579999999999814],[-12.778368168499544,38.93999999999981],[-12.738084666455714,39.0599999999998],[-12.642015604376818,39.119999999999806],[-7.739999999998986,41.29706255289471],[-3.5399999999988268,43.11455232731818],[-3.5399999999988268,44.939999999999685],[-15.339469518502849,44.939999999999685],[-18.07448761288226,43.67999999999971],[-18.169428476647084,43.55999999999971],[-18.21080488254463,43.37999999999971],[-18.186513303822462,43.139999999999716],[-18.114543428544128,42.899999999999714],[-17.792228046342643,42.23999999999974],[-17.24769934411297,41.39999999999976],[-16.43572206553425,40.31999999999978],[-15.34408757877167,38.999999999999815],[-14.121766031927438,37.619999999999834],[-12.826069105207964,36.23999999999987],[-11.639999999999132,35.0468610542843],[-10.559999999999091,34.02370705009659],[-9.479999999999052,33.07111688945381],[-8.519999999999015,32.29663291850739],[-7.619999999998981,31.648756320981324],[-6.7799999999989495,31.134062364873],[-6.059999999998922,30.7894443580063],[-5.434611014273903,30.599999999999984]]]}},{"type":"Feature","properties":{"magnitude":0.95,"de":0.95,"ate":0.99,"percentagem":95.0},"geometry":{"type":"Polygon","coordinates":[[[-8.780635422985654,34.97999999999989],[-8.579999999999018,34.98765193796608],[-3.5399999999988268,37.137593502571654],[-3.539999999998827,38.80301528657526],[-9.719999999999061,36.169407831067296],[-9.899999999999068,36.20277282165157],[-10.139999999999077,36.333010121837205],[-10.76019994476346,36.839999999999854],[-11.286205288518522,37.43999999999984],[-11.427757540599234,37.679999999999836],[-11.458410271394836,37.85999999999983],[-8.339999999999009,39.26458681206736],[-3.5399999999988268,41.35552479331303],[-3.5399999999988268,43.11455232731818],[-8.519999999999015,40.953959069454584],[-12.738084666455713,39.0599999999998],[-12.778368168499544,38.93999999999981],[-12.746149619167578,38.75999999999981],[-12.50366718904056,38.27999999999982],[-12.018695115805757,37.619999999999834],[-11.319666867115188,36.83999999999985],[-10.619999999999095,36.16851759128981],[-9.899999999999068,35.57850034421141],[-9.239999999999043,35.15348310759612],[-8.780635422985654,34.97999999999989]]]}},{"type":"Feature","properties":{"magnitude":0.99,"de":0.99,"ate":2.0,"percentagem":99.0},"geometry":{"type":"Polygon","coordinates":[[[-9.837997962346783,36.179999999999865],[-9.687826539341188,36.179999999999865],[-3.539999999998827,38.80301528657526],[-3.5399999999988268,41.35552479331303],[-8.339999999999009,39.26458681206736],[-11.458410271394836,37.85999999999983],[-11.45119993608332,37.73999999999984],[-11.326890470930456,37.499999999999844],[-10.880400369829704,36.95999999999985],[-10.319999999999084,36.45974047175182],[-10.079999999999075,36.29523258624684],[-9.837997962346783,36.179999999999865]]]}}]}