{"type":"FeatureCollection","properties":{"largura_maxima_km":160.442,"largura_sobre_pt_km":160.442,"linha_central_sobre_pt":false,"desenhavel_como_area":true,"perfil_largura":[{"t":-1.32222,"lat":25.0292,"lon":3.0443,"largura_km":160.442,"eixo_na_terra":true},{"t":-1.31667,"lat":25.1132,"lon":3.1812,"largura_km":160.237,"eixo_na_terra":true},{"t":-1.31111,"lat":25.1967,"lon":3.3176,"largura_km":160.034,"eixo_na_terra":true},{"t":-1.30556,"lat":25.2798,"lon":3.4535,"largura_km":159.832,"eixo_na_terra":true},{"t":-1.3,"lat":25.3625,"lon":3.589,"largura_km":159.632,"eixo_na_terra":true},{"t":-1.29444,"lat":25.4448,"lon":3.7239,"largura_km":159.433,"eixo_na_terra":true},{"t":-1.28889,"lat":25.5266,"lon":3.8583,"largura_km":159.235,"eixo_na_terra":true},{"t":-1.28333,"lat":25.608,"lon":3.9923,"largura_km":159.038,"eixo_na_terra":true},{"t":-1.27778,"lat":25.6891,"lon":4.1258,"largura_km":158.844,"eixo_na_terra":true},{"t":-1.27222,"lat":25.7697,"lon":4.2589,"largura_km":158.65,"eixo_na_terra":true},{"t":-1.26667,"lat":25.8499,"lon":4.3915,"largura_km":158.458,"eixo_na_terra":true},{"t":-1.26111,"lat":25.9298,"lon":4.5237,"largura_km":158.267,"eixo_na_terra":true},{"t":-1.25556,"lat":26.0092,"lon":4.6555,"largura_km":158.078,"eixo_na_terra":true},{"t":-1.25,"lat":26.0883,"lon":4.7868,"largura_km":157.889,"eixo_na_terra":true},{"t":-1.24444,"lat":26.1669,"lon":4.9177,"largura_km":157.702,"eixo_na_terra":true}]},"features":[{"type":"Feature","properties":{},"geometry":{"type":"Polygon","coordinates":[[[2.3951819851973255,25.50571943258667],[3.372659544344174,26.097333501020486],[4.313110872200241,26.660409196822616],[5.506233202244289,25.67231318043979],[4.595138463837884,25.11733909253426],[3.6623557883085596,24.542670486908733],[2.3951819851973255,25.50571943258667]]]}}]}