{"type":"FeatureCollection","features":[{"type":"Feature","properties":{"t_inicio":-1.3222222222222317,"t_fim":-1.2444444444444542},"geometry":{"type":"LineString","coordinates":[[3.044314720779653,25.02920316174988],[3.181234522076352,25.113165522287034],[3.3176413382133774,25.19669773963286],[3.4535444862844997,25.279803931567088],[3.588953092629538,25.362488125896288],[3.723876098364258,25.44475426299144],[3.8583222647048956,25.526606198232916],[3.992300178099242,25.608047704366882],[4.125818255170486,25.689082473777077],[4.258884747483876,25.769714120675705],[4.391507746141826,25.849946183216776],[4.523695186217935,25.929782125535404],[4.6554548510331415,26.00922533971604],[4.7867943762840355,26.088279147692845],[4.9177212540271285,26.166946803084816]]}}]}