{"type":"FeatureCollection","properties":{"largura_maxima_km":20.89,"largura_sobre_pt_km":13.33,"linha_central_sobre_pt":false,"desenhavel_como_area":true,"perfil_largura":[{"t":-1.75556,"lat":29.3,"lon":-39.7617,"largura_km":10.2,"eixo_na_terra":true},{"t":-1.75,"lat":28.9686,"lon":-39.0395,"largura_km":11.061,"eixo_na_terra":true},{"t":-1.74444,"lat":28.6589,"lon":-38.3689,"largura_km":11.863,"eixo_na_terra":true},{"t":-1.73889,"lat":28.3673,"lon":-37.7409,"largura_km":12.617,"eixo_na_terra":true},{"t":-1.73333,"lat":28.0911,"lon":-37.1492,"largura_km":13.33,"eixo_na_terra":true},{"t":-1.72778,"lat":27.8282,"lon":-36.5887,"largura_km":14.008,"eixo_na_terra":true},{"t":-1.72222,"lat":27.577,"lon":-36.0555,"largura_km":14.655,"eixo_na_terra":true},{"t":-1.71667,"lat":27.3361,"lon":-35.5463,"largura_km":15.275,"eixo_na_terra":true},{"t":-1.71111,"lat":27.1045,"lon":-35.0585,"largura_km":15.871,"eixo_na_terra":true},{"t":-1.70556,"lat":26.8812,"lon":-34.5899,"largura_km":16.445,"eixo_na_terra":true},{"t":-1.7,"lat":26.6655,"lon":-34.1387,"largura_km":17.0,"eixo_na_terra":true},{"t":-1.69444,"lat":26.4567,"lon":-33.7033,"largura_km":17.536,"eixo_na_terra":true},{"t":-1.68889,"lat":26.2542,"lon":-33.2824,"largura_km":18.056,"eixo_na_terra":true},{"t":-1.68333,"lat":26.0576,"lon":-32.8747,"largura_km":18.56,"eixo_na_terra":true},{"t":-1.67778,"lat":25.8664,"lon":-32.4793,"largura_km":19.051,"eixo_na_terra":true},{"t":-1.67222,"lat":25.6803,"lon":-32.0953,"largura_km":19.528,"eixo_na_terra":true},{"t":-1.66667,"lat":25.4989,"lon":-31.7219,"largura_km":19.993,"eixo_na_terra":true},{"t":-1.66111,"lat":25.3219,"lon":-31.3583,"largura_km":20.447,"eixo_na_terra":true},{"t":-1.65556,"lat":25.149,"lon":-31.0039,"largura_km":20.89,"eixo_na_terra":true}]},"features":[{"type":"Feature","properties":{},"geometry":{"type":"Polygon","coordinates":[[[-39.81793274840143,29.377161420780737],[-39.09433983102787,29.0496316371476],[-37.79276598953234,28.455156834953254],[-36.64143380449579,27.92380468225018],[-35.59615651110096,27.437071586387194],[-34.63705805109788,26.987024739680283],[-33.32566122603896,26.366631169809615],[-32.13497189441574,25.79865809576109],[-31.040090239021225,25.27280214402816],[-30.96419271839767,25.022478268325155],[-32.0521666443218,25.559175706980554],[-33.23552110356391,26.13902493978637],[-34.53911397467195,26.772612249748526],[-35.49273478988735,27.232394676309017],[-36.532318768475164,27.72983654660293],[-37.6815279747444,28.27491492405443],[-38.97712380685627,28.883085586515968],[-39.69778662478748,29.21836709249445],[-39.81793274840143,29.377161420780737]]]}}]}