{"type":"FeatureCollection","features":[{"type":"Feature","properties":{"t_inicio":-1.7555555555555635,"t_fim":-1.6555555555555639},"geometry":{"type":"LineString","coordinates":[[-39.761677793320814,29.30001492977353],[-39.03953842831402,28.96862009704799],[-38.36885904759285,28.65891838980763],[-37.74092940420371,28.36731198748028],[-37.1492335139875,28.091105478808156],[-36.58874670067513,27.828217338613864],[-36.05549802756795,27.577000208736656],[-35.54628507475698,27.336123671571897],[-35.058480863285894,27.104494842657747],[-34.589898967108866,26.881202857384245],[-34.13869672042685,26.66547900934782],[-33.703304145299995,26.456667461528628],[-33.2823707114232,26.254203291557655],[-32.874724748474875,26.057595743499952],[-32.47934202050274,25.866415251761424],[-32.09532105558023,25.6802832476648],[-31.721863537124136,25.49886405213118],[-31.358258543193728,25.321858355080575],[-31.003869749643002,25.148997917609236]]}}]}