{"type":"FeatureCollection","features":[{"type":"Feature","properties":{"magnitude":0.4,"percentagem":40.0,"territorio":"continente"},"geometry":{"type":"LineString","coordinates":[[-5.540000000000106,41.67873820781002],[-5.543322715587006,41.67999999999988],[-5.580000000000105,41.69394033355624],[-5.620000000000104,41.70916291241876],[-5.6484380536875625,41.71999999999988],[-5.660000000000103,41.72440985836326],[-5.700000000000102,41.739689305425614],[-5.7400000000001015,41.754987281387606],[-5.753087562341898,41.75999999999988],[-5.780000000000101,41.77031686391543],[-5.8200000000001,41.78567118644255],[-5.857283151619399,41.79999999999987],[-5.860000000000099,41.801045063746024],[-5.900000000000098,41.81645541611513],[-5.940000000000097,41.83188378143187],[-5.961013866401036,41.839999999999876],[-5.980000000000096,41.847339444687826],[-6.0200000000000955,41.862823317386145],[-6.060000000000095,41.87832489297972],[-6.064315936389002,41.879999999999875],[-6.100000000000094,41.89386180791054],[-6.140000000000093,41.90941836819592],[-6.167174176704227,41.919999999999874],[-6.180000000000092,41.924998724811665],[-6.220000000000091,41.94060995194529],[-6.26000000000009,41.95623836748086],[-6.269614134767701,41.95999999999987],[-6.3000000000000895,41.97189911477344],[-6.340000000000089,41.98758167406778],[-6.371637425155365,41.99999999999987],[-6.380000000000088,42.00328532633056],[-6.420000000000087,42.01902171102407],[-6.460000000000086,42.03477477071309],[-6.473250194503597,42.03999999999987],[-6.500000000000085,42.05055794692916],[-6.540000000000084,42.066364308785175],[-6.574469145859849,42.07999999999987],[-6.580000000000084,42.08218984958906],[-6.620000000000083,42.09804919490293],[-6.660000000000082,42.11392470311068],[-6.6752878830133575,42.11999999999987],[-6.700000000000081,42.129828895987345],[-6.740000000000081,42.14575686452829],[-6.775731678839143,42.15999999999987],[-6.780000000000079,42.16170287830547],[-6.820000000000078,42.17768298828288],[-6.860000000000078,42.193678750569106],[-6.875787880694473,42.19999999999987],[-6.900000000000077,42.20970253993785],[-6.940000000000076,42.225749920886926],[-6.975484359486136,42.23999999999987],[-6.980000000000075,42.24181498451884],[-7.020000000000074,42.257913665204356],[-7.060000000000073,42.27402748933507],[-7.074807962861333,42.279999999999866],[-7.1000000000000725,42.29016944801997],[-7.1400000000000725,42.30633404970123],[-7.1737836949044675,42.319999999999865],[-7.180000000000071,42.32251673340846],[-7.22000000000007,42.338731793837354],[-7.260000000000069,42.35496149076801],[-7.272403169170232,42.359999999999864],[-7.300000000000068,42.3712201854629],[-7.340000000000067,42.387499819772735],[-7.3706835281746255,42.399999999999864],[-7.3800000000000665,42.40379868798399],[-7.420000000000066,42.42012794114265],[-7.460000000000065,42.43647132597188],[-7.468625961519615,42.43999999999986],[-7.500000000000064,42.452845318095875],[-7.540000000000064,42.4692378014456],[-7.566235191494252,42.47999999999986],[-7.580000000000062,42.48565141364471],[-7.620000000000061,42.502092677401734],[-7.660000000000061,42.5185475702957],[-7.663526371323715,42.51999999999986],[-7.70000000000006,42.535035416827014],[-7.740000000000059,42.55153857105583],[-7.760487649056744,42.55999999999986],[-7.780000000000058,42.56806548260693],[-7.820000000000057,42.58461658061451],[-7.857147355971348,42.59999999999986],[-7.860000000000056,42.601182337565994],[-7.900000000000055,42.61778106198939],[-7.940000000000055,42.63439271524776],[-7.953487630457328,42.63999999999986],[-7.980000000000054,42.651031478198256],[-8.020000000000053,42.66769024076427],[-8.049531575330054,42.67999999999986],[-8.060000000000052,42.6843672922981],[-8.100000000000051,42.70107284755424],[-8.14000000000005,42.71779083515781],[-8.145279755344326,42.71999999999986],[-8.18000000000005,42.734539999018864],[-8.220000000000049,42.75130426394917],[-8.24072873750105,42.759999999999856],[-8.260000000000048,42.768091158695846],[-8.300000000000047,42.78490138521009],[-8.335900045153185,42.799999999999855],[-8.340000000000046,42.80172579029678],[-8.380000000000045,42.818581662968555],[-8.420000000000044,42.83544927637978],[-8.430780587405089,42.839999999999854],[-8.460000000000043,42.85234456148297],[-8.500000000000043,42.8692573083084],[-8.525385896185815,42.87999999999985],[-8.540000000000042,42.8861895452787],[-8.580000000000041,42.90314711114001],[-8.619726601791106,42.91999999999985],[-8.62000000000004,42.92011607918365],[-8.66000000000004,42.93711815008605],[-8.700000000000038,42.9541312756752],[-8.713785061363346,42.95999999999985]]}},{"type":"Feature","properties":{"magnitude":0.6,"percentagem":60.0,"territorio":"acores"},"geometry":{"type":"LineString","coordinates":[[-24.04000000000017,38.98449117594498],[-24.07150377119432,38.999999999999936],[-24.08000000000017,39.004184499928584],[-24.120000000000168,39.0238826976371],[-24.152740150988155,39.039999999999935],[-24.160000000000167,39.043575530067194],[-24.200000000000166,39.06327370178971],[-24.233977808740757,39.079999999999934],[-24.240000000000165,39.08296592601874],[-24.280000000000165,39.10266395654852],[-24.315217235975897,39.11999999999993],[-24.320000000000164,39.122355456604986],[-24.360000000000163,39.14205323161008],[-24.396458920976418,39.15999999999993],[-24.400000000000162,39.16174389219471],[-24.44000000000016,39.18144129821303],[-24.477703348830484,39.19999999999993],[-24.48000000000016,39.201131004695064],[-24.52000000000016,39.22082792912982],[-24.558951001476668,39.23999999999993],[-24.56000000000016,39.2405165675431],[-24.600000000000158,39.26021289865804],[-24.640000000000157,39.27990044119147],[-24.64020228913897,39.27999999999993],[-24.680000000000156,39.29959598261191],[-24.720000000000155,39.31928276184407],[-24.721457403210838,39.31999999999993],[-24.760000000000154,39.338976958313864],[-24.800000000000153,39.3586628646755],[-24.802717174890414,39.35999999999993],[-24.840000000000153,39.37835560458596],[-24.88000000000015,39.398040529351526],[-24.883982073781546,39.39999999999993],[-24.92000000000015,39.41773170174138],[-24.96000000000015,39.43741553702437],[-24.965252566561755,39.43999999999993],[-25.00000000000015,39.45710503157608],[-25.04000000000015,39.47678767032423],[-25.046529117023788,39.479999999999926],[-25.080000000000148,39.49647537736012],[-25.120000000000147,39.51615671335088],[-25.127812186116255,39.519999999999925],[-25.160000000000146,39.53584252382937],[-25.200000000000145,39.55552245166508],[-25.209102231984232,39.559999999999924],[-25.240000000000144,39.57520625717694],[-25.28000000000014,39.5948846722803],[-25.29039971000853,39.59999999999992],[-25.320000000000142,39.61456636504472],[-25.36000000000014,39.63424316365414],[-25.37170507284526,39.63999999999992],[-25.40000000000014,39.65392263651509],[-25.44000000000014,39.67359771567993],[-25.453018770464283,39.67999999999992],[-25.48000000000014,39.69327486210237],[-25.520000000000138,39.7129481196784],[-25.534341250187193,39.71999999999992],[-25.560000000000137,39.73262283374443],[-25.60000000000014,39.752294168389234],[-25.615672956725074,39.75999999999992],[-25.640000000000136,39.77196634479429],[-25.680000000000135,39.79163565596258],[-25.69701433221548,39.79999999999991],[-25.720000000000134,39.811305190011815],[-25.760000000000133,39.830972377950864],[-25.778365816258855,39.83999999999992],[-25.800000000000132,39.85063916555524],[-25.84000000000013,39.87030413130034],[-25.859727845954684,39.87999999999992],[-25.88000000000013,39.88996806897295],[-25.92000000000013,39.909630714342725],[-25.941100855937044,39.919999999999916],[-25.96000000000013,39.92929169919494],[-26.000000000000128,39.9489519267869],[-26.02248527840969,39.959999999999916],[-26.040000000000127,39.96860985652472],[-26.080000000000126,39.98826756971068],[-26.10388154318044,39.999999999999915],[-26.120000000000125,40.00792234263094],[-26.160000000000124,40.027577445552375],[-26.185290077695576,40.039999999999914],[-26.200000000000124,40.04722896053903],[-26.240000000000123,40.06688135810264],[-26.26671130707344,40.07999999999991],[-26.280000000000122,40.08652951462298],[-26.32000000000012,40.106179112496186],[-26.348145654137507,40.11999999999991],[-26.36000000000012,40.125823810597176],[-26.40000000000012,40.145470515203556],[-26.429593539449357,40.15999999999991],[-26.44000000000012,40.16511165550804],[-26.480000000000118,40.18475537402288],[-26.51105538134079,40.19999999999991],[-26.520000000000117,40.20439285772597],[-26.560000000000116,40.22403349807173],[-26.59253159594604,40.23999999999991],[-26.600000000000115,40.24366722693699],[-26.640000000000114,40.26330469777891],[-26.67402259723301,40.27999999999991],[-26.680000000000113,40.28293457413471],[-26.720000000000113,40.30256878487633],[-26.755528797034454,40.31999999999991],[-26.76000000000011,40.32219471161217],[-26.80000000000011,40.341825572390846],[-26.837050605078712,40.35999999999991],[-26.84000000000011,40.36144745295363],[-26.88000000000011,40.381074874636184],[-26.918588429019824,40.399999999999906],[-26.92000000000011,40.40069261302659],[-26.960000000000107,40.42031650720487],[-27.000000000000107,40.439930068863134],[-27.00014263704009,40.439999999999905],[-27.040000000000106,40.45955028696006],[-27.080000000000105,40.47916018681298],[-27.08171329953104,40.4799999999999]]}}]}