{"type":"FeatureCollection","features":[{"type":"Feature","properties":{"magnitude":0.2,"de":0.2,"ate":0.5,"percentagem":20.0},"geometry":{"type":"Polygon","coordinates":[[[-22.960149373760206,30.0],[-18.589037504348592,30.0],[-17.62125034734823,33.23999999999993],[-16.653813787918303,36.77999999999986],[-15.670996700093493,40.67999999999977],[-14.673623620636233,44.939999999999685],[-19.20792852596168,44.939999999999685],[-19.467307872963204,43.139999999999716],[-19.80657928503951,41.21999999999976],[-20.216497981466055,39.2399999999998],[-20.684551700737053,37.25999999999985],[-21.19501207964921,35.33999999999989],[-21.746832576926575,33.479999999999926],[-22.34158584080611,31.679999999999964],[-22.960149373760206,30.0]]]}},{"type":"Feature","properties":{"magnitude":0.5,"de":0.5,"ate":0.8,"percentagem":50.0},"geometry":{"type":"Polygon","coordinates":[[[-28.48442383816416,30.0],[-22.960149373760206,30.0],[-22.34158584080611,31.679999999999964],[-21.746832576926575,33.479999999999926],[-21.19501207964921,35.33999999999989],[-20.684551700737053,37.25999999999985],[-20.216497981466055,39.2399999999998],[-19.80657928503951,41.21999999999976],[-19.467307872963207,43.139999999999716],[-19.20792852596168,44.939999999999685],[-34.5,44.939999999999685],[-34.5,43.94898507981941],[-30.119999999999834,43.72692321534144],[-25.739999999999668,43.42247524386105],[-25.439999999999657,43.334236665840706],[-25.15850865829368,43.139999999999716],[-24.918073956304035,42.839999999999726],[-24.7414229619802,42.479999999999734],[-24.583428596295448,41.93999999999974],[-24.48630992127523,41.27999999999976],[-24.454407165787593,40.49999999999977],[-24.488239832546718,39.6599999999998],[-24.59166092190268,38.69999999999981],[-24.751470895028135,37.73999999999984],[-24.975960710906175,36.71999999999986],[-25.25454444617881,35.69999999999988],[-25.56790324945281,34.739999999999895],[-25.919999999999675,33.8199588767549],[-26.313307838288903,32.93999999999994],[-26.721021161659625,32.159999999999954],[-27.165714671003418,31.43999999999997],[-27.59999999999974,30.854933032546054],[-28.019999999999754,30.39347432073473],[-28.48442383816416,30.0]]]}},{"type":"Feature","properties":{"magnitude":0.8,"de":0.8,"ate":0.95,"percentagem":80.0},"geometry":{"type":"Polygon","coordinates":[[[-34.5,30.0],[-28.48442383816416,30.0],[-28.13999999999976,30.28002782018342],[-27.839999999999748,30.57893247679518],[-27.239999999999725,31.331813231554897],[-26.819999999999705,31.98842569701992],[-26.401806224871464,32.75999999999994],[-26.03852794870514,33.53999999999992],[-25.676773398462934,34.439999999999905],[-25.346956732895634,35.399999999999885],[-25.068095576164836,36.359999999999864],[-24.837305718398362,37.319999999999844],[-24.65513339664215,38.27999999999982],[-24.532276589559775,39.17999999999981],[-24.466424971620278,40.01999999999978],[-24.458257606453238,40.79999999999977],[-24.512580506315196,41.519999999999754],[-24.62603345720443,42.119999999999735],[-24.791618358774603,42.599999999999724],[-25.01999999999964,42.98743577031904],[-25.308933445443056,43.25999999999972],[-25.679999999999666,43.41256980327137],[-26.459999999999695,43.479402593925705],[-30.53999999999985,43.75178809980009],[-34.5,43.94898507981941],[-34.5,38.917951908146186],[-30.959999999999866,38.718335701008634],[-27.419999999999728,38.4644939933908],[-27.239999999999725,38.387893332825115],[-27.082214628729968,38.159999999999826],[-27.0021342498477,37.85999999999983],[-26.977660735806708,37.499999999999844],[-27.011267654126165,37.019999999999854],[-27.098677578768076,36.539999999999864],[-27.232293944419464,36.059999999999874],[-27.41999999999973,35.56564294784878],[-27.65999999999974,35.09221352495963],[-27.899999999999746,34.739525830347944],[-28.13999999999976,34.48740929149385],[-28.379999999999768,34.33466410302739],[-28.619999999999777,34.29705743991771],[-34.5,34.642788334167896],[-34.5,30.0]]]}},{"type":"Feature","properties":{"magnitude":0.95,"de":0.95,"ate":0.99,"percentagem":95.0},"geometry":{"type":"Polygon","coordinates":[[[-34.5,34.642788334167896],[-28.499999999999773,34.299770675400744],[-28.319999999999766,34.36300956075752],[-28.13999999999976,34.48740929149385],[-27.949447112457246,34.6799999999999],[-27.72903070786112,34.97999999999989],[-27.388210669991828,35.63999999999988],[-27.112896406366914,36.47999999999986],[-26.98292821769526,37.319999999999844],[-26.98314900610626,37.679999999999836],[-27.02534715626214,37.97999999999983],[-27.11999999999972,38.23934113814941],[-27.239999999999725,38.387893332825115],[-27.41999999999973,38.4644939933908],[-28.859999999999786,38.574184331672456],[-34.5,38.917951908146186],[-34.5,37.60555102918005],[-31.199999999999875,37.41508952027425],[-27.839999999999748,37.17260983887494],[-27.74172925056972,37.139999999999844],[-27.69144734236776,37.079999999999856],[-27.634097456021756,36.77999999999986],[-27.681667150205797,36.41999999999986],[-27.83030985917627,35.99999999999987],[-28.019999999999754,35.70530677289372],[-28.199999999999758,35.57600587696851],[-34.5,35.93057251542046],[-34.5,34.642788334167896]]]}},{"type":"Feature","properties":{"magnitude":0.99,"de":0.99,"ate":2.0,"percentagem":99.0},"geometry":{"type":"Polygon","coordinates":[[[-31.499999999999886,35.77813550552201],[-28.19999999999976,35.57600587696851],[-28.079999999999757,35.64618317982185],[-27.89999999999975,35.87067785354757],[-27.77709841481912,36.11999999999987],[-27.668389946201366,36.47999999999986],[-27.634097456021756,36.77999999999986],[-27.664055126495285,37.019999999999854],[-27.719999999999743,37.12293632176125],[-27.779999999999745,37.16345668139707],[-31.019999999999868,37.403316147123014],[-34.5,37.60555102918005],[-34.5,35.93057251542046],[-31.499999999999886,35.77813550552201]]]}}]}