{"type":"FeatureCollection","properties":{"largura_maxima_km":45.051,"largura_sobre_pt_km":45.051,"linha_central_sobre_pt":false,"desenhavel_como_area":true,"perfil_largura":[{"t":1.91667,"lat":49.674,"lon":-39.7403,"largura_km":33.287,"eixo_na_terra":true},{"t":1.92222,"lat":49.5598,"lon":-39.1146,"largura_km":33.867,"eixo_na_terra":true},{"t":1.92778,"lat":49.4406,"lon":-38.4728,"largura_km":34.465,"eixo_na_terra":true},{"t":1.93333,"lat":49.3162,"lon":-37.8134,"largura_km":35.083,"eixo_na_terra":true},{"t":1.93889,"lat":49.1859,"lon":-37.1347,"largura_km":35.721,"eixo_na_terra":true},{"t":1.94444,"lat":49.0494,"lon":-36.435,"largura_km":36.382,"eixo_na_terra":true},{"t":1.95,"lat":48.9059,"lon":-35.712,"largura_km":37.068,"eixo_na_terra":true},{"t":1.95556,"lat":48.7548,"lon":-34.963,"largura_km":37.781,"eixo_na_terra":true},{"t":1.96111,"lat":48.5951,"lon":-34.1849,"largura_km":38.523,"eixo_na_terra":true},{"t":1.96667,"lat":48.4258,"lon":-33.3737,"largura_km":39.297,"eixo_na_terra":true},{"t":1.97222,"lat":48.2455,"lon":-32.5246,"largura_km":40.105,"eixo_na_terra":true},{"t":1.97778,"lat":48.0526,"lon":-31.6315,"largura_km":40.951,"eixo_na_terra":true},{"t":1.98333,"lat":47.8449,"lon":-30.6865,"largura_km":41.833,"eixo_na_terra":true},{"t":1.98889,"lat":47.6193,"lon":-29.6786,"largura_km":42.75,"eixo_na_terra":true},{"t":1.99444,"lat":47.3718,"lon":-28.5931,"largura_km":43.681,"eixo_na_terra":true},{"t":2.0,"lat":47.0964,"lon":-27.4077,"largura_km":44.557,"eixo_na_terra":true},{"t":2.00556,"lat":46.7834,"lon":-26.0876,"largura_km":45.051,"eixo_na_terra":true},{"t":2.01111,"lat":46.3616,"lon":-24.296,"largura_km":null,"eixo_na_terra":false},{"t":2.01667,"lat":45.8117,"lon":-22.0496,"largura_km":null,"eixo_na_terra":false},{"t":2.02222,"lat":45.1653,"lon":-19.6229,"largura_km":null,"eixo_na_terra":false},{"t":2.02778,"lat":44.8552,"lon":-18.7643,"largura_km":null,"eixo_na_terra":false}]},"features":[{"type":"Feature","properties":{},"geometry":{"type":"Polygon","coordinates":[[[-17.59015425687727,44.3770682259057],[-19.264876452052278,44.81445914941277],[-19.949236757575363,44.99668918696334],[-20.26127819326129,45.08308898455783],[-20.515877655604044,45.15677168854507],[-20.72029641269961,45.21967327257328],[-20.87312253746329,45.27087972533425],[-21.417414068984044,45.39639130664663],[-21.835624028228096,45.49519236422604],[-22.196112200031223,45.583374690681296],[-22.50276334012557,45.66209615805668],[-22.698923285715978,45.71535429024207],[-22.91668821076243,45.778978780108034],[-23.04779699674478,45.82126543136911],[-23.160825031314047,45.8626020254076],[-23.500363467269636,45.933837693297775],[-23.805063665488206,46.000570307263715],[-24.077602179814136,46.06344827331323],[-24.259989166666855,46.107915806270924],[-24.47280890953499,46.16339763792876],[-24.649986448984436,46.21426280170772],[-24.79070050358746,46.260204510891654],[-24.88739125033353,46.297900890323135],[-25.188770576888544,46.35638400266099],[-25.49178808282838,46.4195746824642],[-25.75775665477252,46.48017632029442],[-25.982401185398146,46.53725921028152],[-26.13010475698701,46.57980542009348],[-26.19281515541104,46.5998899001784],[-26.272571505128525,46.62838152973877],[-26.316042347449894,46.64620915356354],[-26.366479499309463,46.67106963966174],[-26.390162183174454,46.68631348507073],[-26.399002590335726,46.693517058402925],[-26.410661477758055,46.70705536197358],[-26.413475039387777,46.71337730884124],[-26.414276449197757,46.719392646474105],[-26.4130658174318,46.72509506393823],[-26.404613998152684,46.735536102740326],[-26.39737816226875,46.74026232681622],[-26.37690774669241,46.74869561725359],[-26.36368472044822,46.75239065570318],[-26.330294061079485,46.75884519179351],[-26.991505374077832,46.78215770957207],[-28.2452820037374,47.08086361547021],[-29.365284011504883,47.34301965038011],[-30.400158797551796,47.580884498030116],[-31.352580999284356,47.796132438630586],[-32.25135492729163,47.99578077608994],[-33.11758664973064,48.184818026821624],[-33.931605880031185,48.35960419395231],[-34.7119637149228,48.52440662412398],[-35.46268463954016,48.68036179822754],[-36.187052866914144,48.82839926128904],[-36.887789592757315,48.96929098149446],[-37.56717917702571,49.10368651772065],[-38.22716115992603,49.23213868717057],[-38.869398778896,49.35512269455453],[-40.10621220144611,49.58628277358534],[-39.34449373887989,49.75906519809439],[-38.04261867743162,49.52279661511436],[-37.36387404756391,49.39644563171683],[-36.66419556499011,49.26395879106828],[-35.94139782831735,49.124737585263134],[-35.18225501228193,48.97590571546909],[-34.40432384287203,48.82079581917467],[-33.59368735364811,48.65633981207607],[-32.745617507666566,48.48125493228282],[-31.854130463153155,48.2939213526274],[-30.9114647577087,48.092242708170204],[-29.907242709591316,47.87342215146046],[-28.80971534435656,47.62958619474851],[-27.630364261106592,47.362514352269585],[-26.32010457986783,47.05970339150975],[-24.820814061509026,46.705625020519086],[-25.5715394735714,46.73209356268023],[-25.308155970227062,46.7017825775847],[-25.05377162087038,46.66754899015222],[-24.71070570106326,46.61509072229284],[-24.420654672320723,46.56581650138069],[-24.121408518458054,46.51065160716702],[-23.818001664699324,46.450399654688894],[-23.516221063493106,46.38612795943887],[-23.222652973641374,46.31919351044349],[-22.878559636726038,46.23433760214285],[-22.631518073707156,46.16791961388017],[-22.41887778956422,46.10521471646516],[-22.328134809277742,46.07598516849664],[-22.2449297486324,46.04699461898714],[-21.838660161177955,45.960738440600906],[-21.412501600371684,45.86503537095268],[-20.97681237207533,45.7619106084006],[-20.647962525528754,45.680584881999216],[-20.21400826404522,45.56855406978566],[-19.89847168628262,45.483470042455416],[-19.503864970187607,45.37196212220641],[-19.194433032397438,45.2790006998929],[-18.476861230162086,45.106436054265394],[-17.913460547525176,44.966527596243424],[-17.11722246653028,44.76367993000179],[-16.298357492230622,44.550264259747685],[-16.67102103228811,44.267695243512335],[-17.05414782666129,44.36634488943424],[-17.121985861665337,44.25309633353541],[-17.59015425687727,44.3770682259057]]]}}]}