{"type":"FeatureCollection","features":[{"type":"Feature","properties":{"t_inicio":1.9166666666666456,"t_fim":2.022222222222201},"geometry":{"type":"LineString","coordinates":[[-39.74031804288353,49.67403788980009],[-39.11463211848567,49.55979943408237],[-38.47278334950386,49.440641600509316],[-37.81336226923577,49.31616809386386],[-37.13474216758539,49.18592265990714],[-36.43502938667265,49.04937545652698],[-35.711997983496786,48.90590515387158],[-34.963002297504744,48.754775002071405],[-34.184857545663505,48.59510017575844],[-33.373672883660134,48.42580215854508],[-32.52461154315034,48.2455432584893],[-31.631534882487188,48.05262951607165],[-30.686453303263363,47.84486106271878],[-29.678638114442094,47.61929029116132],[-28.593096956038437,47.371807098635664],[-27.407747115400667,47.09637058391053],[-26.087598495115373,46.78342939084464],[-24.570835505829905,46.4161456515663],[-22.726354723283578,45.95888587881245],[-20.13992862145136,45.29932535456984]]}}]}