{"type":"FeatureCollection","features":[{"type":"Feature","properties":{"magnitude":0.8,"percentagem":80.0,"territorio":"acores"},"geometry":{"type":"LineString","coordinates":[[-32.0,40.2786144467307],[-31.96,40.26933558300189],[-31.92,40.26005019037586],[-31.880000000000003,40.25075827425388],[-31.840000000000003,40.24145984003489],[-31.833723558720422,40.23999999999991],[-31.800000000000004,40.232157631320696],[-31.760000000000005,40.22284943033763],[-31.720000000000006,40.21353473322491],[-31.680000000000007,40.204213545377655],[-31.661929312438275,40.19999999999991],[-31.640000000000008,40.194887658967325],[-31.60000000000001,40.18555676973083],[-31.56000000000001,40.176219411724574],[-31.52000000000001,40.16687559033979],[-31.49058527192944,40.15999999999991],[-31.48000000000001,40.15752617643866],[-31.440000000000012,40.14817271903168],[-31.400000000000013,40.13881282020803],[-31.360000000000014,40.12944648535496],[-31.320000000000014,40.12007371985741],[-31.31968554979546,40.11999999999991],[-31.280000000000015,40.11069778853226],[-31.240000000000016,40.101315468944264],[-31.200000000000017,40.09192674066863],[-31.160000000000014,40.08253160908625],[-31.14922762056419,40.07999999999991],[-31.12000000000002,40.073132488333314],[-31.08000000000002,40.0637278680089],[-31.040000000000017,40.05431686633089],[-31.00000000000002,40.04489948867605],[-30.979201970802748,40.039999999999914],[-30.960000000000022,40.03547732833674],[-30.920000000000023,40.02605052727673],[-30.880000000000024,40.01661737218904],[-30.840000000000025,40.00717786844617],[-30.80960290291168,39.999999999999915],[-30.800000000000026,39.99773281823827],[-30.760000000000026,39.988283956414364],[-30.720000000000027,39.978828767880024],[-30.680000000000028,39.96936725800352],[-30.64042481197313,39.959999999999916],[-30.64000000000003,39.95989946751977],[-30.60000000000003,39.950428664872426],[-30.56000000000003,39.940951562822946],[-30.520000000000035,39.931468166735165],[-30.480000000000032,39.92197848197067],[-30.471664906529575,39.919999999999916],[-30.440000000000033,39.912485161878166],[-30.400000000000034,39.902986266211265],[-30.360000000000035,39.89348110380042],[-30.320000000000036,39.883969680002764],[-30.30331497850134,39.879999999999924],[-30.280000000000037,39.87445395642746],[-30.240000000000038,39.864933387005145],[-30.20000000000004,39.85540657812328],[-30.16000000000004,39.84587353513447],[-30.135369556570776,39.83999999999992],[-30.12000000000004,39.836335557277124],[-30.08000000000004,39.82679343392358],[-30.040000000000042,39.817245098384454],[-30.000000000000043,39.80769055600777],[-29.96782339484006,39.79999999999992],[-29.960000000000043,39.79813047293698],[-29.920000000000044,39.788566915436434],[-29.880000000000045,39.77899717301344],[-29.840000000000042,39.76942125101135],[-29.800671330698176,39.75999999999992],[-29.800000000000047,39.75983921166181],[-29.760000000000048,39.75025433975646],[-29.72000000000005,39.74066331018052],[-29.68000000000005,39.73106612827264],[-29.64000000000005,39.72146279936906],[-29.63391015091789,39.719999999999914],[-29.60000000000005,39.711856214831236],[-29.560000000000052,39.70224401778872],[-29.520000000000053,39.692625695649596],[-29.48000000000005,39.68300125374533],[-29.467533028375342,39.67999999999992],[-29.440000000000055,39.67337304833499],[-29.400000000000055,39.66373980346558],[-29.360000000000056,39.65410046072267],[-29.320000000000057,39.64445502543286],[-29.30153483828052,39.63999999999992],[-29.280000000000058,39.634805347660425],[-29.24000000000006,39.62515117455495],[-29.20000000000006,39.615490930786464],[-29.160000000000057,39.60582462167658],[-29.135910740736737,39.59999999999992],[-29.12000000000006,39.59615361991035],[-29.080000000000062,39.58647863810876],[-29.040000000000063,39.5767976128415],[-29.000000000000068,39.56711054942521],[-28.970655970845684,39.559999999999924],[-28.960000000000065,39.557418371889455],[-28.920000000000066,39.54772270087858],[-28.880000000000067,39.53802101358588],[-28.84000000000007,39.52831331532289],[-28.805765837202365,39.519999999999925],[-28.800000000000068,39.51860011009585],[-28.76000000000007,39.5088838693073],[-28.72000000000007,39.49916163940681],[-28.68000000000007,39.489433425700696],[-28.64123572042608,39.479999999999926],[-28.64000000000007,39.47969934071254],[-28.600000000000072,39.46996264952059],[-28.560000000000073,39.460219996372146],[-28.520000000000074,39.45047138656832],[-28.480000000000075,39.440716825407804],[-28.47706189607761,39.43999999999993],[-28.440000000000076,39.43095954731844],[-28.400000000000077,39.421196590221946],[-28.360000000000078,39.41142770360537],[-28.32000000000008,39.401652892762066],[-28.313239284757913,39.39999999999993],[-28.28000000000008,39.39187506816656],[-28.24000000000008,39.38209192635979],[-28.20000000000008,39.372302882152894],[-28.160000000000082,39.36250794083385],[-28.14976312893655,39.35999999999993],[-28.120000000000083,39.35270971718779],[-28.080000000000084,39.34290650984426],[-28.040000000000084,39.33309742720477],[-28.00000000000008,39.32328247455185],[-27.986629088380035,39.31999999999993],[-27.960000000000086,39.31346399915337],[-27.920000000000087,39.30364084538019],[-27.880000000000088,39.29381184339896],[-27.84000000000009,39.283976998486715],[-27.823832887886013,39.27999999999993],[-27.80000000000009,39.27413841847435],[-27.76000000000009,39.26429543731001],[-27.72000000000009,39.254446635008904],[-27.680000000000092,39.244592016842425],[-27.661370316009993,39.23999999999993],[-27.640000000000093,39.2347334791928],[-27.600000000000094,39.22487078960503],[-27.560000000000095,39.21500230593465],[-27.520000000000092,39.20512803344744],[-27.499237223821893,39.19999999999993],[-27.480000000000096,39.19524968497297],[-27.440000000000097,39.185367405856574],[-27.400000000000098,39.17547935969423],[-27.3600000000001,39.165585551745934],[-27.337429523689984,39.15999999999993],[-27.3200000000001,39.15568753909258],[-27.2800000000001,39.145785789267265],[-27.2400000000001,39.135878299414685],[-27.200000000000102,39.12596507478904],[-27.175943188093306,39.11999999999993],[-27.160000000000103,39.11604754443384],[-27.120000000000104,39.10612644264207],[-27.080000000000105,39.09619962782334],[-27.040000000000106,39.086267105225915],[-27.01477424845986,39.079999999999934],[-27.000000000000107,39.07633020347479],[-26.960000000000107,39.066389868379574],[-26.92000000000011,39.05644384723883],[-26.88000000000011,39.046492145294955],[-26.853918794032133,39.039999999999935],[-26.84000000000011,39.03653601828015],[-26.80000000000011,39.0265765684629],[-26.76000000000011,39.01661145956234],[-26.720000000000113,39.00664069681482],[-26.693372970757206,38.999999999999936],[-26.680000000000113,38.996665490492596],[-26.640000000000114,38.986687044450974],[-26.600000000000115,38.97670296626852],[-26.560000000000116,38.96671326117553],[-26.533132980202318,38.95999999999994],[-26.520000000000117,38.95671912132369],[-26.480000000000118,38.946721797469394],[-26.44000000000012,38.93671886839664],[-26.400000000000123,38.926710339329595],[-26.373195078494103,38.91999999999994],[-26.36000000000012,38.91669741154493],[-26.32000000000012,38.90668132820157],[-26.280000000000122,38.89665966654158],[-26.240000000000123,38.88663243178292],[-26.213555575281777,38.87999999999994],[-26.200000000000124,38.87660086147883],[-26.160000000000124,38.86656613687975],[-26.120000000000125,38.8565258608449],[-26.080000000000126,38.846480038585945],[-26.054210832722934,38.83999999999994],[-26.040000000000127,38.83642997098988],[-26.000000000000128,38.82637672327599],[-25.96000000000013,38.816317950985784],[-25.92000000000013,38.8062536593246],[-25.8951572644922,38.79999999999994],[-25.88000000000013,38.79618523947549],[-25.84000000000013,38.786113586693105],[-25.800000000000132,38.776036436172056],[-25.760000000000133,38.76595379311126],[-25.736391334811415,38.75999999999994],[-25.720000000000134,38.755867165857026],[-25.680000000000135,38.74577722595578],[-25.640000000000136,38.7356818151312],[-25.600000000000136,38.7255809385758],[-25.577909557500767,38.71999999999994],[-25.560000000000137,38.715476248570795],[-25.520000000000138,38.70536813940132],[-25.48000000000014,38.695254586101285],[-25.44000000000014,38.68513559385661],[-25.419708495051353,38.67999999999994],[-25.40000000000014,38.675012985558894],[-25.36000000000014,38.6648868248709],[-25.320000000000142,38.654755246821956],[-25.280000000000143,38.64461825659139],[-25.26178475771742,38.639999999999944],[-25.240000000000144,38.63447787426029],[-25.200000000000145,38.62433377970026],[-25.160000000000146,38.614184294525394],[-25.120000000000147,38.60402942390839],[-25.10413500262836,38.599999999999945],[-25.080000000000148,38.59387141160174],[-25.04000000000015,38.58370950071081],[-25.00000000000015,38.57354222592728],[-24.96000000000015,38.56336959241706],[-24.946755932920322,38.559999999999945],[-24.92000000000015,38.5531940939887],[-24.88000000000015,38.54301448420061],[-24.840000000000153,38.53282953721777],[-24.800000000000153,38.522639258199334],[-24.78964429688584,38.51999999999994],[-24.760000000000154,38.51244641729636],[-24.720000000000155,38.50224922593524],[-24.680000000000156,38.49204672405247],[-24.640000000000157,38.48183891680038],[-24.632796887142444,38.47999999999995],[-24.600000000000158,38.47162887686052],[-24.56000000000016,38.46141422113878],[-24.52000000000016,38.45119428154337],[-24.48000000000016,38.440969063219676],[-24.47621053981866,38.43999999999995],[-24.44000000000016,38.430741967468606],[-24.400000000000162,38.42050996448487],[-24.360000000000163,38.41027270424985],[-24.320000000000164,38.40003019190196],[-24.31988213375765,38.39999999999995],[-24.280000000000165,38.38978618335066],[-24.240000000000165,38.379536950087605],[-24.20000000000017,38.369282486169695],[-24.1638093352229,38.35999999999995],[-24.160000000000167,38.359023155636294],[-24.120000000000168,38.348762018170284],[-24.08000000000017,38.33849567149259],[-24.04000000000017,38.328224120730034]]}}]}