{"type":"FeatureCollection","features":[{"type":"Feature","properties":{"magnitude":0.6,"percentagem":60.0,"territorio":"continente"},"geometry":{"type":"LineString","coordinates":[[-10.5,40.82908547771185],[-10.46,40.81631591729024],[-10.420000000000002,40.80352874096356],[-10.408974884607339,40.7999999999999],[-10.380000000000003,40.7907272472865],[-10.340000000000003,40.77790936589673],[-10.300000000000004,40.765073811869776],[-10.284207684721132,40.759999999999906],[-10.260000000000005,40.75222334432345],[-10.220000000000006,40.739356982792714],[-10.180000000000007,40.72647289174329],[-10.159929423413072,40.7199999999999],[-10.140000000000008,40.71357334442534],[-10.100000000000009,40.70065834315896],[-10.06000000000001,40.687725555345736],[-10.036135998879935,40.6799999999999],[-10.02000000000001,40.67477682188801],[-9.980000000000011,40.66181302087746],[-9.940000000000012,40.648831376147925],[-9.912823346411868,40.6399999999999],[-9.900000000000013,40.635833349723676],[-9.860000000000014,40.62282058855466],[-9.820000000000014,40.6097899263534],[-9.789987438083429,40.5999999999999],[-9.780000000000015,40.5967424996847],[-9.740000000000016,40.58368061754562],[-9.700000000000017,40.57060077692286],[-9.667624282448893,40.5599999999999],[-9.660000000000018,40.55750384228823],[-9.620000000000019,40.544392677978955],[-9.58000000000002,40.53126349759921],[-9.545729924242467,40.519999999999904],[-9.54000000000002,40.51811694684169],[-9.500000000000021,40.504956338782414],[-9.460000000000022,40.491777656933756],[-9.424300444083059,40.479999999999905],[-9.420000000000023,40.478581381468935],[-9.380000000000024,40.46537116770953],[-9.340000000000025,40.45214282231281],[-9.303331958183383,40.439999999999905],[-9.300000000000026,40.43889671313751],[-9.260000000000026,40.42563673136699],[-9.220000000000027,40.412358559985556],[-9.182820618063687,40.399999999999906],[-9.180000000000028,40.399062507686544],[-9.140000000000029,40.38575259524292],[-9.10000000000003,40.37242443509239],[-9.062762610270473,40.35999999999991],[-9.06000000000003,40.35907832985544],[-9.020000000000032,40.34571832373586],[-8.980000000000032,40.33234001169448],[-8.943154156098677,40.31999999999991],[-8.940000000000033,40.3189437433137],[-8.900000000000034,40.305533480184934],[-8.860000000000035,40.29210485280403],[-8.823991511318088,40.27999999999991],[-8.820000000000036,40.278658310691725],[-8.780000000000037,40.26519762690071],[-8.740000000000038,40.25171852041562],[-8.705270965905274,40.23999999999991],[-8.700000000000038,40.23822159361203],[-8.66000000000004,40.224710325197066],[-8.62000000000004,40.211180575538165],[-8.586988843778498,40.19999999999991],[-8.580000000000041,40.19763315272195],[-8.540000000000042,40.18407113542402],[-8.500000000000043,40.170490578228275],[-8.469141502537006,40.15999999999991],[-8.460000000000043,40.15689254772707],[-8.420000000000044,40.143279617001554],[-8.380000000000045,40.12964808762425],[-8.351725333204682,40.11999999999991],[-8.340000000000046,40.11599933742567],[-8.300000000000047,40.10233532845433],[-8.260000000000048,40.0886526619812],[-8.234736759977535,40.07999999999991],[-8.220000000000049,40.07495307974414],[-8.18000000000005,40.061237827447464],[-8.14000000000005,40.047503858707245],[-8.118172239975147,40.039999999999914],[-8.100000000000051,40.03375333177345],[-8.060000000000052,40.019986670823364],[-8.020000000000053,40.006201234400514],[-8.002028262996033,39.999999999999915],[-7.980000000000054,39.99239964980669],[-7.940000000000055,39.97858141463969],[-7.900000000000056,39.96474434488754],[-7.886301351276746,39.959999999999916],[-7.860000000000056,39.95089158937769],[-7.820000000000057,39.93702161420806],[-7.780000000000058,39.92313274526245],[-7.770988059255039,39.919999999999916],[-7.740000000000059,39.90922870530052],[-7.70000000000006,39.8953068241342],[-7.66000000000006,39.88136598992719],[-7.656084973336938,39.87999999999992],[-7.620000000000061,39.867410551710336],[-7.580000000000062,39.8534365983591],[-7.541590002839321,39.83999999999992],[-7.540000000000063,39.83944382545094],[-7.500000000000064,39.825436682105305],[-7.460000000000065,39.81141049020117],[-7.427501990331958,39.79999999999992],[-7.420000000000066,39.79736613839069],[-7.3800000000000665,39.783306649389566],[-7.340000000000068,39.76922805239968],[-7.313814414606332,39.75999999999992],[-7.300000000000068,39.75513200720063],[-7.260000000000069,39.74102000591732],[-7.22000000000007,39.72688883715934],[-7.200523980722271,39.71999999999992],[-7.180000000000071,39.712740983869686],[-7.140000000000072,39.698576303538424],[-7.1000000000000725,39.68439239619606],[-7.087627424636886,39.67999999999992],[-7.060000000000073,39.670192619912996],[-7.020000000000074,39.65597509364475],[-6.980000000000075,39.6417382807839],[-6.975121512991992,39.63999999999992],[-6.940000000000076,39.62748646641919],[-6.900000000000077,39.6132159272181],[-6.863005425389828,39.59999999999992],[-6.860000000000078,39.5989264107875],[-6.820000000000078,39.584622074099144],[-6.780000000000078,39.57029835487922],[-6.751277742737921,39.559999999999924],[-6.74000000000008,39.55595661753542],[-6.700000000000081,39.54159899333578],[-6.660000000000082,39.52722192693818],[-6.639931428411489,39.519999999999925],[-6.620000000000083,39.512827853136336],[-6.580000000000084,39.498416774235444],[-6.540000000000084,39.4839861934459],[-6.52896336300428,39.479999999999926],[-6.500000000000085,39.46953966751564],[-6.460000000000086,39.45507496668019],[-6.420000000000087,39.440590704247164],[-6.418370456818078,39.43999999999993],[-6.380000000000088,39.42609161041004],[-6.34000000000009,39.41157312038175],[-6.308155983289858,39.39999999999993],[-6.3000000000000895,39.397036020255015],[-6.26000000000009,39.38248323142232],[-6.220000000000091,39.36791078493671],[-6.198312066474589,39.35999999999993],[-6.180000000000092,39.3533209329002],[-6.140000000000093,39.33871408007743],[-6.100000000000094,39.32408750988304],[-6.088834425891979,39.31999999999993],[-6.060000000000095,39.3094447899167],[-6.0200000000000955,39.29478370588002],[-5.980000000000096,39.28010284475808],[-5.979720082214839,39.27999999999993],[-5.940000000000097,39.265407140801656],[-5.900000000000098,39.25069165837341],[-5.87097446618352,39.23999999999993],[-5.860000000000099,39.23595770999346],[-5.8200000000001,39.221207535130716],[-5.780000000000101,39.20643748719993],[-5.762586680907576,39.19999999999993],[-5.7400000000001015,39.19165037034981],[-5.700000000000102,39.176845522619445],[-5.660000000000103,39.162020742162674],[-5.654553611537594,39.15999999999993],[-5.620000000000104,39.14718034072892],[-5.580000000000105,39.13232065318618],[-5.546877574148536,39.11999999999993],[-5.540000000000106,39.117441836812624]]}},{"type":"Feature","properties":{"magnitude":0.4,"percentagem":40.0,"territorio":"acores"},"geometry":{"type":"LineString","coordinates":[[-32.0,38.40690164082242],[-31.96,38.40078872284125],[-31.95484802059992,38.39999999999995],[-31.92,38.39466615636493],[-31.880000000000003,38.388532756870475],[-31.840000000000003,38.38238830892248],[-31.800000000000004,38.37623280116206],[-31.760000000000005,38.37006622221003],[-31.720000000000006,38.36388856066681],[-31.694866395747507,38.35999999999995],[-31.680000000000007,38.35770039984257],[-31.640000000000008,38.351502142391396],[-31.60000000000001,38.345292771694076],[-31.56000000000001,38.339072276276454],[-31.52000000000001,38.332840644643824],[-31.48000000000001,38.32659786528081],[-31.44000000000001,38.320343926651404],[-31.437804056051444,38.31999999999995],[-31.400000000000013,38.314080346920655],[-31.360000000000014,38.30780567731465],[-31.320000000000014,38.301519817412185],[-31.280000000000015,38.295222755601756],[-31.240000000000016,38.288914480250966],[-31.200000000000017,38.28259497970656],[-31.1836033536665,38.27999999999995],[-31.160000000000018,38.27626520640572],[-31.12000000000002,38.26992485780085],[-31.08000000000002,38.263573252647724],[-31.04000000000002,38.257210379216744],[-31.00000000000002,38.25083622575717],[-30.96000000000002,38.24445078049721],[-30.932167964821943,38.23999999999995],[-30.920000000000023,38.23805453332952],[-30.880000000000024,38.231648121662055],[-30.840000000000025,38.225230386511456],[-30.800000000000026,38.2188013160287],[-30.760000000000026,38.212360898343455],[-30.720000000000027,38.20590912156406],[-30.683428635896664,38.19999999999995],[-30.680000000000028,38.19944611646183],[-30.64000000000003,38.192973253651374],[-30.60000000000003,38.186488999732305],[-30.56000000000003,38.17999334273492],[-30.52000000000003,38.17348627066797],[-30.480000000000032,38.16696777151861],[-30.440000000000037,38.16043783325241],[-30.437322529284142,38.159999999999954],[-30.400000000000034,38.153898014514624],[-30.360000000000035,38.14734684898859],[-30.320000000000036,38.140784211938666],[-30.280000000000037,38.13421009125135],[-30.240000000000038,38.12762447479134],[-30.200000000000035,38.121027350401505],[-30.19378143435185,38.119999999999955],[-30.16000000000004,38.11442014073812],[-30.12000000000004,38.10780166665543],[-30.08000000000004,38.10117165189628],[-30.040000000000042,38.094530084223635],[-30.00000000000004,38.087876951378405],[-29.960000000000043,38.0812122410794],[-29.952736651077203,38.079999999999956],[-29.920000000000044,38.07453734429459],[-29.880000000000045,38.06785116055045],[-29.840000000000046,38.061153366262744],[-29.800000000000047,38.0544439490695],[-29.760000000000048,38.04772289658651],[-29.72000000000005,38.040990196407236],[-29.71412692080176,38.03999999999996],[-29.68000000000005,38.0342473123877],[-29.64000000000005,38.027493013678196],[-29.60000000000005,38.020727033835755],[-29.560000000000052,38.01394936037218],[-29.520000000000053,38.00715998077685],[-29.480000000000054,38.00035888251651],[-29.477892762841474,37.99999999999996],[-29.440000000000055,37.99354770719545],[-29.400000000000055,37.986724883973146],[-29.360000000000056,37.97989030829865],[-29.320000000000057,37.97304396755623],[-29.280000000000058,37.96618584910741],[-29.243982679470705,37.95999999999996],[-29.24000000000006,37.959316115395126],[-29.20000000000006,37.95243616561201],[-29.16000000000006,37.94554440404153],[-29.12000000000006,37.938640817961975],[-29.080000000000062,37.93172539462877],[-29.040000000000063,37.924798121274264],[-29.01234106373339,37.91999999999996],[-29.000000000000064,37.91785953261583],[-28.960000000000065,37.91091029898865],[-28.920000000000066,37.903949180901954],[-28.880000000000067,37.89697616550403],[-28.84000000000007,37.88999123992],[-28.800000000000068,37.8829943912518],[-28.782909918812802,37.87999999999996],[-28.76000000000007,37.87598663213849],[-28.72000000000007,37.868967692873525],[-28.68000000000007,37.861936795725136],[-28.64000000000007,37.854893927710286],[-28.600000000000072,37.84783907582252],[-28.560000000000073,37.84077222703192],[-28.555636140336865,37.83999999999996],[-28.520000000000074,37.833694977861725],[-28.480000000000075,37.826605906750586],[-28.440000000000076,37.81950480357269],[-28.400000000000077,37.81239165521226],[-28.360000000000078,37.805266448529935],[-28.330484245513713,37.79999999999996],[-28.32000000000008,37.79812964723695],[-28.28000000000008,37.79098210740305],[-28.24000000000008,37.78382247377778],[-28.20000000000008,37.776650733135135],[-28.160000000000082,37.76946687222532],[-28.120000000000083,37.76227087777466],[-28.107397591035372,37.75999999999996],[-28.080000000000084,37.75506399376691],[-28.040000000000084,37.74784553183667],[-28.000000000000085,37.740614900524534],[-27.960000000000086,37.73337208646943],[-27.920000000000087,37.726117076286144],[-27.886330162553786,37.71999999999996],[-27.880000000000088,37.71885014908541],[-27.84000000000009,37.711572558398075],[-27.80000000000009,37.70428273543033],[-27.76000000000009,37.696980666708825],[-27.72000000000009,37.68966633873591],[-27.680000000000092,37.68233973798967],[-27.667246752347857,37.679999999999964],[-27.640000000000093,37.675002121145596],[-27.600000000000094,37.66765280291595],[-27.560000000000095,37.6602911753824],[-27.5200000000001,37.65291722493396],[-27.480000000000096,37.64553093793512],[-27.450096915230716,37.639999999999965],[-27.440000000000097,37.63813277469459],[-27.400000000000098,37.63072365495536],[-27.3600000000001,37.623302161818344],[-27.3200000000001,37.61586828155825],[-27.280000000000104,37.60842200042516],[-27.2400000000001,37.60096330464431],[-27.234842144925018,37.599999999999966],[-27.200000000000102,37.59349383032992],[-27.160000000000103,37.586012162130984],[-27.120000000000104,37.57851804205177],[-27.080000000000105,37.5710114562269],[-27.040000000000106,37.56349239076612],[-27.02145112418224,37.55999999999997],[-27.000000000000107,37.55596185452537],[-26.960000000000107,37.548419699117865],[-26.92000000000011,37.5408650265194],[-26.88000000000011,37.53329782274831],[-26.84000000000011,37.52571807379784],[-26.80987374811548,37.51999999999997],[-26.80000000000011,37.51812623962876],[-26.76000000000011,37.510523282156605],[-26.720000000000113,37.50290774162499],[-26.680000000000113,37.495279603935046],[-26.640000000000114,37.48763885496262],[-26.6000758785932,37.47999999999997],[-26.600000000000115,37.47998548422557],[-26.560000000000116,37.47232140710215],[-26.520000000000117,37.46464468048856],[-26.480000000000118,37.456955290167855],[-26.44000000000012,37.449253221897536],[-26.40000000000012,37.44153846140962],[-26.392035835545272,37.43999999999997],[-26.36000000000012,37.433812556183916],[-26.32000000000012,37.42607432258356],[-26.280000000000122,37.41832335815985],[-26.240000000000123,37.410559648551065],[-26.200000000000124,37.40278317936983],[-26.185706750068384,37.39999999999997],[-26.160000000000124,37.39499519790353],[-26.120000000000125,37.38719513363456],[-26.080000000000126,37.37938227085424],[-26.04000000000013,37.37155659508075],[-26.000000000000128,37.36371809180638],[-25.98105664709776,37.35999999999997],[-25.96000000000013,37.355867786932464],[-25.92000000000013,37.34800556551514],[-25.88000000000013,37.340130477322376],[-25.84000000000013,37.332242507751396],[-25.800000000000132,37.32434164217324],[-25.77805435402088,37.31999999999997],[-25.760000000000133,37.31642876401038],[-25.720000000000134,37.308504056146184],[-25.680000000000135,37.30056641266214],[-25.640000000000136,37.292615818833525],[-25.600000000000136,37.28465225990938],[-25.576669371032487,37.27999999999997],[-25.560000000000137,37.27667655584379],[-25.520000000000138,37.26868902939475],[-25.48000000000014,37.26068849789678],[-25.44000000000014,37.25267494650246],[-25.40000000000014,37.244648360337806],[-25.376871853983005,37.239999999999974],[-25.36000000000014,37.23660957500516],[-25.320000000000142,37.22855889497317],[-25.280000000000143,37.220495139874416],[-25.240000000000144,37.21241829473777],[-25.200000000000145,37.204328344565425],[-25.17863259778277,37.199999999999974],[-25.160000000000146,37.19622621983273],[-25.120000000000147,37.188112048339235],[-25.080000000000148,37.17998473116808],[-25.04000000000015,37.1718442532236],[-25.000000000000146,37.16369059938329],[-24.981923020344095,37.159999999999975],[-24.96000000000015,37.15552487433096],[-24.92000000000015,37.147346870596564],[-24.88000000000015,37.13915564997643],[-24.840000000000153,37.1309511972495],[-24.800000000000153,37.12273349716773],[-24.78671514704034,37.119999999999976],[-24.760000000000154,37.11450390807163],[-24.720000000000155,37.1062617283961],[-24.680000000000156,37.09800626002539],[-24.640000000000157,37.0897374876123],[-24.600000000000158,37.08145539578231],[-24.592981595663854,37.07999999999998],[-24.56000000000016,37.07316167609612],[-24.52000000000016,37.06485497383828],[-24.48000000000016,37.056534910470546],[-24.44000000000016,37.04820147051858],[-24.400696537321718,37.03999999999998],[-24.400000000000162,37.03985467470048],[-24.360000000000163,37.03149651881809],[-24.320000000000164,37.02312494437637],[-24.280000000000165,37.014739935800584],[-24.240000000000165,37.0063414774885],[-24.209844527458976,36.99999999999998],[-24.200000000000166,36.99793006906667],[-24.160000000000167,36.989506761927764],[-24.120000000000168,36.981069962720575],[-24.08000000000017,36.97261965574178],[-24.040000000000166,36.96415582526046]]}}]}