{"type":"FeatureCollection","properties":{"largura_maxima_km":23.609,"largura_sobre_pt_km":20.34,"linha_central_sobre_pt":false,"desenhavel_como_area":true,"perfil_largura":[{"t":-1.91667,"lat":25.566,"lon":-9.6956,"largura_km":null,"eixo_na_terra":false},{"t":-1.91111,"lat":26.538,"lon":-7.6147,"largura_km":null,"eixo_na_terra":false},{"t":-1.90556,"lat":27.3523,"lon":-5.8304,"largura_km":null,"eixo_na_terra":false},{"t":-1.9,"lat":27.9662,"lon":-4.5016,"largura_km":23.609,"eixo_na_terra":true},{"t":-1.89444,"lat":28.4572,"lon":-3.4622,"largura_km":23.247,"eixo_na_terra":true},{"t":-1.88889,"lat":28.8925,"lon":-2.5482,"largura_km":22.294,"eixo_na_terra":true},{"t":-1.88333,"lat":29.2879,"lon":-1.7238,"largura_km":21.302,"eixo_na_terra":true},{"t":-1.87778,"lat":29.6527,"lon":-0.9674,"largura_km":20.34,"eixo_na_terra":true},{"t":-1.87222,"lat":29.9931,"lon":-0.2649,"largura_km":19.42,"eixo_na_terra":true},{"t":-1.86667,"lat":30.3136,"lon":0.3934,"largura_km":18.544,"eixo_na_terra":true},{"t":-1.86111,"lat":30.6174,"lon":1.0148,"largura_km":17.708,"eixo_na_terra":true},{"t":-1.85556,"lat":30.9067,"lon":1.6047,"largura_km":16.909,"eixo_na_terra":true},{"t":-1.85,"lat":31.1835,"lon":2.1674,"largura_km":16.143,"eixo_na_terra":true},{"t":-1.84444,"lat":31.4493,"lon":2.7063,"largura_km":15.408,"eixo_na_terra":true},{"t":-1.83889,"lat":31.7054,"lon":3.2241,"largura_km":14.701,"eixo_na_terra":true},{"t":-1.83333,"lat":31.9526,"lon":3.7231,"largura_km":14.019,"eixo_na_terra":true},{"t":-1.82778,"lat":32.1919,"lon":4.2052,"largura_km":13.359,"eixo_na_terra":true},{"t":-1.82222,"lat":32.424,"lon":4.6719,"largura_km":12.721,"eixo_na_terra":true}]},"features":[{"type":"Feature","properties":{},"geometry":{"type":"Polygon","coordinates":[[[-7.871733579856652,26.325751209894193],[-7.86259453761221,26.321236899125545],[-7.860854409677927,26.317842877089905],[-7.861002163379283,26.31369569456773],[-7.866972883706694,26.303152782005608],[-7.872804464865396,26.296761110275707],[-7.890190356691221,26.28174310991739],[-7.915261306481284,26.263746078090023],[-7.96746839030709,26.231142514431472],[-8.0649743200957,26.17705865764962],[-8.159769662356155,26.128314682014153],[-8.316629403076888,26.051856499506705],[-8.45868623222924,25.98530504119844],[-8.747488076537707,25.85455446036582],[-9.114581730033194,25.69332497989855],[-10.477697681116013,25.10828718842046],[-11.075908242778212,24.84950590905758],[-11.216887200763779,25.056845532167557],[-10.600607900670013,25.319052279785968],[-10.081872224464917,25.536222931910867],[-9.594590480915372,25.73571434423668],[-9.199251936373788,25.89285158570886],[-9.206694781867043,25.895056052005888],[-9.208736331971124,25.898535421380622],[-9.207339371452974,25.90342795621545],[-9.194320616526795,25.917385478129425],[-9.168028513033391,25.936706054738558],[-9.129154902747985,25.96104001199484],[-9.078632029224934,25.98993791734613],[-8.947132244766237,26.05932124191499],[-8.783096284992155,26.14044816108009],[-8.546485446583176,26.25195565623146],[-8.341781114110177,26.34486134147961],[-8.07728989825506,26.460964725547896],[-7.708007552454831,26.616242722557427],[-7.357114883370457,26.756173253351193],[-7.038038909834654,26.875925727842194],[-6.769266798441372,26.969646179447516],[-6.796059560764036,26.97031395300114],[-6.807089146334704,26.97370655004829],[-6.812081499451551,26.979471591355104],[-6.810999447746667,26.98758021430084],[-6.803866560572203,26.997979037806385],[-6.782020118358616,27.017696530830158],[-6.747279863115693,27.042035744439637],[-6.700423371264776,27.0705473695835],[-6.598179441289005,27.125884539908547],[-6.470634019735542,27.188602239190978],[-6.323975078338037,27.255831536046326],[-6.131628574482988,27.338559578577133],[-5.931200098114289,27.419462940310268],[-5.699464377796346,27.50675253769528],[-5.481798543039474,27.582208051067322],[-5.288268267914589,27.642698276795034],[-5.126724208344569,27.686233002968653],[-5.068808903513343,27.699411967140037],[-5.003072649383569,27.71176515251606],[-4.962776936983914,27.717103043843167],[-4.92152216006815,27.71901148516045],[-4.894920794311076,27.715049304615825],[-4.8872133984055495,27.71090857997413],[-4.883269059342581,27.705356767380284],[-4.883102139938103,27.698419125710362],[-4.886717966889364,27.690123809880824],[-4.9052735978687,27.66958687456901],[-4.9387945569233125,27.64402710019301],[-4.973585220075904,27.62175507950903],[-5.032490917621601,27.588215297080055],[-5.1051585263585935,27.550657161650033],[-5.263027592802473,27.47666110087573],[-5.484762183804321,27.38245522911292],[-5.706006022204747,27.295526378342387],[-5.975702552051928,27.19677273384231],[-6.2117770847649805,27.116446200349024],[-6.189294277090198,27.116610701964092],[-6.175083439903176,27.114616267195522],[-6.165749595630302,27.110700499569244],[-6.162917989049959,27.108029837621572],[-6.1609350048190095,27.101279321742748],[-6.1671786099728365,27.087682651192463],[-6.177491172100474,27.076347008618452],[-6.2128531194505285,27.048365846351608],[-6.284516691747115,27.00378271015154],[-6.363529274601717,26.96078853185661],[-6.461420008665073,26.91162891106875],[-6.577679349187179,26.85665748706686],[-6.711639466104145,26.79626519702942],[-6.862447046964405,26.730889856900628],[-7.1635175741882335,26.606034822815964],[-7.50483516739564,26.470811274886206],[-7.882276876130976,26.32697863553583],[-7.871733579856652,26.325751209894193]]]}},{"type":"Feature","properties":{},"geometry":{"type":"Polygon","coordinates":[[[-2.9117711091257092,28.836957310124788],[-2.042766469575838,29.24679512981663],[-1.2516298924275588,29.622231491855803],[-0.5259161681223077,29.968428140497828],[0.8021445631374604,30.606291665146998],[2.5398316975067132,31.448153871972522],[4.547873328398396,32.42931648232157],[4.790785019937573,32.41735702555867],[3.3714626396002245,31.70257146880182],[2.335495926687315,31.183399667172754],[1.2121991082618706,30.62334666069884],[-0.028933624081560083,30.008615173779894],[-1.4391190723201817,29.31611841521487],[-2.233614089274454,28.929077768284486],[-3.1084103274801578,28.50567653430268],[-4.132247877305588,28.01514865058492],[-4.970001671913508,27.877544351716857],[-3.8860926546925043,28.380803704123853],[-2.9117711091257092,28.836957310124788]]]}}]}