{"type":"FeatureCollection","features":[{"type":"Feature","properties":{"t_inicio":-1.916666666666674,"t_fim":-1.82222222222223},"geometry":{"type":"LineString","coordinates":[[-10.250205101715153,25.336341172150714],[-7.3299804882128115,26.653254392614933],[-5.7345638072126235,27.389549562255414],[-4.501589531985417,27.966212199479273],[-3.462247142218473,28.45721129529859],[-2.5482190636670907,28.892522202234595],[-1.7237543535326836,29.287851109299282],[-0.9673642849535327,29.65265012662444],[-0.264940108710789,29.993132647849933],[0.3933705488045689,30.313642701590748],[1.0147689980931887,30.617359098993465],[1.6047074394116976,30.906691282989026],[2.1674310858339823,31.183517386780984],[2.706321731589867,31.449335185241477],[3.2241250026568196,31.70536199501825],[3.723106072487724,31.9526031648684],[4.205159574085883,32.191900445777925],[4.671889169006363,32.42396702658222]]}}]}