{"type":"FeatureCollection","features":[{"type":"Feature","properties":{"magnitude":0.8,"percentagem":80.0,"territorio":"continente"},"geometry":{"type":"LineString","coordinates":[[-5.540000000000106,36.9213801620861],[-5.542762596167248,36.91999999999998],[-5.580000000000105,36.90140416446933],[-5.620000000000104,36.881427452251074],[-5.622858548516402,36.87999999999998],[-5.660000000000103,36.861460500042526],[-5.700000000000102,36.84149290796556],[-5.702990995274134,36.83999999999998],[-5.7400000000001015,36.82153508355145],[-5.780000000000101,36.80157670496776],[-5.783160340547485,36.79999999999998],[-5.8200000000001,36.781628090196264],[-5.860000000000099,36.761679018048746],[-5.863366988270855,36.759999999999984],[-5.900000000000098,36.741739694229814],[-5.940000000000097,36.72180002105138],[-5.943611342214188,36.719999999999985],[-5.980000000000096,36.7018700689566],[-6.0200000000000955,36.68193988686971],[-6.023893805991642,36.679999999999986],[-6.060000000000095,36.66201938673207],[-6.100000000000094,36.64209878744765],[-6.104214783068838,36.639999999999986],[-6.140000000000093,36.622187818961535],[-6.180000000000092,36.602276893778374],[-6.184574676771339,36.59999999999999],[-6.220000000000091,36.58237553609966],[-6.26000000000009,36.56247437590362],[-6.264973890292683,36.55999999999999],[-6.3000000000000895,36.54258270764944],[-6.340000000000089,36.52269140291295],[-6.34541282670249,36.51999999999999],[-6.380000000000088,36.50280950216178],[-6.420000000000087,36.482928142942924],[-6.425891888953812,36.47999999999999],[-6.460000000000086,36.46305608723479],[-6.500000000000085,36.44318476317687],[-6.506411479891744,36.43999999999999],[-6.540000000000084,36.4233226295131],[-6.580000000000084,36.40346142984397],[-6.586972002260763,36.39999999999999],[-6.620000000000083,36.38360929468767],[-6.660000000000082,36.363758308219],[-6.6675738587127205,36.35999999999999],[-6.700000000000081,36.34391624749507],[-6.74000000000008,36.324075562621985],[-6.748217451814851,36.31999999999999],[-6.780000000000079,36.30424365171723],[-6.820000000000078,36.2844133564177],[-6.828903184057275,36.279999999999994],[-6.860000000000078,36.26459167018106],[-6.900000000000077,36.24477185201529],[-6.909631457860522,36.239999999999995],[-6.940000000000076,36.224960464758176],[-6.980000000000075,36.20515121086827],[-6.9904026755838515,36.199999999999996],[-7.020000000000074,36.185350196364794],[-7.060000000000073,36.16555159347412],[-7.071217239532208,36.16],[-7.1000000000000725,36.14576102496135],[-7.140000000000072,36.12597315937429],[-7.152075551964442,36.12],[-7.180000000000071,36.10619310955265],[-7.22000000000007,36.08641606715391],[-7.232978015100306,36.08],[-7.260000000000069,36.066646608187554],[-7.300000000000068,36.04688047444201],[-7.313925031128535,36.04],[-7.340000000000067,36.02712167795913],[-7.3800000000000665,36.007366537911366],[-7.3949170022141395,36.0]]}},{"type":"Feature","properties":{"magnitude":0.2,"percentagem":20.0,"territorio":"acores"},"geometry":{"type":"LineString","coordinates":[[-27.58533863705896,40.479999999999905],[-27.560000000000095,40.45466136294104],[-27.545364392320156,40.439999999999905],[-27.520000000000095,40.41463560767984],[-27.505390083050898,40.399999999999906],[-27.480000000000096,40.3746099169491],[-27.46541570944433,40.3599999999999],[-27.440000000000094,40.33458429055567],[-27.400000000000098,40.33457623456706],[-27.38544930621607,40.31999999999991],[-27.3600000000001,40.29455069378394],[-27.34547478311866,40.27999999999991],[-27.3200000000001,40.25452521688135],[-27.305500196331757,40.23999999999991],[-27.2800000000001,40.214499803668254],[-27.265525546045772,40.19999999999991],[-27.2400000000001,40.17447445395424],[-27.22555083245053,40.15999999999991],[-27.200000000000102,40.134449167549484],[-27.160000000000103,40.13444122320914],[-27.1455839789892,40.11999999999991],[-27.120000000000104,40.09441602101082],[-27.105609118326967,40.07999999999991],[-27.080000000000105,40.05439088167305],[-27.065634194991937,40.039999999999914],[-27.040000000000106,40.01436580500808],[-27.025659209171263,39.999999999999915],[-27.000000000000107,39.974340790828755],[-26.985684161051502,39.959999999999916],[-26.960000000000107,39.93431583894853],[-26.920000000000105,39.93430800427405],[-26.905716864778007,39.919999999999916],[-26.88000000000011,39.89428313522202],[-26.86574167197173,39.87999999999992],[-26.84000000000011,39.8542583280283],[-26.825766417491646,39.83999999999992],[-26.80000000000011,39.81423358250838],[-26.78579110152169,39.79999999999992],[-26.760000000000108,39.774208898478335],[-26.74581572424521,39.75999999999992],[-26.720000000000113,39.73418427575482],[-26.680000000000113,39.73417654880478],[-26.66584799244366,39.71999999999992],[-26.64000000000011,39.69415200755637],[-26.625872472818514,39.67999999999992],[-26.600000000000115,39.65412752718152],[-26.585896892501136,39.639999999999915],[-26.560000000000112,39.6141031074989],[-26.545921251672297,39.59999999999992],[-26.520000000000117,39.57407874832774],[-26.505945550512173,39.559999999999924],[-26.48000000000012,39.534054449487876],[-26.44000000000012,39.534046828360836],[-26.42597739033237,39.519999999999925],[-26.400000000000123,39.49402260966768],[-26.386001549119538,39.47999999999993],[-26.36000000000012,39.45399845088051],[-26.346025648178923,39.43999999999993],[-26.32000000000012,39.41397435182113],[-26.306049687688155,39.39999999999993],[-26.280000000000122,39.37395031231189],[-26.266073667824315,39.35999999999993],[-26.240000000000123,39.333926332175736],[-26.200000000000124,39.3339188150094],[-26.186105086284257,39.31999999999993],[-26.160000000000124,39.293894913715796],[-26.14612892862252,39.27999999999993],[-26.120000000000125,39.25387107137753],[-26.106152712180588,39.23999999999993],[-26.080000000000126,39.21384728781947],[-26.066176437133027,39.19999999999993],[-26.040000000000127,39.173823562867035],[-26.026200103653846,39.15999999999993],[-26.000000000000128,39.13379989634622],[-25.986223711916505,39.11999999999993],[-25.960000000000132,39.09377628808356],[-25.92000000000013,39.093768892357915],[-25.906254638579448,39.079999999999934],[-25.88000000000013,39.05374536142061],[-25.86627811166757,39.039999999999935],[-25.84000000000013,39.01372188833249],[-25.82630152707806,38.999999999999936],[-25.800000000000132,38.97369847292201],[-25.78632488498191,38.95999999999994],[-25.760000000000133,38.93367511501816],[-25.746348185549586,38.919999999999945],[-25.720000000000134,38.89365181445049],[-25.706371428950987,38.87999999999994],[-25.680000000000135,38.853628571049086],[-25.640000000000136,38.85362129424483],[-25.62640187331578,38.83999999999994],[-25.600000000000136,38.8135981266843],[-25.586424984110437,38.79999999999994],[-25.56000000000014,38.77357501588965],[-25.54644803830725,38.75999999999994],[-25.520000000000138,38.733551961692825],[-25.50647103607372,38.71999999999994],[-25.48000000000014,38.69352896392636],[-25.46649397757681,38.67999999999994],[-25.44000000000014,38.65350602242327],[-25.42651686298295,38.639999999999944],[-25.40000000000014,38.613483137017134],[-25.36000000000014,38.61347597667593],[-25.346546834341915,38.599999999999945],[-25.320000000000142,38.57345316565817],[-25.306569589654696,38.559999999999945],[-25.280000000000143,38.533430410345396],[-25.266592289427095,38.51999999999994],[-25.240000000000144,38.493407710572995],[-25.22661493382319,38.47999999999995],[-25.20000000000015,38.45338506617691],[-25.18663752300651,38.43999999999995],[-25.160000000000146,38.41336247699358],[-25.14666005714008,38.39999999999995],[-25.120000000000147,38.37333994286002],[-25.080000000000148,38.37333289658286],[-25.066689564583584,38.35999999999995],[-25.04000000000015,38.333310435416514],[-25.02671197108392,38.31999999999995],[-25.00000000000015,38.29328802891618],[-24.98673432307946,38.27999999999995],[-24.96000000000015,38.25326567692064],[-24.946756620730913,38.23999999999995],[-24.92000000000015,38.21324337926919],[-24.906778864198458,38.19999999999995],[-24.88000000000015,38.17322113580164],[-24.866801053641773,38.159999999999954],[-24.840000000000153,38.133198946358334],[-24.826823189220008,38.119999999999955],[-24.800000000000153,38.0931768107801],[-24.760000000000154,38.093169893937414],[-24.74685217028076,38.079999999999956],[-24.720000000000155,38.05314782971935],[-24.706874181008182,38.03999999999996],[-24.680000000000156,38.01312581899193],[-24.666896138402358,37.99999999999996],[-24.640000000000157,37.97310386159776],[-24.62691804262019,37.95999999999996],[-24.600000000000158,37.933081957379926],[-24.58693989381807,37.91999999999996],[-24.56000000000016,37.89306010618205],[-24.54696169215188,37.87999999999996],[-24.52000000000016,37.85303830784824],[-24.506983437777006,37.83999999999996],[-24.48000000000016,37.81301656222312],[-24.440000000000165,37.813009771754366],[-24.427011904077837,37.799999999999955],[-24.400000000000162,37.77298809592229],[-24.387033527566587,37.75999999999996],[-24.360000000000163,37.732966472433546],[-24.34705509886567,37.71999999999996],[-24.320000000000164,37.69294490113446],[-24.307076618128278,37.679999999999964],[-24.280000000000165,37.65292338187186],[-24.267098085507083,37.63999999999997],[-24.240000000000165,37.61290191449305],[-24.227119501154288,37.599999999999966],[-24.200000000000166,37.57288049884585],[-24.18714086522158,37.55999999999997],[-24.160000000000167,37.532859134778555],[-24.120000000000168,37.53285246770789],[-24.107168828094693,37.51999999999997],[-24.08000000000017,37.49283117190544],[-24.06719007267372,37.47999999999997],[-24.04000000000017,37.45280992732641]]}},{"type":"Feature","properties":{"magnitude":0.4,"percentagem":40.0,"territorio":"acores"},"geometry":{"type":"LineString","coordinates":[[-27.570677274117827,40.479999999999905],[-27.560000000000095,40.46932272588217],[-27.53072878464022,40.439999999999905],[-27.520000000000095,40.429271215359776],[-27.490780166101707,40.399999999999906],[-27.480000000000096,40.389219833898295],[-27.450831418888562,40.35999999999991],[-27.440000000000097,40.34916858111144],[-27.400000000000098,40.34915246913422],[-27.370898612432043,40.31999999999991],[-27.3600000000001,40.309101387567964],[-27.33094956623723,40.27999999999991],[-27.3200000000001,40.26905043376278],[-27.291000392663413,40.23999999999991],[-27.2800000000001,40.2289996073366],[-27.25105109209144,40.19999999999991],[-27.2400000000001,40.18894890790857],[-27.211101664900962,40.15999999999991],[-27.200000000000102,40.14889833509905],[-27.160000000000103,40.148882446418355],[-27.131167957978292,40.11999999999991],[-27.120000000000104,40.108832042021724],[-27.09121823665383,40.07999999999991],[-27.080000000000105,40.06878176334619],[-27.051268389983772,40.039999999999914],[-27.040000000000106,40.02873161001625],[-27.011318418342423,39.999999999999915],[-27.000000000000107,39.9886815816576],[-26.971368322102897,39.959999999999916],[-26.960000000000107,39.948631677897126],[-26.92000000000011,39.9486160085482],[-26.89143372955591,39.919999999999916],[-26.88000000000011,39.90856627044412],[-26.851483343943347,39.87999999999992],[-26.84000000000011,39.868516656056684],[-26.811532834983183,39.83999999999992],[-26.80000000000011,39.828467165016846],[-26.771582203043273,39.79999999999992],[-26.76000000000011,39.78841779695676],[-26.73163144849031,39.75999999999992],[-26.720000000000113,39.74836855150972],[-26.680000000000113,39.74835309760965],[-26.651695984887212,39.71999999999992],[-26.640000000000114,39.70830401511282],[-26.61174494563691,39.67999999999992],[-26.600000000000115,39.66825505436313],[-26.571793785002157,39.63999999999992],[-26.560000000000116,39.628206214997874],[-26.531842503344475,39.59999999999992],[-26.520000000000117,39.58815749665557],[-26.491891101024223,39.559999999999924],[-26.480000000000118,39.54810889897582],[-26.44000000000012,39.54809365672175],[-26.411954780664622,39.519999999999925],[-26.40000000000012,39.50804521933543],[-26.372003098238956,39.479999999999926],[-26.36000000000012,39.46799690176109],[-26.332051296357722,39.43999999999993],[-26.32000000000012,39.42794870364233],[-26.29209937537619,39.39999999999993],[-26.280000000000122,39.38790062462386],[-26.252147335648512,39.35999999999993],[-26.240000000000123,39.34785266435154],[-26.200000000000124,39.34783763001885],[-26.17221017256839,39.31999999999993],[-26.160000000000124,39.30778982743166],[-26.13225785724492,39.27999999999993],[-26.120000000000125,39.26774214275514],[-26.09230542436105,39.23999999999993],[-26.080000000000126,39.227694575639006],[-26.05235287426592,39.19999999999993],[-26.040000000000127,39.18764712573414],[-26.012400207307564,39.15999999999993],[-26.000000000000128,39.147599792692496],[-25.972447423832882,39.11999999999993],[-25.96000000000013,39.10755257616718],[-25.92000000000013,39.107537784715895],[-25.892509277158773,39.079999999999934],[-25.88000000000013,39.0674907228413],[-25.85255622333501,39.039999999999935],[-25.84000000000013,39.02744377666505],[-25.812603054155986,38.999999999999936],[-25.800000000000132,38.98739694584408],[-25.77264976996369,38.95999999999994],[-25.760000000000133,38.94735023003638],[-25.73269637109904,38.91999999999994],[-25.720000000000134,38.90730362890103],[-25.69274285790184,38.87999999999994],[-25.680000000000135,38.86725714209823],[-25.640000000000136,38.867242588489724],[-25.612803746631425,38.83999999999994],[-25.600000000000136,38.827196253368655],[-25.572849968220737,38.79999999999994],[-25.560000000000137,38.78715003177934],[-25.532896076614364,38.75999999999994],[-25.520000000000138,38.747103923385716],[-25.4929420721473,38.71999999999994],[-25.48000000000014,38.70705792785278],[-25.452987955153482,38.67999999999994],[-25.44000000000014,38.6670120448466],[-25.413033725965754,38.639999999999944],[-25.40000000000014,38.62696627403433],[-25.36000000000014,38.626951953351906],[-25.333093668683688,38.599999999999945],[-25.320000000000142,38.5869063313164],[-25.293139179309243,38.559999999999945],[-25.280000000000143,38.54686082069084],[-25.25318457885405,38.519999999999946],[-25.240000000000144,38.506815421146044],[-25.213229867646234,38.47999999999995],[-25.200000000000145,38.46677013235386],[-25.173275046012876,38.43999999999995],[-25.160000000000146,38.42672495398722],[-25.13332011428001,38.39999999999995],[-25.120000000000147,38.386679885720085],[-25.080000000000148,38.38666579316577],[-25.05337912916702,38.35999999999995],[-25.04000000000015,38.34662087083308],[-25.01342394216769,38.31999999999995],[-25.00000000000015,38.30657605783241],[-24.97346864615877,38.27999999999995],[-24.96000000000015,38.26653135384133],[-24.933513241461675,38.23999999999995],[-24.92000000000015,38.22648675853843],[-24.89355772839677,38.19999999999995],[-24.88000000000015,38.18644227160333],[-24.853602107283393,38.159999999999954],[-24.840000000000153,38.14639789271671],[-24.813646378439863,38.119999999999955],[-24.800000000000153,38.106353621560245],[-24.760000000000154,38.10633978787487],[-24.733704340561363,38.079999999999956],[-24.720000000000155,38.066295659438744],[-24.693748362016205,38.03999999999996],[-24.680000000000156,38.026251637983904],[-24.65379227680456,37.99999999999996],[-24.640000000000157,37.986207723195555],[-24.613836085240223,37.95999999999996],[-24.600000000000158,37.94616391475989],[-24.57387978763598,37.91999999999996],[-24.56000000000016,37.90612021236414],[-24.5339233843036,37.87999999999996],[-24.52000000000016,37.86607661569652],[-24.493966875553852,37.83999999999996],[-24.48000000000016,37.82603312444627],[-24.44000000000016,37.826019543508764],[-24.414023808155513,37.79999999999996],[-24.400000000000162,37.78597619184461],[-24.374067055133004,37.75999999999996],[-24.360000000000163,37.74593294486712],[-24.334110197731178,37.71999999999996],[-24.320000000000164,37.70588980226895],[-24.29415323625639,37.679999999999964],[-24.280000000000165,37.665846763743744],[-24.254196171014,37.639999999999965],[-24.240000000000165,37.62580382898613],[-24.214239002308403,37.599999999999966],[-24.200000000000166,37.58576099769173],[-24.174281730442992,37.55999999999997],[-24.160000000000167,37.54571826955714],[-24.120000000000168,37.54570493541581],[-24.094337656189218,37.51999999999997],[-24.08000000000017,37.50566234381092],[-24.05438014534727,37.47999999999997],[-24.04000000000017,37.465619854652864]]}},{"type":"Feature","properties":{"magnitude":0.6,"percentagem":60.0,"territorio":"acores"},"geometry":{"type":"LineString","coordinates":[[-24.04000000000017,38.87867592725325],[-24.08000000000017,38.86019525956482],[-24.120000000000168,38.84171674995593],[-24.12371720290661,38.83999999999994],[-24.160000000000167,38.82325443828206],[-24.200000000000166,38.80479575526401],[-24.210394919165335,38.79999999999994],[-24.240000000000165,38.7863507097498],[-24.280000000000165,38.76791190290509],[-24.297167281384404,38.75999999999994],[-24.320000000000164,38.74948414204299],[-24.360000000000163,38.73106526051335],[-24.38403478704525,38.71999999999994],[-24.400000000000166,38.71265480233768],[-24.44000000000016,38.694255894825226],[-24.470997934644515,38.67999999999994],[-24.48000000000016,38.675862756914746],[-24.52000000000016,38.657483871683354],[-24.558057223702264,38.63999999999994],[-24.56000000000016,38.639108071163975],[-24.600000000000158,38.62074925604055],[-24.640000000000157,38.602392811917284],[-24.645215517000263,38.59999999999994],[-24.680000000000156,38.584052111963835],[-24.720000000000155,38.56571581851603],[-24.732471887022484,38.559999999999945],[-24.760000000000154,38.54739250263853],[-24.800000000000153,38.52907640666034],[-24.819825957873057,38.519999999999946],[-24.840000000000153,38.510770490372195],[-24.88000000000015,38.49247463822495],[-24.907278233673978,38.47999999999995],[-24.92000000000015,38.4741861365987],[-24.96000000000015,38.45591057421217],[-24.994829219614683,38.439999999999955],[-25.00000000000015,38.437639501882394],[-25.04000000000015,38.41938427475617],[-25.080000000000148,38.40113159291669],[-25.082480554864865,38.39999999999995],[-25.080000000000148,38.39999868974868],[-25.04006869375046,38.35999999999995],[-25.04000000000015,38.35993130624964],[-25.00013591325146,38.31999999999995],[-25.00000000000015,38.319864086748645],[-24.960202969238086,38.27999999999995],[-24.96000000000015,38.27979703076202],[-24.92026986219244,38.23999999999995],[-24.92000000000015,38.23973013780767],[-24.88033659259508,38.19999999999995],[-24.88000000000015,38.199663407405026],[-24.840403160925018,38.159999999999954],[-24.840000000000153,38.159596839075085],[-24.800469567659714,38.119999999999955],[-24.800000000000153,38.11953043234039],[-24.760000000000154,38.11950968181234],[-24.720556510841973,38.079999999999956],[-24.720000000000155,38.07944348915814],[-24.680622543024228,38.03999999999996],[-24.680000000000156,38.039377456975885],[-24.640688415206764,37.99999999999996],[-24.640000000000157,37.999311584793354],[-24.600754127860256,37.95999999999996],[-24.600000000000158,37.95924587213985],[-24.56081968145389,37.91999999999996],[-24.56000000000016,37.91918031854623],[-24.52088507645532,37.87999999999996],[-24.52000000000016,37.8791149235448],[-24.480950313330702,37.83999999999996],[-24.48000000000016,37.839049686669426],[-24.44000000000016,37.83902931526317],[-24.40103571223319,37.79999999999996],[-24.400000000000162,37.798964287766935],[-24.361100582699425,37.75999999999996],[-24.360000000000163,37.7588994173007],[-24.321165296596686,37.71999999999996],[-24.320000000000164,37.71883470340344],[-24.281229854384502,37.679999999999964],[-24.280000000000165,37.67877014561563],[-24.24129425652092,37.639999999999965],[-24.240000000000165,37.63870574347921],[-24.201358503462526,37.599999999999966],[-24.200000000000166,37.59864149653761],[-24.16142259566441,37.55999999999997],[-24.160000000000167,37.55857740433573],[-24.120000000000168,37.558557403123736],[-24.081506484283743,37.51999999999997],[-24.08000000000017,37.51849351571639],[-24.04157021802082,37.47999999999997],[-24.04000000000017,37.47842978197932]]}},{"type":"Feature","properties":{"magnitude":0.2,"percentagem":20.0,"territorio":"madeira"},"geometry":{"type":"LineString","coordinates":[[-18.0,31.67017929031004],[-17.989835808389874,31.659999999999954],[-17.96,31.630164191610078],[-17.949850873599267,31.619999999999955],[-17.92,31.590149126400686],[-17.90986590541075,31.579999999999956],[-17.880000000000003,31.550134094589207],[-17.869880903916677,31.539999999999957],[-17.840000000000003,31.51011909608328],[-17.829895869209114,31.499999999999957],[-17.800000000000004,31.47010413079085],[-17.789910801379822,31.459999999999958],[-17.760000000000005,31.430089198620138],[-17.749925700520283,31.41999999999996],[-17.720000000000006,31.390074299479682],[-17.70994056672167,31.37999999999996],[-17.680000000000007,31.350059433278297],[-17.66995540007488,31.33999999999996],[-17.640000000000008,31.31004459992509],[-17.629970200670513,31.299999999999965],[-17.60000000000001,31.270029799329464],[-17.58998496859887,31.259999999999962],[-17.56000000000001,31.230015031401102],[-17.549999703949986,31.219999999999963],[-17.52000000000001,31.190000296049988],[-17.510014406813585,31.179999999999964],[-17.48000000000001,31.14998559318639],[-17.470029077279126,31.139999999999965],[-17.440000000000012,31.109970922720855],[-17.43004371543576,31.099999999999966],[-17.400000000000013,31.069956284564217],[-17.390058321372376,31.059999999999963],[-17.360000000000014,31.0299416786276],[-17.35007289517756,31.019999999999968],[-17.320000000000014,30.98992710482242],[-17.310087436939632,30.97999999999997],[-17.280000000000015,30.949912563060348],[-17.27010194674662,30.93999999999997],[-17.240000000000016,30.909898053253368],[-17.230116424686273,30.89999999999997],[-17.200000000000017,30.869883575313715],[-17.19013087084606,30.85999999999997],[-17.160000000000018,30.829869129153927],[-17.150145285313176,30.819999999999972],[-17.12000000000002,30.789854714686815],[-17.110159668174532,30.779999999999973],[-17.08000000000002,30.74984033182546],[-17.07017401951677,30.739999999999974],[-17.04000000000002,30.709825980483227],[-17.030188339426243,30.69999999999997],[-17.00000000000002,30.66981166057375],[-16.990202627989046,30.659999999999975],[-16.960000000000022,30.62979737201095],[-16.950216885290985,30.619999999999973],[-16.920000000000023,30.58978311470901],[-16.910231111417605,30.579999999999977],[-16.880000000000024,30.549768888582395],[-16.87024530645417,30.539999999999978],[-16.87025509998629,30.49999999999998],[-16.840000000000025,30.469744900013712],[-16.830269242806207,30.45999999999998],[-16.800000000000026,30.4297307571938],[-16.790283354761826,30.41999999999998],[-16.760000000000026,30.389716645238188],[-16.750297435937426,30.37999999999998],[-16.720000000000027,30.349702564062582],[-16.710311486417034,30.339999999999982],[-16.680000000000028,30.309688513582977],[-16.670325506284406,30.299999999999986],[-16.64000000000003,30.26967449371561],[-16.63033949562302,30.259999999999984],[-16.60000000000003,30.22966050437699],[-16.590353454516105,30.219999999999985],[-16.56000000000003,30.18964654548391],[-16.550367383046616,30.179999999999986],[-16.52000000000003,30.149632616953404],[-16.510381281297242,30.139999999999986],[-16.480000000000032,30.109618718702773],[-16.47039514935043,30.099999999999987],[-16.440000000000033,30.069604850649593],[-16.43040898728833,30.059999999999988],[-16.400000000000034,30.02959101271169],[-16.39042279519287,30.01999999999999],[-16.360000000000035,29.98957720480716],[-16.350436573145686,29.97999999999999],[-16.320000000000036,29.949563426854347],[-16.31045032122817,29.93999999999999],[-16.280000000000037,29.909549678771857],[-16.270464039521464,29.89999999999999],[-16.240000000000038,29.869535960478565],[-16.230477728106436,29.859999999999992],[-16.20000000000004,29.829522271893595],[-16.19049138706371,29.819999999999993],[-16.16000000000004,29.789508612936324],[-16.150505016473645,29.779999999999994],[-16.12000000000004,29.749494983526386],[-16.110518616416353,29.739999999999995],[-16.110528003446742,29.699999999999996],[-16.08000000000004,29.669471996553295],[-16.070541553859574,29.659999999999993],[-16.040000000000042,29.62945844614046],[-16.030555075017467,29.619999999999994],[-16.000000000000043,29.58944492498257],[-15.99056856699961,29.58],[-15.960000000000043,29.549431433000432],[-15.950582029884945,29.54],[-15.920000000000044,29.509417970115095],[-15.910595463752166,29.5]]}},{"type":"Feature","properties":{"magnitude":0.4,"percentagem":40.0,"territorio":"madeira"},"geometry":{"type":"LineString","coordinates":[[-18.0,31.68035858062012],[-17.979671616779747,31.659999999999954],[-17.96,31.640328383220204],[-17.939701747198537,31.619999999999955],[-17.92,31.60029825280142],[-17.8997318108215,31.579999999999956],[-17.880000000000003,31.56026818917846],[-17.859761807833355,31.539999999999957],[-17.840000000000003,31.520238192166605],[-17.819791738418225,31.499999999999957],[-17.800000000000004,31.480208261581737],[-17.779821602759643,31.459999999999958],[-17.760000000000005,31.44017839724032],[-17.73985140104056,31.41999999999996],[-17.720000000000006,31.400148598959404],[-17.699881133443334,31.37999999999996],[-17.680000000000007,31.360118866556633],[-17.659910800149753,31.33999999999996],[-17.640000000000008,31.320089199850216],[-17.61994040134101,31.29999999999996],[-17.60000000000001,31.28005959865896],[-17.57996993719773,31.259999999999962],[-17.56000000000001,31.24003006280224],[-17.53999940789996,31.219999999999963],[-17.52000000000001,31.200000592100015],[-17.50002881362716,31.179999999999964],[-17.48000000000001,31.159971186372815],[-17.46005815455824,31.139999999999965],[-17.440000000000012,31.119941845441744],[-17.42008743087151,31.099999999999966],[-17.400000000000013,31.07991256912847],[-17.38011664274474,31.059999999999967],[-17.360000000000014,31.039883357255242],[-17.340145790355113,31.019999999999968],[-17.320000000000014,30.999854209644873],[-17.30017487387925,30.97999999999997],[-17.280000000000015,30.95982512612073],[-17.260203893493227,30.93999999999997],[-17.240000000000016,30.919796106506762],[-17.22023284937253,30.89999999999997],[-17.200000000000017,30.87976715062746],[-17.1802617416921,30.85999999999997],[-17.160000000000018,30.839738258307886],[-17.140290570626334,30.819999999999972],[-17.12000000000002,30.79970942937366],[-17.100319336349045,30.779999999999973],[-17.08000000000002,30.759680663650947],[-17.060348039033514,30.739999999999974],[-17.04000000000002,30.71965196096648],[-17.020376678852465,30.699999999999974],[-17.00000000000002,30.67962332114753],[-16.98040525597807,30.659999999999975],[-16.960000000000022,30.639594744021927],[-16.940433770581947,30.619999999999976],[-16.920000000000023,30.599566229418045],[-16.900462222835188,30.579999999999977],[-16.880000000000024,30.559537777164813],[-16.860490612908315,30.539999999999978],[-16.86051019997256,30.49999999999998],[-16.840000000000025,30.479489800027448],[-16.82053848561239,30.45999999999998],[-16.800000000000026,30.439461514387617],[-16.78056670952362,30.41999999999998],[-16.760000000000026,30.399433290476388],[-16.740594871874823,30.37999999999998],[-16.720000000000027,30.359405128125182],[-16.70062297283404,30.339999999999982],[-16.680000000000028,30.319377027165967],[-16.660651012568778,30.299999999999983],[-16.64000000000003,30.279348987431234],[-16.62067899124601,30.259999999999984],[-16.60000000000003,30.239321008754],[-16.58070690903218,30.219999999999985],[-16.56000000000003,30.199293090967835],[-16.540734766093202,30.179999999999986],[-16.52000000000003,30.15926523390682],[-16.50076256259446,30.139999999999986],[-16.480000000000032,30.11923743740556],[-16.460790298700825,30.099999999999987],[-16.440000000000033,30.079209701299195],[-16.420817974576632,30.059999999999988],[-16.400000000000034,30.039182025423393],[-16.380845590385704,30.01999999999999],[-16.360000000000035,29.999154409614324],[-16.340873146291333,29.97999999999999],[-16.320000000000036,29.959126853708693],[-16.300900642456305,29.93999999999999],[-16.280000000000037,29.91909935754372],[-16.26092807904289,29.89999999999999],[-16.240000000000038,29.879071920957138],[-16.220955456212835,29.859999999999992],[-16.20000000000004,29.839044543787196],[-16.18098277412738,29.819999999999993],[-16.16000000000004,29.799017225872653],[-16.141010032947253,29.779999999999994],[-16.12000000000004,29.75898996705278],[-16.10103723283267,29.739999999999995],[-16.10105600689344,29.699999999999996],[-16.08000000000004,29.678943993106593],[-16.06108310771911,29.659999999999997],[-16.040000000000042,29.638916892280925],[-16.021110150034893,29.619999999999997],[-16.000000000000043,29.598889849965147],[-15.98113713399918,29.58],[-15.960000000000043,29.558862866000865],[-15.941164059769847,29.54],[-15.920000000000044,29.518835940230197],[-15.901190927504288,29.5]]}},{"type":"Feature","properties":{"magnitude":0.6,"percentagem":60.0,"territorio":"madeira"},"geometry":{"type":"LineString","coordinates":[[-18.0,31.690537870930203],[-17.969507425169624,31.659999999999954],[-17.96,31.65049257483033],[-17.929552620797804,31.619999999999955],[-17.92,31.610447379202153],[-17.88959771623225,31.579999999999956],[-17.880000000000003,31.57040228376771],[-17.84964271175003,31.539999999999957],[-17.840000000000003,31.530357288249927],[-17.809687607627335,31.499999999999957],[-17.800000000000004,31.49031239237263],[-17.76973240413946,31.459999999999958],[-17.760000000000005,31.4502675958605],[-17.729777101560835,31.41999999999996],[-17.720000000000006,31.41022289843913],[-17.689821700165,31.37999999999996],[-17.680000000000007,31.370178299834965],[-17.64986620022463,31.33999999999996],[-17.640000000000008,31.33013379977534],[-17.609910602011514,31.29999999999996],[-17.60000000000001,31.290089397988456],[-17.569954905796596,31.259999999999962],[-17.56000000000001,31.250045094203376],[-17.529999111849936,31.219999999999963],[-17.52000000000001,31.210000888150038],[-17.49004322044074,31.179999999999964],[-17.48000000000001,31.169956779559236],[-17.45008723183735,31.139999999999965],[-17.440000000000012,31.129912768162626],[-17.41013114630726,31.099999999999966],[-17.400000000000013,31.08986885369272],[-17.3701749641171,31.059999999999967],[-17.360000000000014,31.04982503588288],[-17.33021868553266,31.019999999999968],[-17.320000000000014,31.009781314467325],[-17.29026231081887,30.97999999999997],[-17.280000000000015,30.969737689181112],[-17.25030584023983,30.93999999999997],[-17.240000000000016,30.929694159760157],[-17.210349274058782,30.89999999999997],[-17.200000000000017,30.889650725941205],[-17.170392612538144,30.85999999999997],[-17.160000000000018,30.849607387461845],[-17.13043585593949,30.819999999999972],[-17.12000000000002,30.809564144060502],[-17.09047900452356,30.779999999999973],[-17.08000000000002,30.769520995476434],[-17.050522058550264,30.739999999999974],[-17.04000000000002,30.72947794144973],[-17.01056501827869,30.699999999999974],[-17.00000000000002,30.689434981721305],[-16.97060788396709,30.659999999999975],[-16.960000000000022,30.649392116032903],[-16.930650655872913,30.619999999999976],[-16.920000000000023,30.609349344127086],[-16.89069333425277,30.579999999999977],[-16.880000000000024,30.56930666574723],[-16.85073591936246,30.539999999999978],[-16.850765299958823,30.49999999999998],[-16.840000000000025,30.48923470004118],[-16.810807728418574,30.45999999999998],[-16.800000000000026,30.449192271581435],[-16.770850064285415,30.41999999999998],[-16.760000000000026,30.40914993571459],[-16.730892307812223,30.37999999999998],[-16.720000000000027,30.36910769218779],[-16.69093445925105,30.339999999999982],[-16.680000000000028,30.329065540748964],[-16.650976518853156,30.299999999999983],[-16.64000000000003,30.289023481146856],[-16.611018486869003,30.259999999999984],[-16.60000000000003,30.24898151313101],[-16.571060363548256,30.219999999999985],[-16.56000000000003,30.20893963645176],[-16.531102149139784,30.179999999999986],[-16.52000000000003,30.168897850860233],[-16.491143843891674,30.139999999999986],[-16.480000000000032,30.12885615610834],[-16.45118544805122,30.099999999999987],[-16.440000000000033,30.0888145519488],[-16.41122696186493,30.059999999999988],[-16.400000000000034,30.048773038135096],[-16.371268385578535,30.01999999999999],[-16.360000000000035,30.00873161442149],[-16.33130971943698,29.97999999999999],[-16.320000000000036,29.968690280563045],[-16.291350963684444,29.93999999999999],[-16.280000000000037,29.928649036315583],[-16.25139211856432,29.89999999999999],[-16.240000000000038,29.88860788143571],[-16.211433184319237,29.859999999999992],[-16.20000000000004,29.848566815680794],[-16.17147416119105,29.819999999999993],[-16.16000000000004,29.808525838808983],[-16.13151504942086,29.779999999999994],[-16.12000000000004,29.768484950579175],[-16.091555849248987,29.739999999999995],[-16.091584010340142,29.699999999999996],[-16.08000000000004,29.688415989659894],[-16.051624661578646,29.659999999999997],[-16.040000000000042,29.648375338421395],[-16.01166522505232,29.619999999999997],[-16.000000000000043,29.60833477494772],[-15.971705700998745,29.58],[-15.960000000000043,29.568294299001295],[-15.93174608965475,29.54],[-15.920000000000044,29.528253910345292],[-15.89178639125641,29.5]]}},{"type":"Feature","properties":{"magnitude":0.8,"percentagem":80.0,"territorio":"madeira"},"geometry":{"type":"LineString","coordinates":[[-15.040000000000063,32.344547333427165],[-15.049876337327696,32.33999999999994],[-15.080000000000062,32.32613729550917],[-15.120000000000061,32.30773293736112],[-15.136810567383868,32.29999999999994],[-15.16000000000006,32.289338181148516],[-15.20000000000006,32.27095116774035],[-15.223828598161306,32.25999999999994],[-15.240000000000059,32.2525717174332],[-15.280000000000058,32.234202093944894],[-15.31093086321695,32.21999999999994],[-15.320000000000057,32.21583797335015],[-15.360000000000056,32.19748578458933],[-15.398117796729228,32.17999999999994],[-15.400000000000055,32.1791370171229],[-15.440000000000055,32.16080230752585],[-15.480000000000054,32.1424704951987],[-15.48539207159801,32.139999999999944],[-15.520000000000053,32.12415172984753],[-15.560000000000052,32.10583746846955],[-15.572752710441701,32.099999999999945],[-15.600000000000051,32.08753411789151],[-15.64000000000005,32.06923745101885],[-15.660199369303875,32.059999999999945],[-15.68000000000005,32.050949537242225],[-15.720000000000049,32.03267050806343],[-15.747732485239814,32.019999999999946],[-15.760000000000048,32.01439805273464],[-15.800000000000047,31.996136704071695],[-15.835352495959334,31.979999999999947],[-15.840000000000046,31.977879728457495],[-15.880000000000045,31.959636102767014],[-15.920000000000044,31.941395520317286],[-15.923061120971026,31.939999999999948],[-15.960000000000043,31.923168767130896],[-16.000000000000043,31.90494597672575],[-16.01085950772346,31.89999999999995],[-16.040000000000042,31.88673475940626],[-16.08000000000004,31.868529802635635],[-16.098746153340862,31.85999999999995],[-16.12000000000004,31.85033414110074],[-16.16000000000004,31.832147059193083],[-16.186721498549225,31.81999999999995],[-16.20000000000004,31.81396697298998],[-16.240000000000038,31.795797806813287],[-16.274785984762122,31.77999999999995],[-16.280000000000037,31.777633315120767],[-16.320000000000036,31.75948210518385],[-16.360000000000035,31.741334080574482],[-16.36294129514747,31.739999999999952],[-16.400000000000034,31.72320001326821],[-16.440000000000033,31.705070011297085],[-16.45118887747758,31.699999999999953],[-16.480000000000032,31.686951589308762],[-16.52000000000003,31.668839649632],[-16.539526977962286,31.659999999999954],[-16.56000000000003,31.650736890830416],[-16.60000000000003,31.632643052748776],[-16.627956041171604,31.619999999999955],[-16.64000000000003,31.614555974643746],[-16.680000000000028,31.596480277103794],[-16.716476512396966,31.579999999999952],[-16.720000000000027,31.578408896848288],[-16.760000000000026,31.560351378443784],[-16.800000000000026,31.54229718361103],[-16.805091003088638,31.539999999999957],[-16.840000000000025,31.524256411809045],[-16.880000000000024,31.506220459877888],[-16.89379934184681,31.499999999999957],[-16.920000000000023,31.488195431536816],[-16.960000000000022,31.470177760262594],[-16.982600479393994,31.459999999999958],[-17.00000000000002,31.45216849126463],[-17.04000000000002,31.43416913805379],[-17.07149486431943,31.41999999999996],[-17.08000000000002,31.416175643933727],[-17.12000000000002,31.39819464584506],[-17.160000000000018,31.38021708082949],[-17.16048315280562,31.37999999999996],[-17.200000000000017,31.362254335538225],[-17.240000000000016,31.344295187301082],[-17.249569277029394,31.33999999999996],[-17.280000000000015,31.326348258346727],[-17.320000000000014,31.30840756312037],[-17.33875005093069,31.29999999999996],[-17.360000000000014,31.290476464799127],[-17.400000000000013,31.272554258472248],[-17.428025926511584,31.259999999999962],[-17.440000000000012,31.254639004742366],[-17.48000000000001,31.236735322861257],[-17.517397356557485,31.21999999999996],[-17.480057627254315,31.179999999999964],[-17.48000000000001,31.17994237274566],[-17.440116309116462,31.139999999999965],[-17.440000000000012,31.139883690883515],[-17.40017486174301,31.099999999999966],[-17.400000000000013,31.09982513825697],[-17.360233285489464,31.059999999999967],[-17.360000000000014,31.059766714510516],[-17.320291580710208,31.019999999999968],[-17.320000000000014,31.019708419289774],[-17.28034974775849,30.97999999999997],[-17.280000000000015,30.97965025224149],[-17.240407786986435,30.93999999999997],[-17.240000000000016,30.93959221301355],[-17.200465698745038,30.89999999999997],[-17.200000000000017,30.89953430125495],[-17.160523483384186,30.85999999999997],[-17.160000000000018,30.859476516615803],[-17.120581141252647,30.819999999999972],[-17.12000000000002,30.819418858747344],[-17.080638672698072,30.779999999999973],[-17.08000000000002,30.779361327301924],[-17.04069607806701,30.739999999999974],[-17.04000000000002,30.739303921932983],[-17.000753357704912,30.699999999999974],[-17.00000000000002,30.699246642295083],[-16.960810511956115,30.659999999999975],[-16.960000000000022,30.659189488043882],[-16.920867541163876,30.619999999999976],[-16.920000000000023,30.61913245883612],[-16.88092444567035,30.579999999999977],[-16.880000000000024,30.57907555432965],[-16.84098122581661,30.539999999999978],[-16.84102039994509,30.49999999999998],[-16.840000000000025,30.498979600054913],[-16.801076971224752,30.45999999999998],[-16.800000000000026,30.45892302877525],[-16.761133419047216,30.41999999999998],[-16.760000000000026,30.418866580952795],[-16.72118974374962,30.37999999999998],[-16.720000000000027,30.378810256250386],[-16.681245945668056,30.339999999999982],[-16.680000000000028,30.338754054331954],[-16.64130202513753,30.299999999999983],[-16.64000000000003,30.29869797486248],[-16.601357982491994,30.259999999999984],[-16.60000000000003,30.25864201750802],[-16.561413818064327,30.219999999999985],[-16.56000000000003,30.218586181935684],[-16.52146953218637,30.179999999999986],[-16.52000000000003,30.178530467813648],[-16.481525125188888,30.139999999999986],[-16.480000000000032,30.13847487481113],[-16.441580597401614,30.099999999999987],[-16.440000000000033,30.098419402598402],[-16.401635949153228,30.059999999999988],[-16.400000000000034,30.058364050846794],[-16.36169118077137,30.01999999999999],[-16.360000000000035,30.018308819228658],[-16.32174629258263,29.97999999999999],[-16.320000000000036,29.978253707417394],[-16.28180128491258,29.93999999999999],[-16.280000000000037,29.93819871508745],[-16.24185615808575,29.89999999999999],[-16.240000000000038,29.898143841914283],[-16.201910912425635,29.859999999999992],[-16.20000000000004,29.858089087574395],[-16.161965548254724,29.819999999999993],[-16.16000000000004,29.818034451745312],[-16.122020065894468,29.779999999999994],[-16.12000000000004,29.777979934105566],[-16.082074465665304,29.739999999999995],[-16.082112013786844,29.699999999999996],[-16.08000000000004,29.697887986213193],[-16.04216621543818,29.659999999999997],[-16.040000000000042,29.65783378456186],[-16.002220300069748,29.619999999999997],[-16.000000000000043,29.617779699930296],[-15.962274267998312,29.58],[-15.960000000000043,29.57772573200173],[-15.922328119539651,29.54],[-15.920000000000044,29.537671880460394],[-15.88238185500853,29.5]]}}]}