{"type":"FeatureCollection","properties":{"largura_maxima_km":110.071,"largura_sobre_pt_km":109.555,"linha_central_sobre_pt":false,"desenhavel_como_area":true,"perfil_largura":[{"t":1.12222,"lat":25.0287,"lon":-12.8261,"largura_km":110.071,"eixo_na_terra":true},{"t":1.12778,"lat":25.1044,"lon":-12.6593,"largura_km":109.814,"eixo_na_terra":true},{"t":1.13333,"lat":25.1809,"lon":-12.4914,"largura_km":109.555,"eixo_na_terra":true},{"t":1.13889,"lat":25.258,"lon":-12.3222,"largura_km":109.294,"eixo_na_terra":true},{"t":1.14444,"lat":25.336,"lon":-12.1518,"largura_km":109.032,"eixo_na_terra":true},{"t":1.15,"lat":25.4147,"lon":-11.9801,"largura_km":108.767,"eixo_na_terra":true},{"t":1.15556,"lat":25.4942,"lon":-11.8072,"largura_km":108.501,"eixo_na_terra":true},{"t":1.16111,"lat":25.5745,"lon":-11.6329,"largura_km":108.233,"eixo_na_terra":true},{"t":1.16667,"lat":25.6557,"lon":-11.4573,"largura_km":107.963,"eixo_na_terra":true},{"t":1.17222,"lat":25.7377,"lon":-11.2804,"largura_km":107.692,"eixo_na_terra":true},{"t":1.17778,"lat":25.8205,"lon":-11.102,"largura_km":107.418,"eixo_na_terra":true},{"t":1.18333,"lat":25.9041,"lon":-10.9222,"largura_km":107.142,"eixo_na_terra":true},{"t":1.18889,"lat":25.9887,"lon":-10.7409,"largura_km":106.865,"eixo_na_terra":true},{"t":1.19444,"lat":26.0741,"lon":-10.5581,"largura_km":106.585,"eixo_na_terra":true},{"t":1.2,"lat":26.1605,"lon":-10.3738,"largura_km":106.303,"eixo_na_terra":true},{"t":1.20556,"lat":26.2478,"lon":-10.1879,"largura_km":106.02,"eixo_na_terra":true},{"t":1.21111,"lat":26.336,"lon":-10.0004,"largura_km":105.734,"eixo_na_terra":true},{"t":1.21667,"lat":26.4251,"lon":-9.8113,"largura_km":105.446,"eixo_na_terra":true},{"t":1.22222,"lat":26.5153,"lon":-9.6204,"largura_km":105.156,"eixo_na_terra":true},{"t":1.22778,"lat":26.6064,"lon":-9.4278,"largura_km":104.863,"eixo_na_terra":true},{"t":1.23333,"lat":26.6986,"lon":-9.2334,"largura_km":104.569,"eixo_na_terra":true},{"t":1.23889,"lat":26.7918,"lon":-9.0372,"largura_km":104.272,"eixo_na_terra":true},{"t":1.24444,"lat":26.8861,"lon":-8.8391,"largura_km":103.972,"eixo_na_terra":true},{"t":1.25,"lat":26.9814,"lon":-8.6391,"largura_km":103.67,"eixo_na_terra":true},{"t":1.25556,"lat":27.0779,"lon":-8.4371,"largura_km":103.366,"eixo_na_terra":true},{"t":1.26111,"lat":27.1755,"lon":-8.2331,"largura_km":103.059,"eixo_na_terra":true},{"t":1.26667,"lat":27.2742,"lon":-8.027,"largura_km":102.75,"eixo_na_terra":true},{"t":1.27222,"lat":27.3741,"lon":-7.8187,"largura_km":102.438,"eixo_na_terra":true},{"t":1.27778,"lat":27.4753,"lon":-7.6082,"largura_km":102.123,"eixo_na_terra":true},{"t":1.28333,"lat":27.5776,"lon":-7.3954,"largura_km":101.806,"eixo_na_terra":true},{"t":1.28889,"lat":27.6813,"lon":-7.1803,"largura_km":101.485,"eixo_na_terra":true},{"t":1.29444,"lat":27.7862,"lon":-6.9628,"largura_km":101.162,"eixo_na_terra":true},{"t":1.3,"lat":27.8925,"lon":-6.7427,"largura_km":100.836,"eixo_na_terra":true},{"t":1.30556,"lat":28.0001,"lon":-6.5201,"largura_km":100.506,"eixo_na_terra":true},{"t":1.31111,"lat":28.1092,"lon":-6.2949,"largura_km":100.174,"eixo_na_terra":true},{"t":1.31667,"lat":28.2197,"lon":-6.0669,"largura_km":99.838,"eixo_na_terra":true},{"t":1.32222,"lat":28.3316,"lon":-5.8361,"largura_km":99.499,"eixo_na_terra":true},{"t":1.32778,"lat":28.4451,"lon":-5.6024,"largura_km":99.156,"eixo_na_terra":true},{"t":1.33333,"lat":28.5602,"lon":-5.3657,"largura_km":98.81,"eixo_na_terra":true},{"t":1.33889,"lat":28.6769,"lon":-5.1258,"largura_km":98.46,"eixo_na_terra":true},{"t":1.34444,"lat":28.7952,"lon":-4.8827,"largura_km":98.107,"eixo_na_terra":true},{"t":1.35,"lat":28.9153,"lon":-4.6363,"largura_km":97.75,"eixo_na_terra":true},{"t":1.35556,"lat":29.0371,"lon":-4.3864,"largura_km":97.388,"eixo_na_terra":true},{"t":1.36111,"lat":29.1608,"lon":-4.1329,"largura_km":97.022,"eixo_na_terra":true},{"t":1.36667,"lat":29.2863,"lon":-3.8757,"largura_km":96.652,"eixo_na_terra":true},{"t":1.37222,"lat":29.4138,"lon":-3.6146,"largura_km":96.278,"eixo_na_terra":true},{"t":1.37778,"lat":29.5434,"lon":-3.3494,"largura_km":95.899,"eixo_na_terra":true},{"t":1.38333,"lat":29.675,"lon":-3.0801,"largura_km":95.515,"eixo_na_terra":true},{"t":1.38889,"lat":29.8088,"lon":-2.8063,"largura_km":95.126,"eixo_na_terra":true},{"t":1.39444,"lat":29.9448,"lon":-2.528,"largura_km":94.732,"eixo_na_terra":true},{"t":1.4,"lat":30.0832,"lon":-2.245,"largura_km":94.332,"eixo_na_terra":true},{"t":1.40556,"lat":30.224,"lon":-1.9569,"largura_km":93.927,"eixo_na_terra":true},{"t":1.41111,"lat":30.3674,"lon":-1.6637,"largura_km":93.516,"eixo_na_terra":true},{"t":1.41667,"lat":30.5134,"lon":-1.3649,"largura_km":93.098,"eixo_na_terra":true},{"t":1.42222,"lat":30.6622,"lon":-1.0604,"largura_km":92.674,"eixo_na_terra":true},{"t":1.42778,"lat":30.8139,"lon":-0.75,"largura_km":92.243,"eixo_na_terra":true},{"t":1.43333,"lat":30.9686,"lon":-0.4331,"largura_km":91.805,"eixo_na_terra":true},{"t":1.43889,"lat":31.1265,"lon":-0.1096,"largura_km":91.359,"eixo_na_terra":true},{"t":1.44444,"lat":31.2877,"lon":0.221,"largura_km":90.906,"eixo_na_terra":true},{"t":1.45,"lat":31.4525,"lon":0.559,"largura_km":90.444,"eixo_na_terra":true},{"t":1.45556,"lat":31.621,"lon":0.905,"largura_km":89.973,"eixo_na_terra":true},{"t":1.46111,"lat":31.7934,"lon":1.2594,"largura_km":89.492,"eixo_na_terra":true},{"t":1.46667,"lat":31.97,"lon":1.6227,"largura_km":89.002,"eixo_na_terra":true},{"t":1.47222,"lat":32.151,"lon":1.9956,"largura_km":88.5,"eixo_na_terra":true},{"t":1.47778,"lat":32.3368,"lon":2.3787,"largura_km":87.987,"eixo_na_terra":true},{"t":1.48333,"lat":32.5276,"lon":2.7727,"largura_km":87.462,"eixo_na_terra":true},{"t":1.48889,"lat":32.7238,"lon":3.1786,"largura_km":86.923,"eixo_na_terra":true},{"t":1.49444,"lat":32.9258,"lon":3.5973,"largura_km":86.369,"eixo_na_terra":true},{"t":1.5,"lat":33.1341,"lon":4.0298,"largura_km":85.799,"eixo_na_terra":true},{"t":1.50556,"lat":33.3493,"lon":4.4774,"largura_km":85.211,"eixo_na_terra":true},{"t":1.51111,"lat":33.5718,"lon":4.9416,"largura_km":84.604,"eixo_na_terra":true}]},"features":[{"type":"Feature","properties":{},"geometry":{"type":"Polygon","coordinates":[[[-12.79266230365539,25.596223378870445],[-11.585566532300021,26.14192971054318],[-11.048185736419669,26.387905533925036],[-10.310871476150055,26.728096114029988],[-8.95647671264885,27.36009575784311],[-7.506796074913126,28.044841344464295],[-6.401792928582893,28.571184376393827],[-4.996087018767923,29.244678229954708],[-0.20689469970383811,31.551890109164162],[1.546026567819041,32.39396869665754],[3.5271751612384037,33.34002592266825],[5.359385769043115,34.20764980619583],[4.569621006403139,32.952065133750175],[2.868028269462286,32.12089338193379],[1.3581602167851088,31.378564247508248],[-0.32983183884849154,30.54478473484702],[-4.77765079498576,28.342627503886124],[-6.184440948851858,27.649730644038367],[-7.492664280854569,27.00947893389067],[-8.318372374837253,26.608124626762656],[-9.111558373501765,26.225050896434663],[-10.430991695997363,25.594281467929434],[-11.150314784369499,25.254384767032228],[-11.675012635079383,25.00847378382345],[-12.356447030871493,24.691894397739272],[-12.85485453371652,24.462501222917695],[-12.79266230365539,25.596223378870445]]]}}]}