{"type":"FeatureCollection","features":[{"type":"Feature","properties":{"t_inicio":1.122222222222204,"t_fim":1.5111111111110915},"geometry":{"type":"LineString","coordinates":[[-12.826147613221167,25.028746107638817],[-12.65934413516672,25.104428097284835],[-12.491364682061374,25.18085369802978],[-12.322183958852406,25.25803428407628],[-12.151775897511499,25.33598158094763],[-11.980113623136873,25.414707680461177],[-11.807169418140006,25.494225056539168],[-11.632914684383877,25.57454658191547],[-11.457319903127598,25.65568554580046],[-11.280354592620512,25.73765567257282],[-11.101987263174948,25.820471141571367],[-10.922185369532599,25.904146608067972],[-10.740915260322708,25.98869722550802],[-10.558142124392418,26.074138669114273],[-10.37382993377014,26.160487160957004],[-10.18794138300018,26.247759496603642],[-10.000437824563193,26.33597307347158],[-9.811279200069976,26.425145921018704],[-9.620423966885994,26.515296732919875],[-9.42782901981073,26.60644490139132],[-9.233449607399763,26.698610553840922],[-9.037239242474982,26.791814592040286],[-8.839149606323076,26.886078734033877],[-8.639130446030862,26.98142555902323],[-8.43712946434718,27.077878555488244],[-8.23309220139808,27.175462172836117],[-8.02696190750666,27.274201876899554],[-7.818679406288226,27.37412420964077],[-7.608182947098385,27.47525685345818],[-7.395408045805226,27.57762870053717],[-7.180287312739267,27.681269927737905],[-6.962750266538109,27.786212077570188],[-6.7427231324490435,27.89248814587239],[-6.520128623476438,28.000132676885833],[-6.294885702560009,28.109181866502276],[-6.066909323738088,28.219673674561246],[-5.836110149985501,28.331647947186074],[-5.6023942451089965,28.445146550279862],[-5.365662736729092,28.56021351545147],[-5.125811446967816,28.676895199818116],[-4.882730486984286,28.795240461333517],[-4.636303810943957,28.91530085152753],[-4.38640872435667,29.037130827820384],[-4.132915340955179,29.16078798789985],[-3.87568598138472,29.28633332903206],[-3.614574505911037,29.413831535630035],[-3.349425572091036,29.543351298939935],[-3.08007380684424,29.67496567334526],[-2.806342880563193,29.808752474554314],[-2.5280444687343504,29.944794725854816],[-2.2449770839280063,30.08318115972999],[-1.956924757841108,30.224006783475954],[-1.6636555492089258,30.367373519101445],[-1.3649198486536989,30.51339092980221],[-1.0604484456869727,30.662177047783345],[-0.7499503158170739,30.81385932127801],[-0.43311007664499357,30.96857570245201],[-0.10958505042455613,31.12647590270995],[0.2209981438798252,31.28772284802871],[0.5590475644403625,31.452494374739782],[0.9050106054446587,31.620985216209306],[1.2593794909324458,31.793409343878416],[1.6226977938828213,31.97000274317367],[1.9955682242896557,32.15102672736068],[2.3786620015114295,32.33677192260684],[2.772730223096943,32.52756309839862],[3.1786177752936737,32.72376507354091],[3.5972805155414846,32.925790005977305],[4.029806718861096,33.13410648488422],[4.477444156091508,33.349251001851854],[4.941634722680192,33.57184260980102]]}}]}