{"type":"FeatureCollection","features":[{"type":"Feature","properties":{"magnitude":0.8,"percentagem":80.0,"territorio":"continente"},"geometry":{"type":"LineString","coordinates":[[-5.540000000000106,37.97514824422034],[-5.571360618538491,37.959999999999965],[-5.580000000000105,37.95582885941965],[-5.620000000000104,37.93651714784899],[-5.6542042669928865,37.91999999999996],[-5.660000000000103,37.91720257986131],[-5.700000000000102,37.897896930082084],[-5.737072339320726,37.87999999999996],[-5.740000000000102,37.87858731964657],[-5.780000000000101,37.85928788116035],[-5.819965524899643,37.83999999999996],[-5.8200000000001,37.83998336973335],[-5.860000000000099,37.82069029299993],[-5.900000000000098,37.801392211639985],[-5.902885977867238,37.79999999999996],[-5.940000000000097,37.782104459197896],[-5.980000000000096,37.76281297408434],[-5.985832993061899,37.75999999999996],[-6.0200000000000955,37.74353067503748],[-6.060000000000095,37.72424593909613],[-6.068807261527754,37.71999999999996],[-6.100000000000094,37.704969237493415],[-6.140000000000093,37.68569140461989],[-6.151809497856961,37.679999999999964],[-6.180000000000091,37.66642044523718],[-6.220000000000091,37.647149670299925],[-6.234840422971681,37.639999999999965],[-6.26000000000009,37.62788459864208],[-6.3000000000000895,37.608621037485506],[-6.317900764217377,37.599999999999966],[-6.340000000000089,37.58936199978834],[-6.380000000000088,37.57010580923579],[-6.400991255457193,37.55999999999997],[-6.420000000000087,37.550852952468105],[-6.460000000000086,37.53160429032494],[-6.484112637168381,37.51999999999997],[-6.500000000000085,37.51235776219037],[-6.540000000000084,37.49311678724691],[-6.567265656539947,37.47999999999997],[-6.580000000000084,37.473876736185865],[-6.620000000000083,37.454643608220266],[-6.650451067571757,37.43999999999997],[-6.660000000000082,37.43541018341172],[-6.700000000000081,37.416185063192906],[-6.733669631175768,37.39999999999997],[-6.740000000000081,37.39695841455622],[-6.780000000000079,37.37774146384676],[-6.8169221152785475,37.35999999999997],[-6.820000000000079,37.35852174204344],[-6.860000000000078,37.33931312360227],[-6.900000000000077,37.32010056550855],[-6.900209410775152,37.31999999999997],[-6.940000000000076,37.30090035762299],[-6.980000000000075,37.28169638556643],[-6.983533921410098,37.27999999999997],[-7.020000000000074,37.26250348281985],[-7.060000000000073,37.243308262124366],[-7.066894746342594,37.239999999999974],[-7.1000000000000725,37.22412281785546],[-7.140000000000072,37.20493651485144],[-7.150292683751214,37.199999999999974],[-7.180000000000071,37.185758683148435],[-7.22000000000007,37.166581465175206],[-7.2337285393934145,37.159999999999975],[-7.260000000000069,37.1474114008774],[-7.300000000000068,37.1282434362858],[-7.317203126719358,37.119999999999976],[-7.340000000000067,37.10908129498507],[-7.3800000000000665,37.089922753140016],[-7.400717266987818,37.07999999999997],[-7.420000000000066,37.07076869118208],[-7.460000000000065,37.051619742465064],[-7.484271789383685,37.03999999999998],[-7.500000000000064,37.03247391695092],[-7.540000000000063,37.013334732762395],[-7.567867531137763,36.99999999999998],[-7.580000000000061,36.9941973015496],[-7.620000000000061,36.97506805431134],[-7.651505337648381,36.95999999999998],[-7.6600000000000605,36.955939176015264],[-7.70000000000006,36.9368200391727],[-7.735186062605177,36.91999999999999],[-7.740000000000058,36.91769987316768],[-7.780000000000058,36.89859102119219],[-7.8189105681149735,36.87999999999998],[-7.820000000000056,36.87947972761266],[-7.860000000000056,36.86038133600376],[-7.900000000000055,36.84128015873612],[-7.902681346311188,36.83999999999998],[-7.940000000000055,36.82219132103287],[-7.980000000000054,36.8031008778962],[-7.986498369621904,36.79999999999998],[-8.020000000000053,36.78402131549959],[-8.060000000000052,36.76494178464066],[-8.070361873052526,36.759999999999984],[-8.100000000000051,36.74587166042158],[-8.14000000000005,36.726803221023104],[-8.154272755151634,36.719999999999985],[-8.18000000000005,36.70774269861698],[-8.220000000000049,36.688685530899534],[-8.238231923579699,36.679999999999986],[-8.260000000000048,36.669634774707234],[-8.300000000000047,36.65058905993114],[-8.322240295249472,36.639999999999986],[-8.340000000000046,36.63154823511964],[-8.380000000000045,36.61251415558683],[-8.406298796468324,36.59999999999999],[-8.420000000000044,36.59348342808994],[-8.460000000000043,36.5744611671457],[-8.490408363083388,36.55999999999999],[-8.500000000000043,36.55544070366462],[-8.540000000000042,36.53643044569934],[-8.574569940629175,36.51999999999999],[-8.580000000000043,36.51742041370327],[-8.62000000000004,36.49842234415401],[-8.65878448447762,36.47999999999999],[-8.66000000000004,36.4794229118806],[-8.700000000000038,36.46043721723275],[-8.740000000000038,36.44144977571237],[-8.743054949456136,36.43999999999999],[-8.780000000000037,36.42247542147726],[-8.820000000000036,36.40350064589215],[-8.827381183252424,36.39999999999999],[-8.860000000000035,36.38453731524963],[-8.900000000000034,36.36557539478486],[-8.911763386902628,36.35999999999999],[-8.940000000000033,36.34662325873412],[-8.980000000000032,36.32767438362845],[-8.996202558509681,36.31999999999999],[-9.020000000000032,36.3087336139385],[-9.06000000000003,36.28979797548569],[-9.080699706845545,36.279999999999994],[-9.10000000000003,36.270868744695456],[-9.140000000000029,36.25194653524541],[-9.165255851518799,36.239999999999995],[-9.180000000000028,36.233029016663814],[-9.220000000000027,36.21412042962375],[-9.249872023145654,36.199999999999996],[-9.260000000000026,36.195214797329584],[-9.300000000000026,36.176320027165005],[-9.33454926352333,36.16],[-9.340000000000025,36.157426456006796],[-9.380000000000024,36.13854569824241],[-9.419288625807203,36.12],[-9.420000000000023,36.119664363838275],[-9.460000000000022,36.100797815058996],[-9.500000000000021,36.08193051594197],[-9.504094024390778,36.08],[-9.54000000000002,36.06307675164784],[-9.58000000000002,36.0442239684503],[-9.58896426985713,36.04],[-9.620000000000019,36.02538288387258],[-9.660000000000018,36.00654481591005],[-9.673899960634056,36.0]]}},{"type":"Feature","properties":{"magnitude":0.6,"percentagem":60.0,"territorio":"acores"},"geometry":{"type":"LineString","coordinates":[[-25.954799974576083,40.479999999999905],[-25.960000000000132,40.478493809760714],[-26.000000000000128,40.46693934410686],[-26.040000000000127,40.45541371389058],[-26.080000000000126,40.443917012193104],[-26.093665267341123,40.439999999999905],[-26.120000000000125,40.43245885926522],[-26.160000000000124,40.421034734928455],[-26.200000000000124,40.409639791128],[-26.23392739375355,40.399999999999906],[-26.240000000000123,40.39827629665484],[-26.280000000000122,40.386954292049715],[-26.32000000000012,40.37566171798842],[-26.36000000000012,40.36439866641222],[-26.375665317399264,40.35999999999991],[-26.40000000000012,40.35317384533377],[-26.44000000000012,40.34198424592714],[-26.480000000000118,40.3308244163942],[-26.518902159304016,40.31999999999991],[-26.52000000000012,40.319694832945636],[-26.560000000000116,40.308608806022875],[-26.600000000000115,40.29755279421509],[-26.640000000000114,40.28652688820905],[-26.663745914274855,40.279999999999916],[-26.680000000000113,40.27553680684937],[-26.720000000000113,40.26458520114556],[-26.76000000000011,40.25366394368026],[-26.80000000000011,40.24277312439876],[-26.81021576187833,40.23999999999991],[-26.840000000000114,40.231923015366476],[-26.88000000000011,40.22110698507647],[-26.92000000000011,40.21032163249616],[-26.958390089178515,40.19999999999991],[-26.960000000000107,40.19956759154649],[-27.00000000000011,40.18885735939156],[-27.040000000000106,40.17817804211077],[-27.080000000000105,40.16752972821512],[-27.1083700295585,40.15999999999991],[-27.120000000000104,40.15691638953357],[-27.160000000000103,40.14634366826384],[-27.200000000000102,40.13580218444957],[-27.2400000000001,40.1252920257574],[-27.26020343138439,40.11999999999991],[-27.2800000000001,40.11481980132433],[-27.320000000000103,40.1043856977672],[-27.3600000000001,40.09398315020363],[-27.400000000000098,40.08361224541874],[-27.41397716605705,40.07999999999991],[-27.4400000000001,40.073281525229405],[-27.480000000000096,40.062987128149885],[-27.520000000000095,40.05272460141771],[-27.560000000000095,40.042494030899284],[-27.56978366477086,40.039999999999914],[-27.600000000000094,40.032305182592275],[-27.640000000000093,40.022151562166385],[-27.680000000000092,40.01203012211711],[-27.72000000000009,40.00194094735522],[-27.72772136072058,39.999999999999915],[-27.76000000000009,39.99189431584965],[-27.80000000000009,39.98188252314317],[-27.84000000000009,39.97190321637904],[-27.880000000000088,39.96195647947581],[-27.88789517400099,39.959999999999916],[-27.920000000000087,39.95205238661752],[-27.960000000000086,39.942183453070626],[-28.000000000000085,39.932347306430614],[-28.040000000000084,39.922544029587336],[-28.050417044083865,39.919999999999916],[-28.080000000000084,39.91278277380528],[-28.120000000000083,39.903057710723516],[-28.160000000000082,39.89336573077563],[-28.20000000000008,39.88370691578691],[-28.21540651541107,39.87999999999992],[-28.24000000000008,39.87408877175919],[-28.28000000000008,39.86450856981149],[-28.32000000000008,39.8549617423526],[-28.360000000000078,39.845448370107384],[-28.382991382388436,39.83999999999992],[-28.400000000000077,39.83597358843831],[-28.440000000000076,39.826539217162576],[-28.480000000000075,39.81713850672547],[-28.520000000000074,39.80777153671613],[-28.55330840093191,39.79999999999992],[-28.560000000000073,39.798440343624385],[-28.600000000000072,39.78915275094093],[-28.64000000000007,39.77989910030978],[-28.68000000000007,39.77067947014945],[-28.72000000000007,39.76149393862246],[-28.7265310203946,39.75999999999992],[-28.76000000000007,39.75235217890156],[-28.800000000000068,39.743246508636105],[-28.840000000000067,39.7341751335848],[-28.880000000000067,39.725138130696045],[-28.902831599852284,39.719999999999914],[-28.920000000000066,39.7161404166838],[-28.960000000000065,39.70718362465276],[-29.000000000000064,39.698261397153075],[-29.040000000000063,39.68937380988515],[-29.080000000000062,39.68052093827319],[-29.082363474002754,39.67999999999992],[-29.12000000000006,39.67171324707002],[-29.16000000000006,39.6629410362926],[-29.20000000000006,39.654203728232595],[-29.24000000000006,39.64550139702402],[-29.265391006427443,39.63999999999993],[-29.280000000000058,39.63683807874781],[-29.320000000000057,39.628216730147415],[-29.360000000000056,39.61963054104535],[-29.400000000000055,39.61107958425291],[-29.440000000000055,39.6025639322854],[-29.452095163878695,39.59999999999992],[-29.48000000000005,39.59409106001138],[-29.52000000000005,39.58565680534987],[-29.560000000000052,39.577258032600994],[-29.60000000000005,39.5688948129168],[-29.64000000000005,39.56056721714265],[-29.642736695655778,39.559999999999924],[-29.68000000000005,39.55228497839589],[-29.72000000000005,39.544039174516755],[-29.760000000000048,39.535829165940534],[-29.800000000000047,39.52765502210984],[-29.837625473283353,39.519999999999925],[-29.840000000000042,39.51951741621066],[-29.880000000000045,39.51142534082251],[-29.920000000000044,39.503369296862516],[-29.960000000000043,39.49534935234014],[-30.000000000000043,39.4873655749395],[-30.03707140344832,39.47999999999992],[-30.040000000000045,39.47941875933373],[-30.08000000000004,39.471517407793954],[-30.12000000000004,39.46365238413283],[-30.16000000000004,39.45582375456384],[-30.20000000000004,39.44803158496504],[-30.240000000000038,39.440275940877086],[-30.241430139504896,39.43999999999993],[-30.280000000000037,39.43256618870873],[-30.320000000000036,39.42489339595693],[-30.360000000000035,39.41725728225439],[-30.400000000000034,39.40965791162697],[-30.440000000000033,39.4020953477533],[-30.451138261308934,39.39999999999993],[-30.48000000000003,39.39457643737858],[-30.52000000000003,39.38709703540497],[-30.56000000000003,39.379654587531064],[-30.60000000000003,39.3722491558858],[-30.64000000000003,39.36488080224157],[-30.66663155900821,39.35999999999993],[-30.680000000000028,39.35755264775831],[-30.720000000000027,39.350267744759726],[-30.760000000000026,39.34302006080351],[-30.800000000000026,39.335809656078574],[-30.840000000000025,39.32863659040821],[-30.880000000000024,39.32150092324801],[-30.8884589698162,39.31999999999993],[-30.920000000000023,39.31440970151121],[-30.960000000000022,39.307357826810346],[-31.00000000000002,39.30034348400158],[-31.04000000000002,39.293366730918],[-31.08000000000002,39.286427625016294],[-31.117254368397074,39.27999999999993],[-31.120000000000015,39.27952681458183],[-31.160000000000018,39.27267174089016],[-31.200000000000017,39.26585444122764],[-31.240000000000016,39.25907497139775],[-31.280000000000015,39.2523333868194],[-31.320000000000014,39.24562974252486],[-31.353784274382328,39.23999999999993],[-31.360000000000014,39.2389653854934],[-31.400000000000013,39.232346055665346],[-31.440000000000012,39.225764785043566],[-31.48000000000001,39.21922162697187],[-31.52000000000001,39.212716634399534],[-31.56000000000001,39.20624985987969],[-31.59888855195316,39.19999999999993],[-31.60000000000001,39.1998215783682],[-31.640000000000008,39.19343936747935],[-31.680000000000007,39.18709548550885],[-31.720000000000006,39.180789983288115],[-31.760000000000005,39.174522911244836],[-31.800000000000004,39.168294319401454],[-31.840000000000003,39.162104257373436],[-31.85368392600484,39.15999999999993],[-31.880000000000006,39.15595782135344],[-31.92,39.1498525917217],[-31.96,39.143785993247555],[-32.0,39.13775807378839]]}},{"type":"Feature","properties":{"magnitude":0.8,"percentagem":80.0,"territorio":"madeira"},"geometry":{"type":"LineString","coordinates":[[-15.040000000000063,33.55766510338015],[-15.080000000000062,33.54025604373346],[-15.080588770505136,33.539999999999914],[-15.120000000000061,33.52286947738244],[-15.16000000000006,33.505491523361584],[-15.17264918644637,33.499999999999915],[-15.20000000000006,33.48813185658033],[-15.240000000000059,33.47078527803108],[-15.264885521165507,33.459999999999916],[-15.280000000000058,33.4534527361033],[-15.320000000000057,33.43613780367761],[-15.357300383104526,33.419999999999916],[-15.360000000000056,33.41883261232514],[-15.400000000000055,33.40154959747164],[-15.440000000000055,33.38427551225206],[-15.449907975118267,33.37999999999992],[-15.480000000000054,33.36702115779882],[-15.520000000000053,33.34977941627828],[-15.542702982986896,33.33999999999992],[-15.56000000000005,33.3325529842398],[-15.600000000000051,33.31534385992681],[-15.635685016442034,33.29999999999992],[-15.64000000000005,33.29814557754998],[-15.680000000000048,33.280969344715146],[-15.720000000000049,33.26380257711915],[-15.72886745550938,33.25999999999992],[-15.760000000000048,33.24665637330434],[-15.800000000000047,33.22952292790566],[-15.822248107690607,33.21999999999992],[-15.840000000000046,33.21240544947745],[-15.880000000000045,33.195305602518445],[-15.915824725720535,33.17999999999992],[-15.920000000000044,33.17821707811784],[-15.960000000000043,33.161151106566045],[-16.000000000000043,33.144095142420866],[-16.00961200810089,33.13999999999992],[-16.040000000000042,33.12705994672396],[-16.08000000000004,33.11003829310987],[-16.10360672377835,33.09999999999992],[-16.12000000000004,33.09303263071197],[-16.16000000000004,33.076045566473674],[-16.197806817786688,33.059999999999924],[-16.20000000000004,33.05906966727094],[-16.240000000000038,33.042117471938674],[-16.280000000000037,33.02517583253323],[-16.292230722165595,33.019999999999925],[-16.320000000000036,33.008254519917],[-16.360000000000035,32.991348188744844],[-16.38686947010848,32.979999999999926],[-16.400000000000034,32.97445722178238],[-16.440000000000033,32.95758648014973],[-16.480000000000032,32.94072668878026],[-16.481725718862716,32.93999999999993],[-16.52000000000003,32.92389121970193],[-16.56000000000003,32.907067460130406],[-16.57681773441941,32.89999999999993],[-16.60000000000003,32.890262921255015],[-16.64000000000003,32.87347547648752],[-16.67213214299997,32.85999999999993],[-16.680000000000028,32.856702099536406],[-16.720000000000027,32.83995125319068],[-16.760000000000026,32.82321191607433],[-16.767682366810163,32.81999999999993],[-16.800000000000026,32.806495306413815],[-16.840000000000025,32.78979301380314],[-16.863472596362712,32.77999999999993],[-16.880000000000024,32.77310815313914],[-16.920000000000023,32.756443190238954],[-16.959496072851948,32.73999999999993],[-16.96000000000002,32.73979031113019],[-17.00000000000002,32.7231629637101],[-17.04000000000002,32.706547690180955],[-17.055777521716777,32.69999999999993],[-17.08000000000002,32.68995285328489],[-17.12000000000002,32.67337564490465],[-17.152300673149117,32.65999999999993],[-17.160000000000018,32.65681337874376],[-17.200000000000017,32.640274522749536],[-17.240000000000016,32.62374814634394],[-17.249080942673153,32.61999999999993],[-17.280000000000015,32.60724484469485],[-17.320000000000014,32.59075727281081],[-17.34612079113573,32.579999999999934],[-17.360000000000014,32.574287132360126],[-17.400000000000013,32.55783865361266],[-17.440000000000012,32.54140306295135],[-17.44341833223058,32.539999999999935],[-17.48000000000001,32.524992811457906],[-17.52000000000001,32.508596768400466],[-17.540992595431973,32.49999999999993],[-17.56000000000001,32.49222026962074],[-17.60000000000001,32.47586406406691],[-17.638828352386707,32.45999999999994],[-17.640000000000008,32.45952155191057],[-17.680000000000007,32.4432054741998],[-17.720000000000006,32.426902862082365],[-17.736953818788212,32.41999999999994],[-17.760000000000005,32.410621523536875],[-17.800000000000004,32.39435949666925],[-17.835351340890384,32.37999999999994],[-17.840000000000003,32.378112737272936],[-17.880000000000003,32.361891587142665],[-17.92,32.34568431726725],[-17.934043843458095,32.33999999999994],[-17.96,32.32949965950606],[-18.0,32.313333725759236]]}}]}