{"type":"FeatureCollection","features":[{"type":"Feature","properties":{"magnitude":0.2,"de":0.2,"ate":0.5,"percentagem":20.0},"geometry":{"type":"Polygon","coordinates":[[[-34.5,30.0],[-14.245129460541783,30.0],[-8.335338925357862,32.819999999999936],[-3.5399999999988268,35.14031658695942],[-3.5399999999988268,44.939999999999685],[-12.020206680934827,44.939999999999685],[-22.003002724775527,40.079999999999785],[-28.38065824485291,37.07999999999985],[-33.62193590535371,34.739999999999895],[-34.01999999999998,34.64186777247432],[-34.5,34.6321733248339],[-34.5,30.0]]]}},{"type":"Feature","properties":{"magnitude":0.5,"de":0.5,"ate":0.8,"percentagem":50.0},"geometry":{"type":"Polygon","coordinates":[[[-34.5,44.939999999999685],[-34.5,34.6321733248339],[-34.139999999999986,34.63069267600798],[-33.839999999999975,34.67264632131827],[-33.62193590535371,34.739999999999895],[-28.90537364742514,36.839999999999854],[-22.252927762955686,39.959999999999795],[-12.020206680934827,44.939999999999685],[-34.5,44.939999999999685]]]}}]}