{"type":"FeatureCollection","features":[{"type":"Feature","properties":{"magnitude":0.8,"percentagem":80.0,"territorio":"continente"},"geometry":{"type":"LineString","coordinates":[[-10.5,42.53547102360857],[-10.46,42.548132313251415],[-10.42256042113425,42.55999999999986],[-10.420000000000002,42.56081247524666],[-10.380000000000003,42.57352417150488],[-10.340000000000003,42.58625378402457],[-10.300000000000004,42.59900129537251],[-10.296870816860235,42.59999999999986],[-10.260000000000005,42.6117801613981],[-10.220000000000006,42.62457804288719],[-10.180000000000007,42.63739377796723],[-10.171877388665063,42.63999999999986],[-10.140000000000008,42.650239059389484],[-10.100000000000009,42.66310515150943],[-10.06000000000001,42.67598905060908],[-10.047565289461641,42.67999999999986],[-10.02000000000001,42.68890091837986],[-9.980000000000011,42.70183515832642],[-9.940000000000012,42.714787157259586],[-9.923923881019077,42.71999999999986],[-9.900000000000013,42.72776577793447],[-9.860000000000014,42.74076809840379],[-9.820000000000014,42.75378812847694],[-9.800942718172873,42.759999999999856],[-9.780000000000015,42.76683366414985],[-9.740000000000016,42.779903993304735],[-9.700000000000017,42.79299198128348],[-9.678611544675103,42.799999999999855],[-9.660000000000018,42.80610458952124],[-9.620000000000019,42.8192428509583],[-9.58000000000002,42.83239871903473],[-9.556920289153084,42.83999999999986],[-9.54000000000002,42.84557855281227],[-9.500000000000021,42.858784665529406],[-9.460000000000022,42.872008331289685],[-9.435859061170452,42.87999999999985],[-9.420000000000023,42.88525553892568],[-9.380000000000024,42.89852941729035],[-9.340000000000025,42.9118207936832],[-9.315418147391046,42.91999999999986],[-9.300000000000024,42.925135518776116],[-9.260000000000026,42.93847707249392],[-9.220000000000027,42.95183606779951],[-9.195588007838854,42.95999999999985]]}},{"type":"Feature","properties":{"magnitude":0.8,"percentagem":80.0,"territorio":"acores"},"geometry":{"type":"LineString","coordinates":[[-32.0,38.70479014737634],[-31.96,38.70714635228161],[-31.92,38.70951721894249],[-31.880000000000003,38.71190276015498],[-31.840000000000003,38.71430298870744],[-31.800000000000004,38.71671791738067],[-31.760000000000005,38.719147558947746],[-31.746049719518865,38.71999999999994],[-31.720000000000006,38.72159367829228],[-31.680000000000007,38.724055490556495],[-31.640000000000008,38.72653207029365],[-31.600000000000005,38.72902343025586],[-31.56000000000001,38.73152958318708],[-31.52000000000001,38.73405054182295],[-31.48000000000001,38.73658631889073],[-31.440000000000012,38.73913692710914],[-31.400000000000013,38.741702379188396],[-31.360000000000014,38.74428268783002],[-31.320000000000014,38.74687786572686],[-31.280000000000015,38.7494879255628],[-31.240000000000016,38.75211288001298],[-31.200000000000017,38.75475274174334],[-31.160000000000018,38.75740752341088],[-31.12115714501003,38.759999999999934],[-31.12000000000002,38.76007732281476],[-31.08000000000002,38.76276494204055],[-31.04000000000002,38.76546753564414],[-31.000000000000018,38.76818511625509],[-30.960000000000022,38.77091769649334],[-30.920000000000023,38.77366528896915],[-30.880000000000024,38.77642790628295],[-30.840000000000025,38.77920556102527],[-30.800000000000026,38.78199826577664],[-30.760000000000026,38.78480603310759],[-30.720000000000027,38.78762887557835],[-30.680000000000028,38.79046680573898],[-30.64000000000003,38.79331983612915],[-30.60000000000003,38.79618797927806],[-30.56000000000003,38.799071247704376],[-30.547181841483386,38.79999999999994],[-30.52000000000003,38.80197182874136],[-30.480000000000032,38.804888602279505],[-30.440000000000033,38.807820555316574],[-30.400000000000034,38.810767700336996],[-30.360000000000035,38.8137300498141],[-30.320000000000036,38.81670761621007],[-30.280000000000037,38.81970041197572],[-30.240000000000038,38.82270844955055],[-30.20000000000004,38.82573174136252],[-30.16000000000004,38.82877029982803],[-30.12000000000004,38.831824137351795],[-30.08000000000004,38.83489326632677],[-30.040000000000042,38.83797769913405],[-30.013902930211287,38.83999999999993],[-30.000000000000043,38.84107863954134],[-29.960000000000043,38.84419716159798],[-29.920000000000044,38.847331041461096],[-29.88000000000004,38.850480291471186],[-29.840000000000046,38.85364492395638],[-29.800000000000047,38.856824951232156],[-29.760000000000048,38.86002038560146],[-29.72000000000005,38.86323123935435],[-29.68000000000005,38.86645752476811],[-29.64000000000005,38.86969925410706],[-29.60000000000005,38.87295643962244],[-29.560000000000052,38.876229093552325],[-29.520000000000053,38.879517228121514],[-29.514154240329752,38.87999999999994],[-29.480000000000054,38.88282397893813],[-29.440000000000055,38.8861467864189],[-29.400000000000055,38.889485128197634],[-29.360000000000056,38.89283901645196],[-29.320000000000057,38.89620846334576],[-29.280000000000058,38.899593481028816],[-29.24000000000006,38.90299408163696],[-29.20000000000006,38.90641027729171],[-29.16000000000006,38.90984208010039],[-29.12000000000006,38.9132895021559],[-29.080000000000062,38.916752555536604],[-29.042658871097675,38.91999999999993],[-29.040000000000063,38.9202315086926],[-29.000000000000064,38.923729734953675],[-28.960000000000065,38.92724364588855],[-28.920000000000066,38.930773253522474],[-28.880000000000067,38.93431856986583],[-28.840000000000067,38.93787960691357],[-28.800000000000068,38.94145637664542],[-28.76000000000007,38.945048891025564],[-28.72000000000007,38.94865716200267],[-28.68000000000007,38.952281201509706],[-28.64000000000007,38.955921021463965],[-28.600000000000072,38.959576633766616],[-28.595387117810105,38.95999999999994],[-28.560000000000073,38.963251655682924],[-28.520000000000074,38.966942980985756],[-28.48000000000007,38.97065015157803],[-28.440000000000076,38.974373179301395],[-28.400000000000077,38.97811207598103],[-28.360000000000078,38.98186685342531],[-28.32000000000008,38.98563752342594],[-28.28000000000008,38.98942409775774],[-28.24000000000008,38.99322658817849],[-28.20000000000008,38.997045006428856],[-28.169172985606597,38.999999999999936],[-28.160000000000085,39.00088034148947],[-28.120000000000083,39.004734929309535],[-28.080000000000084,39.00860549752274],[-28.040000000000084,39.012492057804224],[-28.000000000000085,39.01639462181151],[-27.960000000000086,39.020313201184095],[-27.920000000000087,39.02424780754353],[-27.880000000000088,39.028198452493235],[-27.84000000000009,39.03216514761833],[-27.80000000000009,39.03614790448558],[-27.761467670556854,39.03999999999993],[-27.76000000000009,39.04014689789496],[-27.72000000000009,39.04416627953862],[-27.680000000000092,39.048201775061415],[-27.640000000000093,39.052253395958644],[-27.600000000000097,39.056321153706584],[-27.560000000000095,39.06040505976228],[-27.520000000000095,39.06450512556356],[-27.480000000000096,39.068621362528724],[-27.440000000000097,39.07275378205664],[-27.400000000000098,39.07690239552641],[-27.370249248993076,39.079999999999934],[-27.3600000000001,39.081068402892946],[-27.3200000000001,39.08525409460984],[-27.2800000000001,39.08945603192835],[-27.2400000000001,39.09367422614995],[-27.200000000000102,39.097908688555734],[-27.160000000000103,39.10215943040633],[-27.120000000000104,39.1064264629417],[-27.080000000000105,39.11070979738109],[-27.040000000000106,39.11500944492285],[-27.000000000000107,39.11932541674438],[-26.99377122985251,39.11999999999993],[-26.960000000000107,39.12366180177505],[-26.92000000000011,39.12801530319069],[-26.88000000000011,39.13238518001609],[-26.84000000000011,39.13677144334452],[-26.80000000000011,39.14117410424755],[-26.76000000000011,39.14559317377487],[-26.720000000000113,39.15002866295424],[-26.680000000000113,39.15448058279123],[-26.640000000000114,39.15894894426919],[-26.630625149803333,39.15999999999993],[-26.600000000000115,39.16343759019573],[-26.560000000000116,39.167943890435744],[-26.520000000000117,39.1724666829304],[-26.480000000000118,39.17700597857301],[-26.44000000000012,39.18156178823388],[-26.40000000000012,39.1861341227602],[-26.36000000000012,39.190722992975914],[-26.32000000000012,39.19532840968154],[-26.280000000000122,39.19995038365414],[-26.279572109804878,39.19999999999993],[-26.240000000000123,39.204594051333785],[-26.200000000000124,39.209254371050235],[-26.16000000000012,39.2139312980851],[-26.120000000000125,39.21862484311917],[-26.080000000000126,39.22333501680902],[-26.040000000000127,39.22806182978677],[-26.000000000000128,39.23280529265997],[-25.96000000000013,39.237565416011435],[-25.93961257940099,39.23999999999993],[-25.92000000000013,39.24234482903613],[-25.88000000000013,39.24714366364834],[-25.84000000000013,39.2519592082579],[-25.800000000000132,39.25679147334586],[-25.760000000000133,39.261640469367705],[-25.720000000000134,39.26650620675336],[-25.680000000000135,39.271388695906964],[-25.640000000000136,39.27628794720678],[-25.6097958218096,39.27999999999993],[-25.600000000000136,39.28120531827379],[-25.560000000000137,39.2861436443055],[-25.520000000000138,39.29109878143123],[-25.48000000000014,39.29607073992164],[-25.44000000000014,39.30105953002062],[-25.40000000000014,39.306065161945206],[-25.36000000000014,39.31108764588553],[-25.320000000000142,39.31612699200448],[-25.28935998640559,39.31999999999993],[-25.280000000000143,39.32118453560082],[-25.240000000000144,39.326263317636915],[-25.200000000000145,39.33135901018844],[-25.160000000000146,39.33647162330483],[-25.120000000000147,39.34160116700752],[-25.080000000000148,39.34674765128986],[-25.04000000000015,39.351911086117],[-25.00000000000015,39.35709148142567],[-24.97761483601004,39.35999999999993],[-24.96000000000015,39.36229141263085],[-24.92000000000015,39.367511602508785],[-24.880000000000148,39.37274880055317],[-24.840000000000153,39.378003016581104],[-24.800000000000153,39.38327426038056],[-24.760000000000154,39.38856254171003],[-24.720000000000155,39.39386787029858],[-24.680000000000156,39.399190255845625],[-24.673933571609147,39.39999999999993],[-24.640000000000157,39.404534789092715],[-24.600000000000158,39.40989732507417],[-24.56000000000016,39.415276965005305],[-24.52000000000016,39.420673718459696],[-24.48000000000016,39.426087594980444],[-24.44000000000016,39.43151860407991],[-24.400000000000162,39.43696675523975],[-24.37779941305795,39.43999999999993],[-24.360000000000163,39.44243478819812],[-24.320000000000164,39.44792340570521],[-24.280000000000165,39.45342921162781],[-24.240000000000165,39.45895221531613],[-24.200000000000166,39.46449242608871],[-24.160000000000167,39.47004985323217],[-24.120000000000168,39.47562450600127],[-24.088700745670053,39.479999999999926],[-24.08000000000017,39.48121776021949],[-24.04000000000017,39.48683319289023]]}},{"type":"Feature","properties":{"magnitude":0.6,"percentagem":60.0,"territorio":"madeira"},"geometry":{"type":"LineString","coordinates":[[-18.0,30.075458288007837],[-17.96,30.081776161795084],[-17.92,30.088110913355834],[-17.880000000000003,30.094462553398763],[-17.84521975680594,30.099999999999987],[-17.840000000000003,30.100831762506438],[-17.800000000000004,30.107222358011548],[-17.760000000000005,30.11362988676691],[-17.720000000000006,30.12005435938734],[-17.680000000000007,30.126495786464936],[-17.640000000000008,30.13295417856906],[-17.60000000000001,30.13942954624607],[-17.59648522007046,30.139999999999986],[-17.56000000000001,30.145926676648692],[-17.52000000000001,30.152441276603632],[-17.48000000000001,30.15897289641139],[-17.440000000000012,30.165521546519557],[-17.400000000000013,30.172087237352013],[-17.360000000000014,30.178669979308694],[-17.351938710966962,30.179999999999986],[-17.320000000000014,30.185274036581717],[-17.280000000000015,30.19189625220266],[-17.240000000000016,30.19853556278946],[-17.200000000000017,30.205191978638947],[-17.160000000000018,30.211865510023316],[-17.12000000000002,30.218556167189863],[-17.111389789901605,30.219999999999985],[-17.08000000000002,30.2252682125334],[-17.04000000000002,30.231998583300403],[-17.00000000000002,30.23874612323035],[-16.960000000000022,30.245510842463027],[-16.920000000000023,30.252292751112545],[-16.880000000000024,30.259091859267286],[-16.874670564335013,30.259999999999984],[-16.840000000000025,30.265912952838768],[-16.800000000000026,30.272752012975516],[-16.760000000000026,30.27960831551439],[-16.720000000000027,30.28648187043165],[-16.680000000000028,30.293372687676925],[-16.641625714732417,30.299999999999983],[-16.640000000000025,30.300281004311366],[-16.60000000000003,30.30721197770289],[-16.56000000000003,30.31416025590125],[-16.52000000000003,30.32112584874018],[-16.480000000000032,30.328108766025835],[-16.440000000000033,30.335109017536837],[-16.41212121770627,30.339999999999982],[-16.400000000000034,30.34212833445838],[-16.360000000000035,30.349168977420618],[-16.320000000000036,30.35622699655947],[-16.280000000000037,30.363302401532913],[-16.240000000000038,30.370395201970393],[-16.20000000000004,30.37750540747276],[-16.186000009651774,30.37999999999998],[-16.16000000000004,30.384636780163547],[-16.12000000000004,30.39178761055764],[-16.08000000000004,30.398955887416072],[-16.040000000000042,30.406141620214274],[-16.000000000000043,30.413344818398173],[-15.963132497015504,30.41999999999998],[-15.960000000000043,30.42056594972162],[-15.920000000000044,30.427809972753188],[-15.880000000000045,30.435071502093244],[-15.840000000000046,30.44235054705812],[-15.800000000000047,30.449647116933836],[-15.760000000000048,30.45696122097583],[-15.743420612066913,30.45999999999998],[-15.720000000000049,30.4642963497037],[-15.68000000000005,30.471651508368453],[-15.64000000000005,30.479024241524314],[-15.600000000000051,30.48641455829229],[-15.560000000000052,30.493822467761927],[-15.526722420152101,30.49999999999998],[-15.520000000000053,30.501248991679645],[-15.480000000000054,30.50869815260317],[-15.440000000000055,30.516164946036742],[-15.400000000000055,30.523649380931168],[-15.360000000000056,30.531151466204964],[-15.320000000000057,30.538671210744134],[-15.312948061099911,30.539999999999978],[-15.280000000000058,30.546213663872514],[-15.240000000000059,30.55377488557443],[-15.20000000000006,30.561353805704382],[-15.16000000000006,30.568950433004602],[-15.120000000000061,30.57656477618388],[-15.101995443165269,30.579999999999977],[-15.080000000000062,30.58420025310674],[-15.040000000000061,30.59185626681053]]}}]}