{"type":"FeatureCollection","features":[{"type":"Feature","properties":{"magnitude":0.2,"percentagem":20.0,"territorio":"continente"},"geometry":{"type":"LineString","coordinates":[[-8.75656057568233,36.0],[-8.740000000000038,36.010927908581884],[-8.700000000000038,36.0372995775883],[-8.69590098325605,36.04],[-8.66000000000004,36.0636494167254],[-8.635155900901385,36.08],[-8.62000000000004,36.089973651051224],[-8.580000000000041,36.11627357039794],[-8.57432805291521,36.12],[-8.540000000000042,36.14255135879782],[-8.513414581512224,36.16],[-8.500000000000043,36.168803560863466],[-8.460000000000043,36.19503190226978],[-8.45241732257374,36.199999999999996],[-8.420000000000044,36.221237735279765],[-8.391334405014941,36.239999999999995],[-8.380000000000045,36.24741800082049],[-8.340000000000046,36.27357493805027],[-8.330166573517946,36.279999999999994],[-8.300000000000047,36.29970891249869],[-8.268913149270364,36.31999999999999],[-8.260000000000048,36.32581733870704],[-8.220000000000049,36.351903047502006],[-8.207573577367949,36.35999999999999],[-8.18000000000005,36.37796526162826],[-8.146148582435655,36.39999999999999],[-8.14000000000005,36.404001947084986],[-8.100000000000051,36.430016605099254],[-8.08463609601257,36.43999999999999],[-8.060000000000052,36.456007158485605],[-8.023038462898871,36.47999999999999],[-8.020000000000053,36.4819722030917],[-7.980000000000054,36.50791598982775],[-7.961351881543385,36.51999999999999],[-7.940000000000055,36.53383498333237],[-7.900000000000055,36.559728583874055],[-7.899580418823201,36.55999999999999],[-7.860000000000056,36.585601584988595],[-7.8377186761876345,36.59999999999999],[-7.820000000000057,36.61144912068026],[-7.780000000000058,36.637272152183634],[-7.77577132756815,36.639999999999986],[-7.740000000000059,36.66307377800638],[-7.713734212240325,36.67999999999999],[-7.70000000000006,36.6888499591003],[-7.6600000000000605,36.71460260565141],[-7.651609780515183,36.719999999999985],[-7.620000000000061,36.74033296024119],[-7.589396211995312,36.759999999999984],[-7.580000000000062,36.76603789103652],[-7.540000000000063,36.791720338346195],[-7.527093493561548,36.79999999999998],[-7.500000000000064,36.81737952680475],[-7.464702387675138,36.83999999999998],[-7.460000000000064,36.84301331262315],[-7.420000000000066,36.86862574796895],[-7.402220172502306,36.87999999999998],[-7.3800000000000665,36.89421387638046],[-7.340000000000067,36.9197767031866],[-7.339650337524691,36.91999999999998],[-7.300000000000068,36.945319235675065],[-7.276987512958261,36.95999999999998],[-7.260000000000068,36.97083641104711],[-7.22000000000007,36.996329540284435],[-7.214236341307062,36.99999999999998],[-7.180000000000071,37.02180120590084],[-7.151393200303593,37.03999999999998],[-7.140000000000072,37.04724753610657],[-7.1000000000000725,37.072671158916336],[-7.088459464829885,37.07999999999998],[-7.060000000000073,37.09807206619366],[-7.025434909592196,37.119999999999976],[-7.020000000000074,37.12344765991528],[-6.980000000000075,37.148801968802246],[-6.9623173766080235,37.159999999999975],[-6.940000000000076,37.17413222704556],[-6.900000000000077,37.19943739645949],[-6.899110034372927,37.199999999999974],[-6.860000000000078,37.22472238249886],[-6.835807734726973,37.239999999999974],[-6.820000000000078,37.24998210173082],[-6.780000000000079,37.275218279749275],[-6.772414716037044,37.27999999999997],[-6.74000000000008,37.30043281523922],[-6.708928186766206,37.31999999999997],[-6.700000000000081,37.325622106146916],[-6.660000000000082,37.35078948862035],[-6.6453482405390485,37.35999999999997],[-6.620000000000083,37.3759336847761],[-6.5816763697215,37.39999999999996],[-6.580000000000084,37.401052658659],[-6.540000000000084,37.42615144261362],[-6.517908238215813,37.43999999999997],[-6.500000000000085,37.45122541122877],[-6.460000000000086,37.476275535441474],[-6.454048052303241,37.47999999999997],[-6.420000000000087,37.50130456353685],[-6.390092328705195,37.51999999999997],[-6.380000000000088,37.526308416933155],[-6.340000000000089,37.55129027215235],[-6.326042038994041,37.55999999999997],[-6.3000000000000895,37.5762492753169],[-6.261898120865332,37.599999999999966],[-6.26000000000009,37.60118312629545],[-6.220000000000091,37.6260969124138],[-6.1976564519197614,37.639999999999965],[-6.180000000000092,37.650986003855536],[-6.140000000000093,37.67585148601415],[-6.133321092508099,37.679999999999964],[-6.100000000000094,37.70069588356125],[-6.068888882289134,37.71999999999996],[-6.060000000000095,37.72551517688843],[-6.0200000000000955,37.7503129238818],[-6.004360196060609,37.75999999999996],[-5.980000000000096,37.77508761467234],[-5.940000000000097,37.79983728371895],[-5.939736825909824,37.79999999999996],[-5.900000000000098,37.82456743810951],[-5.875013603924543,37.83999999999996],[-5.860000000000099,37.84927253643092],[-5.8200000000001,37.87395480671631],[-5.810194941199249,37.87999999999996],[-5.780000000000101,37.898615460575144],[-5.745278878372105,37.91999999999996],[-5.7400000000001015,37.92325108099462],[-5.700000000000102,37.94786615637312],[-5.680263618497816,37.95999999999996],[-5.660000000000103,37.972457424543784],[-5.620000000000104,37.99702478428488],[-5.615151990248576,37.99999999999996],[-5.580000000000105,38.021571767005966],[-5.54994040193743,38.03999999999996],[-5.540000000000106,38.04609376454029]]}},{"type":"Feature","properties":{"magnitude":0.2,"percentagem":20.0,"territorio":"madeira"},"geometry":{"type":"LineString","coordinates":[[-17.683735589610844,29.5],[-17.680000000000007,29.50297140319731],[-17.640000000000008,29.534771755955944],[-17.633419955717642,29.54],[-17.60000000000001,29.56654983214183],[-17.583059125315145,29.58],[-17.56000000000001,29.598304741725784],[-17.532653042357765,29.619999999999997],[-17.52000000000001,29.630036440165448],[-17.482201499489324,29.659999999999997],[-17.48000000000001,29.661744883314984],[-17.440000000000012,29.693431903671957],[-17.431703884599916,29.699999999999996],[-17.400000000000013,29.725096091751446],[-17.381160260336507,29.739999999999995],[-17.360000000000014,29.756736906984578],[-17.330570524251435,29.779999999999994],[-17.320000000000014,29.788354306892426],[-17.280000000000015,29.819948264185893],[-17.27993446604202,29.819999999999993],[-17.240000000000016,29.851521122435237],[-17.229251292341907,29.859999999999992],[-17.200000000000017,29.88307045300236],[-17.17852135586431,29.89999999999999],[-17.160000000000018,29.914596215031438],[-17.12774445027517,29.93999999999999],[-17.12000000000002,29.94609836803852],[-17.08000000000002,29.977577567500276],[-17.07692018171347,29.97999999999999],[-17.04000000000002,30.009034839529843],[-17.026048038583035,30.01999999999999],[-17.00000000000002,30.040468396458703],[-16.97512827665045,30.059999999999988],[-16.960000000000022,30.07187819937166],[-16.924160690111652,30.099999999999987],[-16.920000000000023,30.103264209711824],[-16.880000000000024,30.134627937192363],[-16.8731446103407,30.139999999999986],[-16.840000000000025,30.165968748540905],[-16.82207998726737,30.179999999999986],[-16.800000000000026,30.197285667315654],[-16.770966891027893,30.219999999999985],[-16.760000000000026,30.228578656474784],[-16.720000000000027,30.259847723298975],[-16.719805102126603,30.259999999999984],[-16.680000000000028,30.291095274659355],[-16.668593613504875,30.299999999999983],[-16.64000000000003,30.3223188011548],[-16.617333003832442,30.339999999999982],[-16.60000000000003,30.353518267215946],[-16.56602306811572,30.379999999999978],[-16.56000000000003,30.384693637607803],[-16.52000000000003,30.41584608160551],[-16.514663178970473,30.41999999999998],[-16.480000000000032,30.446975732921587],[-16.46325305223084,30.45999999999998],[-16.440000000000033,30.478081199041586],[-16.41179295246379,30.49999999999998],[-16.400000000000034,30.50916244615052],[-16.360282675088683,30.53999999999998],[-16.360000000000035,30.540219440754477],[-16.320000000000036,30.571254694821008],[-16.308721051349636,30.579999999999977],[-16.280000000000037,30.602265708576404],[-16.257108784288576,30.619999999999976],[-16.240000000000038,30.633252385828634],[-16.20544569341068,30.659999999999975],[-16.20000000000004,30.664214694451914],[-16.16000000000004,30.69515401667967],[-16.15373100715651,30.699999999999974],[-16.12000000000004,30.72607014941923],[-16.101964569161716,30.739999999999974],[-16.08000000000004,30.756961833849942],[-16.050146661552926,30.779999999999976],[-16.040000000000042,30.787829039173133],[-16.000000000000043,30.818672123420892],[-15.998276915890202,30.819999999999972],[-15.960000000000043,30.84949296962523],[-15.946354302720273,30.85999999999997],[-15.920000000000044,30.88028926124001],[-15.894379574481235,30.89999999999997],[-15.880000000000045,30.911060968753198],[-15.842352527416981,30.939999999999973],[-15.840000000000046,30.94180806294096],[-15.800000000000047,30.972532709216004],[-15.790271970109222,30.97999999999997],[-15.760000000000048,31.003233230359882],[-15.738138416467834,31.019999999999968],[-15.720000000000049,31.033909067733607],[-15.685951899011775,31.059999999999967],[-15.68000000000005,31.064560193350253],[-15.64000000000005,31.095187997718646],[-15.63371154543227,31.099999999999966],[-15.600000000000051,31.125792392452833],[-15.581417160544962,31.139999999999965],[-15.560000000000052,31.156372008916968],[-15.529069167036695,31.179999999999964],[-15.520000000000055,31.18692682032173],[-15.480000000000054,31.217457551735137],[-15.476666991210768,31.219999999999963],[-15.440000000000055,31.24796548522186],[-15.424209767966506,31.259999999999962],[-15.400000000000055,31.27844855095245],[-15.371698291411295,31.299999999999965],[-15.360000000000056,31.308906723296534],[-15.320000000000057,31.339340172542915],[-15.319132257850109,31.33999999999996],[-15.280000000000058,31.369751330438522],[-15.266510187676825,31.37999999999996],[-15.240000000000059,31.400137535953093],[-15.213833219552996,31.41999999999996],[-15.20000000000006,31.430498764577237],[-15.16110115041751,31.45999999999996],[-15.16000000000006,31.460834992048653],[-15.120000000000061,31.49114883158428],[-15.108312355786605,31.499999999999957],[-15.080000000000062,31.5214378871458],[-15.05546788585497,31.539999999999957],[-15.040000000000063,31.551701886986294]]}}]}