{"type":"FeatureCollection","properties":{"largura_maxima_km":185.437,"largura_sobre_pt_km":168.341,"linha_central_sobre_pt":true,"desenhavel_como_area":true,"perfil_largura":[{"t":-1.88333,"lat":30.0928,"lon":-40.6756,"largura_km":null,"eixo_na_terra":false},{"t":-1.87778,"lat":30.4256,"lon":-40.1486,"largura_km":null,"eixo_na_terra":false},{"t":-1.87222,"lat":30.6914,"lon":-39.7448,"largura_km":null,"eixo_na_terra":false},{"t":-1.86667,"lat":31.0591,"lon":-39.1073,"largura_km":null,"eixo_na_terra":false},{"t":-1.86111,"lat":31.3344,"lon":-38.7245,"largura_km":null,"eixo_na_terra":false},{"t":-1.85556,"lat":31.7461,"lon":-37.897,"largura_km":null,"eixo_na_terra":false},{"t":-1.85,"lat":32.6864,"lon":-35.5012,"largura_km":150.408,"eixo_na_terra":true},{"t":-1.84444,"lat":33.1132,"lon":-34.5428,"largura_km":152.815,"eixo_na_terra":true},{"t":-1.83889,"lat":33.5009,"lon":-33.6813,"largura_km":154.518,"eixo_na_terra":true},{"t":-1.83333,"lat":33.859,"lon":-32.893,"largura_km":155.909,"eixo_na_terra":true},{"t":-1.82778,"lat":34.1938,"lon":-32.1622,"largura_km":157.11,"eixo_na_terra":true},{"t":-1.82222,"lat":34.5095,"lon":-31.4782,"largura_km":158.192,"eixo_na_terra":true},{"t":-1.81667,"lat":34.8092,"lon":-30.8332,"largura_km":159.173,"eixo_na_terra":true},{"t":-1.81111,"lat":35.0952,"lon":-30.2214,"largura_km":160.079,"eixo_na_terra":true},{"t":-1.80556,"lat":35.3694,"lon":-29.6381,"largura_km":160.929,"eixo_na_terra":true},{"t":-1.8,"lat":35.6332,"lon":-29.0799,"largura_km":161.724,"eixo_na_terra":true},{"t":-1.79444,"lat":35.8878,"lon":-28.5437,"largura_km":162.473,"eixo_na_terra":true},{"t":-1.78889,"lat":36.134,"lon":-28.0271,"largura_km":163.182,"eixo_na_terra":true},{"t":-1.78333,"lat":36.3728,"lon":-27.5282,"largura_km":163.855,"eixo_na_terra":true},{"t":-1.77778,"lat":36.6048,"lon":-27.0452,"largura_km":164.5,"eixo_na_terra":true},{"t":-1.77222,"lat":36.8306,"lon":-26.5768,"largura_km":165.118,"eixo_na_terra":true},{"t":-1.76667,"lat":37.0507,"lon":-26.1215,"largura_km":165.71,"eixo_na_terra":true},{"t":-1.76111,"lat":37.2656,"lon":-25.6785,"largura_km":166.277,"eixo_na_terra":true},{"t":-1.75556,"lat":37.4755,"lon":-25.2467,"largura_km":166.822,"eixo_na_terra":true},{"t":-1.75,"lat":37.6809,"lon":-24.8252,"largura_km":167.347,"eixo_na_terra":true},{"t":-1.74444,"lat":37.882,"lon":-24.4134,"largura_km":167.853,"eixo_na_terra":true},{"t":-1.73889,"lat":38.0791,"lon":-24.0105,"largura_km":168.341,"eixo_na_terra":true},{"t":-1.73333,"lat":38.2725,"lon":-23.6161,"largura_km":168.812,"eixo_na_terra":true},{"t":-1.72778,"lat":38.4624,"lon":-23.2294,"largura_km":169.267,"eixo_na_terra":true},{"t":-1.72222,"lat":38.6489,"lon":-22.8502,"largura_km":169.708,"eixo_na_terra":true},{"t":-1.71667,"lat":38.8322,"lon":-22.4778,"largura_km":170.135,"eixo_na_terra":true},{"t":-1.71111,"lat":39.0126,"lon":-22.112,"largura_km":170.548,"eixo_na_terra":true},{"t":-1.70556,"lat":39.1901,"lon":-21.7523,"largura_km":170.949,"eixo_na_terra":true},{"t":-1.7,"lat":39.3649,"lon":-21.3985,"largura_km":171.338,"eixo_na_terra":true},{"t":-1.69444,"lat":39.5371,"lon":-21.0502,"largura_km":171.716,"eixo_na_terra":true},{"t":-1.68889,"lat":39.7068,"lon":-20.7071,"largura_km":172.083,"eixo_na_terra":true},{"t":-1.68333,"lat":39.8741,"lon":-20.3689,"largura_km":172.44,"eixo_na_terra":true},{"t":-1.67778,"lat":40.0392,"lon":-20.0355,"largura_km":172.787,"eixo_na_terra":true},{"t":-1.67222,"lat":40.2021,"lon":-19.7066,"largura_km":173.125,"eixo_na_terra":true},{"t":-1.66667,"lat":40.3629,"lon":-19.382,"largura_km":173.454,"eixo_na_terra":true},{"t":-1.66111,"lat":40.5217,"lon":-19.0615,"largura_km":173.774,"eixo_na_terra":true},{"t":-1.65556,"lat":40.6785,"lon":-18.7449,"largura_km":174.085,"eixo_na_terra":true},{"t":-1.65,"lat":40.8334,"lon":-18.432,"largura_km":174.389,"eixo_na_terra":true},{"t":-1.64444,"lat":40.9866,"lon":-18.1227,"largura_km":174.685,"eixo_na_terra":true},{"t":-1.63889,"lat":41.138,"lon":-17.8168,"largura_km":174.973,"eixo_na_terra":true},{"t":-1.63333,"lat":41.2877,"lon":-17.5142,"largura_km":175.254,"eixo_na_terra":true},{"t":-1.62778,"lat":41.4358,"lon":-17.2148,"largura_km":175.528,"eixo_na_terra":true},{"t":-1.62222,"lat":41.5823,"lon":-16.9184,"largura_km":175.796,"eixo_na_terra":true},{"t":-1.61667,"lat":41.7272,"lon":-16.6248,"largura_km":176.057,"eixo_na_terra":true},{"t":-1.61111,"lat":41.8707,"lon":-16.3341,"largura_km":176.312,"eixo_na_terra":true},{"t":-1.60556,"lat":42.0127,"lon":-16.0461,"largura_km":176.561,"eixo_na_terra":true},{"t":-1.6,"lat":42.1533,"lon":-15.7606,"largura_km":176.804,"eixo_na_terra":true},{"t":-1.59444,"lat":42.2925,"lon":-15.4776,"largura_km":177.041,"eixo_na_terra":true},{"t":-1.58889,"lat":42.4304,"lon":-15.197,"largura_km":177.272,"eixo_na_terra":true},{"t":-1.58333,"lat":42.567,"lon":-14.9187,"largura_km":177.499,"eixo_na_terra":true},{"t":-1.57778,"lat":42.7023,"lon":-14.6427,"largura_km":177.72,"eixo_na_terra":true},{"t":-1.57222,"lat":42.8364,"lon":-14.3687,"largura_km":177.935,"eixo_na_terra":true},{"t":-1.56667,"lat":42.9693,"lon":-14.0969,"largura_km":178.146,"eixo_na_terra":true},{"t":-1.56111,"lat":43.1011,"lon":-13.827,"largura_km":178.353,"eixo_na_terra":true},{"t":-1.55556,"lat":43.2316,"lon":-13.5591,"largura_km":178.554,"eixo_na_terra":true},{"t":-1.55,"lat":43.3611,"lon":-13.293,"largura_km":178.751,"eixo_na_terra":true},{"t":-1.54444,"lat":43.4895,"lon":-13.0287,"largura_km":178.944,"eixo_na_terra":true},{"t":-1.53889,"lat":43.6168,"lon":-12.7662,"largura_km":179.132,"eixo_na_terra":true},{"t":-1.53333,"lat":43.743,"lon":-12.5053,"largura_km":179.316,"eixo_na_terra":true},{"t":-1.52778,"lat":43.8682,"lon":-12.2461,"largura_km":179.496,"eixo_na_terra":true},{"t":-1.52222,"lat":43.9925,"lon":-11.9884,"largura_km":179.672,"eixo_na_terra":true},{"t":-1.51667,"lat":44.1157,"lon":-11.7323,"largura_km":179.844,"eixo_na_terra":true},{"t":-1.51111,"lat":44.238,"lon":-11.4776,"largura_km":180.013,"eixo_na_terra":true},{"t":-1.50556,"lat":44.3593,"lon":-11.2243,"largura_km":180.177,"eixo_na_terra":true},{"t":-1.5,"lat":44.4797,"lon":-10.9725,"largura_km":180.338,"eixo_na_terra":true},{"t":-1.49444,"lat":44.5992,"lon":-10.7219,"largura_km":180.496,"eixo_na_terra":true},{"t":-1.48889,"lat":44.7178,"lon":-10.4726,"largura_km":180.65,"eixo_na_terra":true},{"t":-1.48333,"lat":44.8355,"lon":-10.2246,"largura_km":180.801,"eixo_na_terra":true},{"t":-1.47778,"lat":44.9523,"lon":-9.9778,"largura_km":180.949,"eixo_na_terra":true},{"t":-1.47222,"lat":45.0683,"lon":-9.7321,"largura_km":181.094,"eixo_na_terra":true},{"t":-1.46667,"lat":45.1835,"lon":-9.4876,"largura_km":181.235,"eixo_na_terra":true},{"t":-1.46111,"lat":45.2978,"lon":-9.2442,"largura_km":181.373,"eixo_na_terra":true},{"t":-1.45556,"lat":45.4114,"lon":-9.0018,"largura_km":181.509,"eixo_na_terra":true},{"t":-1.45,"lat":45.5241,"lon":-8.7605,"largura_km":181.641,"eixo_na_terra":true},{"t":-1.44444,"lat":45.6361,"lon":-8.5202,"largura_km":181.771,"eixo_na_terra":true},{"t":-1.43889,"lat":45.7473,"lon":-8.2808,"largura_km":181.898,"eixo_na_terra":true},{"t":-1.43333,"lat":45.8577,"lon":-8.0424,"largura_km":182.022,"eixo_na_terra":true},{"t":-1.42778,"lat":45.9674,"lon":-7.8048,"largura_km":182.144,"eixo_na_terra":true},{"t":-1.42222,"lat":46.0764,"lon":-7.5682,"largura_km":182.263,"eixo_na_terra":true},{"t":-1.41667,"lat":46.1846,"lon":-7.3323,"largura_km":182.379,"eixo_na_terra":true},{"t":-1.41111,"lat":46.2921,"lon":-7.0973,"largura_km":182.493,"eixo_na_terra":true},{"t":-1.40556,"lat":46.3989,"lon":-6.8631,"largura_km":182.605,"eixo_na_terra":true},{"t":-1.4,"lat":46.5051,"lon":-6.6297,"largura_km":182.715,"eixo_na_terra":true},{"t":-1.39444,"lat":46.6105,"lon":-6.397,"largura_km":182.822,"eixo_na_terra":true},{"t":-1.38889,"lat":46.7152,"lon":-6.165,"largura_km":182.927,"eixo_na_terra":true},{"t":-1.38333,"lat":46.8193,"lon":-5.9338,"largura_km":183.03,"eixo_na_terra":true},{"t":-1.37778,"lat":46.9227,"lon":-5.7031,"largura_km":183.13,"eixo_na_terra":true},{"t":-1.37222,"lat":47.0255,"lon":-5.4732,"largura_km":183.229,"eixo_na_terra":true},{"t":-1.36667,"lat":47.1276,"lon":-5.2439,"largura_km":183.325,"eixo_na_terra":true},{"t":-1.36111,"lat":47.2291,"lon":-5.0151,"largura_km":183.419,"eixo_na_terra":true},{"t":-1.35556,"lat":47.3299,"lon":-4.787,"largura_km":183.512,"eixo_na_terra":true},{"t":-1.35,"lat":47.4301,"lon":-4.5594,"largura_km":183.602,"eixo_na_terra":true},{"t":-1.34444,"lat":47.5297,"lon":-4.3324,"largura_km":183.69,"eixo_na_terra":true},{"t":-1.33889,"lat":47.6287,"lon":-4.1059,"largura_km":183.777,"eixo_na_terra":true},{"t":-1.33333,"lat":47.7271,"lon":-3.88,"largura_km":183.862,"eixo_na_terra":true},{"t":-1.32778,"lat":47.8249,"lon":-3.6545,"largura_km":183.946,"eixo_na_terra":true},{"t":-1.32222,"lat":47.9221,"lon":-3.4295,"largura_km":184.027,"eixo_na_terra":true},{"t":-1.31667,"lat":48.0187,"lon":-3.2049,"largura_km":184.107,"eixo_na_terra":true},{"t":-1.31111,"lat":48.1148,"lon":-2.9808,"largura_km":184.186,"eixo_na_terra":true},{"t":-1.30556,"lat":48.2102,"lon":-2.7571,"largura_km":184.262,"eixo_na_terra":true},{"t":-1.3,"lat":48.3051,"lon":-2.5338,"largura_km":184.337,"eixo_na_terra":true},{"t":-1.29444,"lat":48.3995,"lon":-2.3109,"largura_km":184.41,"eixo_na_terra":true},{"t":-1.28889,"lat":48.4932,"lon":-2.0884,"largura_km":184.482,"eixo_na_terra":true},{"t":-1.28333,"lat":48.5864,"lon":-1.8662,"largura_km":184.552,"eixo_na_terra":true},{"t":-1.27778,"lat":48.6791,"lon":-1.6444,"largura_km":184.621,"eixo_na_terra":true},{"t":-1.27222,"lat":48.7712,"lon":-1.4229,"largura_km":184.688,"eixo_na_terra":true},{"t":-1.26667,"lat":48.8628,"lon":-1.2018,"largura_km":184.754,"eixo_na_terra":true},{"t":-1.26111,"lat":48.9539,"lon":-0.9809,"largura_km":184.818,"eixo_na_terra":true},{"t":-1.25556,"lat":49.0444,"lon":-0.7604,"largura_km":184.881,"eixo_na_terra":true},{"t":-1.25,"lat":49.1344,"lon":-0.5401,"largura_km":184.942,"eixo_na_terra":true},{"t":-1.24444,"lat":49.2238,"lon":-0.32,"largura_km":185.002,"eixo_na_terra":true},{"t":-1.23889,"lat":49.3128,"lon":-0.1003,"largura_km":185.061,"eixo_na_terra":true},{"t":-1.23333,"lat":49.4012,"lon":0.1193,"largura_km":185.119,"eixo_na_terra":true},{"t":-1.22778,"lat":49.4891,"lon":0.3386,"largura_km":185.175,"eixo_na_terra":true},{"t":-1.22222,"lat":49.5765,"lon":0.5577,"largura_km":185.229,"eixo_na_terra":true},{"t":-1.21667,"lat":49.6634,"lon":0.7766,"largura_km":185.283,"eixo_na_terra":true},{"t":-1.21111,"lat":49.7499,"lon":0.9953,"largura_km":185.335,"eixo_na_terra":true},{"t":-1.20556,"lat":49.8358,"lon":1.2138,"largura_km":185.387,"eixo_na_terra":true},{"t":-1.2,"lat":49.9212,"lon":1.4321,"largura_km":185.437,"eixo_na_terra":true}]},"features":[{"type":"Feature","properties":{},"geometry":{"type":"Polygon","coordinates":[[[-40.44459758367617,29.858136885697252],[-41.00982197387373,29.62568549654148],[-41.38066220434274,29.4762782438491],[-41.87418223727417,29.279970279927525],[-41.90774189271765,29.314766996751683],[-42.12753085906172,29.230535758705326],[-42.22771028692986,29.30672440579384],[-43.07376419891341,28.985605493603387],[-42.96983275528663,29.524136157412553],[-43.35994475646618,29.631823705685466],[-43.75013129741643,29.49255850349387],[-43.779950020380966,29.74776306924246],[-44.027040275268575,29.815970516515353],[-42.03157744713362,30.61689712126342],[-41.32630820997031,30.92363936997793],[-40.71067775827055,31.186457420285148],[-40.121244181438726,31.432247413439047],[-39.592983821650634,31.646693647063042],[-39.595915562247114,31.646102755270057],[-37.88541718301536,32.39841038868581],[-36.61929918928416,32.96288435319925],[-35.57543928270729,33.43377227801165],[-34.68392930265787,33.83967283396259],[-33.83921650933303,34.22911581742556],[-33.092464541325626,34.57563509966048],[-32.364952804386235,34.916593749524395],[-31.09086293493351,35.51860208191796],[-30.500830464224123,35.799899130830106],[-29.395276327518218,36.330981246288296],[-27.8604862516857,37.0766655486099],[-26.485917464327088,37.75112049616901],[-24.809951651902963,38.58093581254686],[-23.270911895231393,39.34863280699606],[-21.837902954406218,40.06685365734897],[-17.673645334518028,42.159167159291364],[-15.666935702098442,43.161807777736094],[-14.301912314358503,43.838597547312105],[-13.243582762820438,44.359358402853395],[-12.210981909111126,44.86343635429661],[-11.200836677652433,45.352132466637165],[-9.9654828996334,45.94304372634448],[-8.756147227648285,46.51346548299249],[-7.568840440323072,47.06492113952322],[-6.632537142851902,47.49329878326914],[-5.937183268216586,47.80749995602125],[-5.476554157018938,48.01371516746005],[-5.001844937445355,48.224616590561816],[-4.317853025618774,48.52543934914047],[-3.637866338564379,48.820857740963945],[-3.186537610724997,49.01487866945897],[-2.288091464387662,49.39609326864262],[-1.6174679662991593,49.67618402547182],[-0.9491735639734316,49.95142000584482],[-0.28285207942656143,50.22191075791334],[0.38183192300539304,50.48775658031985],[2.4461034218857094,49.34545104161396],[2.0153533326238176,49.17930658020491],[1.3677749886438733,48.926458660254866],[0.9349597727745618,48.75543504942958],[0.28386293925308337,48.49514311535528],[-0.151591683904428,48.319067609803305],[-0.8071126215997424,48.05105352805137],[-1.4657631286848982,47.77825531049933],[-2.1279285316704204,47.50054742220632],[-2.5715270702463613,47.31261415645282],[-3.240480252125849,47.02641327990589],[-4.3660462427315565,46.537542696739784],[-5.506991841848333,46.03310804714811],[-6.200045444440093,45.72258174728847],[-6.8838381170916705,45.41327148445815],[-8.068543145599506,44.871102574255815],[-9.27873437835467,44.30965625185522],[-10.51873367999383,43.727291146085356],[-12.053378822473633,42.99803043778168],[-13.378531225805204,42.362077222774396],[-15.036108661157527,41.56039376567027],[-16.485525897096693,40.855487114208934],[-21.030605991200332,38.639363440698695],[-22.504487869183095,37.92410648177558],[-23.685768262355396,37.35375110074884],[-24.947799511023675,36.74808216103543],[-26.336352015683815,36.087341423334315],[-27.831747731466464,35.38254815065121],[-28.953397608196553,34.860020339915025],[-30.147025531710256,34.30901846977542],[-30.825325043669636,33.99948693049007],[-31.54652991252533,33.67285540058718],[-32.31956387274914,33.32562363285178],[-33.200973684514736,32.935002147222384],[-33.26191677418721,32.92271907839637],[-33.3251289110226,32.888324428211114],[-33.4553305919207,32.821694476667574],[-33.679071729162615,32.71643003662249],[-33.93621263095406,32.605194367352404],[-34.24462988490609,32.4811343602433],[-34.4471612946607,32.381745627838036],[-34.70578776443023,32.26520801191129],[-35.00209606485481,32.140982879561136],[-35.25507291373049,32.04052969872596],[-35.40056487819595,31.969667349446013],[-35.58089182134489,31.88661347607714],[-35.88863447949507,31.753233322615543],[-36.119058767153206,31.658318050250028],[-36.42928003271889,31.5354532714284],[-36.60704969880459,31.451471205179438],[-36.71052619145081,31.404408463736004],[-37.05890411863021,31.25293140335642],[-37.46774233412037,31.08471988012995],[-37.88128903646319,30.921493874722128],[-38.120378036838304,30.812998979967745],[-38.255024114668345,30.75384641031836],[-38.55384046321791,30.626257007580023],[-38.719386376187856,30.557294425869593],[-39.29271004265445,30.325047501582286],[-39.99777556492591,30.048275718862037],[-40.44459758367617,29.858136885697252]]]}}]}