{"type":"FeatureCollection","features":[{"type":"Feature","properties":{"t_inicio":-1.8666666666666742,"t_fim":-1.20000000000001},"geometry":{"type":"LineString","coordinates":[[-39.65655296217926,30.896004717934826],[-37.91149050981346,31.63580902144152],[-36.597376637602224,32.20457620977937],[-35.50122299356002,32.68644954189392],[-34.54275541553312,33.11318489061303],[-33.68132580796828,33.50088261016271],[-32.892974285928574,33.85904450862485],[-32.162173541057314,34.193835515304876],[-31.478181726354933,34.50952542577693],[-30.83320268124578,34.80921659513154],[-30.22136633177672,35.09524744843944],[-29.63812229943187,35.3694325945111],[-29.079858822832875,35.633213804617554],[-28.54365242109992,35.887759246806596],[-28.02709733665955,36.13403113192417],[-27.528185727877826,36.37283325693021],[-27.045221295258386,36.60484529910683],[-26.576755601784726,36.83064811319872],[-26.121540200872744,37.05074275900812],[-25.678490026397753,37.26556506040207],[-25.246654967472182,37.47549691540053],[-24.825197497476495,37.68087520203947],[-24.413374852679055,37.88199887678052],[-24.010524678636216,38.07913469467341],[-23.61605335397485,38.272521864970415],[-23.22942640559029,38.46237587483396],[-22.8501605750468,38.648891655970544],[-22.47781720143098,38.83224622718562],[-22.11199666325001,39.012600915159105],[-21.7523336794045,39.19010323294345],[-21.398493312399182,39.36488847855673],[-21.050167549703303,39.53708110303796],[-20.707072364273017,39.706795887357075],[-20.368945174672206,39.87413895985518],[-20.03554264037723,40.03920867986621],[-19.706638739773666,40.202096408431636],[-19.382023087793357,40.36288718326367],[-19.06149945768226,40.52166031211346],[-18.744884477438745,40.67848989629089],[-18.432006476360073,40.83344529413504],[-18.12270446111188,40.986591532648475],[-17.816827203990556,41.13798967421395],[-17.514232428722266,41.28769714424501],[-17.214786081351804,41.43576802474273],[-16.918361675608935,41.582253317998806],[-16.624839703667703,41.72720118407555],[-16.334107104495956,41.87065715518329],[-16.046056783069332,42.0126643296453],[-15.760587174629507,42.15326354777769],[-15.477601848941845,42.29249355170517],[-15.197009150157385,42.43039113087047],[-14.918721868446937,42.56699125477385],[-14.642656940049733,42.70232719428662],[-14.36873517279298,42.83643063271858],[-14.096880994490789,42.969331767679066],[-13.827022221937625,43.10105940464691],[-13.559089848474798,43.23164104306069],[-13.293017848340128,43.36110295564737],[-13.028742996211236,43.48947026162767],[-12.766204700526544,43.61676699436651],[-12.50534484932166,43.74301616397526],[-12.246107667455078,43.86823981531907],[-11.988439584211449,43.99245908183517],[-11.732289110378701,44.11569423552585],[-11.47760672398391,44.23796473345391],[-11.224344763956594,44.35928926103484],[-10.972457331058422,44.47968577239179],[-10.7219001954835,44.59917152801299],[-10.472630710589328,44.717763129929345],[-10.224607732270556,44.83547655460865],[-9.977791543531396,44.95232718374529],[-9.732143783855406,45.06832983310754],[-9.487627383004224,45.18349877959032],[-9.24420649891374,45.29784778660816],[-9.001846459381682,45.411390127950874],[-8.760513707269354,45.524138610214564],[-8.520175748962686,45.63610559391041],[-8.280801105860462,45.74730301334524],[-8.042359268675625,45.857742395360425],[-7.8048206543542165,45.96743487700786],[-7.568156565431934,46.07639122223605],[-7.332339151662268,46.1846218376532],[-7.097341373765005,46.29213678742896],[-6.863136969153516,46.398945807391534],[-6.629700419511494,46.50505831837287],[-6.3970069201000115,46.610483438850125],[-6.165032350683532,46.715229996928606],[-5.9337532479733,46.81930654170696],[-5.703146779492386,46.922721354064024],[-5.473190718775584,47.025482456902076],[-5.243863421821402,47.127597624880025],[-5.0151438047219585,47.22907439366724],[-4.787011322398996,47.32992006874634],[-4.559445948381324,47.43014173379179],[-4.332428155563036,47.52974625864885],[-4.105938897885153,47.628740306935825],[-3.879959592888042,47.7271303432916],[-3.6544721050854037,47.82492264028797],[-3.4294587301137653,47.922123285025684],[-3.204902179614578,48.018738185431914],[-2.9807855668077536,48.11477307627518],[-2.7570923927204944,48.21023352491342],[-2.533806533035147,48.30512493678936],[-2.310912225523168,48.39945256068633],[-2.0883940580345097,48.49322149375803],[-1.8662369570133706,48.58643668634307],[-1.6444261765129795,48.679102946576016],[-1.422947287683769,48.7712249448052],[-1.2017861687107825,48.862807217827196],[-0.9809289951781466,48.953854172946976],[-0.7603622308391778,49.044370091872715],[-0.5400726187712053,49.13435913445338],[-0.3200471728979437,49.2238253422664],[-0.10027316985991774,49.31277264206346],[0.11926185878240858,49.40120484908051],[0.33857013402973735,49.48912567021899],[0.5576636366236016,49.57653870710407],[0.7765541139388574,49.663447459025846],[0.9952530866018492,49.74985532576883],[1.2137718548482326,49.83576561033508],[1.4321215046304019,49.92118152156568]]}}]}