{"type":"FeatureCollection","properties":{"largura_maxima_km":309.077,"largura_sobre_pt_km":307.601,"linha_central_sobre_pt":false,"desenhavel_como_area":true,"perfil_largura":[{"t":-1.64444,"lat":32.0707,"lon":-31.2479,"largura_km":null,"eixo_na_terra":false},{"t":-1.63889,"lat":31.7951,"lon":-30.3833,"largura_km":null,"eixo_na_terra":false},{"t":-1.63333,"lat":31.4601,"lon":-29.7339,"largura_km":null,"eixo_na_terra":false},{"t":-1.62778,"lat":31.3092,"lon":-29.3552,"largura_km":null,"eixo_na_terra":false},{"t":-1.62222,"lat":30.9145,"lon":-28.4167,"largura_km":null,"eixo_na_terra":false},{"t":-1.61667,"lat":31.0534,"lon":-28.7044,"largura_km":null,"eixo_na_terra":false},{"t":-1.61111,"lat":30.7927,"lon":-28.0809,"largura_km":null,"eixo_na_terra":false},{"t":-1.60556,"lat":30.6066,"lon":-27.6375,"largura_km":null,"eixo_na_terra":false},{"t":-1.6,"lat":30.4515,"lon":-27.2688,"largura_km":null,"eixo_na_terra":false},{"t":-1.59444,"lat":30.3066,"lon":-26.9275,"largura_km":null,"eixo_na_terra":false},{"t":-1.58889,"lat":30.1559,"lon":-26.5786,"largura_km":null,"eixo_na_terra":false},{"t":-1.58333,"lat":29.9864,"lon":-26.1957,"largura_km":null,"eixo_na_terra":false},{"t":-1.57778,"lat":29.9615,"lon":-26.2002,"largura_km":null,"eixo_na_terra":false},{"t":-1.57222,"lat":29.8821,"lon":-25.9305,"largura_km":null,"eixo_na_terra":false},{"t":-1.56667,"lat":29.6663,"lon":-25.5177,"largura_km":null,"eixo_na_terra":false},{"t":-1.56111,"lat":29.5005,"lon":-25.1484,"largura_km":null,"eixo_na_terra":false},{"t":-1.55556,"lat":29.4301,"lon":-24.9953,"largura_km":null,"eixo_na_terra":false},{"t":-1.55,"lat":29.1135,"lon":-24.3239,"largura_km":null,"eixo_na_terra":false},{"t":-1.54444,"lat":27.5407,"lon":-21.1897,"largura_km":309.077,"eixo_na_terra":true},{"t":-1.53889,"lat":27.2326,"lon":-20.6132,"largura_km":308.319,"eixo_na_terra":true},{"t":-1.53333,"lat":26.9379,"lon":-20.0686,"largura_km":307.601,"eixo_na_terra":true},{"t":-1.52778,"lat":26.6549,"lon":-19.5518,"largura_km":306.927,"eixo_na_terra":true},{"t":-1.52222,"lat":26.3821,"lon":-19.0597,"largura_km":306.283,"eixo_na_terra":true},{"t":-1.51667,"lat":26.1187,"lon":-18.5894,"largura_km":305.665,"eixo_na_terra":true},{"t":-1.51111,"lat":25.8635,"lon":-18.1386,"largura_km":305.072,"eixo_na_terra":true},{"t":-1.50556,"lat":25.6159,"lon":-17.7057,"largura_km":304.502,"eixo_na_terra":true},{"t":-1.5,"lat":25.3752,"lon":-17.2888,"largura_km":303.959,"eixo_na_terra":true},{"t":-1.49444,"lat":25.1408,"lon":-16.8866,"largura_km":303.434,"eixo_na_terra":true}]},"features":[{"type":"Feature","properties":{},"geometry":{"type":"Polygon","coordinates":[[[-28.069041315595655,29.31835866773806],[-29.530151964412347,29.971058543756975],[-30.588605994491502,30.4285544848952],[-31.45730386545148,30.799082769452404],[-31.738790304583137,30.916674088739057],[-32.84263148761687,31.37117693651387],[-32.837258875165084,31.380957773814107],[-33.072671770388524,31.47643535547916],[-33.05796700321072,31.50098463057501],[-33.63363016713788,31.730745507174543],[-33.533799001666196,31.873808419482284],[-33.764387807861056,31.972075566011004],[-33.381868446898196,32.22674026170978],[-33.38408282734423,32.22773223263624],[-33.21701672198972,32.364879735094],[-34.206144677286716,32.797432566697566],[-32.70245704757872,33.62124956007667],[-32.7191143166109,33.709095225618135],[-32.621223802853024,33.66575436686646],[-32.38856279199518,33.7932210631767],[-32.280572981682155,34.27857796451592],[-31.41049556078299,33.920496692423],[-31.381892449688564,33.98152127893072],[-31.35185544209891,33.96851893331512],[-31.347599251862505,33.978267206551095],[-30.035321832215345,33.41490477224394],[-29.774183485857595,33.29940108783788],[-29.137994910862687,33.02179074705173],[-28.431448334003846,32.706787253400144],[-27.821019042228215,32.42898348757243],[-27.52675796722578,32.292328334312856],[-27.28565869024618,32.182876906823914],[-26.797366223426877,31.957120423723953],[-26.345493227125246,31.74428497030227],[-26.051321160966868,31.603085015828803],[-25.54520821040404,31.363769206243788],[-24.49993484263871,30.855503787800874],[-24.177407864033967,30.69612202185658],[-23.301841941385362,30.25811826315949],[-23.008862289158454,30.107555479914126],[-22.775657673748526,29.990494769241383],[-22.51426902615998,29.856682151154185],[-22.22513396606636,29.705313059940664],[-21.794797313276433,29.483673498487533],[-21.559739280226268,29.3590052981933],[-21.35432098643174,29.24777642619554],[-21.354124128003377,29.251639196184843],[-20.720618085283547,28.914654821538477],[-20.027688511799397,28.541191354636993],[-19.473852168400185,28.237967602437514],[-18.949092349025193,27.947139059331608],[-18.449876762364795,27.66724593243121],[-17.973327534815496,27.3970969511326],[-17.517063353471997,27.13570480365663],[-17.00308366149619,26.83858192285843],[-16.58427145255962,26.59348291489572],[-16.883490400217095,25.604123403530576],[-16.85815825467074,25.53775453278595],[-16.83679759110538,25.47039138509007],[-16.820751417958547,25.405682441009112],[-16.809989863414046,25.34368081377056],[-16.804482142744178,25.284438597267286],[-16.80419659241545,25.22800681981629],[-16.809100705428136,25.17443539902528],[-16.819161167828383,25.123773097767735],[-16.834343896336236,25.076067481270453],[-16.85461407704213,25.031364875320858],[-16.879936205129297,24.989710325603273],[-16.910274125585886,24.95114755817725],[-16.945591074875665,24.915718941112424],[-16.985849723541946,24.883465447297702],[-17.03101221972389,24.854426618444617],[-17.08104023356981,24.828640530307336],[-17.123262077991566,24.811324712741442],[-17.418233517026692,23.836009475938532],[-18.22136047977773,24.297736034048775],[-18.64518147899065,24.537990399229642],[-19.463410506415244,24.994684407138017],[-19.939442488228963,25.2567419294019],[-20.437969428242184,25.52813329152401],[-20.961840290346856,25.809998259608406],[-21.514550923879995,26.103733273413987],[-21.514306845008214,26.108522606280133],[-21.793658641486104,26.250945244689543],[-22.25800434208553,26.494751675165023],[-22.61526878673908,26.677247426305147],[-22.87720435213272,26.813819642758506],[-23.27801609437671,27.015863933227784],[-23.540939406164956,27.15082953776512],[-23.994960019374275,27.376433903817542],[-24.258481531193436,27.509427368615032],[-24.50507031466003,27.629429718558928],[-25.041212251842254,27.89399203926725],[-25.913887307248107,28.314730689434956],[-26.904513901123494,28.782225806800266],[-28.069041315595655,29.31835866773806]]]}}]}