{"type":"FeatureCollection","features":[{"type":"Feature","properties":{"magnitude":0.6,"percentagem":60.0,"territorio":"continente"},"geometry":{"type":"LineString","coordinates":[[-9.296521444328562,36.0],[-9.300000000000026,36.00213456758135],[-9.340000000000025,36.02666241903878],[-9.361770207762284,36.04],[-9.380000000000024,36.05116851609198],[-9.420000000000025,36.075653670666824],[-9.42710568856263,36.08],[-9.460000000000022,36.10012041249407],[-9.492530536958958,36.12],[-9.500000000000021,36.12456462887414],[-9.54000000000002,36.148990383431],[-9.558044911861025,36.16],[-9.58000000000002,36.1733953148603],[-9.620000000000019,36.19777855579579],[-9.62364684374835,36.19999999999999],[-9.660000000000018,36.22214425369523],[-9.689340027662373,36.239999999999995],[-9.700000000000017,36.24648745822254],[-9.740000000000016,36.27081157262442],[-9.755122497827507,36.279999999999994],[-9.780000000000015,36.29511561416935],[-9.820000000000013,36.319397399116696],[-9.820993373099373,36.31999999999999],[-9.860000000000014,36.34366232933703],[-9.886957148864383,36.35999999999999],[-9.900000000000013,36.36790479816494],[-9.940000000000012,36.39212773150755],[-9.953010220067084,36.39999999999999],[-9.980000000000011,36.41633115977915],[-10.019152827844277,36.43999999999999],[-10.02000000000001,36.44051213951351],[-10.06000000000001,36.46467638823729],[-10.08538919020626,36.47999999999999],[-10.100000000000009,36.48881839826301],[-10.140000000000008,36.51294061179461],[-10.151715390347135,36.51999999999999],[-10.180000000000007,36.5370437040645],[-10.218132328089991,36.55999999999999],[-10.220000000000006,36.56112437948888],[-10.260000000000005,36.585188185426134],[-10.284643499040168,36.59999999999999],[-10.300000000000004,36.60923001408449],[-10.340000000000003,36.633251971015454],[-10.351245378298895,36.639999999999986],[-10.380000000000003,36.65725500501279],[-10.417938937448278,36.679999999999986],[-10.420000000000002,36.681235653653665],[-10.46,36.70519948115843],[-10.484727480939998,36.719999999999985],[-10.5,36.72914140622356]]}},{"type":"Feature","properties":{"magnitude":0.2,"percentagem":20.0,"territorio":"acores"},"geometry":{"type":"LineString","coordinates":[[-30.38922720287225,40.479999999999905],[-30.38924144498327,40.439999999999905],[-30.400000000000034,40.42926140654761],[-30.429261406547738,40.399999999999906],[-30.42927557052777,40.35999999999991],[-30.440000000000033,40.349295420623804],[-30.46929542062393,40.31999999999991],[-30.46930950704396,40.279999999999916],[-30.480000000000032,40.26932924649741],[-30.509329246497536,40.23999999999991],[-30.509343255923383,40.1999999999999],[-30.520000000000028,40.18936288555243],[-30.549362885552547,40.15999999999991],[-30.549376818544907,40.11999999999991],[-30.56000000000003,40.109396339160206],[-30.589396339160324,40.07999999999991],[-30.589410196274805,40.039999999999914],[-30.60000000000003,40.029429608679614],[-30.62942960867973,39.999999999999915],[-30.62944339046694,39.95999999999992],[-30.64000000000003,39.949462695457186],[-30.669462695457298,39.919999999999916],[-30.66947640246287,39.87999999999992],[-30.680000000000028,39.86949560082725],[-30.70949560082736,39.83999999999992],[-30.70950923359202,39.79999999999992],[-30.720000000000027,39.789528326112034],[-30.74952832611214,39.75999999999992],[-30.74954188517176,39.719999999999914],[-30.760000000000026,39.70956087262182],[-30.789560872621927,39.67999999999992],[-30.789574358507576,39.63999999999992],[-30.800000000000026,39.62959324165509],[-30.82959324165519,39.59999999999992],[-30.829606654893166,39.559999999999924],[-30.840000000000025,39.54962543449858],[-30.86962543449868,39.519999999999925],[-30.869638775610596,39.479999999999926],[-30.880000000000027,39.469657452427505],[-30.909657452427602,39.43999999999993],[-30.920000000000023,39.42967606830159],[-30.949676068301684,39.39999999999992],[-30.949689296705692,39.35999999999993],[-30.960000000000026,39.34970781098098],[-30.98970781098107,39.319999999999936],[-30.989720968585367,39.27999999999993],[-31.000000000000018,39.26973938199803],[-31.02973938199812,39.23999999999993],[-31.029752469307844,39.19999999999993],[-31.04000000000002,39.18977078258736],[-31.069770782587444,39.15999999999993],[-31.06978380010324,39.11999999999993],[-31.080000000000023,39.10980201397254],[-31.10980201397263,39.079999999999934],[-31.109814962190722,39.039999999999935],[-31.12000000000002,39.02983307736627],[-31.149833077366353,38.999999999999936],[-31.149845956778577,38.95999999999994],[-31.160000000000018,38.949863973970444],[-31.189863973970525,38.91999999999994],[-31.189876785064378,38.87999999999994],[-31.200000000000017,38.8698947049763],[-31.22989470497638,38.83999999999994],[-31.229907448235046,38.79999999999994],[-31.240000000000016,38.78992527156451],[-31.26992527156459,38.75999999999994],[-31.269937947467014,38.71999999999994],[-31.280000000000015,38.709955674905295],[-31.309955674905368,38.67999999999994],[-31.309968283926302,38.639999999999944],[-31.320000000000014,38.629985916158546],[-31.349985916158616,38.59999999999995],[-31.349998458768635,38.559999999999945],[-31.360000000000014,38.55001599647391],[-31.390015996473974,38.519999999999946],[-31.39002847313954,38.47999999999995],[-31.400000000000013,38.47004591699093],[-31.43004591699099,38.43999999999995],[-31.430058328174496,38.39999999999995],[-31.440000000000012,38.390075678839125],[-31.470075678839184,38.35999999999995],[-31.470088024998972,38.31999999999995],[-31.480000000000015,38.3101052831381],[-31.510105283138156,38.27999999999996],[-31.51011756472858,38.23999999999995],[-31.520000000000007,38.230134730997634],[-31.55013473099769,38.19999999999995],[-31.55014694846918,38.159999999999954],[-31.560000000000013,38.150164023517846],[-31.5901640235179,38.119999999999955],[-31.59017617731694,38.079999999999956],[-31.60000000000001,38.070193161789206],[-31.630193161789254,38.03999999999996],[-31.630205252358476,37.99999999999996],[-31.640000000000008,37.99022214689268],[-31.670222146892723,37.95999999999996],[-31.670234174670934,37.91999999999996],[-31.680000000000007,37.91025097989984],[-31.71025097989989,37.87999999999996],[-31.710262945322093,37.83999999999996],[-31.720000000000006,37.83027966187296],[-31.750279661873,37.79999999999996],[-31.750291565370457,37.75999999999996],[-31.760000000000005,37.75030819386507],[-31.7903081938651,37.71999999999997],[-31.790320035865356,37.679999999999964],[-31.800000000000004,37.67033657692008],[-31.83033657692011,37.639999999999965],[-31.830348357847036,37.599999999999966],[-31.840000000000003,37.59036481207289],[-31.870364812072925,37.55999999999997],[-31.870376532346757,37.51999999999997],[-31.880000000000003,37.51039290034947],[-31.910392900349503,37.47999999999997],[-31.910404560386866,37.43999999999997],[-31.92,37.430420842766935],[-31.950420842766967,37.39999999999997],[-31.950432442980937,37.35999999999997],[-31.96,37.350448640333646],[-31.990448640333675,37.31999999999997],[-31.99046018113379,37.27999999999997],[-31.990471696860137,37.239999999999974],[-32.0,37.23048777584162]]}},{"type":"Feature","properties":{"magnitude":0.4,"percentagem":40.0,"territorio":"acores"},"geometry":{"type":"LineString","coordinates":[[-30.378454405744456,40.479999999999905],[-30.378482889966506,40.439999999999905],[-30.400000000000034,40.41852281309532],[-30.418522813095443,40.399999999999906],[-30.418551141055506,40.35999999999991],[-30.440000000000033,40.338590841247694],[-30.458590841247823,40.31999999999991],[-30.458619014087887,40.27999999999991],[-30.480000000000032,40.258658492994925],[-30.498658492995048,40.23999999999991],[-30.498686511846746,40.19999999999991],[-30.52000000000003,40.17872577110495],[-30.53872577110507,40.15999999999991],[-30.538753637089787,40.11999999999991],[-30.56000000000003,40.09879267832049],[-30.57879267832061,40.07999999999991],[-30.578820392549577,40.039999999999914],[-30.60000000000003,40.01885921735931],[-30.618859217359425,39.999999999999915],[-30.618886780933842,39.959999999999916],[-30.64000000000003,39.93892539091446],[-30.658925390914572,39.919999999999916],[-30.65895280492571,39.87999999999992],[-30.680000000000028,39.85899120165458],[-30.69899120165469,39.83999999999992],[-30.69901846718401,39.79999999999992],[-30.720000000000027,39.77905665222415],[-30.739056652224253,39.75999999999992],[-30.739083770343495,39.71999999999992],[-30.760000000000026,39.69912174524373],[-30.779121745243835,39.67999999999992],[-30.779148717015126,39.63999999999992],[-30.800000000000026,39.61918648331025],[-30.819186483310354,39.59999999999992],[-30.819213309786306,39.559999999999924],[-30.840000000000025,39.53925086899724],[-30.85925086899734,39.519999999999925],[-30.85927755122117,39.479999999999926],[-30.880000000000024,39.45931490485508],[-30.899314904855178,39.43999999999993],[-30.920000000000023,39.41935213660325],[-30.939352136603347,39.39999999999993],[-30.93937859341136,39.35999999999993],[-30.960000000000022,39.339415621962026],[-30.979415621962115,39.31999999999993],[-30.979441937170716,39.27999999999993],[-31.00000000000002,39.25947876399613],[-31.019478763996222,39.23999999999993],[-31.01950493861567,39.19999999999993],[-31.04000000000002,39.17954156517478],[-31.059541565174868,39.15999999999993],[-31.05956760020647,39.11999999999993],[-31.08000000000002,39.09960402794515],[-31.099604027945233,39.079999999999934],[-31.099629924381425,39.039999999999935],[-31.12000000000002,39.019666154732604],[-31.139666154732687,38.999999999999936],[-31.139691913557137,38.95999999999994],[-31.160000000000018,38.93972794794096],[-31.17972794794104,38.91999999999994],[-31.17975357012873,38.87999999999994],[-31.200000000000017,38.85978940995267],[-31.219789409952746,38.83999999999994],[-31.219814896470073,38.79999999999994],[-31.240000000000016,38.779850543129086],[-31.259850543129154,38.75999999999994],[-31.259875894934012,38.71999999999994],[-31.280000000000015,38.69991134981065],[-31.29991134981072,38.67999999999994],[-31.29993656785259,38.639999999999944],[-31.320000000000014,38.619971832317134],[-31.339971832317207,38.599999999999945],[-31.339996917537256,38.559999999999945],[-31.360000000000014,38.540031992947874],[-31.38003199294794,38.51999999999995],[-31.380056946279076,38.47999999999995],[-31.400000000000013,38.46009183398191],[-31.420091833981978,38.439999999999955],[-31.42011665634898,38.39999999999995],[-31.440000000000012,38.3801513576783],[-31.460151357678356,38.35999999999995],[-31.460176049997933,38.31999999999995],[-31.48000000000001,38.300210566276235],[-31.500210566276294,38.27999999999995],[-31.500235129457156,38.23999999999995],[-31.52000000000001,38.22026946199532],[-31.54026946199538,38.19999999999995],[-31.54029389693835,38.159999999999954],[-31.56000000000001,38.14032804703574],[-31.580328047035792,38.119999999999955],[-31.580352354633867,38.079999999999956],[-31.60000000000001,38.06038632357844],[-31.620386323578494,38.03999999999996],[-31.620410504716936,37.99999999999996],[-31.640000000000008,37.980444293785396],[-31.660444293785446,37.95999999999995],[-31.660468349341862,37.91999999999996],[-31.680000000000007,37.900501959799726],[-31.700501959799773,37.87999999999996],[-31.70052589064418,37.83999999999996],[-31.720000000000006,37.820559323745954],[-31.740559323745998,37.79999999999996],[-31.740583130740912,37.75999999999996],[-31.760000000000005,37.74061638773016],[-31.780616387730202,37.71999999999996],[-31.780640071730712,37.679999999999964],[-31.800000000000004,37.66067315384018],[-31.82067315384022,37.639999999999965],[-31.82069671569407,37.599999999999966],[-31.840000000000003,37.58072962414582],[-31.860729624145854,37.55999999999997],[-31.86075306469351,37.51999999999997],[-31.880000000000003,37.50078580069897],[-31.900785800699005,37.47999999999997],[-31.900809120773737,37.43999999999997],[-31.92,37.420841685533894],[-31.940841685533925,37.39999999999997],[-31.94086488596187,37.35999999999997],[-31.96,37.34089728066732],[-31.980897280667346,37.31999999999997],[-31.98092036226758,37.27999999999997],[-31.980943393720274,37.239999999999974],[-32.0,37.22097555168327]]}},{"type":"Feature","properties":{"magnitude":0.6,"percentagem":60.0,"territorio":"acores"},"geometry":{"type":"LineString","coordinates":[[-30.36768160861667,40.479999999999905],[-30.367724334949745,40.4399999999999],[-30.400000000000034,40.40778421964302],[-30.407784219643155,40.399999999999906],[-30.40782671158324,40.35999999999991],[-30.440000000000033,40.32788626187159],[-30.447886261871716,40.31999999999991],[-30.447928521131814,40.279999999999916],[-30.480000000000032,40.24798773949243],[-30.487987739492556,40.23999999999991],[-30.488029767770108,40.19999999999992],[-30.52000000000003,40.168088656657474],[-30.52808865665759,40.15999999999991],[-30.52813045563466,40.11999999999991],[-30.56000000000003,40.088189017480786],[-30.568189017480904,40.07999999999991],[-30.56823058882435,40.039999999999914],[-30.60000000000003,40.008288826039006],[-30.60828882603912,39.999999999999915],[-30.60833017140074,39.959999999999916],[-30.64000000000003,39.92838808637173],[-30.648388086371845,39.919999999999916],[-30.648429207388553,39.87999999999992],[-30.680000000000028,39.848486802481915],[-30.688486802482018,39.83999999999992],[-30.688527700776,39.79999999999992],[-30.720000000000027,39.768584978336264],[-30.728584978336364,39.75999999999992],[-30.728625655515227,39.71999999999992],[-30.760000000000026,39.68868261786563],[-30.76868261786574,39.67999999999992],[-30.76872307552267,39.63999999999992],[-30.800000000000026,39.608779724965416],[-30.808779724965518,39.59999999999992],[-30.80881996467945,39.559999999999924],[-30.840000000000025,39.52887630349589],[-30.848876303496,39.519999999999925],[-30.84891632683174,39.479999999999926],[-30.880000000000024,39.44897235728266],[-30.888972357282757,39.43999999999993],[-30.920000000000023,39.409028204904914],[-30.92902820490501,39.39999999999993],[-30.929067890117025,39.35999999999993],[-30.960000000000022,39.32912343294307],[-30.969123432943164,39.31999999999993],[-30.96916290575606,39.27999999999993],[-31.00000000000002,39.249218145994234],[-31.00921814599432,39.23999999999993],[-31.009257407923496,39.19999999999993],[-31.04000000000002,39.1693123477622],[-31.04931234776229,39.15999999999993],[-31.049351400309696,39.11999999999993],[-31.08000000000002,39.089406041917755],[-31.089406041917837,39.079999999999934],[-31.089444886572128,39.039999999999935],[-31.12000000000002,39.00949923209894],[-31.129499232099022,38.999999999999936],[-31.129537870335696,38.95999999999994],[-31.160000000000018,38.92959192191147],[-31.169591921911547,38.91999999999994],[-31.169630355193085,38.87999999999994],[-31.200000000000017,38.84968411492903],[-31.20968411492911,38.83999999999994],[-31.209722344705103,38.79999999999994],[-31.240000000000016,38.76977581469365],[-31.249775814693727,38.75999999999994],[-31.249813842401018,38.71999999999994],[-31.280000000000015,38.689867024716],[-31.289867024716074,38.67999999999994],[-31.289904851778882,38.639999999999944],[-31.320000000000014,38.609957748475736],[-31.329957748475806,38.599999999999945],[-31.329995376305874,38.559999999999945],[-31.360000000000014,38.53004798942183],[-31.3700479894219,38.519999999999946],[-31.370085419418608,38.47999999999995],[-31.400000000000013,38.45013775097289],[-31.410137750972957,38.43999999999995],[-31.410174984523465,38.39999999999995],[-31.440000000000012,38.37022703651747],[-31.45022703651753,38.35999999999995],[-31.450264074996888,38.31999999999995],[-31.48000000000001,38.29031584941438],[-31.490315849414436,38.27999999999995],[-31.49035269418573,38.23999999999995],[-31.52000000000001,38.210404192993],[-31.53040419299306,38.19999999999995],[-31.53044084540752,38.159999999999954],[-31.56000000000001,38.13049207055363],[-31.57049207055368,38.119999999999955],[-31.5705285319508,38.079999999999956],[-31.60000000000001,38.050579485367685],[-31.610579485367737,38.03999999999996],[-31.610615757075408,37.99999999999996],[-31.640000000000008,37.970666440678116],[-31.65066644067816,37.95999999999996],[-31.650702524012786,37.91999999999996],[-31.680000000000007,37.89075293969961],[-31.69075293969966,37.87999999999996],[-31.690788835966266,37.83999999999996],[-31.720000000000006,37.81083898561895],[-31.730838985618995,37.79999999999996],[-31.730874696111364,37.75999999999996],[-31.760000000000005,37.730924581595254],[-31.7709245815953,37.71999999999996],[-31.770960107596068,37.679999999999964],[-31.800000000000004,37.65100973076029],[-31.811009730760333,37.639999999999965],[-31.81104507354111,37.599999999999966],[-31.840000000000003,37.571094436218736],[-31.851094436218773,37.55999999999997],[-31.85112959704026,37.51999999999997],[-31.880000000000003,37.49117870104847],[-31.89117870104851,37.47999999999997],[-31.891213681160604,37.43999999999997],[-31.92,37.41126252830086],[-31.93126252830089,37.39999999999997],[-31.931297328942797,37.35999999999997],[-31.96,37.33134592100099],[-31.97134592100102,37.31999999999997],[-31.971380543401366,37.27999999999997],[-31.971415090580415,37.239999999999974],[-32.0,37.21146332752491]]}},{"type":"Feature","properties":{"magnitude":0.8,"percentagem":80.0,"territorio":"acores"},"geometry":{"type":"LineString","coordinates":[[-25.369572780374135,36.0],[-25.40000000000014,36.013930966498336],[-25.44000000000014,36.03222767234061],[-25.457006364823656,36.04],[-25.48000000000014,36.05050891415346],[-25.520000000000138,36.068774022487936],[-25.544606723478367,36.08],[-25.560000000000137,36.087022833812384],[-25.600000000000136,36.105256408926294],[-25.632374438485986,36.12],[-25.640000000000136,36.12347283496407],[-25.680000000000135,36.1416749409984],[-25.720000000000134,36.15985906202112],[-25.720310262121203,36.16],[-25.760000000000133,36.17802972769419],[-25.800000000000132,36.19618247511849],[-25.808418840939503,36.199999999999996],[-25.84000000000013,36.21432087765058],[-25.88000000000013,36.23244231524718],[-25.896696637785233,36.239999999999995],[-25.92000000000013,36.25054849915131],[-25.96000000000013,36.26863869054411],[-25.985144243997354,36.279999999999994],[-26.000000000000128,36.28671270012659],[-26.040000000000127,36.304771708792785],[-26.07376225308122,36.31999999999999],[-26.080000000000126,36.32281358815307],[-26.120000000000125,36.3408414774229],[-26.160000000000124,36.358851560163664],[-26.162552652411176,36.35999999999999],[-26.200000000000124,36.376848103510305],[-26.240000000000123,36.39482716109127],[-26.25151815188667,36.39999999999999],[-26.280000000000122,36.412791693776775],[-26.32000000000012,36.43073978915686],[-26.3406559536287,36.43999999999999],[-26.36000000000012,36.44867235458996],[-26.40000000000012,36.46658955058093],[-26.42996666054988,36.47999999999999],[-26.44000000000012,36.484490191963154],[-26.480000000000118,36.502376551229645],[-26.519450877781505,36.51999999999999],[-26.520000000000117,36.520245311555385],[-26.560000000000116,36.538100896614665],[-26.600000000000115,36.55593885118592],[-26.609114215308686,36.55999999999999],[-26.640000000000114,36.57376269189322],[-26.680000000000113,36.591569965247366],[-26.6989526898507,36.59999999999998],[-26.720000000000113,36.60936204186793],[-26.76000000000011,36.62713869615042],[-26.78896661269436,36.639999999999986],[-26.80000000000011,36.644899050986766],[-26.84000000000011,36.6626451481957],[-26.879156598603,36.679999999999986],[-26.88000000000011,36.68037382334307],[-26.92000000000011,36.69808942532917],[-26.960000000000107,36.71578754016616],[-26.969528523436956,36.719999999999985],[-27.000000000000107,36.73347163114205],[-27.040000000000106,36.751139342724265],[-27.06007832420505,36.759999999999984],[-27.080000000000105,36.76879186887094],[-27.120000000000104,36.78642923867717],[-27.150806157991894,36.79999999999998],[-27.160000000000103,36.804050241397675],[-27.200000000000102,36.82165733075938],[-27.2400000000001,36.83924704467889],[-27.24171359918064,36.83999999999998],[-27.2800000000001,36.85682372135072],[-27.3200000000001,36.87438324599696],[-27.33280553119043,36.87999999999998],[-27.3600000000001,36.891928512476404],[-27.400000000000098,36.909457908809145],[-27.42407749109178,36.91999999999998],[-27.440000000000097,36.926971805807185],[-27.480000000000096,36.94447113463882],[-27.515530111129166,36.95999999999998],[-27.520000000000095,36.96195370265925],[-27.560000000000095,36.979423024654885],[-27.600000000000094,36.9968751116165],[-27.607168020401772,36.99999999999998],[-27.640000000000093,37.01431367967199],[-27.680000000000092,37.03173584994912],[-27.698990467191603,37.03999999999998],[-27.72000000000009,37.04914320015041],[-27.76000000000009,37.06653551403704],[-27.79099560205509,37.07999999999998],[-27.80000000000009,37.083911686196366],[-27.84000000000009,37.101274203839296],[-27.880000000000088,37.11861959586391],[-27.883185850256634,37.119999999999976],[-27.920000000000087,37.13595201896102],[-27.960000000000086,37.15326770409949],[-27.975565228451753,37.159999999999975],[-28.000000000000085,37.1705690586535],[-28.040000000000084,37.18785509668206],[-28.068129348443474,37.199999999999974],[-28.080000000000084,37.205125421814344],[-28.120000000000083,37.222381872362334],[-28.160000000000082,37.239621305706045],[-28.160879354737247,37.239999999999974],[-28.20000000000008,37.256848129537616],[-28.24000000000008,37.27405806396618],[-28.253822193835028,37.27999999999997],[-28.28000000000008,37.29125396625194],[-28.32000000000008,37.308434461024845],[-28.34695185462881,37.31999999999997],[-28.360000000000078,37.325599480196274],[-28.400000000000077,37.34275059442646],[-28.440000000000076,37.3598847988686],[-28.440269147398382,37.359999999999964],[-28.480000000000075,37.37700656136256],[-28.520000000000074,37.394111473037356],[-28.533782063147648,37.39999999999997],[-28.560000000000073,37.41120245867225],[-28.600000000000072,37.42827813632365],[-28.62748390706941,37.43999999999997],[-28.64000000000007,37.445338382842166],[-28.680000000000074,37.46238488506792],[-28.72000000000007,37.47941458392828],[-28.72137612548596,37.47999999999996],[-28.76000000000007,37.496431815258624],[-28.800000000000068,37.513432425681074],[-28.815465821190767,37.51999999999997],[-28.840000000000067,37.53041902253245],[-28.880000000000067,37.547390602746866],[-28.909746578532847,37.55999999999997],[-28.920000000000066,37.56434660217458],[-28.960000000000065,37.581289210264956],[-29.000000000000064,37.598215120423305],[-29.004221474167487,37.599999999999966],[-29.040000000000063,37.6151283430236],[-29.08000000000006,37.6320253672607],[-29.098894742025127,37.639999999999965],[-29.12000000000006,37.648908095460214],[-29.16000000000006,37.66577629149333],[-29.19376123239452,37.679999999999964],[-29.20000000000006,37.68262856166167],[-29.24000000000006,37.69946798706275],[-29.280000000000058,37.716290818980745],[-29.28882667087679,37.71999999999997],[-29.320000000000057,37.73310054756027],[-29.360000000000056,37.749894694266935],[-29.384090393350384,37.75999999999996],[-29.400000000000055,37.76667406622749],[-29.440000000000058,37.783439584929276],[-29.479549527051468,37.79999999999996],[-29.480000000000054,37.800188635956395],[-29.520000000000053,37.81692558371497],[-29.560000000000052,37.83364604145984],[-29.57521348977471,37.83999999999996],[-29.60000000000005,37.850352783022245],[-29.64000000000005,37.8670447544657],[-29.671074641000722,37.87999999999996],[-29.68000000000005,37.883721274900516],[-29.72000000000005,37.90038481674017],[-29.760000000000048,37.91703194352945],[-29.767137526277487,37.91999999999996],[-29.800000000000047,37.9336663198401],[-29.840000000000046,37.9502851011105],[-29.863404006327343,37.95999999999996],[-29.880000000000045,37.96688935497446],[-29.920000000000044,37.98347984706066],[-29.95986965355878,37.99999999999996],[-29.960000000000043,38.00005401300476],[-30.000000000000043,38.01661627209757],[-30.040000000000045,38.0331622179326],[-30.056544730077437,38.03999999999996],[-30.08000000000004,38.04969446659189],[-30.12000000000004,38.06621226274551],[-30.15342060200441,38.079999999999956],[-30.16000000000004,38.082714520567805],[-30.20000000000004,38.09920422286942],[-30.240000000000038,38.11567768566744],[-30.250503991234638,38.119999999999955],[-30.280000000000037,38.132138187839004],[-30.320000000000036,38.14858363954475],[-30.34779347686254,38.159999999999954],[-30.360000000000035,38.165014246843384],[-30.400000000000034,38.18143174292614],[-30.440000000000033,38.1978330727549],[-30.44528904148923,38.19999999999995],[-30.480000000000032,38.21422208451268],[-30.52000000000003,38.23059554092791],[-30.54299556226327,38.23999999999995],[-30.56000000000003,38.24695475266088],[-30.60000000000003,38.263300390772926],[-30.64000000000003,38.27962993537842],[-30.64090720602201,38.27999999999995],[-30.680000000000028,38.295947710160036],[-30.720000000000027,38.312249518123636],[-30.739034216185875,38.31999999999995],[-30.760000000000026,38.328537586615596],[-30.800000000000026,38.34481171269016],[-30.837367423263643,38.35999999999996],[-30.840000000000025,38.36107010732292],[-30.880000000000024,38.3773166061194],[-30.920000000000023,38.39354711016115],[-30.935916871263714,38.39999999999995],[-30.960000000000022,38.40976428511041],[-31.00000000000002,38.42596724277495],[-31.03467567231993,38.43999999999994],[-31.04000000000002,38.44215483602011],[-31.08000000000002,38.45833030156268],[-31.12000000000002,38.47448984391266],[-31.13365103560509,38.47999999999995],[-31.160000000000018,38.49063637239864],[-31.200000000000017,38.506768502984556],[-31.23283896649007,38.519999999999946],[-31.240000000000016,38.52288554081612],[-31.280000000000015,38.53899031353895],[-31.320000000000014,38.55507923413713],[-31.360000000000014,38.520063985895796],[-31.360063985895863,38.519999999999946],[-31.36011389255814,38.47999999999995],[-31.400000000000013,38.44018366796387],[-31.400183667963937,38.43999999999995],[-31.40023331269795,38.39999999999995],[-31.440000000000012,38.360302715356646],[-31.4403027153567,38.35999999999995],[-31.440352099995852,38.31999999999995],[-31.48000000000001,38.28042113255252],[-31.48042113255258,38.27999999999995],[-31.480470258914302,38.23999999999995],[-31.52000000000001,38.20053892399069],[-31.52053892399075,38.19999999999995],[-31.52058779387669,38.159999999999954],[-31.56000000000001,38.120656094071514],[-31.56065609407157,38.119999999999955],[-31.56070470926773,38.079999999999956],[-31.60000000000001,38.04077264715693],[-31.60077264715698,38.03999999999996],[-31.600821009433872,37.99999999999996],[-31.640000000000008,37.96088858757083],[-31.640888587570885,37.95999999999996],[-31.640936698683714,37.91999999999996],[-31.680000000000007,37.8810039195995],[-31.681003919599544,37.87999999999996],[-31.681051781288353,37.83999999999996],[-31.720000000000006,37.801118647491954],[-31.72111864749199,37.79999999999996],[-31.72116626148182,37.75999999999996],[-31.760000000000005,37.72123277546036],[-31.761232775460396,37.71999999999996],[-31.76128014346142,37.679999999999964],[-31.800000000000004,37.6413463076804],[-31.80134630768044,37.639999999999965],[-31.80139343138814,37.599999999999966],[-31.840000000000003,37.561459248291655],[-31.841459248291695,37.55999999999997],[-31.841506129387014,37.51999999999997],[-31.880000000000003,37.481571601397974],[-31.881571601398008,37.47999999999997],[-31.881618241547468,37.43999999999997],[-31.92,37.40168337106782],[-31.921683371067854,37.39999999999997],[-31.921729771923733,37.35999999999997],[-31.96,37.32179456133466],[-31.961794561334692,37.31999999999997],[-31.961840724535154,37.27999999999997],[-31.96188678744055,37.239999999999974],[-32.0,37.201951103366554]]}},{"type":"Feature","properties":{"magnitude":0.8,"percentagem":80.0,"territorio":"madeira"},"geometry":{"type":"LineString","coordinates":[[-15.040000000000065,30.691492182886165],[-15.054817869285191,30.699999999999974],[-15.080000000000062,30.71445739224513],[-15.120000000000061,30.737401541984447],[-15.124533441050017,30.739999999999977],[-15.16000000000006,30.76032695003117],[-15.194357214853186,30.779999999999973],[-15.20000000000006,30.783230821693046],[-15.240000000000059,30.80611586561404],[-15.264289029684893,30.819999999999972],[-15.280000000000058,30.82898002846705],[-15.320000000000057,30.85182428067629],[-15.334327247398898,30.85999999999997],[-15.360000000000056,30.874648799767982],[-15.400000000000055,30.897452336893043],[-15.404472234209866,30.89999999999997],[-15.440000000000055,30.920237277243764],[-15.474726709431128,30.93999999999997],[-15.480000000000054,30.943000764213075],[-15.520000000000053,30.9657456025243],[-15.545090649354162,30.97999999999997],[-15.560000000000052,30.988469602910044],[-15.600000000000051,31.011173917214833],[-15.61556243429323,31.019999999999968],[-15.64000000000005,31.03385849591572],[-15.680000000000048,31.05652236288917],[-15.686142435525275,31.059999999999967],[-15.720000000000049,31.079167584764036],[-15.756832447858814,31.099999999999966],[-15.760000000000048,31.10179143533667],[-15.800000000000047,31.124397010947554],[-15.82763414180037,31.139999999999965],[-15.840000000000046,31.14698159643938],[-15.880000000000045,31.16954691591102],[-15.898545141248377,31.17999999999996],[-15.920000000000044,31.19209230102864],[-15.960000000000043,31.21461744104502],[-15.969565822582439,31.219999999999963],[-16.000000000000043,31.237123690443315],[-16.040000000000042,31.259608727679993],[-16.040696563598942,31.259999999999966],[-16.08000000000004,31.282075905958706],[-16.111941392486063,31.29999999999996],[-16.12000000000004,31.304521820686404],[-16.16000000000004,31.326949088780488],[-16.18329732055395,31.33999999999996],[-16.20000000000004,31.34935602353303],[-16.240000000000038,31.371743380038833],[-16.254764414671413,31.37999999999996],[-16.280000000000037,31.3941113992268],[-16.320000000000036,31.41645892078239],[-16.326343057791167,31.41999999999996],[-16.360000000000035,31.43878808875038],[-16.398034530003446,31.459999999999958],[-16.400000000000034,31.461096072900943],[-16.440000000000033,31.483386232996132],[-16.46984116834649,31.499999999999957],[-16.480000000000032,31.505655456521268],[-16.52000000000003,31.527905972760642],[-16.54176047565562,31.539999999999957],[-16.56000000000003,31.5501364997889],[-16.60000000000003,31.572347448739194],[-16.61379284008561,31.579999999999956],[-16.64000000000003,31.59453934332258],[-16.680000000000028,31.616710801520153],[-16.68593865123315,31.619999999999955],[-16.720000000000027,31.63886412763128],[-16.75819912755895,31.659999999999954],[-16.760000000000026,31.66099637452381],[-16.800000000000026,31.683110993109167],[-16.83057651695193,31.699999999999953],[-16.840000000000025,31.705204761357823],[-16.880000000000024,31.72728008003009],[-16.90306849057725,31.739999999999952],[-16.920000000000023,31.749335433359278],[-16.960000000000022,31.771371528542723],[-16.975675443294456,31.77999999999995],[-17.00000000000002,31.79338853058777],[-17.04000000000002,31.81538547866533],[-17.048397771420124,31.81999999999995],[-17.08000000000002,31.83736419296987],[-17.12000000000002,31.859322070280893],[-17.121235872730963,31.85999999999995],[-17.160000000000018,31.881262560294253],[-17.19419284080496,31.89999999999995],[-17.200000000000017,31.90318209928337],[-17.240000000000016,31.92508377220683],[-17.267266911699767,31.939999999999948],[-17.280000000000015,31.94696517569971],[-17.320000000000014,31.968827968206014],[-17.340457914952452,31.979999999999947],[-17.360000000000014,31.990671299367676],[-17.400000000000013,32.01249528763812],[-17.41376625368111,32.019999999999946],[-17.440000000000012,32.034300609530355],[-17.48000000000001,32.05608586969256],[-17.4871923324807,32.059999999999945],[-17.52000000000001,32.0778532452717],[-17.56000000000001,32.099599853397606],[-17.560736557426207,32.099999999999945],[-17.60000000000001,32.121329345512166],[-17.634401958210873,32.139999999999944],[-17.640000000000008,32.14303801178508],[-17.680000000000007,32.164729049003924],[-17.708186620572526,32.17999999999994],[-17.720000000000006,32.186399919460584],[-17.760000000000005,32.208052494327],[-17.782090610278907,32.21999999999994],[-17.800000000000004,32.229685631498626],[-17.840000000000003,32.2512998198846],[-17.856114338830896,32.25999999999994],[-17.880000000000003,32.27289528618667],[-17.92,32.29447116389924],[-17.930258219227728,32.29999999999994],[-17.96,32.316029021629234],[-18.0,32.33756666440852]]}}]}