{"type":"FeatureCollection","features":[{"type":"Feature","properties":{"magnitude":0.5,"de":0.5,"ate":0.8,"percentagem":50.0},"geometry":{"type":"Polygon","coordinates":[[[-34.5,30.0],[-30.63367653953334,30.0],[-29.099999999999795,30.91465904722538],[-27.539999999999736,31.89553750528378],[-25.679999999999666,33.13319020896674],[-23.82821487129312,34.439999999999905],[-21.959999999999525,35.83364174736012],[-20.067904574601123,37.319999999999844],[-18.17240737045127,38.87999999999981],[-16.143205675974862,40.61999999999978],[-11.339397326503505,44.939999999999685],[-34.5,44.939999999999685],[-34.5,30.0]]]}},{"type":"Feature","properties":{"magnitude":0.8,"de":0.8,"ate":0.95,"percentagem":80.0},"geometry":{"type":"MultiPolygon","coordinates":[[[[-6.239999999998929,30.01072877647712],[-4.954564221394735,31.079999999999977],[-3.5399999999988268,32.27824862310976],[-3.5399999999988268,30.0],[-6.239999999998929,30.01072877647712]]],[[[-30.63367653953334,30.0],[-28.319999999999766,31.398649993745284],[-26.051504407609947,32.87999999999994],[-23.819999999999595,34.445964447986015],[-21.53999999999951,36.157189529047756],[-19.319999999999425,37.927396008912325],[-16.973551729550948,39.89999999999979],[-14.447361685139303,42.11999999999974],[-11.339397326503505,44.939999999999685],[-3.5399999999988268,44.939999999999685],[-3.5399999999988263,41.635784964994095],[-8.324746263389416,37.37999999999984],[-11.459999999999127,34.67537083256621],[-14.45999999999924,32.21605738365855],[-17.34663945275633,30.000000000000004],[-30.63367653953334,30.0]]]]}},{"type":"Feature","properties":{"magnitude":0.95,"de":0.95,"ate":0.99,"percentagem":95.0},"geometry":{"type":"MultiPolygon","coordinates":[[[[-8.969786574366761,30.0],[-6.409914009950594,32.09999999999995],[-3.539999999998827,34.54477207051313],[-3.5399999999988268,32.27824862310976],[-5.169264298317519,30.899999999999977],[-6.253026862951755,30.0],[-8.969786574366761,30.0]]],[[[-17.33999999999935,30.004914202027383],[-14.45999999999924,32.21605738365855],[-11.459999999999127,34.675370832566216],[-8.324746263389416,37.37999999999984],[-3.5399999999988263,41.635784964994095],[-3.5399999999988268,39.12975398371596],[-7.259999999998968,35.838363514152256],[-10.003866894095523,33.479999999999926],[-12.181515585405176,31.679999999999964],[-14.305483713608902,30.0],[-17.33999999999935,30.004914202027383]]]]}},{"type":"Feature","properties":{"magnitude":0.99,"de":0.99,"ate":2.0,"percentagem":99.0},"geometry":{"type":"Polygon","coordinates":[[[-14.305483713608902,30.0],[-8.969786574366761,30.0],[-5.4133484875474105,32.93999999999994],[-3.539999999998827,34.54477207051313],[-3.5399999999988268,39.12975398371596],[-7.006701271779941,36.059999999999874],[-9.599999999999056,33.821461298030144],[-12.033485870538385,31.79999999999996],[-14.305483713608902,30.0]]]}}]}