{"type":"FeatureCollection","features":[{"type":"Feature","properties":{"magnitude":0.2,"percentagem":20.0,"territorio":"continente"},"geometry":{"type":"LineString","coordinates":[[-5.540000000000106,38.76167786158235],[-5.580000000000105,38.77376583090282],[-5.620000000000104,38.78582478599553],[-5.660000000000103,38.79785476773895],[-5.6671484595030535,38.79999999999994],[-5.700000000000102,38.80985656627562],[-5.7400000000001015,38.82182963739403],[-5.780000000000101,38.833773858986675],[-5.800898286168748,38.83999999999994],[-5.8200000000001,38.8456897110316],[-5.860000000000099,38.857577276062976],[-5.900000000000098,38.86943611463128],[-5.935717427400245,38.87999999999994],[-5.940000000000097,38.881266366404844],[-5.980000000000096,38.89306880068915],[-6.0200000000000955,38.9048426308126],[-6.060000000000094,38.916587896902456],[-6.07164632979653,38.91999999999994],[-6.100000000000094,38.928305301553735],[-6.140000000000093,38.93999449526977],[-6.180000000000092,38.951655246267244],[-6.208692741584956,38.95999999999994],[-6.220000000000091,38.96328786055994],[-6.26000000000009,38.97489278736914],[-6.3000000000000895,38.98646939201569],[-6.340000000000089,38.998017714102474],[-6.346881325553506,38.999999999999936],[-6.380000000000088,39.009538578133466],[-6.420000000000087,39.02103140264016],[-6.460000000000086,39.03249606415745],[-6.486243024036651,39.039999999999935],[-6.500000000000085,39.043932930271836],[-6.540000000000084,39.05534233832539],[-6.5800000000000844,39.06672370220274],[-6.620000000000084,39.07807706098257],[-6.626790084654014,39.079999999999934],[-6.660000000000082,39.08940325098018],[-6.700000000000081,39.10070167763028],[-6.74000000000008,39.11197221701297],[-6.768559605590804,39.11999999999993],[-6.780000000000079,39.123215184269654],[-6.820000000000078,39.13443103159517],[-6.860000000000078,39.14561910872876],[-6.900000000000077,39.15677945422549],[-6.911569361789158,39.15999999999993],[-6.940000000000076,39.167912797049276],[-6.980000000000075,39.179018766580334],[-7.020000000000074,39.19009712057012],[-7.055844034197056,39.19999999999993],[-7.060000000000073,39.20114799877582],[-7.1000000000000725,39.21217221285696],[-7.140000000000072,39.2231689267409],[-7.180000000000071,39.23413817845998],[-7.201426469169592,39.23999999999993],[-7.22000000000007,39.245080461722324],[-7.260000000000069,39.25599588441703],[-7.300000000000068,39.26688395931497],[-7.340000000000067,39.277744724152846],[-7.348325366247254,39.27999999999993],[-7.3800000000000665,39.28857899719682],[-7.420000000000066,39.2993862409661],[-7.460000000000065,39.3101662880698],[-7.496579937482951,39.31999999999993],[-7.500000000000064,39.32091926063512],[-7.540000000000063,39.33164601650232],[-7.580000000000062,39.34234568835273],[-7.620000000000061,39.3530183134025],[-7.646230839297294,39.35999999999993],[-7.6600000000000605,39.36366427101606],[-7.70000000000006,39.37428390763888],[-7.740000000000059,39.384876609141216],[-7.780000000000058,39.39544241244506],[-7.797295658343463,39.39999999999993],[-7.820000000000057,39.40598192061743],[-7.860000000000056,39.416495035410826],[-7.900000000000055,39.426981362720156],[-7.940000000000055,39.43744093917376],[-7.949809731715673,39.43999999999993],[-7.980000000000054,39.447874556557906],[-8.020000000000053,39.45828174153819],[-8.060000000000052,39.46866228541457],[-8.100000000000051,39.479016224522496],[-8.1038095308472,39.479999999999926],[-8.14000000000005,39.48934450296542],[-8.18000000000005,39.49964634477173],[-8.220000000000049,39.5099216906022],[-8.259334106892668,39.519999999999925],[-8.260000000000048,39.52017059326156],[-8.300000000000047,39.53039406109506],[-8.340000000000046,39.54059114101213],[-8.380000000000045,39.55076186883343],[-8.416425716883705,39.559999999999924],[-8.420000000000044,39.56090637048023],[-8.460000000000043,39.57102550945086],[-8.500000000000043,39.58111840343241],[-8.540000000000042,39.59118508795481],[-8.575116387510107,39.59999999999992],[-8.580000000000041,39.60122572191624],[-8.62000000000004,39.61124110391088],[-8.66000000000004,39.62123038260408],[-8.700000000000038,39.6311935932359],[-8.735447393941625,39.63999999999992],[-8.740000000000038,39.64113088623621],[-8.780000000000037,39.65104307785555],[-8.820000000000036,39.6609293066262],[-8.860000000000035,39.67078960749934],[-8.897461370242429,39.67999999999992],[-8.900000000000034,39.68062407971488],[-8.940000000000033,39.690433642299226],[-8.980000000000032,39.700217381257886],[-9.020000000000032,39.709975331253986],[-9.060000000000032,39.71970752688255],[-9.061205009042947,39.71999999999992],[-9.10000000000003,39.729414986024736],[-9.140000000000029,39.73909679005345],[-9.180000000000028,39.74875294283103],[-9.220000000000027,39.75838347866571],[-9.226730798281602,39.75999999999991],[-9.260000000000026,39.76798927572057],[-9.300000000000026,39.777569694500535],[-9.340000000000025,39.78712459852265],[-9.380000000000024,39.7966540218095],[-9.394080450343608,39.79999999999992],[-9.420000000000023,39.80615865612096],[-9.460000000000022,39.815638234160744],[-9.500000000000021,39.825092432723494],[-9.54000000000002,39.83452128554723],[-9.563302813064123,39.83999999999992],[-9.58000000000002,39.843925250148295],[-9.620000000000019,39.85330452681282],[-9.660000000000018,39.86265855807446],[-9.700000000000017,39.87198737738786],[-9.734448394848076,39.87999999999992],[-9.740000000000016,39.88129115905797],[-9.780000000000015,39.890570668598116],[-9.820000000000014,39.89982506560885],[-9.860000000000014,39.90905438326261],[-9.900000000000013,39.91825865466486],[-9.907586895221174,39.919999999999916],[-9.940000000000012,39.92743873416829],[-9.980000000000011,39.936594024900586],[-10.02000000000001,39.94572436767394],[-10.06000000000001,39.95482979531304],[-10.082772851896928,39.959999999999916],[-10.100000000000009,39.96391077683505],[-10.140000000000008,39.972967484214706],[-10.180000000000007,39.981999373846385],[-10.220000000000006,39.99100647827541],[-10.260000000000005,39.99998882998074],[-10.2600498692983,39.999999999999915],[-10.300000000000004,40.008947470659365],[-10.340000000000003,40.017881423879345],[-10.380000000000003,40.0267907206491],[-10.420000000000002,40.03567539316977],[-10.439522020348413,40.039999999999914],[-10.46,40.044535990339924],[-10.5,40.05337251890157]]}}]}