{"type":"FeatureCollection","properties":{"largura_maxima_km":41.623,"largura_sobre_pt_km":29.076,"linha_central_sobre_pt":false,"desenhavel_como_area":true,"perfil_largura":[{"t":-1.60556,"lat":49.9101,"lon":-33.2231,"largura_km":4.948,"eixo_na_terra":true},{"t":-1.6,"lat":49.6164,"lon":-32.7142,"largura_km":5.496,"eixo_na_terra":true},{"t":-1.59444,"lat":49.3302,"lon":-32.2248,"largura_km":6.028,"eixo_na_terra":true},{"t":-1.58889,"lat":49.0509,"lon":-31.7532,"largura_km":6.543,"eixo_na_terra":true},{"t":-1.58333,"lat":48.7781,"lon":-31.298,"largura_km":7.044,"eixo_na_terra":true},{"t":-1.57778,"lat":48.5112,"lon":-30.858,"largura_km":7.531,"eixo_na_terra":true},{"t":-1.57222,"lat":48.25,"lon":-30.4322,"largura_km":8.005,"eixo_na_terra":true},{"t":-1.56667,"lat":47.994,"lon":-30.0194,"largura_km":8.468,"eixo_na_terra":true},{"t":-1.56111,"lat":47.7429,"lon":-29.6189,"largura_km":8.919,"eixo_na_terra":true},{"t":-1.55556,"lat":47.4965,"lon":-29.2299,"largura_km":9.359,"eixo_na_terra":true},{"t":-1.55,"lat":47.2544,"lon":-28.8516,"largura_km":9.79,"eixo_na_terra":true},{"t":-1.54444,"lat":47.0166,"lon":-28.4834,"largura_km":10.211,"eixo_na_terra":true},{"t":-1.53889,"lat":46.7827,"lon":-28.1247,"largura_km":10.624,"eixo_na_terra":true},{"t":-1.53333,"lat":46.5525,"lon":-27.775,"largura_km":11.027,"eixo_na_terra":true},{"t":-1.52778,"lat":46.3259,"lon":-27.4338,"largura_km":11.423,"eixo_na_terra":true},{"t":-1.52222,"lat":46.1027,"lon":-27.1006,"largura_km":11.811,"eixo_na_terra":true},{"t":-1.51667,"lat":45.8828,"lon":-26.7751,"largura_km":12.192,"eixo_na_terra":true},{"t":-1.51111,"lat":45.666,"lon":-26.4569,"largura_km":12.566,"eixo_na_terra":true},{"t":-1.50556,"lat":45.4522,"lon":-26.1456,"largura_km":12.933,"eixo_na_terra":true},{"t":-1.5,"lat":45.2413,"lon":-25.8408,"largura_km":13.293,"eixo_na_terra":true},{"t":-1.49444,"lat":45.0331,"lon":-25.5424,"largura_km":13.648,"eixo_na_terra":true},{"t":-1.48889,"lat":44.8275,"lon":-25.2499,"largura_km":13.997,"eixo_na_terra":true},{"t":-1.48333,"lat":44.6245,"lon":-24.9632,"largura_km":14.34,"eixo_na_terra":true},{"t":-1.47778,"lat":44.4239,"lon":-24.682,"largura_km":14.678,"eixo_na_terra":true},{"t":-1.47222,"lat":44.2258,"lon":-24.406,"largura_km":15.01,"eixo_na_terra":true},{"t":-1.46667,"lat":44.0299,"lon":-24.1351,"largura_km":15.338,"eixo_na_terra":true},{"t":-1.46111,"lat":43.8362,"lon":-23.8691,"largura_km":15.66,"eixo_na_terra":true},{"t":-1.45556,"lat":43.6446,"lon":-23.6077,"largura_km":15.978,"eixo_na_terra":true},{"t":-1.45,"lat":43.4551,"lon":-23.3508,"largura_km":16.291,"eixo_na_terra":true},{"t":-1.44444,"lat":43.2676,"lon":-23.0982,"largura_km":16.6,"eixo_na_terra":true},{"t":-1.43889,"lat":43.082,"lon":-22.8498,"largura_km":16.904,"eixo_na_terra":true},{"t":-1.43333,"lat":42.8984,"lon":-22.6054,"largura_km":17.205,"eixo_na_terra":true},{"t":-1.42778,"lat":42.7165,"lon":-22.3648,"largura_km":17.501,"eixo_na_terra":true},{"t":-1.42222,"lat":42.5364,"lon":-22.128,"largura_km":17.794,"eixo_na_terra":true},{"t":-1.41667,"lat":42.3581,"lon":-21.8948,"largura_km":18.082,"eixo_na_terra":true},{"t":-1.41111,"lat":42.1814,"lon":-21.6651,"largura_km":18.368,"eixo_na_terra":true},{"t":-1.40556,"lat":42.0063,"lon":-21.4387,"largura_km":18.649,"eixo_na_terra":true},{"t":-1.4,"lat":41.8329,"lon":-21.2156,"largura_km":18.927,"eixo_na_terra":true},{"t":-1.39444,"lat":41.661,"lon":-20.9957,"largura_km":19.202,"eixo_na_terra":true},{"t":-1.38889,"lat":41.4905,"lon":-20.7788,"largura_km":19.474,"eixo_na_terra":true},{"t":-1.38333,"lat":41.3216,"lon":-20.5649,"largura_km":19.742,"eixo_na_terra":true},{"t":-1.37778,"lat":41.1541,"lon":-20.3538,"largura_km":20.007,"eixo_na_terra":true},{"t":-1.37222,"lat":40.9879,"lon":-20.1455,"largura_km":20.27,"eixo_na_terra":true},{"t":-1.36667,"lat":40.8232,"lon":-19.94,"largura_km":20.529,"eixo_na_terra":true},{"t":-1.36111,"lat":40.6598,"lon":-19.737,"largura_km":20.785,"eixo_na_terra":true},{"t":-1.35556,"lat":40.4976,"lon":-19.5367,"largura_km":21.039,"eixo_na_terra":true},{"t":-1.35,"lat":40.3368,"lon":-19.3387,"largura_km":21.29,"eixo_na_terra":true},{"t":-1.34444,"lat":40.1772,"lon":-19.1432,"largura_km":21.538,"eixo_na_terra":true},{"t":-1.33889,"lat":40.0188,"lon":-18.9501,"largura_km":21.784,"eixo_na_terra":true},{"t":-1.33333,"lat":39.8616,"lon":-18.7592,"largura_km":22.027,"eixo_na_terra":true},{"t":-1.32778,"lat":39.7055,"lon":-18.5705,"largura_km":22.267,"eixo_na_terra":true},{"t":-1.32222,"lat":39.5506,"lon":-18.384,"largura_km":22.505,"eixo_na_terra":true},{"t":-1.31667,"lat":39.3968,"lon":-18.1996,"largura_km":22.741,"eixo_na_terra":true},{"t":-1.31111,"lat":39.2442,"lon":-18.0172,"largura_km":22.974,"eixo_na_terra":true},{"t":-1.30556,"lat":39.0925,"lon":-17.8369,"largura_km":23.205,"eixo_na_terra":true},{"t":-1.3,"lat":38.942,"lon":-17.6584,"largura_km":23.434,"eixo_na_terra":true},{"t":-1.29444,"lat":38.7924,"lon":-17.4819,"largura_km":23.66,"eixo_na_terra":true},{"t":-1.28889,"lat":38.6439,"lon":-17.3072,"largura_km":23.885,"eixo_na_terra":true},{"t":-1.28333,"lat":38.4964,"lon":-17.1343,"largura_km":24.107,"eixo_na_terra":true},{"t":-1.27778,"lat":38.3498,"lon":-16.9632,"largura_km":24.327,"eixo_na_terra":true},{"t":-1.27222,"lat":38.2042,"lon":-16.7938,"largura_km":24.546,"eixo_na_terra":true},{"t":-1.26667,"lat":38.0596,"lon":-16.6261,"largura_km":24.762,"eixo_na_terra":true},{"t":-1.26111,"lat":37.9159,"lon":-16.46,"largura_km":24.976,"eixo_na_terra":true},{"t":-1.25556,"lat":37.773,"lon":-16.2955,"largura_km":25.188,"eixo_na_terra":true},{"t":-1.25,"lat":37.6311,"lon":-16.1325,"largura_km":25.399,"eixo_na_terra":true},{"t":-1.24444,"lat":37.49,"lon":-15.9711,"largura_km":25.607,"eixo_na_terra":true},{"t":-1.23889,"lat":37.3498,"lon":-15.8112,"largura_km":25.814,"eixo_na_terra":true},{"t":-1.23333,"lat":37.2105,"lon":-15.6527,"largura_km":26.019,"eixo_na_terra":true},{"t":-1.22778,"lat":37.072,"lon":-15.4957,"largura_km":26.222,"eixo_na_terra":true},{"t":-1.22222,"lat":36.9343,"lon":-15.34,"largura_km":26.424,"eixo_na_terra":true},{"t":-1.21667,"lat":36.7974,"lon":-15.1857,"largura_km":26.623,"eixo_na_terra":true},{"t":-1.21111,"lat":36.6613,"lon":-15.0328,"largura_km":26.821,"eixo_na_terra":true},{"t":-1.20556,"lat":36.526,"lon":-14.8811,"largura_km":27.018,"eixo_na_terra":true},{"t":-1.2,"lat":36.3915,"lon":-14.7307,"largura_km":27.213,"eixo_na_terra":true},{"t":-1.19444,"lat":36.2577,"lon":-14.5816,"largura_km":27.406,"eixo_na_terra":true},{"t":-1.18889,"lat":36.1247,"lon":-14.4337,"largura_km":27.597,"eixo_na_terra":true},{"t":-1.18333,"lat":35.9924,"lon":-14.287,"largura_km":27.787,"eixo_na_terra":true},{"t":-1.17778,"lat":35.8608,"lon":-14.1414,"largura_km":27.976,"eixo_na_terra":true},{"t":-1.17222,"lat":35.7299,"lon":-13.997,"largura_km":28.163,"eixo_na_terra":true},{"t":-1.16667,"lat":35.5998,"lon":-13.8537,"largura_km":28.349,"eixo_na_terra":true},{"t":-1.16111,"lat":35.4703,"lon":-13.7116,"largura_km":28.533,"eixo_na_terra":true},{"t":-1.15556,"lat":35.3415,"lon":-13.5705,"largura_km":28.715,"eixo_na_terra":true},{"t":-1.15,"lat":35.2134,"lon":-13.4304,"largura_km":28.896,"eixo_na_terra":true},{"t":-1.14444,"lat":35.086,"lon":-13.2914,"largura_km":29.076,"eixo_na_terra":true},{"t":-1.13889,"lat":34.9592,"lon":-13.1534,"largura_km":29.255,"eixo_na_terra":true},{"t":-1.13333,"lat":34.8331,"lon":-13.0165,"largura_km":29.432,"eixo_na_terra":true},{"t":-1.12778,"lat":34.7076,"lon":-12.8804,"largura_km":29.607,"eixo_na_terra":true},{"t":-1.12222,"lat":34.5828,"lon":-12.7454,"largura_km":29.782,"eixo_na_terra":true},{"t":-1.11667,"lat":34.4586,"lon":-12.6113,"largura_km":29.955,"eixo_na_terra":true},{"t":-1.11111,"lat":34.335,"lon":-12.4781,"largura_km":30.126,"eixo_na_terra":true},{"t":-1.10556,"lat":34.212,"lon":-12.3458,"largura_km":30.297,"eixo_na_terra":true},{"t":-1.1,"lat":34.0896,"lon":-12.2143,"largura_km":30.466,"eixo_na_terra":true},{"t":-1.09444,"lat":33.9677,"lon":-12.0838,"largura_km":30.634,"eixo_na_terra":true},{"t":-1.08889,"lat":33.8465,"lon":-11.9541,"largura_km":30.801,"eixo_na_terra":true},{"t":-1.08333,"lat":33.7259,"lon":-11.8252,"largura_km":30.967,"eixo_na_terra":true},{"t":-1.07778,"lat":33.6058,"lon":-11.6972,"largura_km":31.131,"eixo_na_terra":true},{"t":-1.07222,"lat":33.4863,"lon":-11.57,"largura_km":31.294,"eixo_na_terra":true},{"t":-1.06667,"lat":33.3674,"lon":-11.4435,"largura_km":31.456,"eixo_na_terra":true},{"t":-1.06111,"lat":33.249,"lon":-11.3178,"largura_km":31.617,"eixo_na_terra":true},{"t":-1.05556,"lat":33.1311,"lon":-11.1929,"largura_km":31.777,"eixo_na_terra":true},{"t":-1.05,"lat":33.0138,"lon":-11.0687,"largura_km":31.935,"eixo_na_terra":true},{"t":-1.04444,"lat":32.8971,"lon":-10.9453,"largura_km":32.093,"eixo_na_terra":true},{"t":-1.03889,"lat":32.7808,"lon":-10.8226,"largura_km":32.249,"eixo_na_terra":true},{"t":-1.03333,"lat":32.6651,"lon":-10.7006,"largura_km":32.404,"eixo_na_terra":true},{"t":-1.02778,"lat":32.5499,"lon":-10.5793,"largura_km":32.558,"eixo_na_terra":true},{"t":-1.02222,"lat":32.4352,"lon":-10.4586,"largura_km":32.711,"eixo_na_terra":true},{"t":-1.01667,"lat":32.321,"lon":-10.3386,"largura_km":32.863,"eixo_na_terra":true},{"t":-1.01111,"lat":32.2073,"lon":-10.2193,"largura_km":33.014,"eixo_na_terra":true},{"t":-1.00556,"lat":32.0942,"lon":-10.1007,"largura_km":33.164,"eixo_na_terra":true},{"t":-1.0,"lat":31.9815,"lon":-9.9826,"largura_km":33.313,"eixo_na_terra":true},{"t":-0.99444,"lat":31.8692,"lon":-9.8652,"largura_km":33.461,"eixo_na_terra":true},{"t":-0.98889,"lat":31.7575,"lon":-9.7484,"largura_km":33.608,"eixo_na_terra":true},{"t":-0.98333,"lat":31.6463,"lon":-9.6322,"largura_km":33.753,"eixo_na_terra":true},{"t":-0.97778,"lat":31.5355,"lon":-9.5166,"largura_km":33.898,"eixo_na_terra":true},{"t":-0.97222,"lat":31.4251,"lon":-9.4015,"largura_km":34.042,"eixo_na_terra":true},{"t":-0.96667,"lat":31.3153,"lon":-9.287,"largura_km":34.185,"eixo_na_terra":true},{"t":-0.96111,"lat":31.2059,"lon":-9.1731,"largura_km":34.327,"eixo_na_terra":true},{"t":-0.95556,"lat":31.0969,"lon":-9.0597,"largura_km":34.468,"eixo_na_terra":true},{"t":-0.95,"lat":30.9884,"lon":-8.9469,"largura_km":34.608,"eixo_na_terra":true},{"t":-0.94444,"lat":30.8804,"lon":-8.8346,"largura_km":34.746,"eixo_na_terra":true},{"t":-0.93889,"lat":30.7728,"lon":-8.7228,"largura_km":34.884,"eixo_na_terra":true},{"t":-0.93333,"lat":30.6656,"lon":-8.6115,"largura_km":35.022,"eixo_na_terra":true},{"t":-0.92778,"lat":30.5589,"lon":-8.5007,"largura_km":35.158,"eixo_na_terra":true},{"t":-0.92222,"lat":30.4526,"lon":-8.3904,"largura_km":35.293,"eixo_na_terra":true},{"t":-0.91667,"lat":30.3467,"lon":-8.2806,"largura_km":35.427,"eixo_na_terra":true},{"t":-0.91111,"lat":30.2412,"lon":-8.1713,"largura_km":35.561,"eixo_na_terra":true},{"t":-0.90556,"lat":30.1362,"lon":-8.0624,"largura_km":35.693,"eixo_na_terra":true},{"t":-0.9,"lat":30.0315,"lon":-7.954,"largura_km":35.825,"eixo_na_terra":true},{"t":-0.89444,"lat":29.9273,"lon":-7.846,"largura_km":35.956,"eixo_na_terra":true},{"t":-0.88889,"lat":29.8235,"lon":-7.7385,"largura_km":36.085,"eixo_na_terra":true},{"t":-0.88333,"lat":29.7201,"lon":-7.6314,"largura_km":36.214,"eixo_na_terra":true},{"t":-0.87778,"lat":29.6171,"lon":-7.5247,"largura_km":36.343,"eixo_na_terra":true},{"t":-0.87222,"lat":29.5145,"lon":-7.4185,"largura_km":36.47,"eixo_na_terra":true},{"t":-0.86667,"lat":29.4122,"lon":-7.3127,"largura_km":36.596,"eixo_na_terra":true},{"t":-0.86111,"lat":29.3104,"lon":-7.2072,"largura_km":36.722,"eixo_na_terra":true},{"t":-0.85556,"lat":29.209,"lon":-7.1022,"largura_km":36.846,"eixo_na_terra":true},{"t":-0.85,"lat":29.1079,"lon":-6.9975,"largura_km":36.97,"eixo_na_terra":true},{"t":-0.84444,"lat":29.0072,"lon":-6.8932,"largura_km":37.093,"eixo_na_terra":true},{"t":-0.83889,"lat":28.9069,"lon":-6.7893,"largura_km":37.215,"eixo_na_terra":true},{"t":-0.83333,"lat":28.807,"lon":-6.6858,"largura_km":37.336,"eixo_na_terra":true},{"t":-0.82778,"lat":28.7075,"lon":-6.5826,"largura_km":37.457,"eixo_na_terra":true},{"t":-0.82222,"lat":28.6083,"lon":-6.4798,"largura_km":37.577,"eixo_na_terra":true},{"t":-0.81667,"lat":28.5095,"lon":-6.3773,"largura_km":37.695,"eixo_na_terra":true},{"t":-0.81111,"lat":28.4111,"lon":-6.2752,"largura_km":37.813,"eixo_na_terra":true},{"t":-0.80556,"lat":28.313,"lon":-6.1734,"largura_km":37.931,"eixo_na_terra":true},{"t":-0.8,"lat":28.2153,"lon":-6.0719,"largura_km":38.047,"eixo_na_terra":true},{"t":-0.79444,"lat":28.1179,"lon":-5.9708,"largura_km":38.163,"eixo_na_terra":true},{"t":-0.78889,"lat":28.0209,"lon":-5.8699,"largura_km":38.277,"eixo_na_terra":true},{"t":-0.78333,"lat":27.9242,"lon":-5.7694,"largura_km":38.391,"eixo_na_terra":true},{"t":-0.77778,"lat":27.8279,"lon":-5.6692,"largura_km":38.504,"eixo_na_terra":true},{"t":-0.77222,"lat":27.732,"lon":-5.5693,"largura_km":38.617,"eixo_na_terra":true},{"t":-0.76667,"lat":27.6364,"lon":-5.4696,"largura_km":38.728,"eixo_na_terra":true},{"t":-0.76111,"lat":27.5411,"lon":-5.3703,"largura_km":38.839,"eixo_na_terra":true},{"t":-0.75556,"lat":27.4462,"lon":-5.2712,"largura_km":38.949,"eixo_na_terra":true},{"t":-0.75,"lat":27.3516,"lon":-5.1724,"largura_km":39.058,"eixo_na_terra":true},{"t":-0.74444,"lat":27.2573,"lon":-5.0739,"largura_km":39.167,"eixo_na_terra":true},{"t":-0.73889,"lat":27.1634,"lon":-4.9756,"largura_km":39.274,"eixo_na_terra":true},{"t":-0.73333,"lat":27.0698,"lon":-4.8776,"largura_km":39.381,"eixo_na_terra":true},{"t":-0.72778,"lat":26.9766,"lon":-4.7799,"largura_km":39.487,"eixo_na_terra":true},{"t":-0.72222,"lat":26.8837,"lon":-4.6824,"largura_km":39.592,"eixo_na_terra":true},{"t":-0.71667,"lat":26.7911,"lon":-4.5851,"largura_km":39.697,"eixo_na_terra":true},{"t":-0.71111,"lat":26.6988,"lon":-4.4881,"largura_km":39.8,"eixo_na_terra":true},{"t":-0.70556,"lat":26.6068,"lon":-4.3913,"largura_km":39.903,"eixo_na_terra":true},{"t":-0.7,"lat":26.5152,"lon":-4.2947,"largura_km":40.005,"eixo_na_terra":true},{"t":-0.69444,"lat":26.4239,"lon":-4.1984,"largura_km":40.107,"eixo_na_terra":true},{"t":-0.68889,"lat":26.3329,"lon":-4.1023,"largura_km":40.207,"eixo_na_terra":true},{"t":-0.68333,"lat":26.2422,"lon":-4.0063,"largura_km":40.307,"eixo_na_terra":true},{"t":-0.67778,"lat":26.1518,"lon":-3.9106,"largura_km":40.406,"eixo_na_terra":true},{"t":-0.67222,"lat":26.0618,"lon":-3.8151,"largura_km":40.504,"eixo_na_terra":true},{"t":-0.66667,"lat":25.972,"lon":-3.7198,"largura_km":40.602,"eixo_na_terra":true},{"t":-0.66111,"lat":25.8826,"lon":-3.6247,"largura_km":40.699,"eixo_na_terra":true},{"t":-0.65556,"lat":25.7934,"lon":-3.5298,"largura_km":40.794,"eixo_na_terra":true},{"t":-0.65,"lat":25.7046,"lon":-3.4351,"largura_km":40.89,"eixo_na_terra":true},{"t":-0.64444,"lat":25.6161,"lon":-3.3405,"largura_km":40.984,"eixo_na_terra":true},{"t":-0.63889,"lat":25.5278,"lon":-3.2461,"largura_km":41.078,"eixo_na_terra":true},{"t":-0.63333,"lat":25.4399,"lon":-3.1519,"largura_km":41.17,"eixo_na_terra":true},{"t":-0.62778,"lat":25.3523,"lon":-3.0579,"largura_km":41.262,"eixo_na_terra":true},{"t":-0.62222,"lat":25.2649,"lon":-2.964,"largura_km":41.354,"eixo_na_terra":true},{"t":-0.61667,"lat":25.1779,"lon":-2.8702,"largura_km":41.444,"eixo_na_terra":true},{"t":-0.61111,"lat":25.0912,"lon":-2.7767,"largura_km":41.534,"eixo_na_terra":true},{"t":-0.60556,"lat":25.0047,"lon":-2.6833,"largura_km":41.623,"eixo_na_terra":true}]},"features":[{"type":"Feature","properties":{},"geometry":{"type":"Polygon","coordinates":[[[-4.2845698775191465,26.766381041797032],[-3.41992281777803,25.95442398310799],[-2.9463304253550575,25.513979523717403],[-2.5704500963978774,25.166927601193045],[-2.7942590020606417,24.839709996233534],[-3.357406165575753,25.365686564653906],[-3.924399680717187,25.90050495425386],[-4.498430417317508,26.446567965647183],[-5.178418309614386,27.098376954476354],[-6.374898250214727,28.25465502199332],[-9.260054169585771,31.057032523813117],[-9.94891407354666,31.722445561610805],[-10.659577916422336,32.40533207003618],[-11.394576468576673,33.10681641730783],[-12.027723003921693,33.70650937790197],[-12.679403076420186,34.31876736296313],[-13.21888130862817,34.82139860003271],[-14.058197412101066,35.59520597855583],[-14.788184267296543,36.25955808162577],[-15.549249262875577,36.94309472595171],[-16.344993119486503,37.64738279601057],[-16.840803900115816,38.080659053557156],[-17.17961718423942,38.37423629559949],[-17.876384130994097,38.971501089326274],[-18.606377642176085,39.58771891752815],[-18.984050056659413,39.90266469504774],[-19.370802039270018,40.22243164263698],[-19.767154918338207,40.54723664914636],[-20.17367529294168,40.87731428913941],[-20.590980640318662,41.21291891577949],[-21.019745837349546,41.55432708551646],[-21.460710783918103,41.9018403814485],[-21.912531783532586,42.25413085657489],[-22.61991339322401,42.7979599137762],[-23.36208248340668,43.35847888982209],[-23.878170809415963,43.74221708504604],[-24.143114301034274,43.93730350755143],[-24.687751287721994,44.33428353440438],[-24.9678625850471,44.5363399430206],[-25.54482251240961,44.94803207220165],[-25.84018537125678,45.15647490655188],[-26.454110359433344,45.58469825835612],[-26.771291858801334,45.803310012392295],[-27.427863406314145,46.25020587264169],[-28.11676246422678,46.711022714059766],[-28.8417722773259,47.1871780389928],[-29.21919940345174,47.43152151131019],[-29.607421815414227,47.68035566665687],[-30.005505069665872,47.932910854246195],[-30.41759913809983,48.19158636434185],[-30.842897226972724,48.455636504824696],[-31.28239450470079,48.72542328777228],[-31.73721084701606,49.00135237767187],[-32.20861357638043,49.28388089613765],[-32.69804579672211,49.573527125149006],[-33.20716209955853,49.870882706957595],[-33.23778182197776,49.94798378533382],[-32.72897811585656,49.657862096417986],[-32.23944823326738,49.37503315031463],[-31.767606514817942,49.09895056514329],[-31.312065820455757,48.829134266315315],[-30.871604667646892,48.565159678521646],[-30.44354953125253,48.30566861499776],[-30.030072705831827,48.05224546504826],[-29.628771113551664,47.80364705756475],[-29.23886877759594,47.559599057005016],[-28.859665106910114,47.31985276858298],[-28.490525131003835,47.084181882571535],[-27.78017653037199,46.624256975874076],[-27.10377377390091,46.178367268207985],[-26.777215068317958,45.96029178106048],[-26.14549820108502,45.53319212952208],[-25.839669175097356,45.3239219229933],[-25.244551344453328,44.91196622826467],[-24.956725203916733,44.710482244977946],[-24.397335854972766,44.31466805857593],[-24.125331283648734,44.120172495526035],[-23.595698671798687,43.737626504923895],[-22.834522773185824,43.17890907226659],[-22.10952172502749,42.63688112317149],[-21.64446898425041,42.284102591719844],[-21.19292763237297,41.937751145449965],[-20.7540454209078,41.59749424778146],[-20.324864535411024,41.261292906263],[-19.90903939187001,40.93231953044874],[-19.503750314050478,40.60860409805906],[-19.108406100618055,40.28991082435161],[-18.72246322171884,39.976021841490564],[-17.976815517121764,39.36186397535278],[-17.26323315726458,38.76468115732065],[-16.917487843857998,38.472055391626924],[-16.411697595774456,38.04017064104826],[-16.082593920132695,37.75675889819855],[-15.600343947478848,37.338105274867125],[-14.822591352340737,36.6546852702124],[-14.079159479938596,35.99229279514479],[-13.647149146440483,35.60343464565809],[-13.224905284307567,35.220682056782785],[-12.54133092270655,34.59567229494809],[-11.751414523883966,33.865721182941996],[-10.991227554373665,33.156190593711216],[-10.137726481167931,32.35240838253616],[-9.431631321843014,31.682674498581132],[-8.634200903171916,30.922292664338315],[-5.567446491231067,27.985002581592195],[-4.87113960547299,27.321891700774035],[-4.2845698775191465,26.766381041797032]]]}}]}