{"type":"FeatureCollection","features":[{"type":"Feature","properties":{"t_inicio":-1.605555555555564,"t_fim":-0.6055555555555676},"geometry":{"type":"LineString","coordinates":[[-33.22314301814342,49.9100713742258],[-32.71421638193945,49.61637736946425],[-32.22476347852327,49.33017985780922],[-31.753165151908576,49.05091049864728],[-31.298007038362158,48.77807065753243],[-30.85804533529759,48.511219931419134],[-30.432179569864672,48.249966999651605],[-30.019430696049284,47.9939622485967],[-29.618923300752442,47.74289176642839],[-29.229871015789342,47.4964724088395],[-28.851564458126234,47.254447710803326],[-28.483361183575113,47.01658447331467],[-28.124677258512406,46.78266989350677],[-27.774980142723194,46.552509135857335],[-27.433782642907488,46.325923264221885],[-27.100637746770474,46.10274747115701],[-26.77513418620842,45.88282955382297],[-26.45689260793327,45.666028595680544],[-26.14556225313234,45.45221382094564],[-25.840818066038423,45.24126359486247],[-25.54235816575556,45.033064547689115],[-25.24990162722466,44.82751080414841],[-24.963186526477273,44.62450330319835],[-24.681968212806282,44.42394919548523],[-24.40601777656147,44.22576130788156],[-24.13512068624547,44.0298576661822],[-23.869075572664883,43.836161068402575],[-23.607693141258494,43.64459870225947],[-23.350795196520238,43.455101801355994],[-23.098213764759095,43.26760533537885],[-22.849790303389142,43.08204773027435],[-22.605374986577345,42.898370614924495],[-22.364826058458476,42.716518591311235],[-22.12800924629562,42.53643902555515],[-21.894797226958218,42.35808185755136],[-21.665069140936225,42.1813994272139],[-21.438710148835042,42.006346315587365],[-21.215611025916786,41.83287919929594],[-20.995667790789525,41.660956716983],[-20.778781364808566,41.49053934655283],[-20.564857259153655,41.32158929216292],[-20.35380528689467,41.15407038003393],[-20.145539297658758,40.98794796224882],[-19.93997693277845,40.82318882780315],[-19.737039399028788,40.659761120247346],[-19.53665125926534,40.497634261332315],[-19.338740238452544,40.33677888013098],[-19.143237043727567,40.17716674716086],[-18.950075197284775,40.018770713083704],[-18.75919088098621,39.86156465159638],[-18.570522791713188,39.70552340616893],[-18.38401200656969,39.550622740315376],[-18.199601857133104,39.39683929111537],[-18.01723781202577,39.24415052572922],[-17.836867367146397,39.09253470067384],[-17.658439942963184,38.941970823647466],[-17.48190678832387,38.792438617710616],[-17.307220890286743,38.64391848764705],[-17.134336889520966,38.49639148834483],[-16.963211000863453,38.34983929505034],[-16.79380093865541,38.204244175361296],[-16.62606584651357,38.05958896283546],[-16.459966231219937,37.91585703210288],[-16.295463900440495,37.773032275377204],[-16.132521904006467,37.63109908027157],[-15.971104478513666,37.49004230883087],[-15.811176995014847,37.34984727770005],[-15.652705909597643,37.21049973935343],[-15.495658716657147,37.07198586431688],[-15.340003904686483,36.934292224318725],[-15.185710914422458,36.797405776311074],[-15.032750099195738,36.661313847306594],[-14.881092687345813,36.52600411998085],[-14.730710746571674,36.391464618992885],[-14.581577150098667,36.25768369798116],[-14.433665544549484,36.12465002719387],[-14.2869503194174,35.99235258171656],[-14.141406578044297,35.86078063026199],[-13.997010110015509,35.72992372448946],[-13.853737364887422,35.59977168882375],[-13.711565427170967,35.470314610744886],[-13.57047199249854,35.341542831522595],[-13.430435344907096,35.213446937370776],[-13.291434335174472,35.08601775099864],[-13.153448360150236,34.95924632353741],[-13.016457343025962,34.83312392682185],[-12.88044171449377,34.70764204600811],[-12.745382394744695,34.58279237250988],[-12.611260776262043,34.45856679723631],[-12.478058707367268,34.334957404116125],[-12.345758476478863,34.21195646389307],[-12.214342797046925,34.089556428179115],[-12.083794793128533,33.967749923752294],[-11.954097985570883,33.846529747087125],[-11.82523627877157,33.72588885910589],[-11.697193947986875,33.60582038014017],[-11.569955627160311,33.4863175850924],[-11.4435062972465,33.3673738987877],[-11.31783127500509,33.248982891507076],[-11.192916202242628,33.13113827469335],[-11.068747035480328,33.01383389682157],[-10.945310036027621,32.897063739426734],[-10.822591760442009,32.78082191328087],[-10.700579051357124,32.66510265471344],[-10.579259028662023,32.54990032206792],[-10.458619081015001,32.43520939228889],[-10.338646857677134,32.321024457633555],[-10.219330260650224,32.20734022250241],[-10.100657437106321,32.09415150038372],[-9.982616772094843,31.981453210906718],[-9.86519688151563,31.869240376999212],[-9.748386605345644,31.75750812214493],[-9.632175001108521,31.646251667736262],[-9.516551337576544,31.5354663305185],[-9.401505088694392,31.425147520121964],[-9.287025927715746,31.31529073667793],[-9.173103721543612,31.205891568515344],[-9.059728525265314,31.096945689934795],[-8.94689057687458,30.988448859056632],[-8.834580292172433,30.880396915740274],[-8.722788259839888,30.772785779572178],[-8.6115052366751,30.665611447918984],[-8.500722142988366,30.558869994044205],[-8.390430058148553,30.452557565285343],[-8.280620216275082,30.346670381289286],[-8.1712840020692,30.24120473230387],[-8.062412946779375,30.13615697752322],[-7.953998724295417,30.031523543485143],[-7.84603314736637,29.92730092251828],[-7.738508163936956,29.823485671237425],[-7.631415853598611,29.720074409085186],[-7.524748424150204,29.617063816918026],[-7.418498208264452,29.514450635635587],[-7.312657660256036,29.41223166485109],[-7.207219352947391,29.310403761601915],[-7.102175974628835,29.20896383909851],[-6.997520326109225,29.107908865510446],[-6.893245317853854,29.007235862788406],[-6.789343967206406,28.906941905520622],[-6.685809395691933,28.807024119822675],[-6.5826348263979355,28.707479682259585],[-6.47981358143042,28.608305818798964],[-6.377339079442493,28.50949980379421],[-6.27520483323309,28.41105895899681],[-6.173404447412793,28.312980652596554],[-6.071931616134691,28.21526229828903],[-5.970780120888122,28.11790135436933],[-5.869943828352859,28.020895322851008],[-5.769416688311452,27.924241748609667],[-5.6691927316182955,27.827938218550333],[-5.56926606822293,27.73198236079765],[-5.469630885245721,27.636371843908492],[-5.370281445104695,27.541104376106052],[-5.271212083690926,27.44617770453462],[-5.172417208591526,27.351589614534948],[-5.0738912973583865,27.25733792893885],[-4.975628895820989,27.163420507382806],[-4.877624616442006,27.069835245640164],[-4.779873136714258,26.976580074971036],[-4.682369197597353,26.883652961489368],[-4.585107601993343,26.791051905547075],[-4.488083213259159,26.698774941134168],[-4.3912909537556,26.606820135294775],[-4.294725803431078,26.515185587558577],[-4.198382798438956,26.423869429386855],[-4.102257029787751,26.332869823633448],[-4.006343642022983,26.24218496401917],[-3.910637831939397,26.151813074620335],[-3.8151348473228666,26.061752409370193],[-3.7198299857210486,25.972001251573523],[-3.624718593241596,25.88255791343344],[-3.5297960633772334,25.793420735590693],[-3.4350578358568384,25.704588086674445],[-3.3404993955216185,25.616058362864866],[-3.246116271225702,25.527829987466706],[-3.1519040347600367,25.439901410493956],[-3.057858299799477,25.352271108264844],[-2.9639747208715903,25.264937583007562],[-2.8702489923469727,25.177899362475557],[-2.776676847450375,25.091154999573046],[-2.6832540572916344,25.004703071989855]]}}]}