{"type":"FeatureCollection","features":[{"type":"Feature","properties":{"magnitude":0.5,"de":0.5,"ate":0.8,"percentagem":50.0},"geometry":{"type":"MultiPolygon","coordinates":[[[[-34.5,30.0],[-34.5,41.48976173112608],[-32.519999999999925,40.251720061564605],[-30.53999999999985,38.946114148945576],[-28.619999999999777,37.61259636527215],[-26.699999999999704,36.210065231279145],[-24.784441648744178,34.739999999999895],[-22.91999999999956,33.24021862781521],[-21.05999999999949,31.67643429506013],[-19.147286070063014,30.0],[-34.5,30.0]]],[[[-3.5399999999988268,38.01695728653639],[-7.679999999998984,41.973156114900235],[-10.904384459348385,44.939999999999685],[-3.5399999999988268,44.939999999999685],[-3.5399999999988268,38.01695728653639]]]]}},{"type":"Feature","properties":{"magnitude":0.8,"de":0.8,"ate":0.95,"percentagem":80.0},"geometry":{"type":"MultiPolygon","coordinates":[[[[-19.147286070063014,30.0],[-21.179999999999495,31.779335468699795],[-23.039999999999566,33.33880294919539],[-24.899999999999636,34.83071632250183],[-26.759999999999707,36.25495998577658],[-28.67999999999978,37.65530320729279],[-30.599999999999852,38.98670254755851],[-32.519999999999925,40.251720061564605],[-34.5,41.48976173112608],[-34.5,44.939999999999685],[-29.156108272979118,44.939999999999685],[-26.87999999999971,43.3954339581399],[-24.659999999999627,41.79915883865179],[-22.476892850508328,40.13999999999979],[-20.27999999999946,38.37926941634795],[-18.11999999999938,36.55946186983034],[-15.899999999999293,34.601196725987876],[-13.570699251842342,32.45999999999995],[-10.984415693906442,30.0],[-19.147286070063014,30.0]]],[[[-4.740765637803815,30.0],[-10.319999999999084,35.3109730472531],[-14.15999999999923,38.80420794385539],[-16.079999999999302,40.46569051573106],[-17.939999999999372,42.013882618648836],[-19.799999999999443,43.49933978048276],[-21.684948473085797,44.939999999999685],[-10.904384459348385,44.939999999999685],[-7.679999999998984,41.973156114900235],[-3.5399999999988268,38.01695728653639],[-3.5399999999988268,30.0],[-4.740765637803815,30.0]]]]}},{"type":"Feature","properties":{"magnitude":0.95,"de":0.95,"ate":0.99,"percentagem":95.0},"geometry":{"type":"MultiPolygon","coordinates":[[[[-10.984415693906442,30.0],[-13.679999999999211,32.56224261307661],[-15.959999999999297,34.65523501313839],[-18.17999999999938,36.61117517765089],[-20.339999999999463,38.428573540149884],[-22.499999999999545,40.158037769838344],[-24.71999999999963,41.843496118859754],[-26.939999999999714,43.43732660743024],[-29.156108272979118,44.939999999999685],[-26.253585737354914,44.939999999999685],[-24.419999999999618,43.628903172019164],[-22.565601021919193,42.23999999999974],[-20.75999999999948,40.82574564729879],[-18.89999999999941,39.30470936629815],[-17.03999999999934,37.71954235943319],[-15.179999999999268,36.07301695963847],[-13.259999999999197,34.31456790892941],[-8.740214537241036,30.0],[-10.984415693906442,30.0]]],[[[-7.093367800725522,30.000000000000004],[-12.299999999999159,34.91951914898802],[-14.399999999999238,36.819599617911315],[-16.439999999999316,38.59869063063828],[-18.479999999999393,40.305279714567114],[-20.51999999999947,41.93601300856713],[-22.559999999999548,43.48995398556765],[-24.560629713139786,44.939999999999685],[-21.684948473085797,44.939999999999685],[-21.2999999999995,44.65107645783667],[-19.43999999999943,43.21678385899807],[-17.63999999999936,41.7683770862545],[-15.77999999999929,40.210232215983055],[-13.91999999999922,38.592209295953126],[-10.19999999999908,35.19874837530147],[-4.740765637803815,30.0],[-7.093367800725522,30.000000000000004]]]]}},{"type":"Feature","properties":{"magnitude":0.99,"de":0.99,"ate":2.0,"percentagem":99.0},"geometry":{"type":"Polygon","coordinates":[[[-11.481189602543687,32.639999999999944],[-8.740214537241036,30.0],[-7.093367800725522,30.000000000000004],[-11.199733604924152,33.89999999999992],[-14.422957741664895,36.839999999999854],[-17.519999999999357,39.51149034411452],[-20.579999999999472,41.982816498881284],[-22.559999999999548,43.48995398556765],[-24.560629713139786,44.939999999999685],[-26.253585737354914,44.939999999999685],[-24.17999999999961,43.45274576750052],[-22.07999999999953,41.8656852859024],[-20.039999999999452,40.24466190909623],[-17.939999999999372,38.494442987556035],[-15.899999999999295,36.71738596984019],[-13.739999999999213,34.75935405290177],[-11.481189602543687,32.639999999999944]]]}}]}