{"type":"FeatureCollection","features":[{"type":"Feature","properties":{"t_inicio":-1.7666666666666746,"t_fim":-1.666666666666675},"geometry":{"type":"LineString","coordinates":[[-11.517819781520359,31.891069159211085],[-9.1478071954229,31.377960150707544],[-7.463485214099137,30.98084730795072],[-6.095372798361893,30.637543951948178],[-4.9201275645786495,30.327251401847654],[-3.8783628799751,30.039937561385006],[-2.9360565531306406,29.769844864053205],[-2.0715620879053063,29.51330352725943],[-1.2700951033855858,29.267802605615792],[-0.5210258609585026,29.03153349009754],[0.1835922584554055,28.80314161652589],[0.8498850673913694,28.581580860746133],[1.482693220278918,28.366023026683],[2.08592081087437,28.155798898859373],[2.6627710551626933,27.95035835972183],[3.215910785614426,27.74924253340609],[3.747588398424625,27.552063797456782],[4.259720407370025,27.358491104022967],[4.753956251089221,27.16823898105589]]}}]}