{"type":"FeatureCollection","features":[{"type":"Feature","properties":{"magnitude":0.8,"percentagem":80.0,"territorio":"continente"},"geometry":{"type":"LineString","coordinates":[[-5.540000000000106,37.4814118576226],[-5.580000000000105,37.49104546882195],[-5.620000000000104,37.50066407501966],[-5.660000000000103,37.510267691217166],[-5.700000000000102,37.5198563323884],[-5.700600193269698,37.519999999999975],[-5.7400000000001015,37.52943092740232],[-5.780000000000101,37.53899058892224],[-5.820000000000101,37.548535317916496],[-5.860000000000099,37.55806512925591],[-5.868133326405716,37.55999999999997],[-5.900000000000098,37.567580775866496],[-5.940000000000097,37.57708172071063],[-5.980000000000096,37.58656779009982],[-6.0200000000000955,37.59603899880261],[-6.036753769439137,37.599999999999966],[-6.060000000000095,37.60549589915764],[-6.100000000000094,37.614938353695806],[-6.140000000000093,37.62436598944889],[-6.180000000000092,37.633778821083865],[-6.206477621282312,37.639999999999965],[-6.220000000000091,37.643177175472765],[-6.26000000000009,37.65256136445417],[-6.3000000000000895,37.66193079092234],[-6.340000000000089,37.671285469443376],[-6.377321273708779,37.679999999999964],[-6.380000000000088,37.68062547630943],[-6.420000000000087,37.6899516228741],[-6.460000000000086,37.69926306280219],[-6.500000000000084,37.708559810559734],[-6.540000000000084,37.71784188058623],[-6.549314099843931,37.71999999999996],[-6.580000000000084,37.72710999220241],[-6.620000000000083,37.73636366674029],[-6.660000000000082,37.7456027044926],[-6.700000000000081,37.75482711979962],[-6.722465768527517,37.75999999999996],[-6.74000000000008,37.764037329090385],[-6.780000000000079,37.77323345780424],[-6.820000000000078,37.78241500472869],[-6.860000000000078,37.79158198410558],[-6.896789998186342,37.79999999999996],[-6.900000000000077,37.800734483639665],[-6.940000000000076,37.80987328452319],[-6.980000000000075,37.81899755822753],[-7.020000000000074,37.82810731889671],[-7.060000000000073,37.83720258064895],[-7.072321474273474,37.83999999999996],[-7.1000000000000725,37.84628398893327],[-7.140000000000072,37.855351205466626],[-7.18000000000007,37.864403963094794],[-7.22000000000007,37.87344227583907],[-7.249067471182513,37.87999999999996],[-7.260000000000069,37.882466406622584],[-7.300000000000068,37.891476780486606],[-7.340000000000067,37.90047274919566],[-7.3800000000000665,37.90945432667489],[-7.420000000000066,37.918421526823934],[-7.427051789138623,37.91999999999996],[-7.460000000000065,37.92737511093597],[-7.500000000000064,37.93631450331403],[-7.540000000000063,37.945239557740024],[-7.580000000000062,37.95415028801835],[-7.606300491357198,37.95999999999996],[-7.620000000000061,37.96304701811547],[-7.6600000000000605,37.97193004522776],[-7.70000000000006,37.98079878729217],[-7.740000000000059,37.989653258018535],[-7.780000000000057,37.99849347109154],[-7.786827132391683,37.99999999999996],[-7.820000000000057,38.00732018842193],[-7.860000000000056,38.01613282730705],[-7.900000000000055,38.02493124729351],[-7.940000000000055,38.03371546197238],[-7.968662903209724,38.03999999999996],[-7.980000000000054,38.04248574013255],[-8.020000000000053,38.05124248352197],[-8.060000000000052,38.05998506008467],[-8.100000000000051,38.06871348331866],[-8.14000000000005,38.07742776669728],[-8.15182531395362,38.079999999999956],[-8.18000000000005,38.086128555479334],[-8.220000000000049,38.09481549444903],[-8.260000000000048,38.10348833170474],[-8.300000000000047,38.112147080627636],[-8.33633612167439,38.119999999999955],[-8.340000000000046,38.120791836569595],[-8.380000000000045,38.129423342302296],[-8.420000000000044,38.13804079757418],[-8.460000000000043,38.146644215674975],[-8.500000000000043,38.155233609870116],[-8.52223192802289,38.159999999999954],[-8.540000000000042,38.163809389461406],[-8.580000000000041,38.172371665282256],[-8.62000000000004,38.18091995473547],[-8.66000000000004,38.18945427099587],[-8.700000000000038,38.19797462721417],[-8.709523281883534,38.19999999999995],[-8.740000000000038,38.20648171313832],[-8.780000000000037,38.21497507466982],[-8.820000000000036,38.22345451336634],[-8.860000000000035,38.23192004228883],[-8.89824077258054,38.23999999999995],[-8.900000000000034,38.240371713447715],[-8.940000000000033,38.248810346345024],[-8.980000000000032,38.25723510641277],[-9.020000000000032,38.26564600662276],[-9.06000000000003,38.27404305992316],[-9.088422381856748,38.27999999999995],[-9.10000000000003,38.28242653467594],[-9.140000000000029,38.29079681362441],[-9.180000000000028,38.29915328228222],[-9.220000000000027,38.30749595350921],[-9.260000000000026,38.31582484014182],[-9.280083739092168,38.31999999999995],[-9.300000000000026,38.3241403925899],[-9.340000000000025,38.33244262544294],[-9.380000000000024,38.34073110999791],[-9.420000000000023,38.34900585900376],[-9.460000000000022,38.35726688518619],[-9.473254956798193,38.35999999999994],[-9.500000000000021,38.36551478643087],[-9.54000000000002,38.37374927831487],[-9.58000000000002,38.381970083352144],[-9.620000000000019,38.39017721418172],[-9.660000000000018,38.3983706834196],[-9.667966908920636,38.39999999999995],[-9.700000000000017,38.406551201586424],[-9.740000000000016,38.41471825492544],[-9.780000000000015,38.4228716823327],[-9.820000000000014,38.43101149633835],[-9.860000000000014,38.43913770944979],[-9.864251254452627,38.43999999999995],[-9.900000000000013,38.44725110971277],[-9.940000000000012,38.45535102425273],[-9.980000000000011,38.46343737324452],[-10.02000000000001,38.47151016911046],[-10.06000000000001,38.47956942425021],[-10.06214046194561,38.47999999999995],[-10.100000000000009,38.4876159688556],[-10.140000000000008,38.4956490416886],[-10.180000000000007,38.5036686088305],[-10.220000000000006,38.51167468259674],[-10.260000000000005,38.51966727528032],[-10.26166783495644,38.519999999999946],[-10.300000000000004,38.527647223570256],[-10.340000000000003,38.535613749158415],[-10.380000000000003,38.543566828390865],[-10.420000000000002,38.551506473477104],[-10.46,38.55943269660451],[-10.462867538475153,38.559999999999945],[-10.5,38.56734630504049]]}},{"type":"Feature","properties":{"magnitude":0.2,"percentagem":20.0,"territorio":"madeira"},"geometry":{"type":"LineString","coordinates":[[-15.671872140650434,33.77999999999991],[-15.68000000000005,33.77188461333444],[-15.711884613334584,33.73999999999991],[-15.71189529842255,33.69999999999991],[-15.711905955798244,33.65999999999991],[-15.711916585563486,33.61999999999991],[-15.711927187819619,33.57999999999991],[-15.720000000000049,33.57193949472173],[-15.751939494721867,33.539999999999914],[-15.751950038361908,33.499999999999915],[-15.751960554808262,33.459999999999916],[-15.751971044160253,33.419999999999916],[-15.760000000000048,33.41198321913132],[-15.791983219131453,33.37999999999992],[-15.791993650756734,33.33999999999992],[-15.79200405559679,33.29999999999992],[-15.792014433748975,33.25999999999992],[-15.79202478531017,33.21999999999992],[-15.800000000000047,33.212036800085016],[-15.832036800085142,33.17999999999992],[-15.832047094997439,33.13999999999992],[-15.832057363620311,33.09999999999992],[-15.832067606048728,33.059999999999924],[-15.832077822377206,33.019999999999925],[-15.840000000000046,33.012089679938356],[-15.872089679938473,32.979999999999926],[-15.872099840669502,32.93999999999993],[-15.872109975594809,32.89999999999993],[-15.87212008480706,32.85999999999993],[-15.880000000000047,32.85213181721136],[-15.91213181721147,32.81999999999993],[-15.91214187165592,32.77999999999993],[-15.91215190067577,32.73999999999993],[-15.912159575030692,32.69999999999993],[-15.912149583519493,32.65999999999993],[-15.920000000000043,32.65213783792757],[-15.952137837927676,32.61999999999993],[-15.952127789875767,32.579999999999934],[-15.952117715920092,32.539999999999935],[-15.952107615965906,32.499999999999936],[-15.960000000000043,32.49209574355946],[-15.992095743559563,32.45999999999994],[-15.992085586190283,32.41999999999994],[-15.99207540251466,32.37999999999994],[-15.99206519243597,32.33999999999994],[-15.992054955857018,32.29999999999994],[-16.000000000000043,32.29204292286037],[-16.03204292286047,32.25999999999994],[-16.0320326277568,32.21999999999994],[-16.032022305837064,32.17999999999994],[-16.03201195700202,32.139999999999944],[-16.040000000000042,32.13199979271691],[-16.07199979271701,32.099999999999945],[-16.07198938444147,32.059999999999945],[-16.07197894892819,32.019999999999946],[-16.071968486075846,31.979999999999947],[-16.08000000000004,31.971956188440124],[-16.111956188440217,31.939999999999948],[-16.11194566521232,31.89999999999995],[-16.111935114316115,31.85999999999995],[-16.111924535648125,31.81999999999995],[-16.111913929104354,31.77999999999995],[-16.12000000000004,31.771901462557636],[-16.151901462557724,31.739999999999952],[-16.151890794451344,31.699999999999953],[-16.151880098131276,31.659999999999954],[-16.151869373491294,31.619999999999955],[-16.16000000000004,31.61185676880657],[-16.191856768806655,31.579999999999956],[-16.191845981623988,31.539999999999957],[-16.191835165776283,31.499999999999954],[-16.191824321155053,31.459999999999958],[-16.191813447651246,31.41999999999996],[-16.20000000000004,31.411800667959408],[-16.23180066795949,31.37999999999996],[-16.231789730668442,31.33999999999996],[-16.231778764140504,31.29999999999996],[-16.231767768264266,31.259999999999962],[-16.240000000000038,31.251754845414144],[-16.27175484541422,31.219999999999963],[-16.271743784722894,31.179999999999964],[-16.27173269432129,31.139999999999965],[-16.271721574095594,31.099999999999962],[-16.271710423931403,31.059999999999963],[-16.280000000000037,31.051697319679967],[-16.31169731968004,31.019999999999964],[-16.311686103395203,30.97999999999997],[-16.311674856800128,30.93999999999997],[-16.31166357977791,30.89999999999997],[-16.320000000000036,30.89165032710076],[-16.351650327100824,30.85999999999997],[-16.351638982879404,30.819999999999972],[-16.351627607850972,30.779999999999973],[-16.35161620189605,30.739999999999974],[-16.360000000000035,30.731602798361774],[-16.391602798361834,30.699999999999974],[-16.391591324105516,30.659999999999975],[-16.39157981853448,30.619999999999976],[-16.391568281526627,30.579999999999977],[-16.391556712959208,30.539999999999978],[-16.400000000000034,30.531543118214458],[-16.431543118214517,30.49999999999998],[-16.431531479945136,30.459999999999983],[-16.4315198097173,30.41999999999998],[-16.431508107405534,30.379999999999978],[-16.440000000000033,30.371494356151445],[-16.471494356151496,30.339999999999982],[-16.471482582980222,30.299999999999983],[-16.471470777317254,30.259999999999984],[-16.47145893903431,30.219999999999985],[-16.471447068002433,30.17999999999999],[-16.480000000000032,30.171433118334342],[-16.511433118334388,30.139999999999986],[-16.511421174971687,30.099999999999987],[-16.51140919844095,30.05999999999999],[-16.511397188610314,30.01999999999999],[-16.52000000000003,30.011383076493935],[-16.551383076493977,29.97999999999999],[-16.551370993116105,29.939999999999987],[-16.551358876009793,29.89999999999999],[-16.551346725040183,29.859999999999992],[-16.56000000000003,29.851332447731117],[-16.59133244773116,29.81999999999999],[-16.591320221970427,29.779999999999998],[-16.591307961908143,29.739999999999995],[-16.591295667406385,29.699999999999996],[-16.591283338326498,29.659999999999997],[-16.60000000000003,29.651268851532855],[-16.631268851532887,29.619999999999997],[-16.631256446080133,29.58],[-16.631244005598578,29.54],[-16.63123152994639,29.5]]}},{"type":"Feature","properties":{"magnitude":0.4,"percentagem":40.0,"territorio":"madeira"},"geometry":{"type":"LineString","coordinates":[[-15.663744281300819,33.77999999999991],[-15.680000000000051,33.763769226668984],[-15.70376922666912,33.73999999999991],[-15.703790596845057,33.69999999999991],[-15.70381191159644,33.65999999999991],[-15.703833171126927,33.61999999999991],[-15.70385437563919,33.57999999999991],[-15.720000000000049,33.56387898944356],[-15.74387898944369,33.539999999999914],[-15.743900076723767,33.499999999999915],[-15.74392110961648,33.459999999999916],[-15.743942088320459,33.419999999999916],[-15.760000000000048,33.40396643826273],[-15.783966438262858,33.379999999999924],[-15.783987301513417,33.33999999999992],[-15.78400811119353,33.29999999999992],[-15.784028867497902,33.25999999999992],[-15.78404957062029,33.21999999999992],[-15.800000000000047,33.20407360017011],[-15.824073600170234,33.17999999999992],[-15.824094189994831,33.13999999999992],[-15.824114727240575,33.09999999999992],[-15.824135212097408,33.059999999999924],[-15.824155644754367,33.019999999999925],[-15.840000000000046,33.00417935987678],[-15.8641793598769,32.979999999999926],[-15.86419968133896,32.93999999999993],[-15.864219951189572,32.89999999999993],[-15.864240169614074,32.85999999999993],[-15.880000000000045,32.84426363442278],[-15.904263634422897,32.81999999999993],[-15.904283743311801,32.77999999999993],[-15.904303801351492,32.739999999999924],[-15.90431915006134,32.69999999999993],[-15.904299167038944,32.65999999999993],[-15.920000000000044,32.6442756758552],[-15.944275675855312,32.61999999999993],[-15.944255579751493,32.579999999999934],[-15.944235431840143,32.539999999999935],[-15.944215231931768,32.499999999999936],[-15.960000000000043,32.48419148711898],[-15.984191487119087,32.45999999999994],[-15.984171172380528,32.41999999999994],[-15.984150805029277,32.37999999999994],[-15.9841303848719,32.33999999999994],[-15.984109911713993,32.29999999999994],[-16.000000000000043,32.284085845720796],[-16.024085845720897,32.25999999999994],[-16.02406525551356,32.21999999999994],[-16.024044611674086,32.17999999999994],[-16.024023914003998,32.139999999999944],[-16.040000000000042,32.12399958543388],[-16.063999585433976,32.099999999999945],[-16.063978768882894,32.059999999999945],[-16.06395789785634,32.019999999999946],[-16.063936972151645,31.979999999999947],[-16.08000000000004,31.963912376880298],[-16.10391237688039,31.939999999999948],[-16.1038913304246,31.89999999999995],[-16.103870228632193,31.85999999999995],[-16.103849071296214,31.81999999999995],[-16.103827858208668,31.77999999999995],[-16.12000000000004,31.76380292511532],[-16.14380292511541,31.739999999999952],[-16.14378158890265,31.699999999999953],[-16.143760196262512,31.659999999999954],[-16.14373874698255,31.61999999999996],[-16.16000000000004,31.60371353761319],[-16.183713537613272,31.57999999999996],[-16.183691963247938,31.539999999999957],[-16.18367033155253,31.499999999999957],[-16.183648642310068,31.459999999999958],[-16.183626895302453,31.41999999999996],[-16.20000000000004,31.403601335918857],[-16.223601335918936,31.37999999999996],[-16.22357946133685,31.339999999999957],[-16.22355752828097,31.29999999999996],[-16.223535536528495,31.259999999999962],[-16.240000000000038,31.243509690828326],[-16.2635096908284,31.219999999999963],[-16.26348756944575,31.179999999999964],[-16.263465388642544,31.139999999999965],[-16.26344314819115,31.099999999999966],[-16.26342084786277,31.059999999999967],[-16.280000000000037,31.043394639359974],[-16.303394639360043,31.019999999999968],[-16.30337220679037,30.97999999999997],[-16.303349713600216,30.93999999999997],[-16.30332715955578,30.89999999999997],[-16.320000000000036,30.883300654201545],[-16.34330065420161,30.85999999999997],[-16.343277965758773,30.819999999999972],[-16.34325521570191,30.779999999999973],[-16.34323240379207,30.739999999999974],[-16.360000000000035,30.723205596723574],[-16.383205596723634,30.699999999999974],[-16.383182648210997,30.659999999999975],[-16.383159637068932,30.619999999999976],[-16.38313656305322,30.579999999999977],[-16.383113425918385,30.539999999999978],[-16.400000000000034,30.52308623642894],[-16.423086236429,30.49999999999998],[-16.42306295989024,30.45999999999998],[-16.42303961943456,30.419999999999977],[-16.42301621481104,30.37999999999998],[-16.440000000000033,30.362988712302908],[-16.462988712302955,30.339999999999982],[-16.462965165960412,30.299999999999983],[-16.462941554634472,30.259999999999984],[-16.462917878068584,30.219999999999985],[-16.462894136004834,30.179999999999986],[-16.480000000000032,30.162866236668705],[-16.50286623666875,30.139999999999986],[-16.502842349943347,30.099999999999987],[-16.502818396881867,30.059999999999988],[-16.502794377220596,30.01999999999999],[-16.52000000000003,30.002766152987874],[-16.54276615298792,29.97999999999999],[-16.542741986232183,29.93999999999999],[-16.542717752019556,29.89999999999999],[-16.54269345008034,29.859999999999992],[-16.56000000000003,29.84266489546225],[-16.582664895462287,29.819999999999993],[-16.58264044394083,29.779999999999994],[-16.582615923816256,29.739999999999995],[-16.58259133481274,29.699999999999996],[-16.582566676652966,29.659999999999997],[-16.60000000000003,29.642537703065713],[-16.622537703065746,29.619999999999997],[-16.622512892160238,29.58],[-16.62248801119713,29.54],[-16.62246305989275,29.5]]}},{"type":"Feature","properties":{"magnitude":0.6,"percentagem":60.0,"territorio":"madeira"},"geometry":{"type":"LineString","coordinates":[[-15.655616421951201,33.77999999999991],[-15.68000000000005,33.75565384000352],[-15.695653840003654,33.73999999999991],[-15.695685895267559,33.69999999999991],[-15.695717867394634,33.65999999999991],[-15.695749756690365,33.61999999999991],[-15.695781563458763,33.57999999999991],[-15.720000000000049,33.55581848416538],[-15.73581848416551,33.539999999999914],[-15.735850115085626,33.499999999999915],[-15.735881664424694,33.459999999999916],[-15.735913132480665,33.419999999999916],[-15.760000000000048,33.395949657394134],[-15.775949657394264,33.37999999999992],[-15.7759809522701,33.33999999999992],[-15.776012166790274,33.29999999999992],[-15.776043301246833,33.25999999999992],[-15.776074355930412,33.21999999999992],[-15.800000000000047,33.19611040025521],[-15.81611040025533,33.17999999999992],[-15.816141284992225,33.13999999999992],[-15.816172090860839,33.09999999999992],[-15.816202818146088,33.059999999999924],[-15.816233467131529,33.019999999999925],[-15.840000000000046,32.9962690398152],[-15.856269039815325,32.979999999999926],[-15.856299522008415,32.93999999999993],[-15.856329926784337,32.89999999999993],[-15.856360254421089,32.85999999999993],[-15.880000000000045,32.8363954516342],[-15.896395451634323,32.81999999999993],[-15.89642561496768,32.77999999999993],[-15.896455702027218,32.73999999999993],[-15.89647872509199,32.69999999999993],[-15.896448750558394,32.65999999999993],[-15.920000000000044,32.636413513782834],[-15.936413513782947,32.61999999999993],[-15.936383369627217,32.579999999999934],[-15.936353147760194,32.539999999999935],[-15.936322847897632,32.499999999999936],[-15.960000000000043,32.47628723067851],[-15.97628723067861,32.45999999999994],[-15.976256758570766,32.41999999999994],[-15.976226207543895,32.37999999999994],[-15.976195577307827,32.33999999999994],[-15.976164867570969,32.29999999999994],[-16.000000000000043,32.27612876858122],[-16.01612876858132,32.25999999999994],[-16.016097883270316,32.21999999999994],[-16.016066917511104,32.17999999999994],[-16.01603587100598,32.139999999999944],[-16.040000000000042,32.115999378150846],[-16.055999378150943,32.099999999999945],[-16.055968153324322,32.059999999999945],[-16.05593684678449,32.019999999999946],[-16.055905458227446,31.979999999999947],[-16.08000000000004,31.955868565320472],[-16.095868565320565,31.939999999999948],[-16.09583699563688,31.89999999999995],[-16.09580534294827,31.85999999999995],[-16.0957736069443,31.81999999999995],[-16.09574178731298,31.77999999999995],[-16.12000000000004,31.755704387673003],[-16.13570438767309,31.739999999999952],[-16.13567238335396,31.699999999999953],[-16.135640294393745,31.659999999999954],[-16.135608120473805,31.619999999999955],[-16.16000000000004,31.595570306419802],[-16.17557030641989,31.579999999999956],[-16.175537944871884,31.539999999999957],[-16.17550549732878,31.499999999999957],[-16.17547296346508,31.459999999999958],[-16.175440342953664,31.41999999999996],[-16.20000000000004,31.39540200387831],[-16.215402003878385,31.37999999999996],[-16.21536919200526,31.33999999999996],[-16.215336292421437,31.29999999999996],[-16.21530330479272,31.259999999999962],[-16.240000000000038,31.235264536242504],[-16.25526453624258,31.219999999999963],[-16.255231354168608,31.179999999999964],[-16.2551980829638,31.139999999999965],[-16.255164722286708,31.099999999999966],[-16.255131271794134,31.059999999999967],[-16.280000000000037,31.035091959039974],[-16.295091959040047,31.019999999999968],[-16.29505831018554,30.97999999999997],[-16.295024570400304,30.93999999999997],[-16.294990739333656,30.89999999999997],[-16.320000000000036,30.874950981302334],[-16.3349509813024,30.85999999999997],[-16.334916948638146,30.819999999999972],[-16.334882823552842,30.779999999999973],[-16.334848605688084,30.739999999999974],[-16.360000000000035,30.714808395085374],[-16.374808395085434,30.699999999999974],[-16.37477397231648,30.659999999999975],[-16.374739455603383,30.619999999999976],[-16.374704844579814,30.579999999999977],[-16.37467013887756,30.539999999999978],[-16.400000000000034,30.514629354643425],[-16.41462935464348,30.49999999999998],[-16.414594439835337,30.45999999999998],[-16.41455942915183,30.41999999999998],[-16.414524322216543,30.37999999999998],[-16.440000000000033,30.354483068454364],[-16.45448306845442,30.339999999999982],[-16.454447748940602,30.299999999999983],[-16.454412331951694,30.259999999999984],[-16.45437681710286,30.219999999999985],[-16.454341204007235,30.179999999999986],[-16.480000000000032,30.15429935500306],[-16.494299355003108,30.139999999999986],[-16.494263524915002,30.099999999999987],[-16.494227595322783,30.059999999999988],[-16.49419156583088,30.01999999999999],[-16.52000000000003,29.994149229481824],[-16.534149229481866,29.97999999999999],[-16.53411297934826,29.93999999999999],[-16.534076628029318,29.89999999999999],[-16.534040175120495,29.859999999999992],[-16.56000000000003,29.833997343193378],[-16.573997343193412,29.819999999999993],[-16.573960665911226,29.779999999999994],[-16.573923885724373,29.739999999999995],[-16.573887002219095,29.699999999999996],[-16.57385001497944,29.659999999999997],[-16.60000000000003,29.63380655459857],[-16.613806554598604,29.619999999999997],[-16.613769338240342,29.58],[-16.61373201679568,29.54],[-16.61369458983911,29.5]]}},{"type":"Feature","properties":{"magnitude":0.8,"percentagem":80.0,"territorio":"madeira"},"geometry":{"type":"LineString","coordinates":[[-15.647488562601588,33.77999999999991],[-15.68000000000005,33.74753845333805],[-15.68753845333819,33.73999999999991],[-15.687581193690061,33.69999999999991],[-15.687623823192826,33.65999999999991],[-15.687666342253806,33.61999999999991],[-15.687708751278333,33.57999999999991],[-15.720000000000049,33.5477579788872],[-15.72775797888733,33.539999999999914],[-15.727800153447486,33.499999999999915],[-15.727842219232912,33.459999999999916],[-15.72788417664087,33.419999999999916],[-15.760000000000048,33.38793287652554],[-15.76793287652567,33.37999999999992],[-15.767974603026785,33.33999999999992],[-15.768016222387015,33.29999999999992],[-15.76805773499576,33.25999999999992],[-15.768099141240535,33.21999999999992],[-15.800000000000047,33.1881472003403],[-15.808147200340425,33.17999999999992],[-15.808188379989616,33.13999999999992],[-15.808229454481104,33.09999999999992],[-15.80827042419477,33.059999999999924],[-15.808311289508687,33.019999999999925],[-15.840000000000046,32.988358719753634],[-15.848358719753751,32.979999999999926],[-15.84839936267787,32.93999999999993],[-15.848439902379098,32.89999999999993],[-15.848480339228104,32.85999999999993],[-15.880000000000045,32.82852726884563],[-15.888527268845749,32.81999999999993],[-15.888567486623558,32.77999999999993],[-15.888607602702944,32.73999999999993],[-15.888638300122638,32.69999999999993],[-15.888598334077844,32.65999999999993],[-15.920000000000044,32.62855135171047],[-15.928551351710581,32.61999999999993],[-15.928511159502941,32.579999999999934],[-15.928470863680241,32.539999999999935],[-15.928430463863494,32.499999999999936],[-15.960000000000043,32.468382974238025],[-15.968382974238132,32.45999999999994],[-15.968342344761007,32.41999999999994],[-15.968301610058514,32.37999999999994],[-15.968260769743758,32.33999999999994],[-15.968219823427948,32.29999999999994],[-16.000000000000043,32.26817169144165],[-16.00817169144175,32.25999999999994],[-16.008130511027073,32.21999999999994],[-16.008089223348126,32.17999999999994],[-16.008047828007957,32.139999999999944],[-16.040000000000042,32.10799917086781],[-16.047999170867907,32.099999999999945],[-16.04795753776575,32.059999999999945],[-16.04791579571264,32.019999999999946],[-16.04787394430325,31.979999999999947],[-16.08000000000004,31.94782475376065],[-16.087824753760742,31.939999999999948],[-16.087782660849157,31.89999999999995],[-16.087740457264346,31.85999999999995],[-16.087698142592387,31.81999999999995],[-16.08765571641729,31.77999999999995],[-16.12000000000004,31.747605850230684],[-16.127605850230772,31.739999999999952],[-16.127563177805264,31.699999999999953],[-16.127520392524982,31.659999999999954],[-16.12747749396506,31.619999999999955],[-16.16000000000004,31.587427075226422],[-16.167427075226502,31.579999999999956],[-16.167383926495837,31.539999999999957],[-16.167340663105023,31.499999999999957],[-16.167297284620094,31.459999999999958],[-16.167253790604867,31.41999999999996],[-16.20000000000004,31.38720267183776],[-16.207202671837837,31.37999999999996],[-16.207158922673667,31.33999999999996],[-16.207115056561904,31.29999999999996],[-16.207071073056948,31.259999999999962],[-16.240000000000038,31.22701938165669],[-16.247019381656763,31.219999999999963],[-16.246975138891464,31.179999999999964],[-16.246930777285055,31.139999999999965],[-16.24688629638226,31.099999999999966],[-16.246841695725497,31.059999999999967],[-16.280000000000037,31.02678927871998],[-16.28678927872005,31.019999999999968],[-16.286744413580706,30.97999999999997],[-16.286699427200396,30.93999999999997],[-16.286654319111527,30.89999999999997],[-16.320000000000036,30.866601308403123],[-16.326601308403188,30.85999999999997],[-16.326555931517518,30.819999999999972],[-16.32651043140378,30.779999999999973],[-16.326464807584102,30.739999999999974],[-16.360000000000035,30.706411193447174],[-16.366411193447234,30.699999999999974],[-16.36636529642196,30.659999999999975],[-16.36631927413783,30.619999999999976],[-16.366273126106407,30.579999999999977],[-16.366226851836732,30.539999999999978],[-16.400000000000034,30.506172472857905],[-16.40617247285796,30.49999999999998],[-16.40612591978044,30.45999999999998],[-16.406079238869097,30.41999999999998],[-16.406032429622044,30.37999999999998],[-16.440000000000033,30.345977424605827],[-16.44597742460588,30.339999999999982],[-16.445930331920792,30.299999999999983],[-16.445883109268916,30.259999999999984],[-16.445835756137136,30.219999999999985],[-16.445788272009636,30.179999999999986],[-16.480000000000032,30.14573247333742],[-16.485732473337467,30.139999999999986],[-16.485684699886658,30.099999999999987],[-16.485636793763703,30.059999999999988],[-16.485588754441164,30.01999999999999],[-16.52000000000003,29.985532305975767],[-16.52553230597581,29.97999999999999],[-16.525483972464336,29.93999999999999],[-16.525435504039077,29.89999999999999],[-16.525386900160647,29.859999999999992],[-16.56000000000003,29.825329790924503],[-16.56532979092454,29.819999999999993],[-16.565280887881624,29.779999999999994],[-16.565231847632486,29.739999999999995],[-16.565182669625454,29.699999999999996],[-16.565133353305907,29.659999999999997],[-16.60000000000003,29.625075406131426],[-16.605075406131462,29.619999999999997],[-16.605025784320446,29.58],[-16.604976022394233,29.54],[-16.60492611978547,29.5]]}},{"type":"Feature","properties":{"magnitude":0.9,"percentagem":90.0,"territorio":"madeira"},"geometry":{"type":"LineString","coordinates":[[-15.64342463292678,33.77999999999991],[-15.68000000000005,33.74348076000532],[-15.683480760005457,33.73999999999991],[-15.683528842901312,33.69999999999991],[-15.683576801091924,33.65999999999991],[-15.683624635035525,33.61999999999991],[-15.68367234518812,33.57999999999991],[-15.720000000000049,33.54372772624811],[-15.723727726248242,33.539999999999914],[-15.723775172628416,33.499999999999915],[-15.72382249663702,33.459999999999916],[-15.723869698720971,33.419999999999916],[-15.760000000000048,33.383924486091246],[-15.763924486091376,33.37999999999992],[-15.763971428405126,33.33999999999992],[-15.764018250185387,33.29999999999992],[-15.764064951870225,33.25999999999992],[-15.764111533895598,33.21999999999992],[-15.800000000000047,33.18416560038285],[-15.804165600382971,33.17999999999992],[-15.804211927488314,33.13999999999992],[-15.804258136291235,33.09999999999992],[-15.80430422721911,33.059999999999924],[-15.804350200697266,33.019999999999925],[-15.840000000000046,32.98440355972285],[-15.844403559722966,32.979999999999926],[-15.844449283012601,32.93999999999993],[-15.844494890176481,32.89999999999993],[-15.844540381631612,32.85999999999993],[-15.880000000000045,32.82459317745134],[-15.88459317745146,32.81999999999993],[-15.884638422451495,32.77999999999993],[-15.884683553040805,32.73999999999993],[-15.88471808763796,32.69999999999993],[-15.884673125837569,32.65999999999993],[-15.920000000000044,32.624620270674285],[-15.9246202706744,32.61999999999993],[-15.924575054440803,32.579999999999934],[-15.924529721640267,32.539999999999935],[-15.924484271846424,32.499999999999936],[-15.960000000000043,32.464430846017784],[-15.964430846017894,32.45999999999994],[-15.964385137856128,32.41999999999994],[-15.964339311315824,32.37999999999994],[-15.964293365961723,32.33999999999994],[-15.964247301356433,32.29999999999994],[-16.000000000000043,32.26419315287186],[-16.004193152871963,32.25999999999994],[-16.00414682490545,32.21999999999994],[-16.00410037626664,32.17999999999994],[-16.00405380650895,32.139999999999944],[-16.040000000000042,32.10399906722629],[-16.04399906722639,32.099999999999945],[-16.043952229986463,32.059999999999945],[-16.043905270176715,32.019999999999946],[-16.04385818734115,31.979999999999947],[-16.08000000000004,31.943802847980738],[-16.08380284798083,31.939999999999948],[-16.0837554934553,31.89999999999995],[-16.083708014422385,31.85999999999995],[-16.083660410416428,31.81999999999995],[-16.083612680969452,31.77999999999995],[-16.12000000000004,31.74355658150953],[-16.123556581509614,31.739999999999952],[-16.123508575030918,31.699999999999953],[-16.123460441590602,31.659999999999954],[-16.123412180710687,31.619999999999955],[-16.16000000000004,31.58335545962973],[-16.163355459629813,31.579999999999956],[-16.16330691730781,31.539999999999957],[-16.16325824599315,31.499999999999957],[-16.1632094451976,31.459999999999958],[-16.163160514430473,31.41999999999996],[-16.20000000000004,31.383103005817482],[-16.20310300581756,31.37999999999996],[-16.20305378800787,31.33999999999996],[-16.203004438632135,31.29999999999996],[-16.202954957189064,31.259999999999962],[-16.240000000000038,31.222896804363778],[-16.242896804363852,31.219999999999963],[-16.242847031252897,31.179999999999964],[-16.242797124445683,31.139999999999965],[-16.24274708343004,31.099999999999966],[-16.24269690769118,31.059999999999967],[-16.280000000000037,31.022637938559985],[-16.28263793856005,31.019999999999968],[-16.28258746527829,30.97999999999997],[-16.28253685560044,30.93999999999997],[-16.282486109000462,30.89999999999997],[-16.320000000000036,30.862426471953516],[-16.32242647195358,30.85999999999997],[-16.3223754229572,30.819999999999972],[-16.322324235329248,30.779999999999973],[-16.32227290853211,30.739999999999974],[-16.360000000000035,30.702212592628072],[-16.362212592628133,30.699999999999974],[-16.3621609584747,30.659999999999975],[-16.362109183405053,30.619999999999976],[-16.362057266869705,30.579999999999977],[-16.362005208316322,30.539999999999978],[-16.400000000000034,30.501944031965145],[-16.401944031965204,30.49999999999998],[-16.401891659752987,30.45999999999998],[-16.401839143727727,30.41999999999998],[-16.401786483324795,30.37999999999998],[-16.440000000000033,30.34172460268156],[-16.44172460268161,30.339999999999982],[-16.441671623410887,30.299999999999983],[-16.44161849792753,30.259999999999984],[-16.441565225654273,30.219999999999985],[-16.441511806010837,30.179999999999986],[-16.480000000000032,30.1414490325046],[-16.481449032504646,30.139999999999986],[-16.481395287372486,30.099999999999987],[-16.48134139298416,30.059999999999988],[-16.481287348746303,30.01999999999999],[-16.52000000000003,29.98122384422274],[-16.521223844222785,29.97999999999999],[-16.521169469022375,29.93999999999999],[-16.52111494204396,29.89999999999999],[-16.521060262680727,29.859999999999992],[-16.56000000000003,29.820996014790065],[-16.560996014790106,29.819999999999993],[-16.560940998866826,29.779999999999994],[-16.560885828586542,29.739999999999995],[-16.560830503328635,29.699999999999996],[-16.560775022469144,29.659999999999997],[-16.60000000000003,29.62070983189786],[-16.60070983189789,29.619999999999997],[-16.6006540073605,29.58],[-16.60059802519351,29.54],[-16.60054188475865,29.5]]}},{"type":"Feature","properties":{"magnitude":0.95,"percentagem":95.0,"territorio":"madeira"},"geometry":{"type":"LineString","coordinates":[[-15.641392668089377,33.77999999999991],[-15.68000000000005,33.741451913338956],[-15.68145191333909,33.73999999999991],[-15.681502667506939,33.69999999999991],[-15.681553290041473,33.65999999999991],[-15.681603781426384,33.61999999999991],[-15.681654142143012,33.57999999999991],[-15.720000000000049,33.541712599928566],[-15.721712599928697,33.539999999999914],[-15.72176268221888,33.499999999999915],[-15.721812635339072,33.459999999999916],[-15.721862459761024,33.419999999999916],[-15.760000000000048,33.3819202908741],[-15.761920290874226,33.37999999999992],[-15.761969841094299,33.33999999999992],[-15.762019264084573,33.29999999999992],[-15.762068560307457,33.25999999999992],[-15.762117730223126,33.21999999999992],[-15.800000000000047,33.18217480040412],[-15.802174800404245,33.17999999999992],[-15.802223701237661,33.13999999999992],[-15.802272477196302,33.09999999999992],[-15.802321128731279,33.059999999999924],[-15.802369656291557,33.019999999999925],[-15.840000000000046,32.98242597970745],[-15.842425979707572,32.979999999999926],[-15.842474243179963,32.93999999999993],[-15.84252238407517,32.89999999999993],[-15.842570402833365,32.85999999999993],[-15.880000000000045,32.822626131754205],[-15.882626131754318,32.81999999999993],[-15.882673890365465,32.77999999999993],[-15.882721528209736,32.73999999999993],[-15.882757981395624,32.69999999999993],[-15.882710521717431,32.65999999999993],[-15.920000000000044,32.62265473015619],[-15.922654730156307,32.61999999999993],[-15.922607001909734,32.579999999999934],[-15.92255915062028,32.539999999999935],[-15.92251117583789,32.499999999999936],[-15.960000000000043,32.46245478190767],[-15.962454781907773,32.45999999999994],[-15.962406534403687,32.41999999999994],[-15.962358161944477,32.37999999999994],[-15.962309664070704,32.33999999999994],[-15.962261040320678,32.29999999999994],[-16.000000000000043,32.26220388358697],[-16.00220388358707,32.25999999999994],[-16.00215498184464,32.21999999999994],[-16.00210595272589,32.17999999999994],[-16.002056795759444,32.139999999999944],[-16.040000000000042,32.10199901540554],[-16.041999015405633,32.099999999999945],[-16.04194957609682,32.059999999999945],[-16.041900007408753,32.019999999999946],[-16.041850308860102,31.979999999999947],[-16.08000000000004,31.941791895090784],[-16.081791895090877,31.939999999999948],[-16.08174190975837,31.89999999999995],[-16.081691793001404,31.85999999999995],[-16.081641544328452,31.81999999999995],[-16.081591163245527,31.77999999999995],[-16.12000000000004,31.74153194714895],[-16.121531947149037,31.739999999999952],[-16.121481273643745,31.699999999999953],[-16.12143046612341,31.659999999999954],[-16.1213795240835,31.619999999999955],[-16.16000000000004,31.58131965183138],[-16.161319651831466,31.579999999999956],[-16.1612684127138,31.539999999999957],[-16.16121703743721,31.499999999999957],[-16.161165525486354,31.459999999999958],[-16.161113876343276,31.41999999999996],[-16.20000000000004,31.381053172807345],[-16.201053172807423,31.37999999999996],[-16.201001220674975,31.33999999999996],[-16.20094912966725,31.29999999999996],[-16.20089689925512,31.259999999999962],[-16.240000000000038,31.220835515717322],[-16.240835515717396,31.219999999999963],[-16.24078297743361,31.179999999999964],[-16.240730298025994,31.139999999999965],[-16.24067747695393,31.099999999999966],[-16.24062451367402,31.059999999999967],[-16.280000000000037,31.02056226847998],[-16.280562268480054,31.019999999999968],[-16.280508991127082,30.97999999999997],[-16.28045556980046,30.93999999999997],[-16.28040200394493,30.89999999999997],[-16.320000000000036,30.860339053728712],[-16.320339053728777,30.85999999999997],[-16.320285168677046,30.819999999999972],[-16.32023113729198,30.779999999999973],[-16.320176959006112,30.739999999999974],[-16.360000000000035,30.700113292218525],[-16.360113292218585,30.699999999999974],[-16.36005878950107,30.659999999999975],[-16.360004138038665,30.619999999999976],[-16.360000000000035,30.616975751668186],[-16.320000000000036,30.61010364929897],[-16.280000000000037,30.60321803149627],[-16.240000000000038,30.596318886879892],[-16.20000000000004,30.589406204050963],[-16.16000000000004,30.582479971591802],[-16.14570521413144,30.579999999999977],[-16.12000000000004,30.575540139561923],[-16.08000000000004,30.568586713308463],[-16.040000000000042,30.561619702731306],[-16.000000000000043,30.554639096338313],[-15.960000000000043,30.54764488261845],[-15.920000000000043,30.540637050041767],[-15.916370631121852,30.53999999999998],[-15.880000000000045,30.533615527892323],[-15.840000000000046,30.52658035753865],[-15.800000000000047,30.519531533288845],[-15.760000000000048,30.512469043537635],[-15.720000000000049,30.505392876660657],[-15.689573653553612,30.49999999999998],[-15.68000000000005,30.498303004238387],[-15.64000000000005,30.491199377806442],[-15.600000000000051,30.484082038916704],[-15.56000000000005,30.476950975868874],[-15.520000000000053,30.46980617694328],[-15.480000000000054,30.462647630400944],[-15.465233534815265,30.45999999999998],[-15.440000000000055,30.45547527689139],[-15.400000000000055,30.448289124066523],[-15.360000000000056,30.441089187940356],[-15.320000000000057,30.433875456697105],[-15.280000000000056,30.426647918501473],[-15.243277850956346,30.41999999999998],[-15.240000000000059,30.41940655489012],[-15.20000000000006,30.412151286300805],[-15.16000000000006,30.404882174776134],[-15.12000000000006,30.397599208403353],[-15.080000000000062,30.390302375250005],[-15.040000000000063,30.382991663363867]]}},{"type":"Feature","properties":{"magnitude":0.99,"percentagem":99.0,"territorio":"madeira"},"geometry":{"type":"LineString","coordinates":[[-15.040000000000063,33.50349244394766],[-15.080000000000062,33.5102581303982],[-15.120000000000061,33.51701067946892],[-15.16000000000006,33.523750102157706],[-15.20000000000006,33.53047640944394],[-15.240000000000059,33.53718961228847],[-15.256777559728352,33.539999999999914],[-15.280000000000058,33.543889854637364],[-15.320000000000057,33.55057711009304],[-15.360000000000056,33.55725129347394],[-15.400000000000055,33.56391241566914],[-15.440000000000055,33.570560487549365],[-15.480000000000054,33.57719551996707],[-15.49693977941547,33.57999999999991],[-15.520000000000053,33.5838176564652],[-15.560000000000052,33.59042687222585],[-15.600000000000051,33.59702308056556],[-15.64000000000005,33.60360629226584],[-15.68000000000005,33.610176518089915],[-15.680039579706927,33.57999999999991],[-15.720000000000049,33.540100498872924],[-15.72010049887306,33.539999999999914],[-15.720152689891252,33.499999999999915],[-15.720204746300716,33.459999999999916],[-15.720256668593064,33.419999999999916],[-15.760000000000048,33.38031693470038],[-15.760316934700507,33.37999999999992],[-15.760368571245634,33.33999999999992],[-15.760420075203921,33.29999999999992],[-15.760471447057242,33.25999999999992],[-15.760522687285151,33.21999999999992],[-15.800000000000047,33.18058216042114],[-15.800582160421264,33.17999999999992],[-15.800633120237142,33.13999999999992],[-15.800683949920355,33.09999999999992],[-15.800734649941017,33.059999999999924],[-15.800785220766988,33.019999999999925],[-15.840000000000046,32.98084391569514],[-15.840843915695256,32.979999999999926],[-15.840894211313856,32.93999999999993],[-15.840944379194124,32.89999999999993],[-15.840994419794768,32.85999999999993],[-15.880000000000045,32.82105249519649],[-15.881052495196604,32.81999999999993],[-15.88110226469664,32.77999999999993],[-15.881151908344881,32.73999999999993],[-15.881189896401754,32.69999999999993],[-15.881140438421323,32.65999999999993],[-15.920000000000044,32.62108229774172],[-15.921082297741835,32.61999999999993],[-15.92103255988488,32.579999999999934],[-15.920982693804289,32.539999999999935],[-15.920932699031063,32.499999999999936],[-15.960000000000043,32.46087393061957],[-15.960873930619679,32.45999999999994],[-15.960823651641736,32.41999999999994],[-15.9607732424474,32.37999999999994],[-15.96072270255789,32.33999999999994],[-15.960672031492074,32.29999999999994],[-16.000000000000043,32.26061246815905],[-16.000612468159158,32.25999999999994],[-16.000561507395993,32.21999999999994],[-16.000510413893295,32.17999999999994],[-16.00045918715984,32.139999999999944],[-16.040000000000042,32.10039897394893],[-16.040398973949028,32.099999999999945],[-16.040347452985106,32.059999999999945],[-16.04029579719438,32.019999999999946],[-16.04024400607526,31.979999999999947],[-16.08000000000004,31.940183132778817],[-16.08018313277891,31.939999999999948],[-16.080131042800826,31.89999999999995],[-16.080078815864617,31.85999999999995],[-16.08002645145807,31.81999999999995],[-16.08000000000004,31.799834301401262],[-16.040000000000042,31.792944816188953],[-16.000000000000043,31.786041957926315],[-15.9650561354724,31.77999999999995],[-15.960000000000043,31.77912572205911],[-15.920000000000044,31.77219613688859],[-15.880000000000045,31.765253144850515],[-15.840000000000046,31.758296734646866],[-15.800000000000045,31.751326894960805],[-15.760000000000048,31.744343614456696],[-15.735167151705134,31.739999999999952],[-15.720000000000049,31.737346900474357],[-15.68000000000005,31.73033675355554],[-15.64000000000005,31.723313131661904],[-15.600000000000051,31.716276023383436],[-15.56000000000005,31.70922541729111],[-15.520000000000053,31.702161301936826],[-15.507784623348828,31.699999999999957],[-15.480000000000054,31.695083697527014],[-15.440000000000055,31.68799257480349],[-15.400000000000055,31.68088790831811],[-15.360000000000056,31.67376968654763],[-15.320000000000057,31.66663789794959],[-15.28284065408991,31.659999999999954],[-15.280000000000058,31.65949253393027],[-15.240000000000059,31.652333618774264],[-15.20000000000006,31.645161102000518],[-15.16000000000006,31.637974971990694],[-15.120000000000061,31.6307752171071],[-15.080000000000062,31.623561825692597],[-15.060285443873703,31.619999999999955],[-15.040000000000063,31.61633480529959]]}}]}