{"type":"FeatureCollection","features":[{"type":"Feature","properties":{"magnitude":0.6,"percentagem":60.0,"territorio":"acores"},"geometry":{"type":"LineString","coordinates":[[-24.04000000000017,36.856941394066396],[-24.080000000000165,36.867705193795686],[-24.120000000000168,36.87848548813849],[-24.125610884911655,36.87999999999998],[-24.160000000000167,36.889291146980995],[-24.200000000000166,36.900114753535625],[-24.240000000000165,36.91095485728569],[-24.273325774277318,36.91999999999998],[-24.280000000000165,36.92181318773827],[-24.320000000000164,36.93269667114807],[-24.360000000000163,36.943596653640896],[-24.400000000000166,36.95451313246487],[-24.420074363029514,36.95999999999998],[-24.44000000000016,36.96545131247686],[-24.48000000000016,36.976411240941005],[-24.520000000000156,36.987387666714525],[-24.56000000000016,36.99838058678307],[-24.56588363166747,36.99999999999998],[-24.600000000000158,37.00939897728068],[-24.640000000000157,37.02043541438073],[-24.680000000000156,37.03148834583128],[-24.71075719279968,37.03999999999998],[-24.720000000000155,37.04256021500428],[-24.760000000000154,37.053656725629956],[-24.800000000000153,37.06476972993741],[-24.84000000000015,37.07589922443447],[-24.85471638103741,37.07999999999998],[-24.88000000000015,37.08705194473853],[-24.92000000000015,37.09822508115991],[-24.96000000000015,37.10941470615531],[-24.99778395589999,37.119999999999976],[-25.00000000000015,37.120621409983464],[-25.04000000000015,37.13185473552641],[-25.080000000000148,37.1431045472844],[-25.120000000000147,37.1543708412763],[-25.13995638379129,37.159999999999975],[-25.160000000000146,37.16565902292395],[-25.200000000000145,37.176969075419215],[-25.240000000000144,37.18829560681847],[-25.280000000000143,37.19963861286238],[-25.281272513928958,37.199999999999974],[-25.320000000000142,37.211008611874774],[-25.36000000000014,37.222395431572195],[-25.40000000000014,37.233798721599904],[-25.4217209391225,37.239999999999974],[-25.44000000000014,37.24522347157276],[-25.48000000000014,37.256670628097666],[-25.520000000000138,37.268134249865135],[-25.560000000000137,37.279614332109894],[-25.561341817747017,37.27999999999997],[-25.600000000000136,37.29112150241871],[-25.640000000000136,37.30264550128001],[-25.68000000000013,37.314185954522365],[-25.700122878343358,37.31999999999997],[-25.720000000000134,37.32574835391114],[-25.760000000000133,37.337332772786596],[-25.800000000000132,37.34893363915426],[-25.838102951226674,37.35999999999997],[-25.84000000000013,37.36055147519064],[-25.88000000000013,37.37219635453487],[-25.92000000000013,37.38385767368136],[-25.96000000000013,37.395535427116386],[-25.97527076591578,37.39999999999997],[-26.000000000000128,37.40723652977027],[-26.040000000000127,37.418958338842955],[-26.080000000000126,37.43069657347098],[-26.11165846389644,37.43999999999997],[-26.120000000000125,37.44245357472097],[-26.160000000000124,37.454235908329004],[-26.200000000000124,37.46603465793895],[-26.240000000000123,37.47784981750439],[-26.247269089504673,37.47999999999997],[-26.280000000000122,37.48969064866691],[-26.32000000000012,37.50154994446905],[-26.36000000000012,37.513425639606034],[-26.382113014773218,37.51999999999997],[-26.40000000000012,37.52532281910819],[-26.44000000000012,37.53724268970208],[-26.480000000000118,37.549178948170905],[-26.516212959333394,37.55999999999997],[-26.520000000000117,37.56113267151462],[-26.560000000000116,37.57311314285726],[-26.60000000000012,37.58510998976698],[-26.640000000000114,37.59712320541077],[-26.64956543982617,37.599999999999966],[-26.680000000000113,37.60916154561804],[-26.720000000000113,37.621219003394714],[-26.76000000000011,37.63329281649608],[-26.78219013443455,37.639999999999965],[-26.80000000000011,37.645388132018276],[-26.84000000000011,37.65750622037283],[-26.88000000000011,37.669640649776014],[-26.91410249677376,37.679999999999964],[-26.92000000000011,37.68179312832775],[-26.960000000000107,37.6939718642241],[-27.000000000000107,37.706166926017914],[-27.040000000000106,37.7183783060674],[-27.045304781690163,37.71999999999996],[-27.080000000000105,37.730616150560955],[-27.120000000000104,37.74287185804691],[-27.160000000000103,37.75514386750176],[-27.175806891037602,37.75999999999996],[-27.200000000000102,37.76743928697087],[-27.2400000000001,37.77975565063133],[-27.2800000000001,37.79208829908013],[-27.3056267359851,37.79999999999996],[-27.3200000000001,37.80444147290184],[-27.3600000000001,37.81681850036833],[-27.4000000000001,37.82921179454044],[-27.434773653180155,37.83999999999996],[-27.440000000000097,37.84162289954786],[-27.480000000000096,37.8540605955692],[-27.520000000000095,37.866514539303076],[-27.560000000000095,37.8789847220185],[-27.563252274501295,37.87999999999996],[-27.600000000000094,37.89148211614483],[-27.640000000000093,37.90399671035644],[-27.680000000000092,37.91652752337727],[-27.69106986762066,37.91999999999996],[-27.72000000000009,37.92908323349113],[-27.76000000000009,37.9416584761424],[-27.80000000000009,37.95424991650181],[-27.818242662921996,37.95999999999996],[-27.84000000000009,37.966864110374594],[-27.880000000000088,37.97949999644197],[-27.920000000000087,37.99215205817958],[-27.944779408880663,37.99999999999996],[-27.960000000000086,38.004824900817894],[-28.000000000000085,38.01752142226094],[-28.040000000000084,38.03023409639143],[-28.07068871958564,38.03999999999996],[-28.080000000000084,38.042965749985484],[-28.120000000000083,38.05572289571574],[-28.160000000000082,38.06849617019773],[-28.195979077181523,38.079999999999956],[-28.20000000000008,38.08128679406961],[-28.24000000000008,38.09410454991935],[-28.28000000000008,38.10693840962435],[-28.32000000000008,38.119788362788114],[-28.32065793388667,38.119999999999955],[-28.360000000000078,38.13266650886763],[-28.400000000000077,38.145560935549035],[-28.440000000000076,38.15847142955108],[-28.444729768350125,38.159999999999954],[-28.480000000000075,38.1714088873256],[-28.520000000000074,38.184363859587975],[-28.560000000000073,38.19733487205434],[-28.56820817643383,38.19999999999995],[-28.600000000000072,38.21033179071421],[-28.64000000000007,38.223347283982626],[-28.68000000000007,38.23637878935216],[-28.691101115585205,38.23999999999995],[-28.72000000000007,38.24943531499727],[-28.76000000000007,38.26251130148685],[-28.800000000000068,38.27560327098077],[-28.813416423145917,38.27999999999995],[-28.840000000000067,38.28871954656879],[-28.880000000000067,38.3018559952544],[-28.920000000000066,38.31500839684598],[-28.93516181848037,38.31999999999995],[-28.960000000000065,38.328184562140684],[-29.000000000000064,38.34138143872684],[-29.040000000000063,38.35459423711151],[-29.056344905057202,38.35999999999995],[-29.080000000000062,38.36783042863086],[-29.12000000000006,38.381087695521856],[-29.16000000000006,38.39436085208728],[-29.176973172486946,38.39999999999995],[-29.20000000000006,38.40765720305182],[-29.24000000000006,38.42097481932191],[-29.280000000000058,38.434308292118416],[-29.297053998515594,38.43999999999995],[-29.320000000000057,38.4476649323996],[-29.360000000000056,38.461042853763686],[-29.400000000000055,38.474436597474735],[-29.416594650975348,38.47999999999995],[-29.440000000000055,38.48785365354346],[-29.480000000000054,38.50129183232767],[-29.520000000000053,38.514745798240874],[-29.535602289694033,38.519999999999946],[-29.560000000000052,38.528223393115866],[-29.60000000000005,38.54172177822865],[-29.64000000000005,38.555235914206705],[-29.654083968363828,38.559999999999945],[-29.68000000000005,38.568774167403404],[-29.72000000000005,38.58233270430674],[-29.760000000000048,38.595906954758775],[-29.772046636370607,38.599999999999945],[-29.800000000000047,38.609505982237984],[-29.840000000000046,38.62312461291879],[-29.880000000000045,38.636758918772],[-29.889497140585025,38.639999999999944],[-29.920000000000044,38.65041883288892],[-29.960000000000043,38.66409749583097],[-30.000000000000046,38.677791794502475],[-30.006442227115006,38.67999999999994],[-30.040000000000042,38.69151270395574],[-30.08000000000004,38.705251334111665],[-30.12000000000004,38.71900555948063],[-30.122888543022913,38.71999999999994],[-30.16000000000004,38.73278756926171],[-30.20000000000004,38.74658609802538],[-30.238841148213993,38.75999999999994],[-30.240000000000038,38.760400562778116],[-30.280000000000037,38.774243391748215],[-30.320000000000036,38.78810174692732],[-30.35430367089076,38.79999999999994],[-30.360000000000035,38.801977500314834],[-30.400000000000034,38.815880123369844],[-30.440000000000033,38.82979822915896],[-30.46928621842954,38.83999999999994],[-30.480000000000032,38.84373536619771],[-30.52000000000003,38.857697704990485],[-30.56000000000003,38.8716754819444],[-30.58379507292713,38.87999999999994],[-30.60000000000003,38.88567409375679],[-30.64000000000003,38.899696066280384],[-30.680000000000028,38.913733431287774],[-30.69783642521618,38.919999999999945],[-30.720000000000027,38.927793605052585],[-30.760000000000026,38.94187512561409],[-30.800000000000026,38.95597199187147],[-30.81141637638676,38.95999999999994],[-30.840000000000025,38.97009381077455],[-30.880000000000024,38.98423478996939],[-30.920000000000023,38.99839106695562],[-30.924540939275904,38.999999999999936],[-30.960000000000022,39.01257461014084],[-31.00000000000002,39.0267749548274],[-31.037212547283755,39.039999999999935],[-31.04000000000002,39.04099149346833],[-31.08000000000002,39.055235890798954],[-31.120000000000022,39.06949550407371],[-31.149434330957703,39.079999999999934],[-31.160000000000018,39.0837739125204],[-31.200000000000017,39.0980775287278],[-31.240000000000016,39.11239630990063],[-31.261217778950847,39.11999999999993],[-31.280000000000015,39.12673665641881],[-31.320000000000014,39.141099388140546],[-31.360000000000014,39.15547723271074],[-31.37256857833323,39.15999999999993],[-31.400000000000013,39.16987958134439],[-31.440000000000012,39.184301321389036],[-31.48000000000001,39.198738121021464],[-31.4834923346919,39.19999999999993],[-31.52000000000001,39.21320253154546],[-31.56000000000001,39.22768316886935],[-31.593987174472872,39.23999999999993],[-31.60000000000001,39.24218088799188],[-31.640000000000008,39.25670533924449],[-31.680000000000007,39.27124475892857],[-31.704061203143162,39.27999999999993],[-31.720000000000006,39.28580465334242],[-31.760000000000005,39.30038782454561],[-31.800000000000004,39.31498590777308],[-31.81372412100213,39.31999999999993],[-31.840000000000003,39.329608025763726],[-31.880000000000003,39.344249795343885],[-31.92,39.358906419378116],[-31.922981232494074,39.359999999999935],[-31.96,39.373590804788925],[-32.0,39.38829104723583]]}}]}