{"type":"FeatureCollection","features":[{"type":"Feature","properties":{"magnitude":0.2,"de":0.2,"ate":0.5,"percentagem":20.0},"geometry":{"type":"Polygon","coordinates":[[[-34.5,30.0],[-32.03037886026292,30.0],[-30.659999999999854,30.572008512164075],[-29.278417257853718,31.199999999999974],[-27.808292465135104,31.919999999999963],[-26.27999999999969,32.71910535734353],[-23.279999999999575,34.41278142206508],[-19.799999999999443,36.53061949557746],[-16.579498255828643,38.579999999999814],[-6.750810783735359,44.939999999999685],[-34.5,44.939999999999685],[-34.5,30.0]]]}},{"type":"Feature","properties":{"magnitude":0.5,"de":0.5,"ate":0.8,"percentagem":50.0},"geometry":{"type":"Polygon","coordinates":[[[-32.03037886026292,30.0],[-6.920900257035172,30.0],[-3.5399999999988268,32.116473751525874],[-3.5399999999988268,44.939999999999685],[-6.750810783735359,44.939999999999685],[-18.07644137932498,37.619999999999834],[-20.749924105714637,35.93999999999987],[-23.039999999999566,34.55428844189825],[-25.544808192004073,33.11999999999993],[-27.808292465135104,31.91999999999996],[-29.939999999999827,30.893112616872628],[-32.03037886026292,30.0]]]}},{"type":"Feature","properties":{"magnitude":0.8,"de":0.8,"ate":0.95,"percentagem":80.0},"geometry":{"type":"Polygon","coordinates":[[[-6.920900257035172,30.0],[-3.5399999999988268,30.0],[-3.5399999999988268,32.116473751525874],[-5.159999999998888,31.10878892207932],[-6.920900257035172,30.0]]]}}]}