{"type":"FeatureCollection","properties":{"largura_maxima_km":149.171,"largura_sobre_pt_km":143.672,"linha_central_sobre_pt":false,"desenhavel_como_area":true,"perfil_largura":[{"t":0.92778,"lat":25.0025,"lon":-5.717,"largura_km":136.005,"eixo_na_terra":true},{"t":0.93333,"lat":25.1227,"lon":-5.5425,"largura_km":136.203,"eixo_na_terra":true},{"t":0.93889,"lat":25.2441,"lon":-5.3661,"largura_km":136.404,"eixo_na_terra":true},{"t":0.94444,"lat":25.3666,"lon":-5.188,"largura_km":136.609,"eixo_na_terra":true},{"t":0.95,"lat":25.4902,"lon":-5.0079,"largura_km":136.817,"eixo_na_terra":true},{"t":0.95556,"lat":25.615,"lon":-4.826,"largura_km":137.028,"eixo_na_terra":true},{"t":0.96111,"lat":25.7409,"lon":-4.642,"largura_km":137.243,"eixo_na_terra":true},{"t":0.96667,"lat":25.8681,"lon":-4.4561,"largura_km":137.461,"eixo_na_terra":true},{"t":0.97222,"lat":25.9965,"lon":-4.268,"largura_km":137.682,"eixo_na_terra":true},{"t":0.97778,"lat":26.1262,"lon":-4.0778,"largura_km":137.908,"eixo_na_terra":true},{"t":0.98333,"lat":26.2572,"lon":-3.8854,"largura_km":138.137,"eixo_na_terra":true},{"t":0.98889,"lat":26.3896,"lon":-3.6907,"largura_km":138.369,"eixo_na_terra":true},{"t":0.99444,"lat":26.5233,"lon":-3.4936,"largura_km":138.606,"eixo_na_terra":true},{"t":1.0,"lat":26.6584,"lon":-3.2941,"largura_km":138.846,"eixo_na_terra":true},{"t":1.00556,"lat":26.7949,"lon":-3.0922,"largura_km":139.091,"eixo_na_terra":true},{"t":1.01111,"lat":26.933,"lon":-2.8877,"largura_km":139.34,"eixo_na_terra":true},{"t":1.01667,"lat":27.0725,"lon":-2.6805,"largura_km":139.593,"eixo_na_terra":true},{"t":1.02222,"lat":27.2137,"lon":-2.4706,"largura_km":139.851,"eixo_na_terra":true},{"t":1.02778,"lat":27.3564,"lon":-2.2578,"largura_km":140.113,"eixo_na_terra":true},{"t":1.03333,"lat":27.5008,"lon":-2.0422,"largura_km":140.379,"eixo_na_terra":true},{"t":1.03889,"lat":27.6469,"lon":-1.8235,"largura_km":140.651,"eixo_na_terra":true},{"t":1.04444,"lat":27.7947,"lon":-1.6017,"largura_km":140.929,"eixo_na_terra":true},{"t":1.05,"lat":27.9444,"lon":-1.3766,"largura_km":141.211,"eixo_na_terra":true},{"t":1.05556,"lat":28.0959,"lon":-1.1482,"largura_km":141.498,"eixo_na_terra":true},{"t":1.06111,"lat":28.2494,"lon":-0.9163,"largura_km":141.791,"eixo_na_terra":true},{"t":1.06667,"lat":28.4048,"lon":-0.6807,"largura_km":142.09,"eixo_na_terra":true},{"t":1.07222,"lat":28.5623,"lon":-0.4414,"largura_km":142.394,"eixo_na_terra":true},{"t":1.07778,"lat":28.722,"lon":-0.1982,"largura_km":142.704,"eixo_na_terra":true},{"t":1.08333,"lat":28.8838,"lon":0.049,"largura_km":143.02,"eixo_na_terra":true},{"t":1.08889,"lat":29.048,"lon":0.3005,"largura_km":143.343,"eixo_na_terra":true},{"t":1.09444,"lat":29.2145,"lon":0.5564,"largura_km":143.672,"eixo_na_terra":true},{"t":1.1,"lat":29.3835,"lon":0.8169,"largura_km":144.008,"eixo_na_terra":true},{"t":1.10556,"lat":29.5551,"lon":1.0823,"largura_km":144.352,"eixo_na_terra":true},{"t":1.11111,"lat":29.7294,"lon":1.3527,"largura_km":144.702,"eixo_na_terra":true},{"t":1.11667,"lat":29.9064,"lon":1.6283,"largura_km":145.061,"eixo_na_terra":true},{"t":1.12222,"lat":30.0864,"lon":1.9095,"largura_km":145.427,"eixo_na_terra":true},{"t":1.12778,"lat":30.2694,"lon":2.1965,"largura_km":145.802,"eixo_na_terra":true},{"t":1.13333,"lat":30.4557,"lon":2.4896,"largura_km":146.185,"eixo_na_terra":true},{"t":1.13889,"lat":30.6452,"lon":2.7892,"largura_km":146.579,"eixo_na_terra":true},{"t":1.14444,"lat":30.8383,"lon":3.0956,"largura_km":146.984,"eixo_na_terra":true},{"t":1.15,"lat":31.0352,"lon":3.4091,"largura_km":147.398,"eixo_na_terra":true},{"t":1.15556,"lat":31.2359,"lon":3.7303,"largura_km":147.824,"eixo_na_terra":true},{"t":1.16111,"lat":31.4407,"lon":4.0595,"largura_km":148.26,"eixo_na_terra":true},{"t":1.16667,"lat":31.6499,"lon":4.3973,"largura_km":148.709,"eixo_na_terra":true},{"t":1.17222,"lat":31.8638,"lon":4.7443,"largura_km":149.171,"eixo_na_terra":true}]},"features":[{"type":"Feature","properties":{},"geometry":{"type":"Polygon","coordinates":[[[-5.812348283689062,25.709680714542696],[-4.9081847803240635,26.33719201087847],[-4.147884839108002,26.86170243402535],[-3.350373817255843,27.40840601175421],[-2.724929328606976,27.834449384761047],[-2.0734073964630113,28.27555472336421],[-1.3736748606326046,28.745887234307933],[-0.6600590119834919,29.222133315813437],[-0.1643774490276826,29.550705011196577],[0.6125397064100468,30.061893822208464],[1.1551547713654884,30.416089933568742],[1.7197694039730322,30.782117482173604],[2.308686670773909,31.161100869991245],[2.950518478140566,31.57053668868157],[3.5979809651271637,31.98032831812471],[4.279772014727968,32.40794065440509],[5.000718981281835,32.85570135572865],[4.6192157095938455,30.967515229881617],[3.9608091168238104,30.56346952162906],[3.333546974881017,30.17510726145811],[2.734068785153511,29.80085790243154],[2.1595602441428525,29.439402188513913],[1.0762584845705305,28.75054654129962],[0.5636623961865723,28.421351208285884],[-0.17331765400683707,27.944511558042684],[-0.8758565857182248,27.486181315330484],[-1.5476261711112898,27.04460736057226],[-2.191720039452605,26.61830720200398],[-2.810772979804568,26.20601382047508],[-3.4070504300445066,25.806634199845444],[-4.1700171278003495,25.292590206279534],[-4.899947283310752,24.79789002602567],[-5.600211820599071,24.3208908213612],[-5.812348283689062,25.709680714542696]]]}}]}