{"type":"FeatureCollection","features":[{"type":"Feature","properties":{"t_inicio":0.9277777777777603,"t_fim":1.1722222222222038},"geometry":{"type":"LineString","coordinates":[[-5.71701768687177,25.00246496396727],[-5.5424617087815875,25.12273512524162],[-5.366126290810769,25.24409544404516],[-5.187964699978181,25.36656917798736],[-5.007928335069408,25.490180495137796],[-4.825966620952329,25.614954524503744],[-4.642026895126776,25.740917410176408],[-4.456054285800093,25.868096369477662],[-4.267991580704802,25.996519755474907],[-4.07777908578575,26.12621712427235],[-3.8853544727870712,26.257219307533155],[-3.6906526146558463,26.389558490738484],[-3.4936054075546394,26.523268297749393],[-3.294141578128716,26.65838388230316],[-3.0921864745118057,26.794942027153528],[-2.8876618393637727,26.932981251650805],[-2.6804855630211364,27.07254192865804],[-2.4705714145917455,27.213666411814128],[-2.2578287485427495,27.356399174286892],[-2.0421621840006594,27.500786960311693],[-1.823471253603742,27.646878950986867],[-1.6016500183044116,27.7947269460028],[-1.376586644005954,27.944385563218912],[-1.1481629353170604,28.095912458281592],[-0.9162538210043465,28.249368566801255],[-0.6807267848941194,28.404818371990817],[-0.4414412349991039,28.562330201118762],[-0.1982478024868044,28.721976554666117],[0.049012439270001096,28.883834472712444],[0.30050884696453295,29.047985943835876],[0.5564221843261805,29.214518362723005],[0.8169457195424172,29.383525043780978],[1.082286461763573,29.55510579937203],[1.3526665588223352,29.72936759290457],[1.6283248825816372,29.90642527898846],[1.909518833592557,30.086402445289036],[2.196526403260549,30.26943237371429],[2.4896485398311654,30.45565914230445],[2.789211874676056,30.64523889387028],[3.0955718781917767,30.838341303327212],[3.409116530943294,31.03515128317191],[3.7302706165997677,31.235870976156445],[4.059500770249514,31.440722096629877],[4.397321450956554,31.64994869820609],[4.7443020538971155,31.86382046673664]]}}]}