{"type":"FeatureCollection","features":[{"type":"Feature","properties":{"magnitude":0.2,"de":0.2,"ate":0.5,"percentagem":20.0},"geometry":{"type":"Polygon","coordinates":[[[-34.5,44.939999999999685],[-34.5,33.42841499851096],[-32.93999999999994,33.93497183514114],[-31.799999999999898,34.360391223104926],[-30.599999999999852,34.85668498093858],[-28.379999999999768,35.89756765084534],[-26.05505460547129,37.139999999999844],[-23.69999999999959,38.530780885156176],[-21.05999999999949,40.2123600199624],[-18.04921488348092,42.23999999999974],[-14.180477839343876,44.939999999999685],[-34.5,44.939999999999685]]]}},{"type":"Feature","properties":{"magnitude":0.5,"de":0.5,"ate":0.8,"percentagem":50.0},"geometry":{"type":"Polygon","coordinates":[[[-34.5,30.0],[-10.850336491125947,30.0],[-6.7799999999989495,32.77626723701685],[-3.5399999999988268,34.93742445396773],[-3.5399999999988268,44.939999999999685],[-14.180477839343876,44.939999999999685],[-18.04921488348092,42.23999999999974],[-20.987503227362215,40.25999999999978],[-23.579999999999586,38.60468769303289],[-25.948973002414093,37.19999999999985],[-28.19999999999976,35.98849495328079],[-30.35999999999984,34.96172339158567],[-32.45999999999992,34.10850863261384],[-34.5,33.42841499851096],[-34.5,30.0]]]}},{"type":"Feature","properties":{"magnitude":0.8,"de":0.8,"ate":0.95,"percentagem":80.0},"geometry":{"type":"Polygon","coordinates":[[[-10.850336491125947,30.0],[-3.5399999999988268,30.0],[-3.5399999999988268,34.93742445396773],[-6.7799999999989495,32.77626723701685],[-10.850336491125947,30.0]]]}}]}