{"type":"FeatureCollection","properties":{"largura_maxima_km":15.689,"largura_sobre_pt_km":7.938,"linha_central_sobre_pt":true,"desenhavel_como_area":true,"perfil_largura":[{"t":-0.42222,"lat":45.3374,"lon":-39.9475,"largura_km":15.341,"eixo_na_terra":true},{"t":-0.41667,"lat":45.3301,"lon":-39.7864,"largura_km":15.361,"eixo_na_terra":true},{"t":-0.41111,"lat":45.3225,"lon":-39.6253,"largura_km":15.38,"eixo_na_terra":true},{"t":-0.40556,"lat":45.3146,"lon":-39.4644,"largura_km":15.399,"eixo_na_terra":true},{"t":-0.4,"lat":45.3063,"lon":-39.3035,"largura_km":15.417,"eixo_na_terra":true},{"t":-0.39444,"lat":45.2978,"lon":-39.1427,"largura_km":15.434,"eixo_na_terra":true},{"t":-0.38889,"lat":45.289,"lon":-38.9821,"largura_km":15.451,"eixo_na_terra":true},{"t":-0.38333,"lat":45.2799,"lon":-38.8215,"largura_km":15.467,"eixo_na_terra":true},{"t":-0.37778,"lat":45.2705,"lon":-38.661,"largura_km":15.483,"eixo_na_terra":true},{"t":-0.37222,"lat":45.2608,"lon":-38.5006,"largura_km":15.498,"eixo_na_terra":true},{"t":-0.36667,"lat":45.2508,"lon":-38.3403,"largura_km":15.513,"eixo_na_terra":true},{"t":-0.36111,"lat":45.2405,"lon":-38.1801,"largura_km":15.527,"eixo_na_terra":true},{"t":-0.35556,"lat":45.2299,"lon":-38.0199,"largura_km":15.541,"eixo_na_terra":true},{"t":-0.35,"lat":45.219,"lon":-37.8599,"largura_km":15.553,"eixo_na_terra":true},{"t":-0.34444,"lat":45.2078,"lon":-37.6999,"largura_km":15.566,"eixo_na_terra":true},{"t":-0.33889,"lat":45.1963,"lon":-37.54,"largura_km":15.577,"eixo_na_terra":true},{"t":-0.33333,"lat":45.1845,"lon":-37.3803,"largura_km":15.588,"eixo_na_terra":true},{"t":-0.32778,"lat":45.1724,"lon":-37.2206,"largura_km":15.599,"eixo_na_terra":true},{"t":-0.32222,"lat":45.16,"lon":-37.0609,"largura_km":15.609,"eixo_na_terra":true},{"t":-0.31667,"lat":45.1474,"lon":-36.9014,"largura_km":15.618,"eixo_na_terra":true},{"t":-0.31111,"lat":45.1344,"lon":-36.7419,"largura_km":15.627,"eixo_na_terra":true},{"t":-0.30556,"lat":45.1211,"lon":-36.5826,"largura_km":15.635,"eixo_na_terra":true},{"t":-0.3,"lat":45.1076,"lon":-36.4233,"largura_km":15.642,"eixo_na_terra":true},{"t":-0.29444,"lat":45.0937,"lon":-36.264,"largura_km":15.649,"eixo_na_terra":true},{"t":-0.28889,"lat":45.0796,"lon":-36.1049,"largura_km":15.656,"eixo_na_terra":true},{"t":-0.28333,"lat":45.0652,"lon":-35.9459,"largura_km":15.661,"eixo_na_terra":true},{"t":-0.27778,"lat":45.0504,"lon":-35.7869,"largura_km":15.667,"eixo_na_terra":true},{"t":-0.27222,"lat":45.0354,"lon":-35.628,"largura_km":15.672,"eixo_na_terra":true},{"t":-0.26667,"lat":45.0201,"lon":-35.4692,"largura_km":15.676,"eixo_na_terra":true},{"t":-0.26111,"lat":45.0045,"lon":-35.3104,"largura_km":15.679,"eixo_na_terra":true},{"t":-0.25556,"lat":44.9886,"lon":-35.1517,"largura_km":15.682,"eixo_na_terra":true},{"t":-0.25,"lat":44.9724,"lon":-34.9931,"largura_km":15.685,"eixo_na_terra":true},{"t":-0.24444,"lat":44.9559,"lon":-34.8346,"largura_km":15.687,"eixo_na_terra":true},{"t":-0.23889,"lat":44.9391,"lon":-34.6762,"largura_km":15.688,"eixo_na_terra":true},{"t":-0.23333,"lat":44.922,"lon":-34.5178,"largura_km":15.689,"eixo_na_terra":true},{"t":-0.22778,"lat":44.9047,"lon":-34.3595,"largura_km":15.689,"eixo_na_terra":true},{"t":-0.22222,"lat":44.887,"lon":-34.2012,"largura_km":15.688,"eixo_na_terra":true},{"t":-0.21667,"lat":44.8691,"lon":-34.0431,"largura_km":15.687,"eixo_na_terra":true},{"t":-0.21111,"lat":44.8508,"lon":-33.885,"largura_km":15.685,"eixo_na_terra":true},{"t":-0.20556,"lat":44.8323,"lon":-33.7269,"largura_km":15.683,"eixo_na_terra":true},{"t":-0.2,"lat":44.8135,"lon":-33.569,"largura_km":15.68,"eixo_na_terra":true},{"t":-0.19444,"lat":44.7943,"lon":-33.4111,"largura_km":15.676,"eixo_na_terra":true},{"t":-0.18889,"lat":44.7749,"lon":-33.2532,"largura_km":15.672,"eixo_na_terra":true},{"t":-0.18333,"lat":44.7552,"lon":-33.0955,"largura_km":15.668,"eixo_na_terra":true},{"t":-0.17778,"lat":44.7352,"lon":-32.9378,"largura_km":15.662,"eixo_na_terra":true},{"t":-0.17222,"lat":44.7149,"lon":-32.7801,"largura_km":15.656,"eixo_na_terra":true},{"t":-0.16667,"lat":44.6944,"lon":-32.6226,"largura_km":15.65,"eixo_na_terra":true},{"t":-0.16111,"lat":44.6735,"lon":-32.465,"largura_km":15.643,"eixo_na_terra":true},{"t":-0.15556,"lat":44.6523,"lon":-32.3076,"largura_km":15.635,"eixo_na_terra":true},{"t":-0.15,"lat":44.6309,"lon":-32.1502,"largura_km":15.627,"eixo_na_terra":true},{"t":-0.14444,"lat":44.6091,"lon":-31.9929,"largura_km":15.618,"eixo_na_terra":true},{"t":-0.13889,"lat":44.5871,"lon":-31.8356,"largura_km":15.609,"eixo_na_terra":true},{"t":-0.13333,"lat":44.5648,"lon":-31.6783,"largura_km":15.599,"eixo_na_terra":true},{"t":-0.12778,"lat":44.5421,"lon":-31.5212,"largura_km":15.589,"eixo_na_terra":true},{"t":-0.12222,"lat":44.5192,"lon":-31.3641,"largura_km":15.578,"eixo_na_terra":true},{"t":-0.11667,"lat":44.496,"lon":-31.207,"largura_km":15.566,"eixo_na_terra":true},{"t":-0.11111,"lat":44.4725,"lon":-31.05,"largura_km":15.554,"eixo_na_terra":true},{"t":-0.10556,"lat":44.4488,"lon":-30.893,"largura_km":15.541,"eixo_na_terra":true},{"t":-0.1,"lat":44.4247,"lon":-30.7361,"largura_km":15.527,"eixo_na_terra":true},{"t":-0.09444,"lat":44.4003,"lon":-30.5793,"largura_km":15.513,"eixo_na_terra":true},{"t":-0.08889,"lat":44.3756,"lon":-30.4225,"largura_km":15.498,"eixo_na_terra":true},{"t":-0.08333,"lat":44.3507,"lon":-30.2657,"largura_km":15.483,"eixo_na_terra":true},{"t":-0.07778,"lat":44.3254,"lon":-30.109,"largura_km":15.467,"eixo_na_terra":true},{"t":-0.07222,"lat":44.2999,"lon":-29.9523,"largura_km":15.45,"eixo_na_terra":true},{"t":-0.06667,"lat":44.2741,"lon":-29.7957,"largura_km":15.433,"eixo_na_terra":true},{"t":-0.06111,"lat":44.248,"lon":-29.6391,"largura_km":15.415,"eixo_na_terra":true},{"t":-0.05556,"lat":44.2215,"lon":-29.4826,"largura_km":15.396,"eixo_na_terra":true},{"t":-0.05,"lat":44.1948,"lon":-29.3261,"largura_km":15.377,"eixo_na_terra":true},{"t":-0.04444,"lat":44.1678,"lon":-29.1697,"largura_km":15.357,"eixo_na_terra":true},{"t":-0.03889,"lat":44.1405,"lon":-29.0132,"largura_km":15.337,"eixo_na_terra":true},{"t":-0.03333,"lat":44.113,"lon":-28.8569,"largura_km":15.316,"eixo_na_terra":true},{"t":-0.02778,"lat":44.0851,"lon":-28.7005,"largura_km":15.295,"eixo_na_terra":true},{"t":-0.02222,"lat":44.0569,"lon":-28.5442,"largura_km":15.273,"eixo_na_terra":true},{"t":-0.01667,"lat":44.0285,"lon":-28.388,"largura_km":15.25,"eixo_na_terra":true},{"t":-0.01111,"lat":43.9997,"lon":-28.2317,"largura_km":15.227,"eixo_na_terra":true},{"t":-0.00556,"lat":43.9707,"lon":-28.0755,"largura_km":15.203,"eixo_na_terra":true},{"t":-0.0,"lat":43.9413,"lon":-27.9193,"largura_km":15.178,"eixo_na_terra":true},{"t":0.00556,"lat":43.9117,"lon":-27.7632,"largura_km":15.153,"eixo_na_terra":true},{"t":0.01111,"lat":43.8818,"lon":-27.6071,"largura_km":15.127,"eixo_na_terra":true},{"t":0.01667,"lat":43.8515,"lon":-27.451,"largura_km":15.1,"eixo_na_terra":true},{"t":0.02222,"lat":43.821,"lon":-27.2949,"largura_km":15.073,"eixo_na_terra":true},{"t":0.02778,"lat":43.7902,"lon":-27.1389,"largura_km":15.045,"eixo_na_terra":true},{"t":0.03333,"lat":43.7591,"lon":-26.9828,"largura_km":15.017,"eixo_na_terra":true},{"t":0.03889,"lat":43.7277,"lon":-26.8268,"largura_km":14.988,"eixo_na_terra":true},{"t":0.04444,"lat":43.696,"lon":-26.6709,"largura_km":14.958,"eixo_na_terra":true},{"t":0.05,"lat":43.664,"lon":-26.5149,"largura_km":14.928,"eixo_na_terra":true},{"t":0.05556,"lat":43.6317,"lon":-26.3589,"largura_km":14.897,"eixo_na_terra":true},{"t":0.06111,"lat":43.5991,"lon":-26.203,"largura_km":14.865,"eixo_na_terra":true},{"t":0.06667,"lat":43.5663,"lon":-26.0471,"largura_km":14.832,"eixo_na_terra":true},{"t":0.07222,"lat":43.5331,"lon":-25.8912,"largura_km":14.799,"eixo_na_terra":true},{"t":0.07778,"lat":43.4996,"lon":-25.7353,"largura_km":14.766,"eixo_na_terra":true},{"t":0.08333,"lat":43.4659,"lon":-25.5794,"largura_km":14.731,"eixo_na_terra":true},{"t":0.08889,"lat":43.4318,"lon":-25.4235,"largura_km":14.696,"eixo_na_terra":true},{"t":0.09444,"lat":43.3974,"lon":-25.2677,"largura_km":14.661,"eixo_na_terra":true},{"t":0.1,"lat":43.3628,"lon":-25.1118,"largura_km":14.624,"eixo_na_terra":true},{"t":0.10556,"lat":43.3278,"lon":-24.9559,"largura_km":14.587,"eixo_na_terra":true},{"t":0.11111,"lat":43.2926,"lon":-24.8001,"largura_km":14.55,"eixo_na_terra":true},{"t":0.11667,"lat":43.257,"lon":-24.6442,"largura_km":14.512,"eixo_na_terra":true},{"t":0.12222,"lat":43.2212,"lon":-24.4884,"largura_km":14.473,"eixo_na_terra":true},{"t":0.12778,"lat":43.185,"lon":-24.3325,"largura_km":14.433,"eixo_na_terra":true},{"t":0.13333,"lat":43.1486,"lon":-24.1766,"largura_km":14.393,"eixo_na_terra":true},{"t":0.13889,"lat":43.1118,"lon":-24.0207,"largura_km":14.352,"eixo_na_terra":true},{"t":0.14444,"lat":43.0748,"lon":-23.8648,"largura_km":14.31,"eixo_na_terra":true},{"t":0.15,"lat":43.0374,"lon":-23.7089,"largura_km":14.268,"eixo_na_terra":true},{"t":0.15556,"lat":42.9998,"lon":-23.553,"largura_km":14.225,"eixo_na_terra":true},{"t":0.16111,"lat":42.9618,"lon":-23.3971,"largura_km":14.181,"eixo_na_terra":true},{"t":0.16667,"lat":42.9236,"lon":-23.2412,"largura_km":14.136,"eixo_na_terra":true},{"t":0.17222,"lat":42.885,"lon":-23.0852,"largura_km":14.091,"eixo_na_terra":true},{"t":0.17778,"lat":42.8461,"lon":-22.9292,"largura_km":14.045,"eixo_na_terra":true},{"t":0.18333,"lat":42.807,"lon":-22.7732,"largura_km":13.998,"eixo_na_terra":true},{"t":0.18889,"lat":42.7675,"lon":-22.6172,"largura_km":13.951,"eixo_na_terra":true},{"t":0.19444,"lat":42.7277,"lon":-22.4611,"largura_km":13.903,"eixo_na_terra":true},{"t":0.2,"lat":42.6876,"lon":-22.3051,"largura_km":13.854,"eixo_na_terra":true},{"t":0.20556,"lat":42.6473,"lon":-22.1489,"largura_km":13.805,"eixo_na_terra":true},{"t":0.21111,"lat":42.6066,"lon":-21.9928,"largura_km":13.754,"eixo_na_terra":true},{"t":0.21667,"lat":42.5656,"lon":-21.8366,"largura_km":13.703,"eixo_na_terra":true},{"t":0.22222,"lat":42.5243,"lon":-21.6804,"largura_km":13.652,"eixo_na_terra":true},{"t":0.22778,"lat":42.4826,"lon":-21.5241,"largura_km":13.599,"eixo_na_terra":true},{"t":0.23333,"lat":42.4407,"lon":-21.3679,"largura_km":13.546,"eixo_na_terra":true},{"t":0.23889,"lat":42.3985,"lon":-21.2115,"largura_km":13.492,"eixo_na_terra":true},{"t":0.24444,"lat":42.356,"lon":-21.0551,"largura_km":13.438,"eixo_na_terra":true},{"t":0.25,"lat":42.3131,"lon":-20.8987,"largura_km":13.382,"eixo_na_terra":true},{"t":0.25556,"lat":42.2699,"lon":-20.7422,"largura_km":13.326,"eixo_na_terra":true},{"t":0.26111,"lat":42.2265,"lon":-20.5857,"largura_km":13.27,"eixo_na_terra":true},{"t":0.26667,"lat":42.1827,"lon":-20.4291,"largura_km":13.212,"eixo_na_terra":true},{"t":0.27222,"lat":42.1386,"lon":-20.2724,"largura_km":13.154,"eixo_na_terra":true},{"t":0.27778,"lat":42.0942,"lon":-20.1157,"largura_km":13.094,"eixo_na_terra":true},{"t":0.28333,"lat":42.0494,"lon":-19.959,"largura_km":13.034,"eixo_na_terra":true},{"t":0.28889,"lat":42.0044,"lon":-19.8021,"largura_km":12.974,"eixo_na_terra":true},{"t":0.29444,"lat":41.959,"lon":-19.6452,"largura_km":12.912,"eixo_na_terra":true},{"t":0.3,"lat":41.9134,"lon":-19.4882,"largura_km":12.85,"eixo_na_terra":true},{"t":0.30556,"lat":41.8674,"lon":-19.3312,"largura_km":12.787,"eixo_na_terra":true},{"t":0.31111,"lat":41.8211,"lon":-19.1741,"largura_km":12.723,"eixo_na_terra":true},{"t":0.31667,"lat":41.7744,"lon":-19.0169,"largura_km":12.658,"eixo_na_terra":true},{"t":0.32222,"lat":41.7275,"lon":-18.8596,"largura_km":12.593,"eixo_na_terra":true},{"t":0.32778,"lat":41.6802,"lon":-18.7022,"largura_km":12.527,"eixo_na_terra":true},{"t":0.33333,"lat":41.6326,"lon":-18.5448,"largura_km":12.459,"eixo_na_terra":true},{"t":0.33889,"lat":41.5847,"lon":-18.3872,"largura_km":12.391,"eixo_na_terra":true},{"t":0.34444,"lat":41.5365,"lon":-18.2296,"largura_km":12.323,"eixo_na_terra":true},{"t":0.35,"lat":41.4879,"lon":-18.0719,"largura_km":12.253,"eixo_na_terra":true},{"t":0.35556,"lat":41.439,"lon":-17.914,"largura_km":12.183,"eixo_na_terra":true},{"t":0.36111,"lat":41.3898,"lon":-17.7561,"largura_km":12.111,"eixo_na_terra":true},{"t":0.36667,"lat":41.3403,"lon":-17.598,"largura_km":12.039,"eixo_na_terra":true},{"t":0.37222,"lat":41.2904,"lon":-17.4399,"largura_km":11.966,"eixo_na_terra":true},{"t":0.37778,"lat":41.2402,"lon":-17.2816,"largura_km":11.892,"eixo_na_terra":true},{"t":0.38333,"lat":41.1897,"lon":-17.1233,"largura_km":11.818,"eixo_na_terra":true},{"t":0.38889,"lat":41.1388,"lon":-16.9648,"largura_km":11.742,"eixo_na_terra":true},{"t":0.39444,"lat":41.0876,"lon":-16.8062,"largura_km":11.666,"eixo_na_terra":true},{"t":0.4,"lat":41.0361,"lon":-16.6474,"largura_km":11.589,"eixo_na_terra":true},{"t":0.40556,"lat":40.9842,"lon":-16.4886,"largura_km":11.511,"eixo_na_terra":true},{"t":0.41111,"lat":40.932,"lon":-16.3296,"largura_km":11.432,"eixo_na_terra":true},{"t":0.41667,"lat":40.8795,"lon":-16.1704,"largura_km":11.352,"eixo_na_terra":true},{"t":0.42222,"lat":40.8266,"lon":-16.0111,"largura_km":11.271,"eixo_na_terra":true},{"t":0.42778,"lat":40.7734,"lon":-15.8517,"largura_km":11.189,"eixo_na_terra":true},{"t":0.43333,"lat":40.7198,"lon":-15.6922,"largura_km":11.107,"eixo_na_terra":true},{"t":0.43889,"lat":40.6659,"lon":-15.5325,"largura_km":11.023,"eixo_na_terra":true},{"t":0.44444,"lat":40.6117,"lon":-15.3726,"largura_km":10.939,"eixo_na_terra":true},{"t":0.45,"lat":40.5571,"lon":-15.2126,"largura_km":10.853,"eixo_na_terra":true},{"t":0.45556,"lat":40.5022,"lon":-15.0524,"largura_km":10.767,"eixo_na_terra":true},{"t":0.46111,"lat":40.4469,"lon":-14.892,"largura_km":10.679,"eixo_na_terra":true},{"t":0.46667,"lat":40.3912,"lon":-14.7315,"largura_km":10.591,"eixo_na_terra":true},{"t":0.47222,"lat":40.3353,"lon":-14.5708,"largura_km":10.502,"eixo_na_terra":true},{"t":0.47778,"lat":40.2789,"lon":-14.4099,"largura_km":10.412,"eixo_na_terra":true},{"t":0.48333,"lat":40.2222,"lon":-14.2488,"largura_km":10.321,"eixo_na_terra":true},{"t":0.48889,"lat":40.1652,"lon":-14.0876,"largura_km":10.228,"eixo_na_terra":true},{"t":0.49444,"lat":40.1078,"lon":-13.9261,"largura_km":10.135,"eixo_na_terra":true},{"t":0.5,"lat":40.05,"lon":-13.7645,"largura_km":10.041,"eixo_na_terra":true},{"t":0.50556,"lat":39.9919,"lon":-13.6026,"largura_km":9.946,"eixo_na_terra":true},{"t":0.51111,"lat":39.9334,"lon":-13.4406,"largura_km":9.85,"eixo_na_terra":true},{"t":0.51667,"lat":39.8746,"lon":-13.2783,"largura_km":9.753,"eixo_na_terra":true},{"t":0.52222,"lat":39.8154,"lon":-13.1159,"largura_km":9.655,"eixo_na_terra":true},{"t":0.52778,"lat":39.7558,"lon":-12.9532,"largura_km":9.555,"eixo_na_terra":true},{"t":0.53333,"lat":39.6958,"lon":-12.7902,"largura_km":9.455,"eixo_na_terra":true},{"t":0.53889,"lat":39.6355,"lon":-12.6271,"largura_km":9.354,"eixo_na_terra":true},{"t":0.54444,"lat":39.5748,"lon":-12.4637,"largura_km":9.252,"eixo_na_terra":true},{"t":0.55,"lat":39.5137,"lon":-12.3001,"largura_km":9.148,"eixo_na_terra":true},{"t":0.55556,"lat":39.4523,"lon":-12.1362,"largura_km":9.044,"eixo_na_terra":true},{"t":0.56111,"lat":39.3905,"lon":-11.972,"largura_km":8.938,"eixo_na_terra":true},{"t":0.56667,"lat":39.3283,"lon":-11.8077,"largura_km":8.831,"eixo_na_terra":true},{"t":0.57222,"lat":39.2657,"lon":-11.643,"largura_km":8.724,"eixo_na_terra":true},{"t":0.57778,"lat":39.2027,"lon":-11.4781,"largura_km":8.615,"eixo_na_terra":true},{"t":0.58333,"lat":39.1393,"lon":-11.3129,"largura_km":8.505,"eixo_na_terra":true},{"t":0.58889,"lat":39.0756,"lon":-11.1474,"largura_km":8.394,"eixo_na_terra":true},{"t":0.59444,"lat":39.0115,"lon":-10.9816,"largura_km":8.281,"eixo_na_terra":true},{"t":0.6,"lat":38.9469,"lon":-10.8156,"largura_km":8.168,"eixo_na_terra":true},{"t":0.60556,"lat":38.882,"lon":-10.6492,"largura_km":8.053,"eixo_na_terra":true},{"t":0.61111,"lat":38.8166,"lon":-10.4825,"largura_km":7.938,"eixo_na_terra":true},{"t":0.61667,"lat":38.7509,"lon":-10.3156,"largura_km":7.821,"eixo_na_terra":true},{"t":0.62222,"lat":38.6848,"lon":-10.1483,"largura_km":7.703,"eixo_na_terra":true},{"t":0.62778,"lat":38.6182,"lon":-9.9806,"largura_km":7.583,"eixo_na_terra":true},{"t":0.63333,"lat":38.5513,"lon":-9.8127,"largura_km":7.463,"eixo_na_terra":true},{"t":0.63889,"lat":38.4839,"lon":-9.6444,"largura_km":7.341,"eixo_na_terra":true},{"t":0.64444,"lat":38.4161,"lon":-9.4757,"largura_km":7.218,"eixo_na_terra":true},{"t":0.65,"lat":38.3479,"lon":-9.3067,"largura_km":7.093,"eixo_na_terra":true},{"t":0.65556,"lat":38.2793,"lon":-9.1373,"largura_km":6.968,"eixo_na_terra":true},{"t":0.66111,"lat":38.2102,"lon":-8.9676,"largura_km":6.841,"eixo_na_terra":true},{"t":0.66667,"lat":38.1408,"lon":-8.7975,"largura_km":6.713,"eixo_na_terra":true},{"t":0.67222,"lat":38.0709,"lon":-8.627,"largura_km":6.584,"eixo_na_terra":true},{"t":0.67778,"lat":38.0005,"lon":-8.4561,"largura_km":6.453,"eixo_na_terra":true},{"t":0.68333,"lat":37.9297,"lon":-8.2848,"largura_km":6.321,"eixo_na_terra":true},{"t":0.68889,"lat":37.8585,"lon":-8.1131,"largura_km":6.187,"eixo_na_terra":true},{"t":0.69444,"lat":37.7869,"lon":-7.9409,"largura_km":6.053,"eixo_na_terra":true},{"t":0.7,"lat":37.7148,"lon":-7.7684,"largura_km":5.917,"eixo_na_terra":true},{"t":0.70556,"lat":37.6422,"lon":-7.5954,"largura_km":5.779,"eixo_na_terra":true},{"t":0.71111,"lat":37.5692,"lon":-7.422,"largura_km":5.64,"eixo_na_terra":true},{"t":0.71667,"lat":37.4957,"lon":-7.2481,"largura_km":5.5,"eixo_na_terra":true},{"t":0.72222,"lat":37.4218,"lon":-7.0737,"largura_km":5.358,"eixo_na_terra":true},{"t":0.72778,"lat":37.3474,"lon":-6.8989,"largura_km":5.215,"eixo_na_terra":true},{"t":0.73333,"lat":37.2725,"lon":-6.7235,"largura_km":5.07,"eixo_na_terra":true},{"t":0.73889,"lat":37.1972,"lon":-6.5477,"largura_km":4.924,"eixo_na_terra":true},{"t":0.74444,"lat":37.1214,"lon":-6.3714,"largura_km":4.777,"eixo_na_terra":true},{"t":0.75,"lat":37.0451,"lon":-6.1946,"largura_km":4.628,"eixo_na_terra":true},{"t":0.75556,"lat":36.9683,"lon":-6.0172,"largura_km":4.477,"eixo_na_terra":true},{"t":0.76111,"lat":36.891,"lon":-5.8393,"largura_km":4.325,"eixo_na_terra":true},{"t":0.76667,"lat":36.8132,"lon":-5.6608,"largura_km":4.171,"eixo_na_terra":true},{"t":0.77222,"lat":36.735,"lon":-5.4818,"largura_km":4.016,"eixo_na_terra":true},{"t":0.77778,"lat":36.6562,"lon":-5.3022,"largura_km":3.859,"eixo_na_terra":true},{"t":0.78333,"lat":36.5769,"lon":-5.1221,"largura_km":3.701,"eixo_na_terra":true},{"t":0.78889,"lat":36.4971,"lon":-4.9413,"largura_km":3.541,"eixo_na_terra":true},{"t":0.79444,"lat":36.4168,"lon":-4.7599,"largura_km":3.379,"eixo_na_terra":true},{"t":0.8,"lat":36.3359,"lon":-4.5779,"largura_km":3.216,"eixo_na_terra":true},{"t":0.80556,"lat":36.2545,"lon":-4.3953,"largura_km":3.051,"eixo_na_terra":true},{"t":0.81111,"lat":36.1726,"lon":-4.212,"largura_km":2.884,"eixo_na_terra":true},{"t":0.81667,"lat":36.0901,"lon":-4.028,"largura_km":2.715,"eixo_na_terra":true},{"t":0.82222,"lat":36.0071,"lon":-3.8434,"largura_km":2.545,"eixo_na_terra":true},{"t":0.82778,"lat":35.9236,"lon":-3.658,"largura_km":2.373,"eixo_na_terra":true},{"t":0.83333,"lat":35.8394,"lon":-3.472,"largura_km":2.199,"eixo_na_terra":true},{"t":0.83889,"lat":35.7547,"lon":-3.2852,"largura_km":2.023,"eixo_na_terra":true},{"t":0.84444,"lat":35.6695,"lon":-3.0977,"largura_km":1.846,"eixo_na_terra":true},{"t":0.85,"lat":35.5836,"lon":-2.9095,"largura_km":1.666,"eixo_na_terra":true},{"t":0.85556,"lat":35.4972,"lon":-2.7205,"largura_km":1.485,"eixo_na_terra":true},{"t":0.86111,"lat":35.4101,"lon":-2.5306,"largura_km":1.302,"eixo_na_terra":true},{"t":0.86667,"lat":35.3225,"lon":-2.34,"largura_km":1.117,"eixo_na_terra":true},{"t":0.87222,"lat":35.2342,"lon":-2.1485,"largura_km":0.93,"eixo_na_terra":true},{"t":0.87778,"lat":35.1454,"lon":-1.9562,"largura_km":0.741,"eixo_na_terra":true},{"t":0.88333,"lat":35.0559,"lon":-1.7631,"largura_km":0.549,"eixo_na_terra":true},{"t":0.88889,"lat":34.9657,"lon":-1.569,"largura_km":0.356,"eixo_na_terra":true},{"t":0.89444,"lat":34.875,"lon":-1.374,"largura_km":0.161,"eixo_na_terra":true},{"t":0.9,"lat":34.7836,"lon":-1.1782,"largura_km":0.036,"eixo_na_terra":true},{"t":0.90556,"lat":34.6915,"lon":-0.9813,"largura_km":0.236,"eixo_na_terra":true},{"t":0.91111,"lat":34.5987,"lon":-0.7835,"largura_km":0.438,"eixo_na_terra":true},{"t":0.91667,"lat":34.5053,"lon":-0.5847,"largura_km":0.642,"eixo_na_terra":true},{"t":0.92222,"lat":34.4112,"lon":-0.3849,"largura_km":0.848,"eixo_na_terra":true},{"t":0.92778,"lat":34.3163,"lon":-0.1841,"largura_km":1.056,"eixo_na_terra":true},{"t":0.93333,"lat":34.2208,"lon":0.0178,"largura_km":1.267,"eixo_na_terra":true},{"t":0.93889,"lat":34.1246,"lon":0.2208,"largura_km":1.48,"eixo_na_terra":true},{"t":0.94444,"lat":34.0276,"lon":0.425,"largura_km":1.696,"eixo_na_terra":true},{"t":0.95,"lat":33.9298,"lon":0.6302,"largura_km":1.914,"eixo_na_terra":true},{"t":0.95556,"lat":33.8314,"lon":0.8367,"largura_km":2.135,"eixo_na_terra":true},{"t":0.96111,"lat":33.7321,"lon":1.0443,"largura_km":2.358,"eixo_na_terra":true},{"t":0.96667,"lat":33.6321,"lon":1.2532,"largura_km":2.583,"eixo_na_terra":true},{"t":0.97222,"lat":33.5312,"lon":1.4633,"largura_km":2.811,"eixo_na_terra":true},{"t":0.97778,"lat":33.4296,"lon":1.6748,"largura_km":3.042,"eixo_na_terra":true},{"t":0.98333,"lat":33.3271,"lon":1.8875,"largura_km":3.276,"eixo_na_terra":true},{"t":0.98889,"lat":33.2238,"lon":2.1017,"largura_km":3.512,"eixo_na_terra":true},{"t":0.99444,"lat":33.1197,"lon":2.3172,"largura_km":3.751,"eixo_na_terra":true},{"t":1.0,"lat":33.0147,"lon":2.5342,"largura_km":3.993,"eixo_na_terra":true},{"t":1.00556,"lat":32.9088,"lon":2.7526,"largura_km":4.238,"eixo_na_terra":true},{"t":1.01111,"lat":32.802,"lon":2.9726,"largura_km":4.485,"eixo_na_terra":true},{"t":1.01667,"lat":32.6943,"lon":3.1941,"largura_km":4.736,"eixo_na_terra":true},{"t":1.02222,"lat":32.5856,"lon":3.4172,"largura_km":4.99,"eixo_na_terra":true},{"t":1.02778,"lat":32.476,"lon":3.642,"largura_km":5.247,"eixo_na_terra":true},{"t":1.03333,"lat":32.3654,"lon":3.8685,"largura_km":5.507,"eixo_na_terra":true},{"t":1.03889,"lat":32.2538,"lon":4.0967,"largura_km":5.771,"eixo_na_terra":true},{"t":1.04444,"lat":32.1412,"lon":4.3267,"largura_km":6.038,"eixo_na_terra":true},{"t":1.05,"lat":32.0276,"lon":4.5586,"largura_km":6.308,"eixo_na_terra":true},{"t":1.05556,"lat":31.9129,"lon":4.7923,"largura_km":6.582,"eixo_na_terra":true}]},"features":[{"type":"Feature","properties":{},"geometry":{"type":"Polygon","coordinates":[[[-0.38072047160767397,34.41357985926616],[0.8475308011902882,33.837268922505196],[2.1200234590747016,33.233271625013344],[3.4446238009405192,32.598269382218994],[4.82960857066837,31.928860896509576],[4.756113243850905,31.89663899134441],[3.613899286889591,32.46260636083702],[2.7303508095462803,32.897697518421616],[1.6591405093406593,33.42141007202532],[0.8258935488911163,33.82548345418514],[-0.18930385719599485,34.31336125907712],[-1.1783398700657415,34.78344719276324],[-2.1529887450448086,35.23147737232554],[-2.9173502716772077,35.57857929578762],[-3.6690864047234015,35.91629368452883],[-4.4092500306021805,36.24505237179391],[-5.138791569448614,36.56524333893929],[-5.858572365956661,36.87721636138814],[-6.5693759017929665,37.18128774569254],[-7.271409541881695,37.47752928310306],[-7.966294766766367,37.76661370658485],[-8.65417569022378,38.04858306319795],[-9.335605575081786,38.323654217251686],[-10.011095059869604,38.59202553668141],[-10.681116532291327,38.85387876434545],[-11.346107932996631,39.10938064912952],[-12.006476077608909,39.358684373599694],[-12.662599569422326,39.601930808474286],[-13.313939741736192,39.83892461899011],[-13.962575096026171,40.0704273282124],[-14.607957728013332,40.29623274093008],[-15.250376176154447,40.516442319767094],[-15.890100979764753,40.73114963948878],[-16.527386101083408,40.94044100651725],[-17.162470201007096,41.144396015420156],[-17.952444129836522,41.39159568088373],[-18.5833502936014,41.58380107849711],[-19.212739488799656,41.77088875824332],[-19.840796857189616,41.952914805295514],[-20.467697166762292,42.12993074456322],[-21.093605500604866,42.30198384033683],[-21.718677887331467,42.46911736961096],[-22.497756377460007,42.670837175203644],[-23.121455256405113,42.82704257828391],[-23.744770284077504,42.978444827711385],[-24.367824930234576,43.125072781313776],[-24.990736192745146,43.26695240768813],[-25.612202230964584,43.403799292669184],[-26.235138042468066,43.53625326413945],[-26.858247213079096,43.66402133476363],[-27.481624482034192,43.78711936528821],[-28.10535982787553,43.905561002637604],[-28.729538755198206,44.01935778414348],[-29.50900402759123,44.15482823263666],[-30.134462098018133,44.25821187950241],[-30.917269736306395,44.38094418889604],[-31.544387987532048,44.473936285609945],[-32.17235263827368,44.562313379316876],[-32.95703632472163,44.666092669149116],[-33.744807939485014,44.76286755892673],[-34.37620722679861,44.835087850435535],[-35.16702289201254,44.918854694819636],[-35.80099222304406,44.980652718092344],[-36.593603612057024,45.051229108868846],[-37.230398227744644,45.10256891972722],[-38.02827307654863,45.16017550923161],[-38.66813459249909,45.200990108026616],[-39.30786106379631,45.2370210108187],[-39.950647098124705,45.26842565642572],[-39.94436888590013,45.406234961779134],[-39.29917515436216,45.375437224295936],[-38.814678631544496,45.34908509985799],[-38.17204153455958,45.30985051226316],[-37.53081302034951,45.265821029378195],[-37.05079145742272,45.22966074664385],[-36.41192905046299,45.177273121619294],[-35.772784979057406,45.11997876759578],[-35.1364680358181,45.05807463530399],[-34.66002392625231,45.00853541652067],[-34.02578562991974,44.93834122455894],[-33.39266903223299,44.86341937972688],[-32.76062352091731,44.78377502626339],[-32.12804929096745,44.69920083020541],[-31.497991997261806,44.610114115122826],[-30.868840292593944,44.51631153857737],[-30.240533156019808,44.41779211099813],[-29.613006420032946,44.314553173834405],[-28.98619254251014,44.20659033469564],[-28.51502222036447,44.12224697980382],[-27.88929478678037,44.00599591076284],[-27.420337421615045,43.91569414122049],[-26.795446272463693,43.79113141943467],[-26.170916636416223,43.66180180724254],[-25.54665797397547,43.52768992315522],[-25.07718860912979,43.42364523860118],[-24.453188157997943,43.281116949533356],[-23.829183410161534,43.1337520690186],[-23.20506312043159,42.98152581563198],[-22.580709690099326,42.824410552587715],[-21.955998770244577,42.662375617884464],[-21.330798835573518,42.495387139534174],[-20.703725534040757,42.32306490543252],[-20.077145431112342,42.14605389950121],[-19.449634803757363,41.9639668851802],[-18.821028452277062,41.776754968778],[-18.34874968250358,41.63295091983988],[-17.717798157896283,41.43663931449611],[-17.08524346875211,41.23504461630178],[-16.608587672182352,41.07999506755143],[-15.972753494754272,40.86899414996235],[-15.334718845457417,40.65251198037217],[-14.69423976403371,40.430464459702115],[-14.051056391641026,40.20276036894152],[-13.566728172366368,40.02821096804374],[-12.918134337132216,39.79036479278707],[-12.26602816192667,39.54656934331222],[-11.61007693201691,39.296700770693604],[-11.11461223761981,39.10493877276628],[-10.617419146076202,38.90992762980158],[-9.950278902581374,38.64427456861227],[-9.446528282377358,38.440715416405986],[-8.769968005851297,38.16340064495548],[-8.258611649387262,37.950882119989124],[-7.571136044856701,37.66131360475772],[-6.87666713757352,37.36443947279372],[-6.1745954611645,37.06001250602183],[-5.642655072076877,36.826573410920204],[-4.925643421187203,36.508259389569616],[-4.3816412137719,36.26405161453044],[-3.6470798072958246,35.93076255682679],[-2.5244772802988393,35.41398902987553],[-1.9526926282941588,35.14753954314124],[-1.1779848807522626,34.78365828910436],[-0.38072047160767397,34.41357985926616]]]}}]}