{"type":"FeatureCollection","features":[{"type":"Feature","properties":{"magnitude":0.5,"de":0.5,"ate":0.8,"percentagem":50.0},"geometry":{"type":"MultiPolygon","coordinates":[[[[-34.5,30.0],[-34.49999999999999,38.1013516914046],[-31.37999999999988,37.62228095116906],[-28.259999999999764,37.00277742505517],[-25.139999999999645,36.244504759646446],[-21.959999999999525,35.33266810077416],[-18.719999999999402,34.26608324598084],[-15.419999999999277,33.04757061804431],[-11.939999999999145,31.634048895713605],[-8.21843399139007,30.0],[-34.5,30.0]]],[[[-3.5399999999988268,44.38482569708421],[-4.259999999998854,44.67571215063586],[-4.9247394273267915,44.939999999999685],[-3.5399999999988268,44.939999999999685],[-3.5399999999988268,44.38482569708421]]]]}},{"type":"Feature","properties":{"magnitude":0.8,"de":0.8,"ate":0.95,"percentagem":80.0},"geometry":{"type":"MultiPolygon","coordinates":[[[[-8.21843399139007,30.0],[-12.119999999999152,31.710086013954008],[-15.539999999999281,33.09406374735579],[-18.839999999999407,34.307954713198065],[-22.019999999999527,35.351136394956576],[-25.199999999999648,36.26037740552822],[-28.319999999999766,37.01600675995417],[-31.439999999999884,37.63282185948594],[-34.49999999999999,38.1013516914046],[-34.5,43.13548269336231],[-32.63999999999993,42.90106046035488],[-30.77999999999986,42.62309743849452],[-28.91999999999979,42.30138292122929],[-27.059999999999718,41.93581259154763],[-25.199999999999648,41.52639217658788],[-23.339999999999577,41.0732859841396],[-21.479999999999507,40.57684447537926],[-19.619999999999436,40.03765158301433],[-15.85745625159191,38.81999999999981],[-11.999999999999147,37.40540314290074],[-7.919999999998993,35.745945701797496],[-3.5399999999988268,33.81019645803363],[-3.5399999999988268,30.0],[-8.21843399139007,30.0]]],[[[-3.5399999999988268,37.96172180972525],[-6.299999999998931,39.16228750399115],[-8.939999999999031,40.247111672522784],[-11.464705038194818,41.21999999999976],[-13.979999999999224,42.1217007140519],[-16.439999999999316,42.93497272093711],[-18.89999999999941,43.6781124382452],[-21.359999999999502,44.34974865674651],[-23.779766187558774,44.939999999999685],[-4.9247394273267915,44.939999999999685],[-3.5399999999988268,44.38482569708421],[-3.5399999999988268,37.96172180972525]]]]}},{"type":"Feature","properties":{"magnitude":0.95,"de":0.95,"ate":0.99,"percentagem":95.0},"geometry":{"type":"MultiPolygon","coordinates":[[[[-3.5399999999988268,33.81019645803363],[-8.039999999998997,35.79690237389477],[-12.05999999999915,37.4286122073686],[-15.899999999999295,38.83469352688961],[-17.819999999999368,39.475940089624274],[-19.67999999999944,40.05570459854972],[-21.53999999999951,40.59353020544757],[-23.39999999999958,41.08858030628383],[-25.25999999999965,41.54028381911806],[-27.11999999999972,41.94829062106595],[-28.97999999999979,42.312446526206074],[-30.77999999999986,42.62309743849452],[-32.63999999999993,42.90106046035488],[-34.5,43.13548269336231],[-34.5,44.50471217535113],[-32.03999999999991,44.19719168864205],[-29.639999999999816,43.826452110336575],[-27.179999999999723,43.37342986482094],[-24.77999999999963,42.85996306625019],[-22.37999999999954,42.275967388651296],[-19.919999999999447,41.60476249266024],[-17.459999999999354,40.86129673086926],[-14.999999999999261,40.047635997042434],[-12.299999999999159,39.07737174836112],[-9.479999999999052,37.983419130853875],[-6.599999999998943,36.78936964528961],[-3.5399999999988263,35.447076974046055],[-3.5399999999988268,33.81019645803363]]],[[[-3.5399999999988268,36.29530699767857],[-7.379999999998972,37.98459483469323],[-10.979999999999109,39.447535295654795],[-14.45999999999924,40.7336788400961],[-17.87999999999937,41.863868483394306],[-21.2999999999995,42.85457085234635],[-24.659999999999627,43.688649973892524],[-28.019999999999754,44.38375361522917],[-31.376335454935134,44.939999999999685],[-23.779766187558774,44.939999999999685],[-20.399999999999466,44.096209758268415],[-16.979999999999336,43.10416950210075],[-13.739999999999213,42.03868124395886],[-10.439999999999088,40.83308692757086],[-7.079999999998961,39.489616973973256],[-3.5399999999988268,37.96172180972525],[-3.5399999999988268,36.29530699767857]]]]}},{"type":"Feature","properties":{"magnitude":0.99,"de":0.99,"ate":2.0,"percentagem":99.0},"geometry":{"type":"Polygon","coordinates":[[[-7.559999999998979,37.195420198922136],[-3.5399999999988263,35.447076974046055],[-3.5399999999988268,36.29530699767857],[-4.919999999998879,36.91617495263983],[-8.399999999999011,38.41186068168686],[-11.759999999999138,39.74723899351761],[-14.999999999999261,40.92116805700379],[-18.17999999999938,41.95642503500813],[-20.75999999999948,42.70759431069003],[-23.279999999999575,43.362890514693945],[-25.79999999999967,43.94006056158294],[-28.319999999999762,44.43907154398204],[-31.376335454935134,44.939999999999685],[-34.5,44.939999999999685],[-34.5,44.50471217535113],[-32.45999999999992,44.254872898958084],[-30.479999999999848,43.96419109395718],[-28.43999999999977,43.6147224678119],[-26.459999999999695,43.226809457389194],[-24.47999999999962,42.79081338891925],[-22.439999999999543,42.291422284062214],[-20.399999999999466,41.741452809477664],[-18.35999999999939,41.1415684988572],[-14.879999999999256,40.00619688255001],[-11.27999999999912,38.690823788504645],[-7.559999999998979,37.195420198922136]]]}}]}