{"type":"FeatureCollection","properties":{"largura_maxima_km":43.081,"largura_sobre_pt_km":38.876,"linha_central_sobre_pt":false,"desenhavel_como_area":true,"perfil_largura":[{"t":1.47778,"lat":47.7652,"lon":-39.7934,"largura_km":38.585,"eixo_na_terra":true},{"t":1.48333,"lat":47.9147,"lon":-39.4889,"largura_km":38.876,"eixo_na_terra":true},{"t":1.48889,"lat":48.0649,"lon":-39.1795,"largura_km":39.172,"eixo_na_terra":true},{"t":1.49444,"lat":48.2159,"lon":-38.865,"largura_km":39.472,"eixo_na_terra":true},{"t":1.5,"lat":48.3676,"lon":-38.5453,"largura_km":39.776,"eixo_na_terra":true},{"t":1.50556,"lat":48.5202,"lon":-38.2202,"largura_km":40.085,"eixo_na_terra":true},{"t":1.51111,"lat":48.6735,"lon":-37.8895,"largura_km":40.397,"eixo_na_terra":true},{"t":1.51667,"lat":48.8277,"lon":-37.553,"largura_km":40.715,"eixo_na_terra":true},{"t":1.52222,"lat":48.9827,"lon":-37.2105,"largura_km":41.037,"eixo_na_terra":true},{"t":1.52778,"lat":49.1386,"lon":-36.8619,"largura_km":41.364,"eixo_na_terra":true},{"t":1.53333,"lat":49.2953,"lon":-36.5068,"largura_km":41.696,"eixo_na_terra":true},{"t":1.53889,"lat":49.453,"lon":-36.145,"largura_km":42.033,"eixo_na_terra":true},{"t":1.54444,"lat":49.6116,"lon":-35.7764,"largura_km":42.377,"eixo_na_terra":true},{"t":1.55,"lat":49.7712,"lon":-35.4005,"largura_km":42.726,"eixo_na_terra":true},{"t":1.55556,"lat":49.9318,"lon":-35.0172,"largura_km":43.081,"eixo_na_terra":true}]},"features":[{"type":"Feature","properties":{},"geometry":{"type":"Polygon","coordinates":[[[-39.821903482498385,47.96713583781469],[-39.20391709405746,48.27116325057786],[-38.565214734282506,48.578385285548485],[-37.90438925040766,48.88894726237001],[-37.56519946412777,49.04552969403975],[-36.868210369006476,49.361403385523005],[-36.13682328013374,49.68451386138352],[-35.38463708905624,50.00821501672433],[-34.99715894396351,50.17162328731038],[-35.026238131337124,49.69873849638705],[-35.40578468672203,49.540902270985946],[-36.13550401578172,49.23139384108975],[-36.84646258688889,48.921907080649866],[-37.532313466420135,48.6157756819755],[-37.8663594059764,48.463919924134125],[-38.51766819688493,48.1625389519832],[-39.14778866244001,47.86415487445859],[-39.75802918102093,47.568644310420304],[-39.821903482498385,47.96713583781469]]]}}]}