{"type":"FeatureCollection","features":[{"type":"Feature","properties":{"magnitude":0.4,"percentagem":40.0,"territorio":"continente"},"geometry":{"type":"LineString","coordinates":[[-10.5,36.31770077778313],[-10.488958090830515,36.31999999999999],[-10.46,36.326029528799964],[-10.420000000000002,36.334341172299524],[-10.380000000000003,36.34263559746578],[-10.340000000000003,36.35091282418544],[-10.300000000000004,36.359172872304],[-10.295986617829882,36.35999999999999],[-10.260000000000007,36.36741618876097],[-10.220000000000006,36.37564241317352],[-10.180000000000007,36.383851517641304],[-10.140000000000008,36.39204352184653],[-10.101068968112429,36.39999999999999],[-10.100000000000009,36.40021845816326],[-10.06000000000001,36.408376796401996],[-10.02000000000001,36.416518092532854],[-9.980000000000011,36.42464236607623],[-9.940000000000012,36.432749636512156],[-9.904153143636638,36.43999999999999],[-9.900000000000013,36.440839972831455],[-9.860000000000014,36.44891377180261],[-9.820000000000014,36.45697062520391],[-9.780000000000015,36.465010552355295],[-9.740000000000016,36.47303357253681],[-9.70519501486474,36.47999999999999],[-9.700000000000017,36.48103976705941],[-9.660000000000018,36.48902950813172],[-9.620000000000019,36.49700239916164],[-9.58000000000002,36.50495845927089],[-9.54000000000002,36.51289770754175],[-9.50414133516879,36.51999999999999],[-9.500000000000021,36.52082021255791],[-9.460000000000022,36.52872637195354],[-9.420000000000023,36.53661577583495],[-9.380000000000024,36.54448844312794],[-9.340000000000025,36.55234439271913],[-9.300937138554886,36.55999999999999],[-9.300000000000026,36.56018365467769],[-9.260000000000026,36.56800670353033],[-9.220000000000027,36.575813090408985],[-9.180000000000028,36.583602834045514],[-9.140000000000029,36.59137595313318],[-9.10000000000003,36.59913246632661],[-9.095516974141571,36.59999999999999],[-9.06000000000003,36.60687281712217],[-9.020000000000032,36.614596652123964],[-8.980000000000032,36.62230393625522],[-8.940000000000033,36.629994688017874],[-8.900000000000034,36.637668925875694],[-8.887824528009487,36.639999999999986],[-8.860000000000035,36.64532700128304],[-8.820000000000036,36.652968744571155],[-8.780000000000037,36.660594028396424],[-8.740000000000038,36.66820287107166],[-8.700000000000038,36.67579529087189],[-8.677800840466494,36.67999999999999],[-8.66000000000004,36.6833715191542],[-8.62000000000004,36.6909316259852],[-8.580000000000041,36.69847536380813],[-8.540000000000042,36.70600275074872],[-8.500000000000043,36.713513804895406],[-8.465383119076856,36.719999999999985],[-8.460000000000043,36.72100860875391],[-8.420000000000044,36.72848752953362],[-8.380000000000045,36.7359501708178],[-8.340000000000046,36.743396550547224],[-8.300000000000047,36.75082668662578],[-8.260000000000048,36.75824059692046],[-8.25048743176326,36.759999999999984],[-8.220000000000049,36.76563866360284],[-8.18000000000005,36.773020653026855],[-8.14000000000005,36.780386469294186],[-8.100000000000051,36.78773613012622],[-8.060000000000052,36.795069653207904],[-8.033049454374996,36.79999999999998],[-8.020000000000053,36.80238721208108],[-7.980000000000054,36.80968898959293],[-7.940000000000055,36.81697468142719],[-7.900000000000055,36.824244305124786],[-7.860000000000056,36.83149787819062],[-7.820000000000057,36.83873541809365],[-7.812996001311501,36.83999999999998],[-7.780000000000058,36.845957335509055],[-7.740000000000059,36.853163337272974],[-7.70000000000006,36.86035335729228],[-7.6600000000000605,36.86752741289388],[-7.620000000000061,36.87468552136908],[-7.59023676176263,36.87999999999998],[-7.580000000000062,36.881827821879526],[-7.540000000000063,36.88895456332265],[-7.500000000000064,36.89606540851696],[-7.460000000000065,36.90316037461333],[-7.420000000000066,36.91023947872742],[-7.3800000000000665,36.91730273793985],[-7.364691621373958,36.91999999999998],[-7.340000000000067,36.924350462503874],[-7.300000000000068,36.93138255717609],[-7.260000000000069,36.93839885718597],[-7.22000000000007,36.94539937947557],[-7.180000000000071,36.95238414095218],[-7.140000000000072,36.95935315848855],[-7.136279217501927,36.95999999999998],[-7.1000000000000725,36.96630687840431],[-7.060000000000073,36.97324493125801],[-7.020000000000074,36.980167289781235],[-6.980000000000075,36.987073970710014],[-6.940000000000076,36.993964990746115],[-6.904889493817116,36.99999999999998],[-6.900000000000077,37.000840424358806],[-6.860000000000077,37.007700644549324],[-6.820000000000078,37.01454525293701],[-6.780000000000079,37.021374266088465],[-6.74000000000008,37.02818770053644],[-6.700000000000081,37.03498557277995],[-6.670427131865887,37.03999999999998],[-6.660000000000081,37.041768022115065],[-6.620000000000083,37.04853528962117],[-6.580000000000084,37.05528704339874],[-6.540000000000084,37.062023299813475],[-6.500000000000085,37.06874407519763],[-6.460000000000086,37.075449385850135],[-6.432791674965189,37.079999999999984],[-6.420000000000087,37.0821393981554],[-6.380000000000088,37.088814296645346],[-6.340000000000089,37.09547377827411],[-6.3000000000000895,37.10211785920917],[-6.26000000000009,37.10874655558494],[-6.220000000000091,37.11535988350302],[-6.191870101510244,37.119999999999976],[-6.180000000000092,37.12195799778003],[-6.140000000000093,37.12854110361173],[-6.100000000000094,37.135108888259026],[-6.060000000000095,37.14166136769377],[-6.0200000000000955,37.148198557855316],[-5.980000000000096,37.15472047465052],[-5.947544329847923,37.159999999999975],[-5.940000000000097,37.16122722176649],[-5.900000000000098,37.167719104086956],[-5.860000000000099,37.174195759725364],[-5.8200000000001,37.18065720446063],[-5.780000000000101,37.18710345403961],[-5.7400000000001015,37.19353452417711],[-5.700000000000102,37.19995043055605],[-5.699690250423626,37.199999999999974],[-5.660000000000103,37.2063516478182],[-5.620000000000104,37.212737735323536],[-5.580000000000105,37.2191087050793],[-5.540000000000106,37.22546457264244]]}},{"type":"Feature","properties":{"magnitude":0.6,"percentagem":60.0,"territorio":"acores"},"geometry":{"type":"LineString","coordinates":[[-32.0,36.07950088836039],[-31.998964257606332,36.08],[-31.96,36.098770543502056],[-31.92,36.1180088335721],[-31.915854544897257,36.12],[-31.880000000000003,36.13721650161605],[-31.840000000000003,36.15639296474762],[-31.832465986364628,36.16],[-31.8,36.175538846825546],[-31.760000000000005,36.19465369149516],[-31.748796798432217,36.199999999999996],[-31.720000000000006,36.21373798764057],[-31.680000000000007,36.23279142151226],[-31.66484518492082,36.239999999999995],[-31.640000000000008,36.25181433066206],[-31.60000000000001,36.27080656058716],[-31.580609336962763,36.279999999999994],[-31.56000000000001,36.28976828058334],[-31.52000000000001,36.3086995126004],[-31.496087432915544,36.31999999999999],[-31.48000000000001,36.32760024019186],[-31.440000000000012,36.34647067952654],[-31.411277638274534,36.35999999999999],[-31.400000000000013,36.36531061037091],[-31.360000000000014,36.38412046143612],[-31.326178105584887,36.39999999999999],[-31.32000000000001,36.40289979010163],[-31.280000000000015,36.42164925649762],[-31.24078697435258,36.43999999999999],[-31.240000000000013,36.44036817646522],[-31.200000000000017,36.459057460979736],[-31.160000000000018,36.47771627626964],[-31.155097718126374,36.47999999999999],[-31.12000000000002,36.49634546925356],[-31.08000000000002,36.51494439917991],[-31.06911204847121,36.51999999999999],[-31.04000000000002,36.53351367379531],[-31.00000000000002,36.55205291916708],[-30.982828807044122,36.55999999999999],[-30.960000000000022,36.57056246518869],[-30.920000000000023,36.589042226003386],[-30.896246076323834,36.59999999999999],[-30.880000000000024,36.60749223212775],[-30.840000000000025,36.62591270757177],[-30.809361925259644,36.639999999999986],[-30.800000000000026,36.64430336141973],[-30.760000000000026,36.66266474986899],[-30.722174409176798,36.679999999999986],[-30.720000000000027,36.68099623798811],[-30.680000000000028,36.6992987370086],[-30.64000000000003,36.717571375527044],[-30.634676433265927,36.719999999999985],[-30.60000000000003,36.735815051224144],[-30.56000000000003,36.754029089323616],[-30.5468687334348,36.759999999999984],[-30.52000000000003,36.77221407287245],[-30.480000000000032,36.79036970614706],[-30.45875141419512,36.79999999999998],[-30.440000000000033,36.80849618043709],[-30.400000000000034,36.82659360367336],[-30.370322471244805,36.839999999999975],[-30.360000000000035,36.84466175053185],[-30.320000000000036,36.86270115770964],[-30.28157988613422,36.87999999999998],[-30.280000000000037,36.88071115790444],[-30.240000000000038,36.89869274219782],[-30.20000000000004,36.91664496960573],[-30.192514303960117,36.91999999999998],[-30.160000000000043,36.934568729218434],[-30.12000000000004,36.95246341643347],[-30.10312910143682,36.95999999999998],[-30.08000000000004,36.9703294889946],[-30.040000000000042,36.98816682722931],[-30.013423755855413,36.99999999999998],[-30.000000000000043,37.00597538989597],[-29.960000000000043,37.023755569560464],[-29.923396186811637,37.039999999999985],[-29.920000000000044,37.04150679844285],[-29.880000000000045,37.059230009146034],[-29.840000000000046,37.07692426729682],[-29.83303741268965,37.07999999999998],[-29.800000000000047,37.09459050986118],[-29.760000000000048,37.112228076610506],[-29.742348482186888,37.119999999999976],[-29.72000000000005,37.129837433741464],[-29.68000000000005,37.14741849674793],[-29.651330620271544,37.159999999999975],[-29.640000000000054,37.16497114098737],[-29.60000000000005,37.18249588711246],[-29.560000000000052,37.19999199047769],[-29.55998166430355,37.199999999999974],[-29.520000000000053,37.217460605278205],[-29.480000000000054,37.23490066536479],[-29.468287797570788,37.239999999999974],[-29.440000000000055,37.252313006994704],[-29.400000000000055,37.26969720872406],[-29.37625812813757,37.27999999999997],[-29.360000000000056,37.28705344619165],[-29.320000000000057,37.304381973692735],[-29.283890461180576,37.31999999999997],[-29.280000000000058,37.321682274983715],[-29.24000000000006,37.33895531159462],[-29.20000000000006,37.356200097364116],[-29.19117368487924,37.35999999999997],[-29.16000000000006,37.37341757194486],[-29.12000000000006,37.39060713535266],[-29.098110148913342,37.39999999999997],[-29.080000000000062,37.40776910245514],[-29.040000000000063,37.424903624914336],[-29.004701524907958,37.43999999999997],[-29.000000000000064,37.44201024903859],[-28.960000000000065,37.4590899111767],[-28.920000000000066,37.47614162267748],[-28.910936332219272,37.47999999999997],[-28.88000000000007,37.49316633747567],[-28.840000000000067,37.510163453277755],[-28.81681631231029,37.51999999999997],[-28.800000000000068,37.52713324536078],[-28.76000000000007,37.544075944179724],[-28.722343940753806,37.55999999999997],[-28.72000000000007,37.5609909746005],[-28.68000000000007,37.57787943437205],[-28.64000000000007,37.59474023955494],[-28.62750408601888,37.599999999999966],[-28.600000000000072,37.611574261069464],[-28.560000000000073,37.62838108794732],[-28.53230439180528,37.639999999999965],[-28.520000000000074,37.64516075971833],[-28.480000000000075,37.66191378432893],[-28.440000000000076,37.67863936352845],[-28.436741542917005,37.679999999999964],[-28.400000000000077,37.695338661609654],[-28.360000000000078,37.712010696546294],[-28.340803402321498,37.71999999999996],[-28.32000000000008,37.72865605094398],[-28.28000000000008,37.74527471576805],[-28.244500255384068,37.75999999999996],[-28.24000000000008,37.7618662817367],[-28.20000000000008,37.77843174982942],[-28.160000000000082,37.79497006150538],[-28.147817018463556,37.79999999999996],[-28.120000000000083,37.81148212562418],[-28.080000000000084,37.82796749474228],[-28.050758796212428,37.83999999999996],[-28.040000000000084,37.844426168309845],[-28.000000000000085,37.860858766379565],[-27.960000000000086,37.8772644122178],[-27.953320825054643,37.87999999999996],[-27.920000000000087,37.89364419908217],[-27.880000000000088,37.90999732534399],[-27.85549590477129,37.91999999999996],[-27.84000000000009,37.926324113792695],[-27.80000000000009,37.94262489012729],[-27.76000000000009,37.95889891635742],[-27.75728993666762,37.95999999999996],[-27.72000000000009,37.975147425036575],[-27.680000000000092,37.99136935012616],[-27.65868648438764,37.99999999999996],[-27.640000000000093,38.007565246832534],[-27.600000000000094,38.02373523858237],[-27.560000000000095,38.039878680307574],[-27.559698988465396,38.03999999999996],[-27.520000000000095,38.05599689603238],[-27.480000000000096,38.07208865053595],[-27.460304954903926,38.079999999999956],[-27.440000000000097,38.08815463508864],[-27.400000000000098,38.10419486833528],[-27.360521570736914,38.11999999999995],[-27.3600000000001,38.12020876667581],[-27.3200000000001,38.13619764388345],[-27.2800000000001,38.152160247359454],[-27.260325243151975,38.159999999999954],[-27.2400000000001,38.16809728567898],[-27.200000000000102,38.18400877550617],[-27.160000000000103,38.19989410937314],[-27.15973299946839,38.19999999999995],[-27.120000000000104,38.21575464012566],[-27.080000000000105,38.23158910117701],[-27.058720773161276,38.23999999999995],[-27.040000000000106,38.24739814563746],[-27.000000000000107,38.26318189620411],[-26.960000000000107,38.27893968481923],[-26.9573047458991,38.27999999999995],[-26.92000000000011,38.294672796479915],[-26.88000000000011,38.310380112828184],[-26.85546445609279,38.31999999999995],[-26.84000000000011,38.326062102380426],[-26.80000000000011,38.34171910699558],[-26.76000000000011,38.35735034166895],[-26.753209986791198,38.35999999999995],[-26.720000000000113,38.372956965324065],[-26.680000000000113,38.38853812388549],[-26.650528679889646,38.39999999999995],[-26.640000000000114,38.404093984182055],[-26.600000000000115,38.41962522538162],[-26.560000000000116,38.435130886663174],[-26.547420813666363,38.43999999999995],[-26.520000000000117,38.450611940173346],[-26.480000000000118,38.466067917136606],[-26.44388529863696,38.47999999999995],[-26.44000000000012,38.48149856065771],[-26.40000000000012,38.49690501028293],[-26.36000000000012,38.512286068041185],[-26.339908778044112,38.51999999999994],[-26.32000000000012,38.5276424561681],[-26.280000000000122,38.54297421707369],[-26.240000000000123,38.55828069844945],[-26.23550067287762,38.559999999999945],[-26.200000000000124,38.57356316253194],[-26.160000000000124,38.588820576034266],[-26.130644880323693,38.599999999999945],[-26.120000000000125,38.60405319056865],[-26.080000000000126,38.61926169038976],[-26.040000000000127,38.63444509561282],[-26.025344190549788,38.639999999999944],[-26.000000000000128,38.6496043253715],[-25.96000000000013,38.66473904336585],[-25.92000000000013,38.67984877725098],[-25.919599113371877,38.67999999999994],[-25.88000000000013,38.694934946480956],[-25.84000000000013,38.70999621810234],[-25.813390224108538,38.71999999999994],[-25.800000000000136,38.72503308495944],[-25.760000000000133,38.74004604575725],[-25.720000000000134,38.75503420429373],[-25.706727860297207,38.75999999999994],[-25.680000000000135,38.769998537954365],[-25.640000000000136,38.7849386081377],[-25.600000000000136,38.799853984721466],[-25.59960787191542,38.79999999999994],[-25.560000000000137,38.81474610243872],[-25.520000000000138,38.82961361167136],[-25.49201209069456,38.83999999999995],[-25.48000000000014,38.84445696114074],[-25.44000000000014,38.85927675174712],[-25.40000000000014,38.87407202755422],[-25.383949315681917,38.87999999999994],[-25.36000000000014,38.88884367666478],[-25.320000000000142,38.90359145238599],[-25.280000000000143,38.91831482016434],[-25.275415229556028,38.91999999999994],[-25.240000000000144,38.933015079285354],[-25.200000000000145,38.947691164069106],[-25.166397752580686,38.95999999999994],[-25.160000000000146,38.96234317623373],[-25.120000000000147,38.97697212406989],[-25.080000000000148,38.991576839753044],[-25.056894554445826,38.999999999999936],[-25.04000000000015,39.00615796595533],[-25.00000000000015,39.02071575935405],[-24.96000000000015,39.03524942567297],[-24.946905893520853,39.039999999999935],[-24.92000000000015,39.04975996950922],[-24.88000000000015,39.06424692677754],[-24.840000000000153,39.078709861378606],[-24.836426785145065,39.079999999999934],[-24.800000000000153,39.09315012395777],[-24.760000000000154,39.10756656132009],[-24.725445922083136,39.11999999999993],[-24.720000000000155,39.121959277170646],[-24.680000000000156,39.13632935972905],[-24.640000000000157,39.15067559133762],[-24.613960873578375,39.15999999999993],[-24.600000000000158,39.16499851441794],[-24.56000000000016,39.17929860065287],[-24.52000000000016,39.19357493859843],[-24.501970568748547,39.19999999999993],[-24.48000000000016,39.20782836339698],[-24.44000000000016,39.222058763997296],[-24.400000000000162,39.23626551831971],[-24.389469783516006,39.23999999999993],[-24.360000000000163,39.25044973689386],[-24.320000000000164,39.26461076050501],[-24.280000000000165,39.278748239203914],[-24.276453229097232,39.27999999999993],[-24.240000000000165,39.292863541195146],[-24.200000000000166,39.30695549442983],[-24.16291215003757,39.31999999999993],[-24.160000000000167,39.3210241104064],[-24.120000000000168,39.33507067612438],[-24.08000000000017,39.34909386357339],[-24.048840968487877,39.35999999999993],[-24.040000000000173,39.363094032221]]}}]}