{"type":"FeatureCollection","features":[{"type":"Feature","properties":{"magnitude":0.6,"percentagem":60.0,"territorio":"acores"},"geometry":{"type":"LineString","coordinates":[[-28.74119108173224,40.479999999999905],[-28.72000000000007,40.47806740785379],[-28.68000000000007,40.47441201693728],[-28.64000000000007,40.4707490005045],[-28.600000000000072,40.46707836340572],[-28.560000000000073,40.46340011048701],[-28.520000000000074,40.45971424659023],[-28.480000000000075,40.45602077655294],[-28.440000000000076,40.452319705208595],[-28.400000000000077,40.44861103738634],[-28.360000000000078,40.44489477791122],[-28.32000000000008,40.441170931604006],[-28.307447017199493,40.439999999999905],[-28.28000000000008,40.43744023917276],[-28.24000000000008,40.43370230869513],[-28.20000000000008,40.42995680853707],[-28.160000000000082,40.426203743504665],[-28.120000000000083,40.42244311839981],[-28.080000000000084,40.4186749380203],[-28.040000000000084,40.41489920715974],[-28.000000000000085,40.411115930607686],[-27.960000000000086,40.4073251131495],[-27.920000000000087,40.40352675956646],[-27.882933338478637,40.399999999999906],[-27.880000000000088,40.39972095492278],[-27.84000000000009,40.39590864059846],[-27.80000000000009,40.39208880719269],[-27.76000000000009,40.38826145947233],[-27.72000000000009,40.384426602200215],[-27.680000000000092,40.38058424013509],[-27.640000000000093,40.37673437803166],[-27.600000000000094,40.37287702064055],[-27.560000000000095,40.36901217270838],[-27.520000000000095,40.36513983897769],[-27.480000000000096,40.361260024187025],[-27.467033515634256,40.35999999999991],[-27.440000000000097,40.35737348963441],[-27.400000000000098,40.353479848971276],[-27.3600000000001,40.34957874417623],[-27.3200000000001,40.345670179973794],[-27.2800000000001,40.34175416108451],[-27.2400000000001,40.33783069222489],[-27.200000000000102,40.333899778107536],[-27.160000000000103,40.32996142344102],[-27.120000000000104,40.32601563292998],[-27.08000000000011,40.32206241127506],[-27.059169931010885,40.31999999999991],[-27.040000000000106,40.31810231031718],[-27.000000000000107,40.31413538465846],[-26.960000000000107,40.31016104468183],[-26.92000000000011,40.30617929507427],[-26.88000000000011,40.302190140518896],[-26.84000000000011,40.29819358569482],[-26.80000000000011,40.29418963527729],[-26.76000000000011,40.290178293937664],[-26.72000000000011,40.28615956634341],[-26.680000000000113,40.28213345715807],[-26.658841504038964,40.27999999999991],[-26.640000000000114,40.2781005192512],[-26.600000000000115,40.27406082721982],[-26.560000000000116,40.270013770324],[-26.520000000000117,40.26595935321392],[-26.480000000000118,40.26189758053599],[-26.44000000000012,40.257828456932685],[-26.40000000000012,40.25375198704269],[-26.36000000000012,40.24966817550087],[-26.32000000000012,40.24557702693821],[-26.280000000000122,40.241478545981906],[-26.265594597806228,40.23999999999991],[-26.240000000000123,40.23737349609507],[-26.200000000000124,40.2332615527618],[-26.160000000000124,40.229142293664914],[-26.120000000000125,40.22501572341855],[-26.080000000000126,40.22088184663309],[-26.040000000000127,40.21674066791512],[-26.000000000000128,40.21259219186747],[-25.96000000000013,40.208436423089175],[-25.92000000000013,40.20427336617554],[-25.880000000000134,40.200103025718086],[-25.879013444301588,40.19999999999991],[-25.84000000000013,40.19592658449379],[-25.800000000000132,40.19174290146121],[-25.760000000000133,40.18755195142083],[-25.720000000000134,40.18335373895143],[-25.680000000000135,40.17914826862811],[-25.640000000000136,40.17493554502222],[-25.600000000000136,40.17071557270145],[-25.56000000000014,40.166488356229735],[-25.520000000000135,40.16225390016731],[-25.49874420939576,40.15999999999991],[-25.48000000000014,40.1580127843593],[-25.44000000000014,40.15376509298036],[-25.40000000000014,40.149510178464006],[-25.36000000000014,40.145248045358066],[-25.320000000000142,40.14097869820663],[-25.280000000000143,40.13670214155019],[-25.240000000000144,40.13241837992557],[-25.200000000000145,40.12812741786591],[-25.160000000000146,40.12382925990077],[-25.124422816523293,40.11999999999991],[-25.120000000000147,40.1195240484697],[-25.080000000000148,40.115212761925065],[-25.04000000000015,40.110894295847565],[-25.00000000000015,40.106568654754476],[-24.96000000000015,40.102235843159505],[-24.92000000000015,40.097895865572795],[-24.88000000000015,40.09354872650084],[-24.840000000000153,40.089194430446575],[-24.800000000000153,40.084832981909315],[-24.760000000000154,40.080464385384815],[-24.75575450208114,40.07999999999991],[-24.720000000000155,40.076089779843905],[-24.680000000000156,40.07170817276815],[-24.640000000000157,40.067319433990626],[-24.600000000000158,40.06292356799517],[-24.56000000000016,40.05852057926204],[-24.52000000000016,40.05411047226798],[-24.48000000000016,40.04969325148616],[-24.44000000000016,40.04526892138627],[-24.400000000000162,40.04083748643444],[-24.392451928699412,40.03999999999992],[-24.360000000000163,40.03639999663577],[-24.320000000000164,40.03195565682272],[-24.280000000000165,40.0275042283665],[-24.240000000000165,40.02304571572156],[-24.200000000000166,40.01858012333885],[-24.160000000000167,40.01410745566582],[-24.120000000000168,40.00962771714646],[-24.08000000000017,40.00514091222121],[-24.04000000000017,40.00064704532711]]}}]}