{"type":"FeatureCollection","properties":{"largura_maxima_km":170.461,"largura_sobre_pt_km":170.461,"linha_central_sobre_pt":false,"desenhavel_como_area":true,"perfil_largura":[{"t":-1.52778,"lat":24.7374,"lon":-9.2898,"largura_km":null,"eixo_na_terra":false},{"t":-1.52222,"lat":24.9257,"lon":-8.5092,"largura_km":null,"eixo_na_terra":false},{"t":-1.51667,"lat":25.0418,"lon":-8.1812,"largura_km":null,"eixo_na_terra":false},{"t":-1.51111,"lat":25.2175,"lon":-7.2766,"largura_km":null,"eixo_na_terra":false},{"t":-1.50556,"lat":25.3146,"lon":-6.8646,"largura_km":null,"eixo_na_terra":false},{"t":-1.5,"lat":25.4301,"lon":-6.3571,"largura_km":null,"eixo_na_terra":false},{"t":-1.49444,"lat":25.498,"lon":-6.0607,"largura_km":null,"eixo_na_terra":false},{"t":-1.48889,"lat":25.619,"lon":-5.4998,"largura_km":null,"eixo_na_terra":false},{"t":-1.48333,"lat":25.808,"lon":-4.5801,"largura_km":null,"eixo_na_terra":false},{"t":-1.47778,"lat":26.3485,"lon":-1.7864,"largura_km":170.461,"eixo_na_terra":true},{"t":-1.47222,"lat":26.5016,"lon":-0.9094,"largura_km":169.529,"eixo_na_terra":true},{"t":-1.46667,"lat":26.6381,"lon":-0.0982,"largura_km":168.671,"eixo_na_terra":true},{"t":-1.46111,"lat":26.7609,"lon":0.6594,"largura_km":167.869,"eixo_na_terra":true},{"t":-1.45556,"lat":26.8724,"lon":1.3725,"largura_km":167.114,"eixo_na_terra":true},{"t":-1.45,"lat":26.9742,"lon":2.0478,"largura_km":166.401,"eixo_na_terra":true},{"t":-1.44444,"lat":27.0676,"lon":2.6903,"largura_km":165.726,"eixo_na_terra":true},{"t":-1.43889,"lat":27.1537,"lon":3.3041,"largura_km":165.081,"eixo_na_terra":true},{"t":-1.43333,"lat":27.2332,"lon":3.8926,"largura_km":164.463,"eixo_na_terra":true},{"t":-1.42778,"lat":27.3068,"lon":4.4585,"largura_km":163.868,"eixo_na_terra":true}]},"features":[{"type":"Feature","properties":{},"geometry":{"type":"Polygon","coordinates":[[[-12.319921188497801,24.881242369022797],[-11.039030103295598,25.175434735715527],[-11.047864272178913,25.242302927078665],[-10.222665936600265,25.432279427399898],[-9.601542651226907,25.571638597276642],[-8.934091264086298,25.716849654241003],[-8.283260690346538,25.862427583341763],[-7.5581464557429285,26.018455751215416],[-7.228937031228952,26.086826822346765],[-6.774741067337999,26.178013504409787],[-6.39316523897736,26.259488279051535],[-5.866085331206364,26.367326202571522],[-5.615453642368152,26.416579557436155],[-5.231077326759744,26.48914811933704],[-4.957311526574927,26.545444765820776],[-4.523370284643818,26.630600630651198],[-4.313336143203344,26.669973992037676],[-3.966401553332761,26.7320448611987],[-3.5650430064572447,26.81056841097741],[-3.193724081709547,26.8784496291579],[-2.8341401563640147,26.93954345837691],[-2.523638994949117,26.98825018963883],[-2.531693852956323,26.99761070692797],[-1.52172668560479,27.173305039482905],[-0.670993415202588,27.315124333582723],[0.11981834157751337,27.44201605500326],[0.8613378294490985,27.556589627938777],[1.6208355189467625,27.6697282863402],[2.2825446559617717,27.76428900841949],[2.913696900504249,27.851141902522222],[3.5179332324726147,27.931185988647506],[4.098221745042565,28.005155163329366],[4.679540013686619,26.59238570259611],[4.122451956538612,26.517793773496475],[3.5433855884188006,26.437407391427424],[2.9397548604197823,26.350562798306765],[2.308419906735253,26.25645518562215],[1.645505282613044,26.15409255004089],[0.9461334687043745,26.042228075211277],[0.2040196980460678,25.91925738422748],[-0.5891718319551842,25.783055373261515],[-1.3672105943026622,25.644369511888826],[-1.3765473523718699,25.6552197199562],[-1.7217852754188243,25.583570209788398],[-2.0437978576944715,25.52051291085191],[-2.3797347693295023,25.457992281561708],[-2.6690831668314776,25.406556365491483],[-3.229214681931353,25.294757533092497],[-3.7270953807223277,25.201111839872734],[-4.386731269378004,25.064927567699847],[-4.942194097069729,24.955393151614253],[-5.499951266876337,24.835132626098076],[-6.410424185446585,24.64500117480243],[-7.173617663696234,24.473828567143123],[-8.403262461930716,24.201052889662705],[-9.827912142465891,23.864149678639894],[-10.671626805258597,23.661779125949195],[-10.67467510987135,23.68323187716228],[-10.83689006075275,23.64538259097589],[-10.8418703947147,23.683080073197328],[-10.963251897856082,23.652050204662622],[-10.97496544990832,23.752667349347938],[-11.181389356644047,23.69801910791204],[-11.184035021466286,23.727334321259654],[-11.34270512085908,23.69211129196071],[-11.357046495918771,23.855726337605525],[-11.54451566366697,23.81580424261366],[-11.56534311805437,24.147392677948183],[-11.79938835166979,24.105696342650855],[-11.806324532395838,24.52219880532156],[-12.319921188497801,24.881242369022797]]]}}]}