{"type":"FeatureCollection","features":[{"type":"Feature","properties":{"magnitude":0.2,"de":0.2,"ate":0.5,"percentagem":20.0},"geometry":{"type":"Polygon","coordinates":[[[-27.09325467553748,30.0],[-21.852611377979706,30.000000000000004],[-22.090317377876314,31.739999999999963],[-22.211324590978105,33.299999999999926],[-22.2177696859983,34.6799999999999],[-22.11024173499539,35.879999999999875],[-21.888524198094732,36.89999999999985],[-21.74357033997283,37.31999999999984],[-21.552029718537977,37.73999999999984],[-21.335420787417156,38.099999999999824],[-21.10032330971238,38.39999999999982],[-20.81999999999948,38.67198764033225],[-20.533085984539895,38.87999999999981],[-20.159999999999457,39.07194305508531],[-19.73999999999944,39.20785007521823],[-16.379999999999313,40.01904430737794],[-13.079999999999188,40.753402747750684],[-8.279999999999006,41.70431704230947],[-3.5399999999988268,42.49832075676257],[-3.5399999999988268,44.939999999999685],[-29.605752606661504,44.939999999999685],[-29.613076064576617,43.73999999999971],[-29.53237672014184,42.41999999999973],[-29.365109938484856,40.91999999999977],[-29.10233861649546,39.17999999999981],[-28.740931113016583,37.19999999999985],[-28.27943156940556,34.97999999999989],[-27.730386904661593,32.57999999999994],[-27.09325467553748,30.0]]]}},{"type":"Feature","properties":{"magnitude":0.5,"de":0.5,"ate":0.8,"percentagem":50.0},"geometry":{"type":"Polygon","coordinates":[[[-21.852611377979706,30.000000000000004],[-13.138152187259113,30.0],[-8.279999999999006,31.105688197412384],[-3.5399999999988268,32.039816330804925],[-3.5399999999988268,42.49832075676257],[-8.459999999999013,41.67126631176339],[-13.499999999999202,40.66349046753409],[-16.619999999999322,39.963184140153],[-19.799999999999443,39.19263186133173],[-20.21999999999946,39.04613795412002],[-20.624809418611846,38.81999999999981],[-20.924132176475542,38.579999999999814],[-21.179999999999495,38.30699096998903],[-21.41432010670528,37.97999999999983],[-21.59999999999951,37.64565364630717],[-21.90619774489634,36.839999999999854],[-22.118937147960896,35.81999999999988],[-22.219988243941867,34.619999999999905],[-22.20864624982419,33.23999999999993],[-22.08375625941053,31.679999999999964],[-21.852611377979706,30.000000000000004]]]}},{"type":"Feature","properties":{"magnitude":0.8,"de":0.8,"ate":0.95,"percentagem":80.0},"geometry":{"type":"Polygon","coordinates":[[[-13.138152187259113,30.0],[-3.5399999999988268,30.0],[-3.5399999999988268,32.039816330804925],[-8.279999999999006,31.105688197412384],[-13.138152187259113,30.0]]]}}]}