{"type":"FeatureCollection","features":[{"type":"Feature","properties":{"magnitude":0.4,"percentagem":40.0,"territorio":"continente"},"geometry":{"type":"LineString","coordinates":[[-5.540000000000106,42.62133384162706],[-5.580000000000105,42.62516053691457],[-5.620000000000104,42.62897276354697],[-5.660000000000103,42.63277051680976],[-5.700000000000102,42.636553791988206],[-5.736575835046164,42.63999999999986],[-5.7400000000001015,42.64032267307289],[-5.780000000000101,42.64407801034077],[-5.8200000000001,42.6478188514494],[-5.860000000000099,42.65154519168331],[-5.900000000000098,42.65525702632665],[-5.940000000000097,42.65895435066319],[-5.980000000000096,42.6626371599762],[-6.0200000000000955,42.66630544954854],[-6.060000000000095,42.669959214662526],[-6.100000000000094,42.673598450599954],[-6.140000000000092,42.67722315264207],[-6.1707660680293195,42.67999999999986],[-6.180000000000092,42.68083354575164],[-6.220000000000091,42.68443015692609],[-6.26000000000009,42.68801221610384],[-6.3000000000000895,42.69157971856363],[-6.340000000000089,42.695132659583436],[-6.380000000000088,42.69867103444049],[-6.420000000000087,42.702194838411145],[-6.460000000000085,42.70570406677099],[-6.500000000000085,42.70919871479472],[-6.540000000000084,42.7126787777561],[-6.580000000000084,42.71614425092801],[-6.620000000000082,42.71959512958233],[-6.624712365800625,42.71999999999986],[-6.660000000000082,42.72303224657047],[-6.700000000000081,42.726454867486765],[-6.74000000000008,42.729862875738434],[-6.780000000000079,42.73325626659292],[-6.820000000000078,42.73663503531654],[-6.860000000000078,42.739999177174454],[-6.900000000000077,42.74334868743056],[-6.940000000000076,42.74668356134758],[-6.980000000000075,42.75000379418689],[-7.020000000000074,42.753309381208595],[-7.060000000000073,42.75660031767146],[-7.1000000000000725,42.759876598832854],[-7.1015131939994705,42.759999999999856],[-7.140000000000072,42.763139089249464],[-7.180000000000071,42.76638694508151],[-7.22000000000007,42.76962012740053],[-7.260000000000069,42.77283863145756],[-7.300000000000068,42.776042452502104],[-7.340000000000067,42.77923158578204],[-7.3800000000000665,42.78240602654365],[-7.420000000000066,42.785565770031525],[-7.460000000000065,42.7887108114886],[-7.500000000000064,42.79184114615608],[-7.540000000000063,42.79495676927342],[-7.580000000000062,42.798057676078336],[-7.605173326934225,42.799999999999855],[-7.620000000000061,42.80114417949527],[-7.6600000000000605,42.80421649249245],[-7.70000000000006,42.807274070882315],[-7.740000000000059,42.81031690989429],[-7.780000000000058,42.813345004755774],[-7.820000000000057,42.81635835069221],[-7.860000000000056,42.81935694292696],[-7.9000000000000545,42.82234077668136],[-7.940000000000055,42.82530984717461],[-7.980000000000054,42.82826414962379],[-8.020000000000053,42.831203679243835],[-8.060000000000052,42.834128431247436],[-8.100000000000051,42.837038400845074],[-8.14000000000005,42.83993358324497],[-8.14092222852602,42.839999999999854],[-8.18000000000005,42.842814757401065],[-8.220000000000049,42.84568114924373],[-8.260000000000048,42.84853273547583],[-8.300000000000047,42.851369511295054],[-8.340000000000046,42.854191471896655],[-8.380000000000045,42.856998612473404],[-8.420000000000044,42.859790928215546],[-8.460000000000043,42.86256841431079],[-8.500000000000043,42.86533106594423],[-8.540000000000042,42.86807887829838],[-8.580000000000041,42.870811846553046],[-8.62000000000004,42.873529965885425],[-8.66000000000004,42.87623323146994],[-8.700000000000038,42.87892163847828],[-8.716132786048806,42.87999999999985],[-8.740000000000038,42.8815956276692],[-8.780000000000037,42.88425504576995],[-8.820000000000036,42.886899586738764],[-8.860000000000035,42.88952924573465],[-8.900000000000034,42.89214401791359],[-8.940000000000033,42.89474389842866],[-8.980000000000032,42.8973288824299],[-9.020000000000032,42.89989896506434],[-9.06000000000003,42.902454141475936],[-9.10000000000003,42.904994406805514],[-9.140000000000029,42.90751975619079],[-9.180000000000028,42.91003018476631],[-9.220000000000027,42.91252568766342],[-9.260000000000026,42.915006260010216],[-9.300000000000026,42.91747189693154],[-9.340000000000023,42.91992259354893],[-9.341271047834852,42.91999999999986],[-9.380000000000024,42.92235900582542],[-9.420000000000023,42.92478048563047],[-9.460000000000022,42.927187006384955],[-9.500000000000021,42.929578563195165],[-9.54000000000002,42.93195515116392],[-9.58000000000002,42.934316765390534],[-9.620000000000019,42.93666340097076],[-9.660000000000018,42.938995052996745],[-9.700000000000017,42.94131171655705],[-9.740000000000016,42.94361338673656],[-9.780000000000015,42.94590005861651],[-9.820000000000014,42.94817172727436],[-9.860000000000014,42.95042838778389],[-9.900000000000013,42.952670035215014],[-9.940000000000012,42.95489666463391],[-9.98000000000001,42.957108271102854],[-10.02000000000001,42.95930484968025],[-10.03274520187256,42.95999999999985]]}},{"type":"Feature","properties":{"magnitude":0.6,"percentagem":60.0,"territorio":"continente"},"geometry":{"type":"LineString","coordinates":[[-5.540000000000106,36.30125021923986],[-5.580000000000105,36.305783081758484],[-5.620000000000104,36.31029986281959],[-5.660000000000103,36.31480055364115],[-5.700000000000102,36.319285145444866],[-5.706398361484273,36.31999999999999],[-5.7400000000001015,36.32375435376588],[-5.780000000000101,36.32820758014096],[-5.8200000000001,36.33264467784663],[-5.860000000000099,36.337065638121864],[-5.900000000000098,36.34147045220925],[-5.940000000000097,36.34585911135497],[-5.9800000000000955,36.350231606808784],[-6.0200000000000955,36.354587929824],[-6.060000000000095,36.358928071657466],[-6.069915216757449,36.35999999999999],[-6.100000000000094,36.36325265196578],[-6.140000000000093,36.367561237438444],[-6.180000000000092,36.371853612188204],[-6.220000000000091,36.376129767488116],[-6.26000000000009,36.38038969461468],[-6.3000000000000895,36.384633384847774],[-6.34000000000009,36.38886082947069],[-6.380000000000088,36.393072019770024],[-6.420000000000087,36.39726694703578],[-6.446160875456409,36.39999999999999],[-6.460000000000086,36.401445882320324],[-6.500000000000085,36.40560906280144],[-6.540000000000084,36.40975595080954],[-6.580000000000084,36.413886537649695],[-6.620000000000083,36.41800081463023],[-6.660000000000082,36.42209877306263],[-6.700000000000081,36.42618040426159],[-6.740000000000079,36.430245699544926],[-6.780000000000079,36.434294650233625],[-6.820000000000078,36.438327247651756],[-6.83665869337224,36.43999999999999],[-6.860000000000078,36.442343937335394],[-6.900000000000077,36.44634457731981],[-6.940000000000076,36.45032883469805],[-6.980000000000075,36.45429670080808],[-7.020000000000074,36.45824816699087],[-7.060000000000073,36.46218322459035],[-7.100000000000072,36.46610186495334],[-7.140000000000072,36.470004079429664],[-7.180000000000071,36.47388985937198],[-7.22000000000007,36.47775919613586],[-7.243262468509563,36.47999999999999],[-7.260000000000069,36.48161239404309],[-7.300000000000068,36.485449563223916],[-7.340000000000067,36.489270259983634],[-7.3800000000000665,36.493074475690435],[-7.420000000000066,36.49686220171526],[-7.460000000000065,36.50063342943174],[-7.500000000000064,36.50438815021624],[-7.540000000000063,36.508126355447786],[-7.580000000000062,36.511848036508034],[-7.620000000000061,36.51555318478132],[-7.6600000000000605,36.51924179165456],[-7.6682584540601395,36.51999999999999],[-7.70000000000006,36.52291441515399],[-7.740000000000059,36.52657062416092],[-7.780000000000058,36.530210262615824],[-7.820000000000057,36.533833321916866],[-7.860000000000056,36.53743979346467],[-7.900000000000055,36.5410296686623],[-7.940000000000055,36.54460293891523],[-7.980000000000054,36.548159595631375],[-8.020000000000053,36.551699630220995],[-8.060000000000052,36.555223034096734],[-8.100000000000051,36.558729798673546],[-8.114556645706717,36.55999999999999],[-8.14000000000005,36.56222034784655],[-8.18000000000005,36.56569448469706],[-8.220000000000049,36.56915195317409],[-8.260000000000048,36.572592744702405],[-8.300000000000047,36.57601685070895],[-8.340000000000046,36.579424262622865],[-8.380000000000045,36.5828149718754],[-8.420000000000044,36.58618896989995],[-8.460000000000043,36.58954624813199],[-8.500000000000043,36.592886798009076],[-8.540000000000042,36.59621061097081],[-8.580000000000041,36.59951767845883],[-8.585862988276023,36.59999999999999],[-8.62000000000004,36.602808539997014],[-8.66000000000004,36.60608272975686],[-8.700000000000038,36.60934014503883],[-8.740000000000038,36.61258077729276],[-8.780000000000037,36.615804617970426],[-8.820000000000036,36.619011658525416],[-8.860000000000035,36.622201890413166],[-8.900000000000034,36.62537530509091],[-8.940000000000033,36.628531894017684],[-8.980000000000032,36.631671648654255],[-9.020000000000032,36.634794560463135],[-9.06000000000003,36.63790062090857],[-9.08718255258377,36.639999999999986],[-9.10000000000003,36.64099001504798],[-9.140000000000029,36.64406294802473],[-9.180000000000028,36.64711900068852],[-9.220000000000027,36.6501581645102],[-9.260000000000026,36.653180430962244],[-9.300000000000026,36.65618579151863],[-9.340000000000025,36.65917423765487],[-9.380000000000024,36.662145760847956],[-9.420000000000023,36.66510035257633],[-9.460000000000022,36.66803800431989],[-9.500000000000021,36.67095870755996],[-9.54000000000002,36.673862453779215],[-9.580000000000018,36.676749234461724],[-9.620000000000019,36.679619041092906],[-9.625341041122319,36.679999999999986],[-9.660000000000018,36.68247234962359],[-9.700000000000017,36.685308738377884],[-9.740000000000016,36.688128124177695],[-9.780000000000015,36.69093049851325],[-9.820000000000014,36.69371585287598],[-9.860000000000014,36.69648417875852],[-9.900000000000013,36.6992354676546],[-9.940000000000012,36.70196971105909],[-9.980000000000011,36.70468690046796],[-10.02000000000001,36.707387027378225],[-10.06000000000001,36.710070083287945],[-10.100000000000009,36.71273605969622],[-10.140000000000008,36.715384948103114],[-10.180000000000007,36.718016740009666],[-10.210339622017123,36.719999999999985],[-10.220000000000006,36.72063155095005],[-10.260000000000005,36.723229634593466],[-10.300000000000004,36.72581059285899],[-10.340000000000003,36.728374417250734],[-10.380000000000003,36.730921099273594],[-10.420000000000002,36.733450630433296],[-10.46,36.735963002236275],[-10.5,36.738458206189776]]}},{"type":"Feature","properties":{"magnitude":0.6,"percentagem":60.0,"territorio":"acores"},"geometry":{"type":"LineString","coordinates":[[-24.04000000000017,36.54096549775752],[-24.08000000000017,36.53713971702283],[-24.120000000000168,36.53329384285884],[-24.160000000000167,36.52942786661616],[-24.200000000000166,36.525541779650055],[-24.240000000000165,36.52163557332049],[-24.256663458647644,36.51999999999999],[-24.280000000000165,36.517709678455574],[-24.320000000000164,36.51376396447184],[-24.36000000000016,36.50979810893983],[-24.400000000000162,36.505812103238455],[-24.44000000000016,36.50180593875178],[-24.48000000000016,36.497779606869074],[-24.52000000000016,36.49373309898493],[-24.56000000000016,36.48966640649933],[-24.600000000000158,36.48557952081772],[-24.640000000000157,36.48147243335112],[-24.654271057739834,36.47999999999999],[-24.680000000000156,36.477345642789146],[-24.720000000000155,36.47319891834439],[-24.760000000000154,36.46903197007126],[-24.800000000000153,36.4648447894031],[-24.840000000000153,36.460637367779235],[-24.88000000000015,36.45640969664505],[-24.92000000000015,36.45216176745219],[-24.96000000000015,36.447893571658526],[-25.00000000000015,36.443605100728306],[-25.033468225905445,36.43999999999999],[-25.04000000000015,36.4392964800484],[-25.080000000000148,36.43496825703777],[-25.120000000000147,36.430619736995006],[-25.160000000000146,36.4262509114099],[-25.200000000000145,36.421861771779035],[-25.240000000000144,36.41745230960598],[-25.280000000000143,36.41302251640127],[-25.320000000000142,36.408572383682646],[-25.36000000000014,36.404101902974986],[-25.396536084683525,36.39999999999999],[-25.40000000000014,36.39961113953272],[-25.44000000000014,36.39510079243486],[-25.48000000000014,36.39057007562201],[-25.520000000000135,36.38601898064802],[-25.560000000000137,36.38144749907441],[-25.600000000000136,36.3768556224706],[-25.640000000000136,36.37224334241381],[-25.680000000000135,36.367610650489375],[-25.720000000000134,36.36295753829067],[-25.745314062638215,36.35999999999999],[-25.760000000000133,36.358284321358475],[-25.800000000000132,36.35359122938142],[-25.840000000000135,36.348877695597004],[-25.88000000000013,36.344143711631126],[-25.92000000000013,36.33938926911838],[-25.96000000000013,36.33461435970203],[-26.000000000000128,36.32981897503424],[-26.040000000000127,36.325003106776094],[-26.080000000000126,36.32016674659773],[-26.081373439805894,36.31999999999999],[-26.120000000000125,36.31531076789406],[-26.160000000000124,36.310434315609015],[-26.200000000000124,36.30553735008809],[-26.240000000000123,36.30061986303775],[-26.280000000000122,36.295681846174034],[-26.32000000000012,36.290723291222704],[-26.36000000000012,36.28574418991931],[-26.40000000000012,36.28074453400937],[-26.40593288835863,36.279999999999994],[-26.44000000000012,36.27572511579348],[-26.480000000000118,36.270685269513095],[-26.520000000000117,36.265624847524165],[-26.560000000000116,36.260543841612005],[-26.600000000000115,36.255442243572446],[-26.640000000000114,36.25032004521191],[-26.680000000000113,36.245177238347516],[-26.720000000000113,36.24001381480722],[-26.7201066079584,36.239999999999995],[-26.76000000000011,36.23483073049778],[-26.80000000000011,36.22962701936172],[-26.84000000000011,36.22440267068292],[-26.88000000000011,36.2191576763329],[-26.92000000000011,36.21389202819453],[-26.960000000000107,36.20860571816224],[-27.000000000000107,36.2032987381421],[-27.024768101198685,36.199999999999996],[-27.040000000000106,36.19797145686276],[-27.080000000000105,36.192624105736456],[-27.120000000000104,36.187256063978],[-27.160000000000103,36.18186732354032],[-27.200000000000102,36.17645787638863],[-27.2400000000001,36.1710277145005],[-27.2800000000001,36.16557682986595],[-27.3200000000001,36.16010521448764],[-27.320766361398682,36.16],[-27.3600000000001,36.15461385671176],[-27.400000000000098,36.149101775247296],[-27.440000000000097,36.143568942672886],[-27.480000000000096,36.13801535104204],[-27.520000000000095,36.13244099242148],[-27.560000000000095,36.12684585889131],[-27.600000000000094,36.12122994254506],[-27.608729026832304,36.12],[-27.640000000000093,36.11559404719889],[-27.68000000000009,36.109937583381104],[-27.72000000000009,36.104260316642694],[-27.76000000000009,36.09856223913165],[-27.80000000000009,36.0928433430101],[-27.84000000000009,36.08710362045441],[-27.880000000000088,36.08134306365527],[-27.889293314153,36.08],[-27.920000000000087,36.07556247900651],[-27.960000000000086,36.06976129447006],[-28.000000000000085,36.06393925586653],[-28.040000000000084,36.05809635544479],[-28.080000000000084,36.05223258546876],[-28.120000000000083,36.0463479382175],[-28.160000000000082,36.040442405985345],[-28.162986389102862,36.04],[-28.200000000000077,36.03451698296861],[-28.24000000000008,36.02857074394354],[-28.28000000000008,36.022603600414755],[-28.32000000000008,36.01661554473859],[-28.360000000000078,36.01060656928732],[-28.400000000000077,36.00457666644926],[-28.430255854135773,36.0]]}},{"type":"Feature","properties":{"magnitude":0.8,"percentagem":80.0,"territorio":"madeira"},"geometry":{"type":"LineString","coordinates":[[-15.040000000000063,30.88884644051283],[-15.08000000000006,30.88953391528519],[-15.120000000000061,30.89020069005924],[-15.16000000000006,30.890846752381503],[-15.20000000000006,30.891472089805728],[-15.240000000000059,30.892076689892853],[-15.280000000000058,30.89266054021104],[-15.320000000000057,30.89322362833573],[-15.360000000000056,30.893765941849594],[-15.400000000000055,30.894287468342633],[-15.440000000000055,30.89478819541213],[-15.480000000000054,30.89526811066274],[-15.520000000000051,30.895727201706453],[-15.560000000000052,30.896165456162656],[-15.60000000000005,30.896582861658143],[-15.640000000000052,30.896979405827143],[-15.68000000000005,30.89735507631132],[-15.720000000000049,30.897709860759836],[-15.760000000000048,30.89804374682936],[-15.800000000000047,30.898356722184072],[-15.840000000000046,30.898648774495726],[-15.880000000000045,30.89891989144367],[-15.920000000000046,30.899170060714805],[-15.960000000000043,30.899399270003713],[-16.000000000000043,30.899607507012654],[-16.040000000000042,30.89979475945151],[-16.08000000000004,30.899961015037935],[-16.090736038397147,30.89999999999997],[-16.12000000000004,30.90010627418754],[-16.16000000000004,30.90023051408354],[-16.20000000000004,30.900333717810184],[-16.240000000000038,30.90041587311618],[-16.280000000000037,30.900476967758078],[-16.320000000000036,30.900516989500332],[-16.360000000000035,30.900535926115293],[-16.400000000000034,30.90053376538329],[-16.440000000000033,30.900510495092632],[-16.480000000000032,30.900466103039616],[-16.52000000000003,30.90040057702864],[-16.56000000000003,30.90031390487212],[-16.60000000000003,30.900206074390628],[-16.64000000000003,30.900077073412866],[-16.66052761581511,30.89999999999997],[-16.680000000000028,30.899926898483734],[-16.720000000000027,30.899755540439564],[-16.760000000000023,30.899562977952076],[-16.800000000000026,30.899349198883023],[-16.840000000000025,30.899114191102385],[-16.88000000000002,30.898857942488572],[-16.920000000000027,30.898580440928345],[-16.960000000000026,30.898281674316923],[-17.00000000000002,30.897961630557955],[-17.04000000000002,30.897620297563616],[-17.08000000000002,30.897257663254614],[-17.12000000000002,30.89687371556023],[-17.160000000000018,30.89646844241839],[-17.200000000000017,30.896041831775616],[-17.240000000000016,30.895593871587195],[-17.280000000000015,30.895124549817112],[-17.320000000000014,30.89463385443814],[-17.360000000000014,30.894121773431866],[-17.400000000000013,30.89358829478875],[-17.440000000000012,30.893033406508152],[-17.48000000000001,30.89245709659837],[-17.52000000000001,30.891859353076704],[-17.56000000000001,30.89124016396947],[-17.60000000000001,30.890599517312086],[-17.640000000000008,30.889937401149073],[-17.680000000000007,30.88925380353414],[-17.720000000000006,30.888548712530163],[-17.760000000000005,30.887822116209335],[-17.800000000000004,30.887074002653137],[-17.840000000000003,30.88630435995238],[-17.880000000000003,30.885513176207308],[-17.92,30.88470043952759],[-17.96,30.883866138032424],[-18.0,30.88301025985052]]}}]}