{"type":"FeatureCollection","properties":{"largura_maxima_km":314.65,"largura_sobre_pt_km":314.65,"linha_central_sobre_pt":false,"desenhavel_como_area":true,"perfil_largura":[{"t":-0.63889,"lat":45.0149,"lon":-39.9358,"largura_km":null,"eixo_na_terra":false},{"t":-0.63333,"lat":45.2504,"lon":-39.2013,"largura_km":null,"eixo_na_terra":false},{"t":-0.62778,"lat":45.454,"lon":-38.7431,"largura_km":null,"eixo_na_terra":false},{"t":-0.62222,"lat":45.656,"lon":-38.259,"largura_km":null,"eixo_na_terra":false},{"t":-0.61667,"lat":45.8428,"lon":-37.6919,"largura_km":null,"eixo_na_terra":false},{"t":-0.61111,"lat":46.0508,"lon":-37.0768,"largura_km":null,"eixo_na_terra":false},{"t":-0.60556,"lat":46.1874,"lon":-37.2661,"largura_km":null,"eixo_na_terra":false},{"t":-0.6,"lat":46.3867,"lon":-36.7016,"largura_km":null,"eixo_na_terra":false},{"t":-0.59444,"lat":46.5351,"lon":-36.548,"largura_km":null,"eixo_na_terra":false},{"t":-0.58889,"lat":46.7307,"lon":-36.1538,"largura_km":null,"eixo_na_terra":false},{"t":-0.58333,"lat":46.9198,"lon":-35.5006,"largura_km":null,"eixo_na_terra":false},{"t":-0.57778,"lat":47.0831,"lon":-35.2748,"largura_km":null,"eixo_na_terra":false},{"t":-0.57222,"lat":47.2709,"lon":-34.6581,"largura_km":null,"eixo_na_terra":false},{"t":-0.56667,"lat":47.5753,"lon":-31.9305,"largura_km":314.65,"eixo_na_terra":true},{"t":-0.56111,"lat":47.743,"lon":-31.2391,"largura_km":288.346,"eixo_na_terra":true},{"t":-0.55556,"lat":47.905,"lon":-30.5927,"largura_km":278.529,"eixo_na_terra":true},{"t":-0.55,"lat":48.0622,"lon":-29.9841,"largura_km":272.814,"eixo_na_terra":true},{"t":-0.54444,"lat":48.2153,"lon":-29.4076,"largura_km":268.927,"eixo_na_terra":true},{"t":-0.53889,"lat":48.365,"lon":-28.8589,"largura_km":266.026,"eixo_na_terra":true},{"t":-0.53333,"lat":48.5116,"lon":-28.3346,"largura_km":263.729,"eixo_na_terra":true},{"t":-0.52778,"lat":48.6555,"lon":-27.8318,"largura_km":261.829,"eixo_na_terra":true},{"t":-0.52222,"lat":48.797,"lon":-27.3483,"largura_km":260.197,"eixo_na_terra":true},{"t":-0.51667,"lat":48.9363,"lon":-26.882,"largura_km":258.753,"eixo_na_terra":true},{"t":-0.51111,"lat":49.0736,"lon":-26.4314,"largura_km":257.469,"eixo_na_terra":true},{"t":-0.50556,"lat":49.2091,"lon":-25.9951,"largura_km":256.291,"eixo_na_terra":true},{"t":-0.5,"lat":49.343,"lon":-25.5718,"largura_km":255.195,"eixo_na_terra":true},{"t":-0.49444,"lat":49.4755,"lon":-25.1606,"largura_km":254.164,"eixo_na_terra":true},{"t":-0.48889,"lat":49.6065,"lon":-24.7604,"largura_km":253.196,"eixo_na_terra":true},{"t":-0.48333,"lat":49.7362,"lon":-24.3704,"largura_km":252.275,"eixo_na_terra":true},{"t":-0.47778,"lat":49.8648,"lon":-23.99,"largura_km":251.391,"eixo_na_terra":true},{"t":-0.47222,"lat":49.9922,"lon":-23.6186,"largura_km":250.536,"eixo_na_terra":true}]},"features":[{"type":"Feature","properties":{},"geometry":{"type":"Polygon","coordinates":[[[-39.8846964811205,44.83273308307183],[-40.238875520343186,44.77678606757283],[-40.72711301889274,44.70433807160029],[-40.89713957077651,44.99350308117979],[-41.292509734046796,45.306140785270216],[-41.33764147766283,45.30105495849603],[-41.37287182292802,45.36968685246943],[-41.625042700277504,45.569090174867114],[-41.492176756647815,45.58267059765028],[-41.555297061527696,45.62431512619393],[-42.070897953329506,45.566696043133184],[-41.71464250857356,46.03548701093717],[-41.849200080580886,46.297617312125205],[-41.68403043180277,46.315345612534756],[-42.22816564167556,46.6905694304566],[-41.69364071282906,46.751286766213596],[-41.70490387751266,46.96719082190707],[-41.70155280174494,46.96759165461418],[-41.71948874395849,47.02598351489315],[-40.13360317320013,47.23207420081637],[-39.256408033867324,47.34341659602566],[-38.28651460095614,47.50591815289698],[-36.70785658319551,47.800321439933576],[-35.485234675925994,48.043406702751106],[-34.47236209973664,48.2543233227407],[-33.57588058665215,48.45083303403876],[-32.791421731394735,48.62801755065345],[-32.04415609074533,48.80611618699901],[-31.37419185313024,48.96937239436403],[-30.721852642952058,49.13567327810777],[-30.129306829741836,49.28951586325753],[-29.566552761627236,49.439747458940325],[-29.029742753023356,49.58683708739253],[-28.51578052127536,49.73116254275618],[-27.527380823727242,50.01993381896816],[-27.0689943648145,50.15753950614314],[-26.62547277200838,50.29335783513339],[-21.17688960040539,49.62969910536308],[-21.838706195635893,49.38438441461132],[-22.1792239220523,49.2604877102632],[-22.901566770870204,49.00397744341006],[-23.264608513393398,48.877155280008424],[-23.63603039219481,48.74924483206329],[-24.429278541373094,48.483673861164284],[-24.830224276728416,48.351909819171155],[-25.242394844352134,48.218681291667615],[-26.130762158406355,47.94084477238069],[-27.081840411901112,47.65497093922166],[-27.600902525158347,47.505111506180924],[-28.143388537697604,47.35237151724614],[-28.19523316325866,47.351209728739406],[-28.249815916288753,47.32290540434473],[-28.28712277237082,47.30723062980704],[-28.375494450433166,47.27644538528235],[-28.426535545048523,47.261359938479735],[-28.542264211312613,47.231860526562784],[-28.606924378745703,47.217467195213274],[-28.75643722047548,47.188276221532035],[-28.827259486279843,47.157415785341165],[-28.87110597644846,47.14163541708653],[-28.973156651963848,47.11059791609205],[-29.031344140416593,47.09536335715882],[-29.162000744729596,47.065513107238374],[-29.320928158030338,47.03494361919325],[-29.394106840329755,47.004111512804016],[-29.440185674789404,46.988002793483865],[-29.547435315901396,46.95621700995303],[-29.67478982650772,46.925075988925045],[-29.746001835585503,46.909769929351235],[-29.915820441116075,46.87761973680905],[-29.99171445107129,46.84678910917078],[-30.04038216321493,46.83030317420314],[-30.153671466460423,46.79765510541043],[-30.288266948654723,46.76550147828033],[-30.363573038746495,46.749629861058345],[-30.54617819589109,46.71564074919852],[-30.625249331033558,46.68477459541306],[-30.676966724192198,46.667848647653436],[-30.797385975779264,46.634191127425595],[-30.866118668188392,46.61747617227546],[-31.02072863030247,46.58430670462122],[-31.21862162721676,46.548139638045406],[-31.301481558391174,46.51718568587166],[-31.35686203350906,46.49973660610835],[-31.48586879054318,46.46487380141217],[-31.639416816969003,46.43009808533907],[-31.72549275791596,46.41275247260707],[-31.942091330477403,46.37394655510744],[-32.02958040569405,46.342828507229],[-32.08947149308665,46.32474210094351],[-32.22909074523301,46.288403194850595],[-32.395533999681675,46.25186211847656],[-32.48898695237028,46.233515958374305],[-32.72917558063287,46.1914158668107],[-32.82250451224695,46.160017325776465],[-32.88813554722242,46.14112889401141],[-33.04132614492323,46.10292000471379],[-33.129069099811545,46.08359656016897],[-33.32741570614661,46.04448461920761],[-33.598609292318436,45.99810066097867],[-33.69963848974487,45.96623278282172],[-33.77291457178558,45.94628854322039],[-33.94430932578382,45.905595808860774],[-34.14992038840364,45.86375716515115],[-34.26606678460229,45.842364769502325],[-34.58052828474675,45.79006867796391],[-34.69239410271092,45.757396163090476],[-34.776564085200675,45.73596580566742],[-34.97418773633535,45.69173088452607],[-35.212876033539885,45.64546982753608],[-35.34858451861567,45.621477117203206],[-35.72945842629389,45.56021203812429],[-35.85827857785637,45.526047422927505],[-35.95979272330942,45.502281569010215],[-36.20000848465827,45.45235663103536],[-36.33996291052563,45.42605566417834],[-36.66377537074146,45.37027675466585],[-36.84992259586568,45.34051818506338],[-37.166308417027956,45.29278591447755],[-37.32770807345264,45.255285571914435],[-37.46361779641592,45.226952390198555],[-37.79228728049111,45.165347494603765],[-38.21170460466726,45.09528408881572],[-38.46427808933436,45.05595605713502],[-38.75331774966389,45.01275029176397],[-39.32629127979845,44.9311990286584],[-39.60603926763525,44.87970919869168],[-39.8846964811205,44.83273308307183]]]}}]}