{"type":"FeatureCollection","features":[{"type":"Feature","properties":{"t_inicio":-0.6000000000000121,"t_fim":-0.47222222222223476},"geometry":{"type":"LineString","coordinates":[[-38.28323265574295,46.292225367595215],[-36.67272507107174,46.575357466933475],[-35.437388855533925,46.81141829793505],[-34.401099120527135,47.0224722617526],[-33.49325396943806,47.21737284209466],[-32.677071006234996,47.40073689908329],[-31.93049883385015,47.57533484888929],[-31.239083551975227,47.742984270374194],[-30.592743332168652,47.904954117204056],[-29.984115088946965,48.06217199765621],[-29.407627322701956,48.21534045973429],[-28.858943662189972,48.36500681026734],[-28.334610618618854,48.511607328759865],[-27.83182481237941,48.65549649643268],[-27.348273595224498,48.79696701684291],[-26.882022625123682,48.93626394387647],[-26.431434521778726,49.07359490788843],[-25.995108706491635,49.209137681563426],[-25.571836051204002,49.34304588551526],[-25.160564111739063,49.47545336394732],[-24.760370074786124,49.60647759076532],[-24.37043942507296,49.73622235649909],[-23.990048920807,49.864779913390784],[-23.61855285966908,49.99223270651953]]}}]}