{"type":"FeatureCollection","features":[{"type":"Feature","properties":{"magnitude":0.5,"de":0.5,"ate":0.8,"percentagem":50.0},"geometry":{"type":"Polygon","coordinates":[[[-34.5,30.0],[-3.5399999999988268,30.0],[-3.5399999999988268,43.81617328754282],[-7.351417540828839,42.11999999999974],[-11.039999999999111,40.64189563235162],[-12.899999999999181,39.95981737157555],[-14.759999999999252,39.32023052037084],[-18.479999999999393,38.16607588313701],[-20.399999999999466,37.63362878597003],[-22.330260196335402,37.139999999999844],[-26.27999999999969,36.25386005916723],[-30.29999999999984,35.511422742940546],[-34.5,34.892638627174925],[-34.5,30.0]]]}},{"type":"Feature","properties":{"magnitude":0.8,"de":0.8,"ate":0.95,"percentagem":80.0},"geometry":{"type":"Polygon","coordinates":[[[-34.5,44.357569967001666],[-34.5,34.892638627174925],[-32.87999999999994,35.1132652268732],[-29.879999999999825,35.58187237397227],[-27.299999999999727,36.05079889271702],[-24.839999999999634,36.55822735935827],[-22.439999999999543,37.11317019323383],[-20.099999999999454,37.71406621103243],[-17.759999999999366,38.37669050075283],[-15.47999999999928,39.08394949218535],[-12.539999999999168,40.08851180962483],[-9.547465020723378,41.21999999999976],[-6.599999999998943,42.44122411439507],[-3.5399999999988268,43.81617328754282],[-3.5399999999988268,44.939999999999685],[-31.534012864696678,44.939999999999685],[-34.5,44.357569967001666]]]}},{"type":"Feature","properties":{"magnitude":0.95,"de":0.95,"ate":0.99,"percentagem":95.0},"geometry":{"type":"Polygon","coordinates":[[[-34.5,44.939999999999685],[-34.5,44.357569967001666],[-31.534012864696678,44.939999999999685],[-34.5,44.939999999999685]]]}}]}