{"type":"FeatureCollection","properties":{"largura_maxima_km":426.913,"largura_sobre_pt_km":363.987,"linha_central_sobre_pt":false,"desenhavel_como_area":true,"perfil_largura":[{"t":-0.79444,"lat":49.9517,"lon":-10.2078,"largura_km":344.872,"eixo_na_terra":true},{"t":-0.78889,"lat":49.8241,"lon":-10.1129,"largura_km":345.071,"eixo_na_terra":true},{"t":-0.78333,"lat":49.6969,"lon":-10.0183,"largura_km":345.275,"eixo_na_terra":true},{"t":-0.77778,"lat":49.5701,"lon":-9.9241,"largura_km":345.485,"eixo_na_terra":true},{"t":-0.77222,"lat":49.4438,"lon":-9.8303,"largura_km":345.699,"eixo_na_terra":true},{"t":-0.76667,"lat":49.3179,"lon":-9.7369,"largura_km":345.917,"eixo_na_terra":true},{"t":-0.76111,"lat":49.1924,"lon":-9.6438,"largura_km":346.141,"eixo_na_terra":true},{"t":-0.75556,"lat":49.0673,"lon":-9.5511,"largura_km":346.369,"eixo_na_terra":true},{"t":-0.75,"lat":48.9426,"lon":-9.4587,"largura_km":346.602,"eixo_na_terra":true},{"t":-0.74444,"lat":48.8183,"lon":-9.3666,"largura_km":346.84,"eixo_na_terra":true},{"t":-0.73889,"lat":48.6945,"lon":-9.2749,"largura_km":347.083,"eixo_na_terra":true},{"t":-0.73333,"lat":48.571,"lon":-9.1835,"largura_km":347.33,"eixo_na_terra":true},{"t":-0.72778,"lat":48.4479,"lon":-9.0924,"largura_km":347.582,"eixo_na_terra":true},{"t":-0.72222,"lat":48.3253,"lon":-9.0016,"largura_km":347.839,"eixo_na_terra":true},{"t":-0.71667,"lat":48.203,"lon":-8.9111,"largura_km":348.1,"eixo_na_terra":true},{"t":-0.71111,"lat":48.0811,"lon":-8.8208,"largura_km":348.366,"eixo_na_terra":true},{"t":-0.70556,"lat":47.9596,"lon":-8.7309,"largura_km":348.637,"eixo_na_terra":true},{"t":-0.7,"lat":47.8384,"lon":-8.6412,"largura_km":348.912,"eixo_na_terra":true},{"t":-0.69444,"lat":47.7177,"lon":-8.5518,"largura_km":349.192,"eixo_na_terra":true},{"t":-0.68889,"lat":47.5973,"lon":-8.4626,"largura_km":349.476,"eixo_na_terra":true},{"t":-0.68333,"lat":47.4772,"lon":-8.3737,"largura_km":349.765,"eixo_na_terra":true},{"t":-0.67778,"lat":47.3576,"lon":-8.285,"largura_km":350.058,"eixo_na_terra":true},{"t":-0.67222,"lat":47.2382,"lon":-8.1965,"largura_km":350.356,"eixo_na_terra":true},{"t":-0.66667,"lat":47.1193,"lon":-8.1083,"largura_km":350.659,"eixo_na_terra":true},{"t":-0.66111,"lat":47.0007,"lon":-8.0203,"largura_km":350.965,"eixo_na_terra":true},{"t":-0.65556,"lat":46.8824,"lon":-7.9325,"largura_km":351.277,"eixo_na_terra":true},{"t":-0.65,"lat":46.7645,"lon":-7.8449,"largura_km":351.593,"eixo_na_terra":true},{"t":-0.64444,"lat":46.647,"lon":-7.7575,"largura_km":351.913,"eixo_na_terra":true},{"t":-0.63889,"lat":46.5298,"lon":-7.6702,"largura_km":352.238,"eixo_na_terra":true},{"t":-0.63333,"lat":46.4129,"lon":-7.5832,"largura_km":352.567,"eixo_na_terra":true},{"t":-0.62778,"lat":46.2964,"lon":-7.4964,"largura_km":352.9,"eixo_na_terra":true},{"t":-0.62222,"lat":46.1802,"lon":-7.4097,"largura_km":353.238,"eixo_na_terra":true},{"t":-0.61667,"lat":46.0643,"lon":-7.3232,"largura_km":353.581,"eixo_na_terra":true},{"t":-0.61111,"lat":45.9487,"lon":-7.2368,"largura_km":353.928,"eixo_na_terra":true},{"t":-0.60556,"lat":45.8335,"lon":-7.1506,"largura_km":354.279,"eixo_na_terra":true},{"t":-0.6,"lat":45.7186,"lon":-7.0645,"largura_km":354.634,"eixo_na_terra":true},{"t":-0.59444,"lat":45.604,"lon":-6.9786,"largura_km":354.994,"eixo_na_terra":true},{"t":-0.58889,"lat":45.4898,"lon":-6.8928,"largura_km":355.358,"eixo_na_terra":true},{"t":-0.58333,"lat":45.3758,"lon":-6.8072,"largura_km":355.727,"eixo_na_terra":true},{"t":-0.57778,"lat":45.2622,"lon":-6.7217,"largura_km":356.099,"eixo_na_terra":true},{"t":-0.57222,"lat":45.1488,"lon":-6.6362,"largura_km":356.476,"eixo_na_terra":true},{"t":-0.56667,"lat":45.0358,"lon":-6.5509,"largura_km":356.858,"eixo_na_terra":true},{"t":-0.56111,"lat":44.9231,"lon":-6.4657,"largura_km":357.244,"eixo_na_terra":true},{"t":-0.55556,"lat":44.8107,"lon":-6.3806,"largura_km":357.634,"eixo_na_terra":true},{"t":-0.55,"lat":44.6986,"lon":-6.2956,"largura_km":358.028,"eixo_na_terra":true},{"t":-0.54444,"lat":44.5867,"lon":-6.2107,"largura_km":358.427,"eixo_na_terra":true},{"t":-0.53889,"lat":44.4752,"lon":-6.1259,"largura_km":358.83,"eixo_na_terra":true},{"t":-0.53333,"lat":44.364,"lon":-6.0411,"largura_km":359.237,"eixo_na_terra":true},{"t":-0.52778,"lat":44.2531,"lon":-5.9564,"largura_km":359.648,"eixo_na_terra":true},{"t":-0.52222,"lat":44.1424,"lon":-5.8718,"largura_km":360.063,"eixo_na_terra":true},{"t":-0.51667,"lat":44.032,"lon":-5.7872,"largura_km":360.483,"eixo_na_terra":true},{"t":-0.51111,"lat":43.922,"lon":-5.7027,"largura_km":360.907,"eixo_na_terra":true},{"t":-0.50556,"lat":43.8122,"lon":-5.6182,"largura_km":361.334,"eixo_na_terra":true},{"t":-0.5,"lat":43.7027,"lon":-5.5338,"largura_km":361.766,"eixo_na_terra":true},{"t":-0.49444,"lat":43.5934,"lon":-5.4494,"largura_km":362.202,"eixo_na_terra":true},{"t":-0.48889,"lat":43.4845,"lon":-5.3651,"largura_km":362.642,"eixo_na_terra":true},{"t":-0.48333,"lat":43.3758,"lon":-5.2807,"largura_km":363.086,"eixo_na_terra":true},{"t":-0.47778,"lat":43.2674,"lon":-5.1964,"largura_km":363.535,"eixo_na_terra":true},{"t":-0.47222,"lat":43.1592,"lon":-5.1121,"largura_km":363.987,"eixo_na_terra":true},{"t":-0.46667,"lat":43.0513,"lon":-5.0279,"largura_km":364.443,"eixo_na_terra":true},{"t":-0.46111,"lat":42.9437,"lon":-4.9436,"largura_km":364.903,"eixo_na_terra":true},{"t":-0.45556,"lat":42.8364,"lon":-4.8593,"largura_km":365.367,"eixo_na_terra":true},{"t":-0.45,"lat":42.7293,"lon":-4.775,"largura_km":365.835,"eixo_na_terra":true},{"t":-0.44444,"lat":42.6225,"lon":-4.6908,"largura_km":366.307,"eixo_na_terra":true},{"t":-0.43889,"lat":42.5159,"lon":-4.6065,"largura_km":366.782,"eixo_na_terra":true},{"t":-0.43333,"lat":42.4097,"lon":-4.5221,"largura_km":367.262,"eixo_na_terra":true},{"t":-0.42778,"lat":42.3036,"lon":-4.4378,"largura_km":367.745,"eixo_na_terra":true},{"t":-0.42222,"lat":42.1978,"lon":-4.3534,"largura_km":368.232,"eixo_na_terra":true},{"t":-0.41667,"lat":42.0923,"lon":-4.269,"largura_km":368.723,"eixo_na_terra":true},{"t":-0.41111,"lat":41.987,"lon":-4.1846,"largura_km":369.218,"eixo_na_terra":true},{"t":-0.40556,"lat":41.882,"lon":-4.1001,"largura_km":369.716,"eixo_na_terra":true},{"t":-0.4,"lat":41.7772,"lon":-4.0155,"largura_km":370.218,"eixo_na_terra":true},{"t":-0.39444,"lat":41.6727,"lon":-3.9309,"largura_km":370.724,"eixo_na_terra":true},{"t":-0.38889,"lat":41.5684,"lon":-3.8463,"largura_km":371.234,"eixo_na_terra":true},{"t":-0.38333,"lat":41.4644,"lon":-3.7615,"largura_km":371.747,"eixo_na_terra":true},{"t":-0.37778,"lat":41.3606,"lon":-3.6767,"largura_km":372.264,"eixo_na_terra":true},{"t":-0.37222,"lat":41.257,"lon":-3.5919,"largura_km":372.784,"eixo_na_terra":true},{"t":-0.36667,"lat":41.1537,"lon":-3.5069,"largura_km":373.308,"eixo_na_terra":true},{"t":-0.36111,"lat":41.0506,"lon":-3.4218,"largura_km":373.835,"eixo_na_terra":true},{"t":-0.35556,"lat":40.9478,"lon":-3.3367,"largura_km":374.366,"eixo_na_terra":true},{"t":-0.35,"lat":40.8452,"lon":-3.2515,"largura_km":374.9,"eixo_na_terra":true},{"t":-0.34444,"lat":40.7428,"lon":-3.1661,"largura_km":375.438,"eixo_na_terra":true},{"t":-0.33889,"lat":40.6407,"lon":-3.0807,"largura_km":375.979,"eixo_na_terra":true},{"t":-0.33333,"lat":40.5388,"lon":-2.9951,"largura_km":376.523,"eixo_na_terra":true},{"t":-0.32778,"lat":40.4371,"lon":-2.9095,"largura_km":377.071,"eixo_na_terra":true},{"t":-0.32222,"lat":40.3357,"lon":-2.8237,"largura_km":377.622,"eixo_na_terra":true},{"t":-0.31667,"lat":40.2344,"lon":-2.7377,"largura_km":378.176,"eixo_na_terra":true},{"t":-0.31111,"lat":40.1335,"lon":-2.6517,"largura_km":378.733,"eixo_na_terra":true},{"t":-0.30556,"lat":40.0327,"lon":-2.5655,"largura_km":379.294,"eixo_na_terra":true},{"t":-0.3,"lat":39.9322,"lon":-2.4792,"largura_km":379.857,"eixo_na_terra":true},{"t":-0.29444,"lat":39.8318,"lon":-2.3927,"largura_km":380.424,"eixo_na_terra":true},{"t":-0.28889,"lat":39.7318,"lon":-2.306,"largura_km":380.993,"eixo_na_terra":true},{"t":-0.28333,"lat":39.6319,"lon":-2.2192,"largura_km":381.566,"eixo_na_terra":true},{"t":-0.27778,"lat":39.5322,"lon":-2.1322,"largura_km":382.141,"eixo_na_terra":true},{"t":-0.27222,"lat":39.4328,"lon":-2.0451,"largura_km":382.719,"eixo_na_terra":true},{"t":-0.26667,"lat":39.3336,"lon":-1.9578,"largura_km":383.301,"eixo_na_terra":true},{"t":-0.26111,"lat":39.2346,"lon":-1.8703,"largura_km":383.884,"eixo_na_terra":true},{"t":-0.25556,"lat":39.1358,"lon":-1.7826,"largura_km":384.471,"eixo_na_terra":true},{"t":-0.25,"lat":39.0373,"lon":-1.6947,"largura_km":385.06,"eixo_na_terra":true},{"t":-0.24444,"lat":38.9389,"lon":-1.6067,"largura_km":385.652,"eixo_na_terra":true},{"t":-0.23889,"lat":38.8408,"lon":-1.5184,"largura_km":386.247,"eixo_na_terra":true},{"t":-0.23333,"lat":38.7429,"lon":-1.4299,"largura_km":386.846,"eixo_na_terra":true},{"t":-0.22778,"lat":38.6452,"lon":-1.3412,"largura_km":387.447,"eixo_na_terra":true},{"t":-0.22222,"lat":38.5477,"lon":-1.2523,"largura_km":388.05,"eixo_na_terra":true},{"t":-0.21667,"lat":38.4504,"lon":-1.1631,"largura_km":388.656,"eixo_na_terra":true},{"t":-0.21111,"lat":38.3533,"lon":-1.0738,"largura_km":389.264,"eixo_na_terra":true},{"t":-0.20556,"lat":38.2565,"lon":-0.9841,"largura_km":389.875,"eixo_na_terra":true},{"t":-0.2,"lat":38.1598,"lon":-0.8943,"largura_km":390.487,"eixo_na_terra":true},{"t":-0.19444,"lat":38.0633,"lon":-0.8042,"largura_km":391.102,"eixo_na_terra":true},{"t":-0.18889,"lat":37.9671,"lon":-0.7138,"largura_km":391.718,"eixo_na_terra":true},{"t":-0.18333,"lat":37.871,"lon":-0.6232,"largura_km":392.337,"eixo_na_terra":true},{"t":-0.17778,"lat":37.7752,"lon":-0.5323,"largura_km":392.958,"eixo_na_terra":true},{"t":-0.17222,"lat":37.6796,"lon":-0.4411,"largura_km":393.58,"eixo_na_terra":true},{"t":-0.16667,"lat":37.5841,"lon":-0.3497,"largura_km":394.204,"eixo_na_terra":true},{"t":-0.16111,"lat":37.4889,"lon":-0.2579,"largura_km":394.83,"eixo_na_terra":true},{"t":-0.15556,"lat":37.3939,"lon":-0.1659,"largura_km":395.457,"eixo_na_terra":true},{"t":-0.15,"lat":37.299,"lon":-0.0736,"largura_km":396.086,"eixo_na_terra":true},{"t":-0.14444,"lat":37.2044,"lon":0.019,"largura_km":396.717,"eixo_na_terra":true},{"t":-0.13889,"lat":37.11,"lon":0.112,"largura_km":397.348,"eixo_na_terra":true},{"t":-0.13333,"lat":37.0157,"lon":0.2052,"largura_km":397.981,"eixo_na_terra":true},{"t":-0.12778,"lat":36.9217,"lon":0.2988,"largura_km":398.616,"eixo_na_terra":true},{"t":-0.12222,"lat":36.8278,"lon":0.3927,"largura_km":399.251,"eixo_na_terra":true},{"t":-0.11667,"lat":36.7342,"lon":0.487,"largura_km":399.887,"eixo_na_terra":true},{"t":-0.11111,"lat":36.6408,"lon":0.5816,"largura_km":400.525,"eixo_na_terra":true},{"t":-0.10556,"lat":36.5475,"lon":0.6765,"largura_km":401.163,"eixo_na_terra":true},{"t":-0.1,"lat":36.4545,"lon":0.7718,"largura_km":401.802,"eixo_na_terra":true},{"t":-0.09444,"lat":36.3616,"lon":0.8675,"largura_km":402.441,"eixo_na_terra":true},{"t":-0.08889,"lat":36.2689,"lon":0.9636,"largura_km":403.082,"eixo_na_terra":true},{"t":-0.08333,"lat":36.1764,"lon":1.06,"largura_km":403.722,"eixo_na_terra":true},{"t":-0.07778,"lat":36.0842,"lon":1.1568,"largura_km":404.365,"eixo_na_terra":true},{"t":-0.07222,"lat":35.9921,"lon":1.254,"largura_km":405.008,"eixo_na_terra":true},{"t":-0.06667,"lat":35.9002,"lon":1.3516,"largura_km":405.652,"eixo_na_terra":true},{"t":-0.06111,"lat":35.8085,"lon":1.4497,"largura_km":406.296,"eixo_na_terra":true},{"t":-0.05556,"lat":35.717,"lon":1.5481,"largura_km":406.94,"eixo_na_terra":true},{"t":-0.05,"lat":35.6256,"lon":1.647,"largura_km":407.584,"eixo_na_terra":true},{"t":-0.04444,"lat":35.5345,"lon":1.7463,"largura_km":408.228,"eixo_na_terra":true},{"t":-0.03889,"lat":35.4436,"lon":1.846,"largura_km":408.871,"eixo_na_terra":true},{"t":-0.03333,"lat":35.3528,"lon":1.9462,"largura_km":409.514,"eixo_na_terra":true},{"t":-0.02778,"lat":35.2623,"lon":2.0469,"largura_km":410.156,"eixo_na_terra":true},{"t":-0.02222,"lat":35.1719,"lon":2.148,"largura_km":410.798,"eixo_na_terra":true},{"t":-0.01667,"lat":35.0817,"lon":2.2496,"largura_km":411.441,"eixo_na_terra":true},{"t":-0.01111,"lat":34.9917,"lon":2.3517,"largura_km":412.082,"eixo_na_terra":true},{"t":-0.00556,"lat":34.9019,"lon":2.4543,"largura_km":412.723,"eixo_na_terra":true},{"t":-0.0,"lat":34.8123,"lon":2.5574,"largura_km":413.362,"eixo_na_terra":true},{"t":0.00556,"lat":34.7229,"lon":2.661,"largura_km":414.0,"eixo_na_terra":true},{"t":0.01111,"lat":34.6336,"lon":2.7651,"largura_km":414.637,"eixo_na_terra":true},{"t":0.01667,"lat":34.5446,"lon":2.8698,"largura_km":415.272,"eixo_na_terra":true},{"t":0.02222,"lat":34.4557,"lon":2.975,"largura_km":415.905,"eixo_na_terra":true},{"t":0.02778,"lat":34.367,"lon":3.0808,"largura_km":416.537,"eixo_na_terra":true},{"t":0.03333,"lat":34.2785,"lon":3.1871,"largura_km":417.166,"eixo_na_terra":true},{"t":0.03889,"lat":34.1902,"lon":3.294,"largura_km":417.795,"eixo_na_terra":true},{"t":0.04444,"lat":34.1021,"lon":3.4014,"largura_km":418.423,"eixo_na_terra":true},{"t":0.05,"lat":34.0142,"lon":3.5095,"largura_km":419.049,"eixo_na_terra":true},{"t":0.05556,"lat":33.9265,"lon":3.6182,"largura_km":419.673,"eixo_na_terra":true},{"t":0.06111,"lat":33.8389,"lon":3.7274,"largura_km":420.294,"eixo_na_terra":true},{"t":0.06667,"lat":33.7515,"lon":3.8374,"largura_km":420.913,"eixo_na_terra":true},{"t":0.07222,"lat":33.6644,"lon":3.9479,"largura_km":421.528,"eixo_na_terra":true},{"t":0.07778,"lat":33.5774,"lon":4.0591,"largura_km":422.141,"eixo_na_terra":true},{"t":0.08333,"lat":33.4906,"lon":4.171,"largura_km":422.75,"eixo_na_terra":true},{"t":0.08889,"lat":33.404,"lon":4.2835,"largura_km":423.356,"eixo_na_terra":true},{"t":0.09444,"lat":33.3175,"lon":4.3967,"largura_km":423.959,"eixo_na_terra":true},{"t":0.1,"lat":33.2313,"lon":4.5106,"largura_km":424.557,"eixo_na_terra":true},{"t":0.10556,"lat":33.1453,"lon":4.6253,"largura_km":425.152,"eixo_na_terra":true},{"t":0.11111,"lat":33.0594,"lon":4.7406,"largura_km":425.744,"eixo_na_terra":true},{"t":0.11667,"lat":32.9737,"lon":4.8567,"largura_km":426.331,"eixo_na_terra":true},{"t":0.12222,"lat":32.8882,"lon":4.9736,"largura_km":426.913,"eixo_na_terra":true}]},"features":[{"type":"Feature","properties":{},"geometry":{"type":"Polygon","coordinates":[[[6.702023973388862,34.25027214964264],[7.075169180581355,33.993411571873345],[3.0978011234894325,31.81384854927399],[2.9875190406455374,31.89925021065803],[2.660432050536542,32.156474960164],[2.2326808328997174,32.501817280227684],[1.8138852363958051,32.84987314271649],[1.3883686457835154,33.212823292738875],[0.9858536086742049,33.566383838213184],[0.5905527595299418,33.92268066854684],[0.20196046204080176,34.28172947828759],[-0.1804005975415066,34.643549904169326],[-0.664047853459806,35.11262378594017],[-0.941902755650375,35.388524241020974],[-1.3080924260421227,35.75889204115788],[-1.759494444702682,36.225919551519176],[-2.1160057071068366,36.60284260903631],[-2.5564739233531952,37.07819234962023],[-2.905136313613042,37.46188548567416],[-3.3495493986533234,37.95966960441155],[-3.6920304510265396,38.35048435290059],[-4.117085722407779,38.84353669712785],[-4.455078610933384,39.241683087357856],[-4.875518093747701,39.7441084133596],[-5.294242842334,40.25193631168047],[-5.711856269005239,40.765319970497586],[-6.128963218381614,41.28442408706531],[-6.5461734404088645,41.80942558872421],[-6.964105138466323,42.34051445621114],[-7.383388648219039,42.87789466015213],[-8.240948241267631,43.988346085840426],[-9.013173877535706,44.997677546726855],[-10.882490443955362,47.450795749063204],[-11.80671609114927,48.65522777562071],[-8.453219610531903,51.33170331953457],[-6.813929493982641,49.02729379658019],[-6.198584733839397,48.1687541361271],[-5.678007016309579,47.44799577311871],[-5.162239076944161,46.7404224310817],[-4.649923321735457,46.04536633457133],[-4.1397663696357085,45.36222290084388],[-3.715385829283349,44.80163955036667],[-3.278959606329522,44.23288561677806],[-2.768554400081541,43.57919193180151],[-2.3535402581323694,43.05755995933219],[-1.9242830688935726,42.527198563532245],[-1.4920934021152732,42.00344385745713],[-1.0562821022780042,41.48610524035922],[-0.6161478381695531,40.975007643801945],[-0.2604458240742247,40.57051489355321],[0.008674687905937617,40.2696533930391],[0.18929496831952974,40.07025666051326],[0.46215868207445965,39.7729069736473],[0.6454301979516117,39.575825833451084],[0.9225099565657615,39.2819132254785],[1.1087551735479622,39.08710048712936],[1.4851512058506557,38.7001545693294],[1.7710870042785416,38.41226541314916],[1.9635525201144333,38.22143347247567],[2.353175776047408,37.84237225815571],[2.749476713567759,37.46675035527557],[3.1529869846008864,37.094535461189906],[3.564271587091099,36.72570088613041],[3.773016052527879,36.54254446148636],[3.983933429176176,36.36022575758009],[4.290071332501441,36.10142630637886],[4.506679523963697,35.92115455083296],[4.725757903626146,35.74171694027825],[4.9474001459648775,35.56311326099668],[5.171703794970085,35.38534375048806],[5.398770540649622,35.20840911567212],[5.628706519403323,35.03231055307833],[5.861622640920672,34.85704977122628],[6.097634944606568,34.68262901542627],[6.3368649889451945,34.509051095261626],[6.702023973388862,34.25027214964264]]]}}]}