{"type":"FeatureCollection","features":[{"type":"Feature","properties":{"t_inicio":-0.7944444444444558,"t_fim":0.12222222222220758},"geometry":{"type":"LineString","coordinates":[[-10.207848385031497,49.95174744613323],[-10.112885704302158,49.824102911136634],[-10.018318522530166,49.69689629365083],[-9.92413737580344,49.57012302111747],[-9.830332960525709,49.44377860398007],[-9.736896128471955,49.317858633688964],[-9.643817882007568,49.19235878076874],[-9.551089369464307,49.06727479294662],[-9.45870188066661,48.9426024933387],[-9.366646842601398,48.81833777869249],[-9.274915815226052,48.69447661768321],[-9.18350048740831,48.57101504926241],[-9.092392672992759,48.44794918105641],[-9.001584306988804,48.32527518781334],[-8.911067441874906,48.202989309896466],[-8.820834244014549,48.08108785182263],[-8.730876990179155,47.95956718084414],[-8.641188064173804,47.83842372557196],[-8.551759953561515,47.71765397464001],[-8.462585246481922,47.59725447540776],[-8.37365662856081,47.47722183270081],[-8.284966879906932,47.35755270758766],[-8.196508872191998,47.23824381619171],[-8.108275565811425,47.1192919285369],[-8.020260007121635,47.00069386742655],[-7.932455325751846,46.882446507353606],[-7.844854731986345,46.76454677344154],[-7.7574515142154326,46.64699164041509],[-7.670239036451477,46.529778131599485],[-7.583210735908068,46.41290331794767],[-7.496360120639309,46.29636431709416],[-7.409680767237205,46.180158292435],[-7.32316631858464,46.06428245223303],[-7.236810481661564,45.94873404874738],[-7.150607025402678,45.83351037738685],[-7.064549778604004,45.71860877588596],[-6.978632627876777,45.60402662350338],[-6.892849515646702,45.48976134024192],[-6.807194438196149,45.375810386089164],[-6.721661443748445,45.26217126027886],[-6.636244630591648,45.14884150057142],[-6.550938145240792,45.03581868255388],[-6.4657361806364975,44.92310041895831],[-6.380632974378727,44.81068435899816],[-6.295622806993833,44.69856818772205],[-6.2107000002340556,44.58674962538474],[-6.125858915407036,44.475226426834304],[-6.041093951735178,44.3639963809156],[-5.956399544742425,44.253057309889186],[-5.871770164667879,44.1424070688655],[-5.787200314904823,44.03204354525357],[-5.702684530463529,43.921964658224404],[-5.6182173764573236,43.81216835818814],[-5.53379344661019,43.70265262628476],[-5.44940736178512,43.5934154738882],[-5.365053768531823,43.48445494212319],[-5.280727337653019,43.37576910139491],[-5.196422762787961,43.267356050930594],[-5.112134759012349,43.15921391833326],[-5.027858061453571,43.05134085914706],[-4.943587423920235,42.943735056434036],[-4.859317617545003,42.83639472036184],[-4.775043429439933,42.72931808780239],[-4.690759661363046,42.62250342194107],[-4.60646112839575,42.51594901189626],[-4.522142657629416,42.40965317234893],[-4.437799086860963,42.30361424318209],[-4.353425263296231,42.19783058913005],[-4.269016042259977,42.092300599436705],[-4.184566285912297,41.987022687523684],[-4.1000708619698685,41.881995290666936],[-4.015524642431757,41.777216869682526],[-3.930922502308505,41.672685908621055],[-3.8462593183538445,41.56840091447037],[-3.761529967798282,41.46436041686701],[-3.676729327083251,41.36056296781555],[-3.5918522705958082,41.25700714141591],[-3.5068936694019897,41.15369153359896],[-3.421848389978919,41.0506147618694],[-3.3367112929441305,40.94777546505655],[-3.2514772317817915,40.84517230307268],[-3.166141051564381,40.74280395667843],[-3.0806975876695617,40.64066912725584],[-2.9951416644909443,40.53876653658829],[-2.9094680941418574,40.43709492664764],[-2.823671675151843,40.33565305938828],[-2.7377471911537725,40.23443971654803],[-2.651689409562181,40.133453699455885],[-2.5654930802404294,40.03269382884644],[-2.479152934156872,39.93215894468103],[-2.3926636820284557,39.831847905975195],[-2.30602001295091,39.73175959063297],[-2.219216593014636,39.63189289528745],[-2.132248063905081,39.53224673514772],[-2.045109041486967,39.43282004385225],[-1.9577941143706994,39.333611773328435],[-1.87029784246036,39.23462089365866],[-1.7826147554820864,39.13584639295229],[-1.6947393514915063,39.03728727722414],[-1.606666095359202,38.93894257027893],[-1.5183894172331236,38.84081131360212],[-1.4299037109762196,38.74289256625667],[-1.3412033325788855,38.64518540478626],[-1.2522825985440136,38.54768892312428],[-1.1631357842437922,38.45040223250942],[-1.0737571222468034,38.353324461407134],[-0.9841408006139716,38.25645475543748],[-0.8942809611617974,38.15979227730895],[-0.8041716976914017,38.063336206758926],[-0.7138070541817854,37.96708574049997],[-0.6231810229457722,37.871040092172954],[-0.5322875427467864,37.77519849230608],[-0.4411204968747029,37.679560188280725],[-0.34967371117915036,37.58412444430344],[-0.2579409520579645,37.488890541384954],[-0.16591592439951341,37.39385777732531],[-0.07359226947596653,37.299025466706226],[0.019036437213742374,37.20439294088985],[0.1119766881542148,37.109959548024776],[0.20523504607879772,37.01572465305888],[0.2988181462926036,36.92168763775946],[0.3927326990557276,36.82784790074042],[0.48698549202859454,36.73420485749717],[0.5815833927834717,36.64075794044879],[0.6765333513836538,36.54750659898821],[0.7718424030339861,36.454450299539864],[0.8675176708055687,36.36158852562588],[0.9635663684380518,36.26892077794009],[1.0599958032225345,36.17644657443067],[1.1568133789689625,36.08416545039154],[1.2540265990613193,35.9920769585624],[1.3516430696048474,35.90018066923808],[1.4496705026691359,35.80847617038724],[1.5481167196309684,35.71696306778062],[1.6469896546220184,35.62564098512927],[1.7462973580855135,35.53450956423318],[1.8460480004469844,35.44356846514018],[1.9462498759040443,35.352817366315946],[2.0469114063403424,35.26225596482525],[2.1480411453703425,35.17188397652477],[2.2496477825190198,35.08170113626798],[2.3517401475449446,34.991707198122555],[2.454327214911018,34.90190193560066],[2.5574181084115537,34.81228514190266],[2.661022105961905,34.72285663017463],[2.765148644558792,34.6336162337806],[2.8698073254189183,34.54456380658943],[2.9750079193048293,34.45569922327752],[3.080760372046541,34.36702237964783],[3.187074810268882,34.27853319296554],[3.2939615473337653,34.19023160231173],[3.401431089508833,34.10211756895497],[3.5094941423728017,34.0141910767426],[3.618161617469724,33.92645213251158],[3.7274446392244727,33.83890076652062],[3.8373545521326946,33.75153703290406],[3.9479029282393014,33.664361010148596],[4.05910157491968,33.577372801594066],[4.170962542980476,33.49057253595924],[4.2834981350951296,33.403960367894186],[4.396720914593345,33.317536478559916],[4.510643714621892,33.23130107623729],[4.6252796476975675,33.145254396966195],[4.7406421156733245,33.059396705216834],[4.856744820139824,32.973728294594615],[4.973601773286703,32.888249488580506]]}}]}