{"type":"FeatureCollection","features":[{"type":"Feature","properties":{"magnitude":0.2,"de":0.2,"ate":0.5,"percentagem":20.0},"geometry":{"type":"Polygon","coordinates":[[[-24.926557866298047,29.999999999999996],[-20.479506837830478,30.0],[-20.33063378147678,32.09999999999995],[-20.13408667864773,34.139999999999915],[-19.890620301466658,36.11999999999987],[-19.600165386846946,38.03999999999983],[-19.259999999999422,39.909348194832006],[-18.887615470390546,41.63999999999975],[-18.464946097722688,43.319999999999716],[-17.989309912487176,44.939999999999685],[-24.046650155844194,44.939999999999685],[-24.416851090478207,41.519999999999754],[-24.6885060967273,37.85999999999983],[-24.858483707500675,34.01999999999991],[-24.926557866298047,29.999999999999996]]]}},{"type":"Feature","properties":{"magnitude":0.5,"de":0.5,"ate":0.8,"percentagem":50.0},"geometry":{"type":"Polygon","coordinates":[[[-20.479506837830478,30.0],[-3.5399999999988268,30.0],[-3.5399999999988268,44.939999999999685],[-17.989309912487176,44.939999999999685],[-18.464946097722688,43.319999999999716],[-18.88761547039055,41.63999999999975],[-19.259999999999422,39.90934819483201],[-19.600165386846946,38.03999999999983],[-19.890620301466658,36.11999999999987],[-20.13408667864773,34.139999999999915],[-20.33063378147678,32.09999999999995],[-20.479506837830478,30.0]]]}}]}