{"type":"FeatureCollection","properties":{"largura_maxima_km":153.609,"largura_sobre_pt_km":148.437,"linha_central_sobre_pt":false,"desenhavel_como_area":true,"perfil_largura":[{"t":1.87778,"lat":49.1068,"lon":-38.9752,"largura_km":153.609,"eixo_na_terra":true},{"t":1.88333,"lat":49.0851,"lon":-37.8786,"largura_km":152.89,"eixo_na_terra":true},{"t":1.88889,"lat":49.0529,"lon":-36.7069,"largura_km":152.091,"eixo_na_terra":true},{"t":1.89444,"lat":49.008,"lon":-35.4434,"largura_km":151.171,"eixo_na_terra":true},{"t":1.9,"lat":48.9471,"lon":-34.0639,"largura_km":150.044,"eixo_na_terra":true},{"t":1.90556,"lat":48.865,"lon":-32.5312,"largura_km":148.437,"eixo_na_terra":true},{"t":1.91111,"lat":48.5871,"lon":-28.7408,"largura_km":null,"eixo_na_terra":false},{"t":1.91667,"lat":48.4633,"lon":-27.6818,"largura_km":null,"eixo_na_terra":false},{"t":1.92222,"lat":48.3759,"lon":-27.0083,"largura_km":null,"eixo_na_terra":false},{"t":1.92778,"lat":48.2325,"lon":-26.0989,"largura_km":null,"eixo_na_terra":false},{"t":1.93333,"lat":48.1199,"lon":-25.2163,"largura_km":null,"eixo_na_terra":false},{"t":1.93889,"lat":47.9868,"lon":-24.4036,"largura_km":null,"eixo_na_terra":false},{"t":1.94444,"lat":47.736,"lon":-22.6044,"largura_km":null,"eixo_na_terra":false}]},"features":[{"type":"Feature","properties":{},"geometry":{"type":"Polygon","coordinates":[[[-20.665743202682393,47.13153558342974],[-21.573478868991053,47.239151354242786],[-21.589167157458576,47.20500060374861],[-22.75437911614017,47.34360508616902],[-23.537500286702112,47.43290249235174],[-25.4510179172728,47.64305293319594],[-27.75857907822231,47.85191396262283],[-28.427027033631038,47.91396380571737],[-29.61425082651698,47.99969077586187],[-30.11472795174498,48.03804073391017],[-30.58800650190226,48.07647201754493],[-31.129935483393012,48.107061214908526],[-31.57920842162264,48.134329074826525],[-32.00242013667835,48.162135324514125],[-32.36693502676233,48.1882722981153],[-33.05128753732629,48.21933684557501],[-33.62119109024749,48.250502967851354],[-33.9758479659078,48.27314758236973],[-34.38335088611123,48.303291742952744],[-34.451605358573715,48.28737343845031],[-35.88623445244065,48.343113644161726],[-37.12013819367297,48.38046254445942],[-38.26580539468125,48.406000034976216],[-39.339005306582976,48.42183395089143],[-40.35125347406904,48.42950743181806],[-37.35144986573687,49.76056006304524],[-36.14462455578024,49.7202516303114],[-34.84018807809596,49.66597654015361],[-33.317530807907474,49.588719482849314],[-31.711037264775428,49.49126060275695],[-29.857933355325287,49.35870938309771],[-29.948376992484196,49.337616122763826],[-29.601046139773075,49.31863994110954],[-29.05076141226982,49.28393410052047],[-28.482408620230046,49.24268639700888],[-27.895596777232413,49.194669494085446],[-27.289524400893583,49.13962352504449],[-26.978856286874702,49.10936819924225],[-26.662781485995055,49.07722906031244],[-26.158209006959357,49.02303806989568],[-25.719655595545248,48.982089908236325],[-25.304765656465236,48.94124231471399],[-24.86771483222725,48.896212324612605],[-24.403589187275713,48.84629165399908],[-23.90511982139097,48.79044267634557],[-23.360823455450998,48.727037202029415],[-22.750704536568946,48.65325277471433],[-22.033916434672307,48.56333995085023],[-21.095131749215057,48.44109544486915],[-21.093748112128257,48.43931948497901],[-20.92318639534622,48.41813888072323],[-20.976451986207785,48.32948095728902],[-19.83934067930676,48.16531474896514],[-20.48370419339582,47.65630091657788],[-20.2278617127065,47.32791568591809],[-20.89808140762471,47.40398377846579],[-20.665743202682393,47.13153558342974]]]}}]}