{"type":"FeatureCollection","properties":{"largura_maxima_km":91.414,"largura_sobre_pt_km":72.019,"linha_central_sobre_pt":false,"desenhavel_como_area":true,"perfil_largura":[{"t":-1.0,"lat":43.4909,"lon":-39.893,"largura_km":91.414,"eixo_na_terra":true},{"t":-0.99444,"lat":43.4036,"lon":-39.5299,"largura_km":91.01,"eixo_na_terra":true},{"t":-0.98889,"lat":43.3198,"lon":-39.1755,"largura_km":90.621,"eixo_na_terra":true},{"t":-0.98333,"lat":43.2393,"lon":-38.8293,"largura_km":90.244,"eixo_na_terra":true},{"t":-0.97778,"lat":43.1619,"lon":-38.4906,"largura_km":89.878,"eixo_na_terra":true},{"t":-0.97222,"lat":43.0873,"lon":-38.1592,"largura_km":89.523,"eixo_na_terra":true},{"t":-0.96667,"lat":43.0156,"lon":-37.8345,"largura_km":89.179,"eixo_na_terra":true},{"t":-0.96111,"lat":42.9465,"lon":-37.5163,"largura_km":88.843,"eixo_na_terra":true},{"t":-0.95556,"lat":42.8799,"lon":-37.2041,"largura_km":88.517,"eixo_na_terra":true},{"t":-0.95,"lat":42.8157,"lon":-36.8976,"largura_km":88.2,"eixo_na_terra":true},{"t":-0.94444,"lat":42.7538,"lon":-36.5967,"largura_km":87.891,"eixo_na_terra":true},{"t":-0.93889,"lat":42.6941,"lon":-36.3009,"largura_km":87.589,"eixo_na_terra":true},{"t":-0.93333,"lat":42.6364,"lon":-36.01,"largura_km":87.296,"eixo_na_terra":true},{"t":-0.92778,"lat":42.5809,"lon":-35.7239,"largura_km":87.01,"eixo_na_terra":true},{"t":-0.92222,"lat":42.5272,"lon":-35.4423,"largura_km":86.731,"eixo_na_terra":true},{"t":-0.91667,"lat":42.4754,"lon":-35.165,"largura_km":86.458,"eixo_na_terra":true},{"t":-0.91111,"lat":42.4254,"lon":-34.8918,"largura_km":86.191,"eixo_na_terra":true},{"t":-0.90556,"lat":42.3772,"lon":-34.6225,"largura_km":85.93,"eixo_na_terra":true},{"t":-0.9,"lat":42.3306,"lon":-34.3571,"largura_km":85.675,"eixo_na_terra":true},{"t":-0.89444,"lat":42.2857,"lon":-34.0953,"largura_km":85.425,"eixo_na_terra":true},{"t":-0.88889,"lat":42.2423,"lon":-33.8369,"largura_km":85.18,"eixo_na_terra":true},{"t":-0.88333,"lat":42.2005,"lon":-33.582,"largura_km":84.941,"eixo_na_terra":true},{"t":-0.87778,"lat":42.1601,"lon":-33.3302,"largura_km":84.706,"eixo_na_terra":true},{"t":-0.87222,"lat":42.1211,"lon":-33.0816,"largura_km":84.476,"eixo_na_terra":true},{"t":-0.86667,"lat":42.0836,"lon":-32.836,"largura_km":84.25,"eixo_na_terra":true},{"t":-0.86111,"lat":42.0474,"lon":-32.5933,"largura_km":84.029,"eixo_na_terra":true},{"t":-0.85556,"lat":42.0125,"lon":-32.3533,"largura_km":83.813,"eixo_na_terra":true},{"t":-0.85,"lat":41.9789,"lon":-32.1161,"largura_km":83.601,"eixo_na_terra":true},{"t":-0.84444,"lat":41.9465,"lon":-31.8815,"largura_km":83.392,"eixo_na_terra":true},{"t":-0.83889,"lat":41.9154,"lon":-31.6493,"largura_km":83.187,"eixo_na_terra":true},{"t":-0.83333,"lat":41.8854,"lon":-31.4197,"largura_km":82.986,"eixo_na_terra":true},{"t":-0.82778,"lat":41.8566,"lon":-31.1923,"largura_km":82.788,"eixo_na_terra":true},{"t":-0.82222,"lat":41.8289,"lon":-30.9673,"largura_km":82.594,"eixo_na_terra":true},{"t":-0.81667,"lat":41.8024,"lon":-30.7444,"largura_km":82.403,"eixo_na_terra":true},{"t":-0.81111,"lat":41.7769,"lon":-30.5238,"largura_km":82.215,"eixo_na_terra":true},{"t":-0.80556,"lat":41.7525,"lon":-30.3051,"largura_km":82.031,"eixo_na_terra":true},{"t":-0.8,"lat":41.7291,"lon":-30.0885,"largura_km":81.849,"eixo_na_terra":true},{"t":-0.79444,"lat":41.7067,"lon":-29.8739,"largura_km":81.67,"eixo_na_terra":true},{"t":-0.78889,"lat":41.6853,"lon":-29.6611,"largura_km":81.494,"eixo_na_terra":true},{"t":-0.78333,"lat":41.6649,"lon":-29.4502,"largura_km":81.321,"eixo_na_terra":true},{"t":-0.77778,"lat":41.6454,"lon":-29.2411,"largura_km":81.151,"eixo_na_terra":true},{"t":-0.77222,"lat":41.6269,"lon":-29.0337,"largura_km":80.985,"eixo_na_terra":true},{"t":-0.76667,"lat":41.6093,"lon":-28.8279,"largura_km":80.82,"eixo_na_terra":true},{"t":-0.76111,"lat":41.5926,"lon":-28.6239,"largura_km":80.659,"eixo_na_terra":true},{"t":-0.75556,"lat":41.5768,"lon":-28.4214,"largura_km":80.499,"eixo_na_terra":true},{"t":-0.75,"lat":41.5618,"lon":-28.2205,"largura_km":80.342,"eixo_na_terra":true},{"t":-0.74444,"lat":41.5477,"lon":-28.0211,"largura_km":80.188,"eixo_na_terra":true},{"t":-0.73889,"lat":41.5345,"lon":-27.8231,"largura_km":80.035,"eixo_na_terra":true},{"t":-0.73333,"lat":41.5221,"lon":-27.6266,"largura_km":79.885,"eixo_na_terra":true},{"t":-0.72778,"lat":41.5105,"lon":-27.4315,"largura_km":79.737,"eixo_na_terra":true},{"t":-0.72222,"lat":41.4997,"lon":-27.2377,"largura_km":79.591,"eixo_na_terra":true},{"t":-0.71667,"lat":41.4897,"lon":-27.0452,"largura_km":79.446,"eixo_na_terra":true},{"t":-0.71111,"lat":41.4805,"lon":-26.8541,"largura_km":79.304,"eixo_na_terra":true},{"t":-0.70556,"lat":41.472,"lon":-26.6641,"largura_km":79.164,"eixo_na_terra":true},{"t":-0.7,"lat":41.4643,"lon":-26.4754,"largura_km":79.025,"eixo_na_terra":true},{"t":-0.69444,"lat":41.4574,"lon":-26.2879,"largura_km":78.889,"eixo_na_terra":true},{"t":-0.68889,"lat":41.4512,"lon":-26.1016,"largura_km":78.754,"eixo_na_terra":true},{"t":-0.68333,"lat":41.4457,"lon":-25.9163,"largura_km":78.621,"eixo_na_terra":true},{"t":-0.67778,"lat":41.4409,"lon":-25.7322,"largura_km":78.491,"eixo_na_terra":true},{"t":-0.67222,"lat":41.4369,"lon":-25.5492,"largura_km":78.361,"eixo_na_terra":true},{"t":-0.66667,"lat":41.4335,"lon":-25.3671,"largura_km":78.234,"eixo_na_terra":true},{"t":-0.66111,"lat":41.4309,"lon":-25.1861,"largura_km":78.108,"eixo_na_terra":true},{"t":-0.65556,"lat":41.4289,"lon":-25.0061,"largura_km":77.984,"eixo_na_terra":true},{"t":-0.65,"lat":41.4277,"lon":-24.8271,"largura_km":77.861,"eixo_na_terra":true},{"t":-0.64444,"lat":41.4271,"lon":-24.649,"largura_km":77.74,"eixo_na_terra":true},{"t":-0.63889,"lat":41.4271,"lon":-24.4719,"largura_km":77.621,"eixo_na_terra":true},{"t":-0.63333,"lat":41.4278,"lon":-24.2956,"largura_km":77.503,"eixo_na_terra":true},{"t":-0.62778,"lat":41.4292,"lon":-24.1202,"largura_km":77.387,"eixo_na_terra":true},{"t":-0.62222,"lat":41.4312,"lon":-23.9457,"largura_km":77.272,"eixo_na_terra":true},{"t":-0.61667,"lat":41.4338,"lon":-23.772,"largura_km":77.158,"eixo_na_terra":true},{"t":-0.61111,"lat":41.4371,"lon":-23.5991,"largura_km":77.046,"eixo_na_terra":true},{"t":-0.60556,"lat":41.441,"lon":-23.427,"largura_km":76.936,"eixo_na_terra":true},{"t":-0.6,"lat":41.4455,"lon":-23.2557,"largura_km":76.826,"eixo_na_terra":true},{"t":-0.59444,"lat":41.4507,"lon":-23.0851,"largura_km":76.718,"eixo_na_terra":true},{"t":-0.58889,"lat":41.4564,"lon":-22.9153,"largura_km":76.611,"eixo_na_terra":true},{"t":-0.58333,"lat":41.4628,"lon":-22.7461,"largura_km":76.506,"eixo_na_terra":true},{"t":-0.57778,"lat":41.4697,"lon":-22.5777,"largura_km":76.402,"eixo_na_terra":true},{"t":-0.57222,"lat":41.4773,"lon":-22.41,"largura_km":76.299,"eixo_na_terra":true},{"t":-0.56667,"lat":41.4854,"lon":-22.2429,"largura_km":76.198,"eixo_na_terra":true},{"t":-0.56111,"lat":41.4942,"lon":-22.0765,"largura_km":76.098,"eixo_na_terra":true},{"t":-0.55556,"lat":41.5035,"lon":-21.9107,"largura_km":75.999,"eixo_na_terra":true},{"t":-0.55,"lat":41.5133,"lon":-21.7455,"largura_km":75.901,"eixo_na_terra":true},{"t":-0.54444,"lat":41.5238,"lon":-21.5809,"largura_km":75.805,"eixo_na_terra":true},{"t":-0.53889,"lat":41.5348,"lon":-21.4169,"largura_km":75.709,"eixo_na_terra":true},{"t":-0.53333,"lat":41.5464,"lon":-21.2534,"largura_km":75.615,"eixo_na_terra":true},{"t":-0.52778,"lat":41.5586,"lon":-21.0905,"largura_km":75.522,"eixo_na_terra":true},{"t":-0.52222,"lat":41.5713,"lon":-20.9282,"largura_km":75.43,"eixo_na_terra":true},{"t":-0.51667,"lat":41.5846,"lon":-20.7663,"largura_km":75.339,"eixo_na_terra":true},{"t":-0.51111,"lat":41.5984,"lon":-20.605,"largura_km":75.25,"eixo_na_terra":true},{"t":-0.50556,"lat":41.6128,"lon":-20.4442,"largura_km":75.161,"eixo_na_terra":true},{"t":-0.5,"lat":41.6277,"lon":-20.2838,"largura_km":75.074,"eixo_na_terra":true},{"t":-0.49444,"lat":41.6432,"lon":-20.1239,"largura_km":74.988,"eixo_na_terra":true},{"t":-0.48889,"lat":41.6592,"lon":-19.9645,"largura_km":74.903,"eixo_na_terra":true},{"t":-0.48333,"lat":41.6758,"lon":-19.8055,"largura_km":74.82,"eixo_na_terra":true},{"t":-0.47778,"lat":41.6929,"lon":-19.6469,"largura_km":74.737,"eixo_na_terra":true},{"t":-0.47222,"lat":41.7105,"lon":-19.4888,"largura_km":74.656,"eixo_na_terra":true},{"t":-0.46667,"lat":41.7287,"lon":-19.331,"largura_km":74.576,"eixo_na_terra":true},{"t":-0.46111,"lat":41.7474,"lon":-19.1736,"largura_km":74.497,"eixo_na_terra":true},{"t":-0.45556,"lat":41.7666,"lon":-19.0166,"largura_km":74.419,"eixo_na_terra":true},{"t":-0.45,"lat":41.7864,"lon":-18.86,"largura_km":74.343,"eixo_na_terra":true},{"t":-0.44444,"lat":41.8066,"lon":-18.7037,"largura_km":74.267,"eixo_na_terra":true},{"t":-0.43889,"lat":41.8274,"lon":-18.5478,"largura_km":74.193,"eixo_na_terra":true},{"t":-0.43333,"lat":41.8488,"lon":-18.3922,"largura_km":74.119,"eixo_na_terra":true},{"t":-0.42778,"lat":41.8706,"lon":-18.2369,"largura_km":74.047,"eixo_na_terra":true},{"t":-0.42222,"lat":41.893,"lon":-18.0819,"largura_km":73.976,"eixo_na_terra":true},{"t":-0.41667,"lat":41.9158,"lon":-17.9272,"largura_km":73.905,"eixo_na_terra":true},{"t":-0.41111,"lat":41.9392,"lon":-17.7728,"largura_km":73.836,"eixo_na_terra":true},{"t":-0.40556,"lat":41.9631,"lon":-17.6186,"largura_km":73.768,"eixo_na_terra":true},{"t":-0.4,"lat":41.9876,"lon":-17.4647,"largura_km":73.702,"eixo_na_terra":true},{"t":-0.39444,"lat":42.0125,"lon":-17.3111,"largura_km":73.636,"eixo_na_terra":true},{"t":-0.38889,"lat":42.038,"lon":-17.1577,"largura_km":73.571,"eixo_na_terra":true},{"t":-0.38333,"lat":42.0639,"lon":-17.0045,"largura_km":73.508,"eixo_na_terra":true},{"t":-0.37778,"lat":42.0904,"lon":-16.8516,"largura_km":73.445,"eixo_na_terra":true},{"t":-0.37222,"lat":42.1174,"lon":-16.6988,"largura_km":73.384,"eixo_na_terra":true},{"t":-0.36667,"lat":42.1449,"lon":-16.5462,"largura_km":73.324,"eixo_na_terra":true},{"t":-0.36111,"lat":42.1729,"lon":-16.3939,"largura_km":73.265,"eixo_na_terra":true},{"t":-0.35556,"lat":42.2014,"lon":-16.2417,"largura_km":73.208,"eixo_na_terra":true},{"t":-0.35,"lat":42.2304,"lon":-16.0896,"largura_km":73.152,"eixo_na_terra":true},{"t":-0.34444,"lat":42.2599,"lon":-15.9378,"largura_km":73.097,"eixo_na_terra":true},{"t":-0.33889,"lat":42.29,"lon":-15.786,"largura_km":73.044,"eixo_na_terra":true},{"t":-0.33333,"lat":42.3205,"lon":-15.6344,"largura_km":72.992,"eixo_na_terra":true},{"t":-0.32778,"lat":42.3516,"lon":-15.4829,"largura_km":72.941,"eixo_na_terra":true},{"t":-0.32222,"lat":42.3831,"lon":-15.3316,"largura_km":72.891,"eixo_na_terra":true},{"t":-0.31667,"lat":42.4152,"lon":-15.1803,"largura_km":72.842,"eixo_na_terra":true},{"t":-0.31111,"lat":42.4478,"lon":-15.0291,"largura_km":72.795,"eixo_na_terra":true},{"t":-0.30556,"lat":42.4808,"lon":-14.878,"largura_km":72.748,"eixo_na_terra":true},{"t":-0.3,"lat":42.5144,"lon":-14.727,"largura_km":72.703,"eixo_na_terra":true},{"t":-0.29444,"lat":42.5485,"lon":-14.5761,"largura_km":72.66,"eixo_na_terra":true},{"t":-0.28889,"lat":42.5832,"lon":-14.4251,"largura_km":72.617,"eixo_na_terra":true},{"t":-0.28333,"lat":42.6183,"lon":-14.2743,"largura_km":72.576,"eixo_na_terra":true},{"t":-0.27778,"lat":42.6539,"lon":-14.1235,"largura_km":72.536,"eixo_na_terra":true},{"t":-0.27222,"lat":42.6901,"lon":-13.9727,"largura_km":72.497,"eixo_na_terra":true},{"t":-0.26667,"lat":42.7267,"lon":-13.8219,"largura_km":72.46,"eixo_na_terra":true},{"t":-0.26111,"lat":42.7639,"lon":-13.6711,"largura_km":72.424,"eixo_na_terra":true},{"t":-0.25556,"lat":42.8016,"lon":-13.5203,"largura_km":72.389,"eixo_na_terra":true},{"t":-0.25,"lat":42.8398,"lon":-13.3694,"largura_km":72.356,"eixo_na_terra":true},{"t":-0.24444,"lat":42.8785,"lon":-13.2186,"largura_km":72.324,"eixo_na_terra":true},{"t":-0.23889,"lat":42.9178,"lon":-13.0677,"largura_km":72.293,"eixo_na_terra":true},{"t":-0.23333,"lat":42.9575,"lon":-12.9168,"largura_km":72.264,"eixo_na_terra":true},{"t":-0.22778,"lat":42.9978,"lon":-12.7658,"largura_km":72.237,"eixo_na_terra":true},{"t":-0.22222,"lat":43.0386,"lon":-12.6148,"largura_km":72.211,"eixo_na_terra":true},{"t":-0.21667,"lat":43.0799,"lon":-12.4636,"largura_km":72.187,"eixo_na_terra":true},{"t":-0.21111,"lat":43.1218,"lon":-12.3124,"largura_km":72.163,"eixo_na_terra":true},{"t":-0.20556,"lat":43.1642,"lon":-12.1611,"largura_km":72.142,"eixo_na_terra":true},{"t":-0.2,"lat":43.2071,"lon":-12.0097,"largura_km":72.122,"eixo_na_terra":true},{"t":-0.19444,"lat":43.2505,"lon":-11.8581,"largura_km":72.104,"eixo_na_terra":true},{"t":-0.18889,"lat":43.2945,"lon":-11.7065,"largura_km":72.087,"eixo_na_terra":true},{"t":-0.18333,"lat":43.339,"lon":-11.5546,"largura_km":72.072,"eixo_na_terra":true},{"t":-0.17778,"lat":43.3841,"lon":-11.4027,"largura_km":72.058,"eixo_na_terra":true},{"t":-0.17222,"lat":43.4297,"lon":-11.2506,"largura_km":72.046,"eixo_na_terra":true},{"t":-0.16667,"lat":43.4758,"lon":-11.0983,"largura_km":72.036,"eixo_na_terra":true},{"t":-0.16111,"lat":43.5225,"lon":-10.9458,"largura_km":72.027,"eixo_na_terra":true},{"t":-0.15556,"lat":43.5697,"lon":-10.7931,"largura_km":72.019,"eixo_na_terra":true},{"t":-0.15,"lat":43.6175,"lon":-10.6402,"largura_km":72.014,"eixo_na_terra":true},{"t":-0.14444,"lat":43.6658,"lon":-10.4872,"largura_km":72.01,"eixo_na_terra":true},{"t":-0.13889,"lat":43.7147,"lon":-10.3338,"largura_km":72.007,"eixo_na_terra":true},{"t":-0.13333,"lat":43.7641,"lon":-10.1803,"largura_km":72.006,"eixo_na_terra":true},{"t":-0.12778,"lat":43.8141,"lon":-10.0265,"largura_km":72.007,"eixo_na_terra":true},{"t":-0.12222,"lat":43.8647,"lon":-9.8724,"largura_km":72.01,"eixo_na_terra":true},{"t":-0.11667,"lat":43.9158,"lon":-9.7181,"largura_km":72.014,"eixo_na_terra":true},{"t":-0.11111,"lat":43.9675,"lon":-9.5635,"largura_km":72.021,"eixo_na_terra":true},{"t":-0.10556,"lat":44.0198,"lon":-9.4086,"largura_km":72.028,"eixo_na_terra":true},{"t":-0.1,"lat":44.0727,"lon":-9.2534,"largura_km":72.038,"eixo_na_terra":true},{"t":-0.09444,"lat":44.1261,"lon":-9.0978,"largura_km":72.05,"eixo_na_terra":true},{"t":-0.08889,"lat":44.1801,"lon":-8.942,"largura_km":72.064,"eixo_na_terra":true},{"t":-0.08333,"lat":44.2347,"lon":-8.7857,"largura_km":72.079,"eixo_na_terra":true},{"t":-0.07778,"lat":44.29,"lon":-8.6292,"largura_km":72.097,"eixo_na_terra":true},{"t":-0.07222,"lat":44.3458,"lon":-8.4722,"largura_km":72.116,"eixo_na_terra":true},{"t":-0.06667,"lat":44.4022,"lon":-8.3149,"largura_km":72.138,"eixo_na_terra":true},{"t":-0.06111,"lat":44.4592,"lon":-8.1572,"largura_km":72.161,"eixo_na_terra":true},{"t":-0.05556,"lat":44.5168,"lon":-7.9991,"largura_km":72.186,"eixo_na_terra":true},{"t":-0.05,"lat":44.5751,"lon":-7.8405,"largura_km":72.213,"eixo_na_terra":true},{"t":-0.04444,"lat":44.6339,"lon":-7.6815,"largura_km":72.243,"eixo_na_terra":true},{"t":-0.03889,"lat":44.6934,"lon":-7.5221,"largura_km":72.274,"eixo_na_terra":true},{"t":-0.03333,"lat":44.7535,"lon":-7.3622,"largura_km":72.307,"eixo_na_terra":true},{"t":-0.02778,"lat":44.8143,"lon":-7.2018,"largura_km":72.343,"eixo_na_terra":true},{"t":-0.02222,"lat":44.8757,"lon":-7.041,"largura_km":72.38,"eixo_na_terra":true},{"t":-0.01667,"lat":44.9378,"lon":-6.8796,"largura_km":72.42,"eixo_na_terra":true},{"t":-0.01111,"lat":45.0005,"lon":-6.7177,"largura_km":72.462,"eixo_na_terra":true},{"t":-0.00556,"lat":45.0638,"lon":-6.5553,"largura_km":72.507,"eixo_na_terra":true},{"t":-0.0,"lat":45.1279,"lon":-6.3923,"largura_km":72.553,"eixo_na_terra":true},{"t":0.00556,"lat":45.1926,"lon":-6.2287,"largura_km":72.602,"eixo_na_terra":true},{"t":0.01111,"lat":45.2579,"lon":-6.0645,"largura_km":72.653,"eixo_na_terra":true},{"t":0.01667,"lat":45.324,"lon":-5.8998,"largura_km":72.706,"eixo_na_terra":true},{"t":0.02222,"lat":45.3908,"lon":-5.7344,"largura_km":72.762,"eixo_na_terra":true},{"t":0.02778,"lat":45.4582,"lon":-5.5684,"largura_km":72.82,"eixo_na_terra":true},{"t":0.03333,"lat":45.5264,"lon":-5.4017,"largura_km":72.88,"eixo_na_terra":true},{"t":0.03889,"lat":45.5953,"lon":-5.2344,"largura_km":72.943,"eixo_na_terra":true},{"t":0.04444,"lat":45.6649,"lon":-5.0663,"largura_km":73.008,"eixo_na_terra":true},{"t":0.05,"lat":45.7352,"lon":-4.8976,"largura_km":73.076,"eixo_na_terra":true},{"t":0.05556,"lat":45.8063,"lon":-4.7281,"largura_km":73.146,"eixo_na_terra":true},{"t":0.06111,"lat":45.8781,"lon":-4.5579,"largura_km":73.219,"eixo_na_terra":true},{"t":0.06667,"lat":45.9507,"lon":-4.3869,"largura_km":73.295,"eixo_na_terra":true},{"t":0.07222,"lat":46.024,"lon":-4.2151,"largura_km":73.373,"eixo_na_terra":true},{"t":0.07778,"lat":46.0982,"lon":-4.0425,"largura_km":73.454,"eixo_na_terra":true},{"t":0.08333,"lat":46.1731,"lon":-3.869,"largura_km":73.538,"eixo_na_terra":true},{"t":0.08889,"lat":46.2488,"lon":-3.6947,"largura_km":73.624,"eixo_na_terra":true},{"t":0.09444,"lat":46.3253,"lon":-3.5195,"largura_km":73.713,"eixo_na_terra":true},{"t":0.1,"lat":46.4026,"lon":-3.3434,"largura_km":73.805,"eixo_na_terra":true},{"t":0.10556,"lat":46.4807,"lon":-3.1664,"largura_km":73.9,"eixo_na_terra":true},{"t":0.11111,"lat":46.5597,"lon":-2.9884,"largura_km":73.997,"eixo_na_terra":true},{"t":0.11667,"lat":46.6395,"lon":-2.8095,"largura_km":74.098,"eixo_na_terra":true},{"t":0.12222,"lat":46.7202,"lon":-2.6295,"largura_km":74.201,"eixo_na_terra":true},{"t":0.12778,"lat":46.8018,"lon":-2.4485,"largura_km":74.308,"eixo_na_terra":true},{"t":0.13333,"lat":46.8843,"lon":-2.2665,"largura_km":74.417,"eixo_na_terra":true},{"t":0.13889,"lat":46.9676,"lon":-2.0833,"largura_km":74.53,"eixo_na_terra":true},{"t":0.14444,"lat":47.0519,"lon":-1.8991,"largura_km":74.646,"eixo_na_terra":true},{"t":0.15,"lat":47.1371,"lon":-1.7137,"largura_km":74.765,"eixo_na_terra":true},{"t":0.15556,"lat":47.2232,"lon":-1.5271,"largura_km":74.887,"eixo_na_terra":true},{"t":0.16111,"lat":47.3103,"lon":-1.3393,"largura_km":75.012,"eixo_na_terra":true},{"t":0.16667,"lat":47.3984,"lon":-1.1503,"largura_km":75.141,"eixo_na_terra":true},{"t":0.17222,"lat":47.4875,"lon":-0.9599,"largura_km":75.274,"eixo_na_terra":true},{"t":0.17778,"lat":47.5775,"lon":-0.7683,"largura_km":75.41,"eixo_na_terra":true},{"t":0.18333,"lat":47.6686,"lon":-0.5753,"largura_km":75.549,"eixo_na_terra":true},{"t":0.18889,"lat":47.7608,"lon":-0.3809,"largura_km":75.692,"eixo_na_terra":true},{"t":0.19444,"lat":47.854,"lon":-0.1851,"largura_km":75.838,"eixo_na_terra":true},{"t":0.2,"lat":47.9482,"lon":0.0121,"largura_km":75.989,"eixo_na_terra":true},{"t":0.20556,"lat":48.0436,"lon":0.2109,"largura_km":76.143,"eixo_na_terra":true},{"t":0.21111,"lat":48.1401,"lon":0.4113,"largura_km":76.301,"eixo_na_terra":true},{"t":0.21667,"lat":48.2378,"lon":0.6132,"largura_km":76.463,"eixo_na_terra":true},{"t":0.22222,"lat":48.3366,"lon":0.8168,"largura_km":76.629,"eixo_na_terra":true},{"t":0.22778,"lat":48.4366,"lon":1.0221,"largura_km":76.799,"eixo_na_terra":true},{"t":0.23333,"lat":48.5378,"lon":1.2291,"largura_km":76.974,"eixo_na_terra":true},{"t":0.23889,"lat":48.6403,"lon":1.4379,"largura_km":77.152,"eixo_na_terra":true},{"t":0.24444,"lat":48.744,"lon":1.6486,"largura_km":77.335,"eixo_na_terra":true},{"t":0.25,"lat":48.8491,"lon":1.8612,"largura_km":77.523,"eixo_na_terra":true},{"t":0.25556,"lat":48.9554,"lon":2.0758,"largura_km":77.715,"eixo_na_terra":true},{"t":0.26111,"lat":49.0631,"lon":2.2924,"largura_km":77.913,"eixo_na_terra":true},{"t":0.26667,"lat":49.1722,"lon":2.5111,"largura_km":78.114,"eixo_na_terra":true},{"t":0.27222,"lat":49.2827,"lon":2.732,"largura_km":78.321,"eixo_na_terra":true},{"t":0.27778,"lat":49.3947,"lon":2.9551,"largura_km":78.533,"eixo_na_terra":true},{"t":0.28333,"lat":49.5082,"lon":3.1805,"largura_km":78.75,"eixo_na_terra":true},{"t":0.28889,"lat":49.6232,"lon":3.4083,"largura_km":78.972,"eixo_na_terra":true},{"t":0.29444,"lat":49.7397,"lon":3.6385,"largura_km":79.199,"eixo_na_terra":true},{"t":0.3,"lat":49.8579,"lon":3.8713,"largura_km":79.432,"eixo_na_terra":true},{"t":0.30556,"lat":49.9777,"lon":4.1068,"largura_km":79.671,"eixo_na_terra":true}]},"features":[{"type":"Feature","properties":{},"geometry":{"type":"Polygon","coordinates":[[[-29.105756970261268,42.00436950947929],[-28.690553938723866,41.96716321717886],[-28.080118655592486,41.918319199228755],[-27.680881967957646,41.89021449271702],[-27.092783994128865,41.85445697788198],[-26.707450159857274,41.83473326359319],[-26.138852952141775,41.811083572825595],[-25.58077765669617,41.79430180256781],[-25.03243549841332,41.784128867329144],[-24.67621286709914,41.78088803085],[-24.14244292808951,41.781193080038015],[-23.616608085105696,41.787541514682054],[-23.098122921450766,41.79975937312276],[-22.586442642669255,41.817690491659775],[-22.081058281563884,41.84119478619901],[-21.581492530165434,41.870146778660605],[-21.087296095842447,41.90443433003643],[-20.59804449751246,41.94395754909915],[-20.11710336421612,41.98825182921077],[-19.636521766543893,42.03796639636874],[-19.15973683831197,42.09268198755093],[-18.68639779874212,42.152339433009786],[-18.21616722437284,42.21688824723507],[-17.748719374223242,42.286286190554335],[-17.28373865296129,42.36049889949568],[-16.82091819051405,42.43949957929324],[-16.363521175037874,42.52260077554723],[-15.904121604867697,42.611102107558764],[-15.446003782914318,42.70435395038423],[-14.988883227199409,42.8023577260332],[-14.5324782442637,42.90512166398749],[-14.076508875026065,43.01266078487276],[-13.77263339885647,43.08701691332789],[-13.468744636389061,43.16351307597567],[-13.012704964882147,43.2822911315519],[-12.556166967041207,43.40594413904245],[-12.102412073866276,43.53350975513396],[-11.644038216662864,43.667026975170984],[-11.184302950746456,43.80557672369432],[-10.722907020672551,43.9492273703204],[-10.259543818562634,44.098055674348714],[-9.638119675549802,44.30469680969911],[-9.168922481139873,44.46595537276733],[-8.696665279443494,44.63271421117741],[-8.220993065254163,44.80509245083434],[-7.580807943670777,45.04389918653926],[-6.93687501250804,45.2917753261448],[-6.445422685976354,45.4859303081744],[-5.948659357563855,45.686428487094986],[-5.446109733573849,45.8934691638419],[-4.76616224576199,46.180080706951316],[-4.248079957676566,46.40327215311548],[-3.7223777856481206,46.63381863319175],[-3.188412339917818,46.87201753344319],[-2.645486412386333,47.11819635476212],[-2.0928413040155363,47.37271656193492],[-1.5296477920448979,47.63597812444222],[-0.954995424573724,47.90842490425201],[-0.3678797424557274,48.19055108939848],[0.23281308878361529,48.48290893001569],[0.848324913038482,48.78611811171208],[1.4800483774519364,49.10087720823095],[2.129555082433427,49.42797780393066],[2.7986307117118656,49.76832208600585],[3.4893193798450852,50.122945006394026],[4.203980331833662,50.49304255118976],[4.0309631785517865,49.49169487790794],[3.1231500517937434,49.040220437470964],[2.466025914532139,48.716540743373386],[1.8272214051558535,48.4046927907596],[1.199934487102439,48.10133722403573],[0.5933438647191736,47.81107824590101],[0.0008098558883204987,47.53063533646779],[-0.5787929136212426,47.25948121872996],[-1.1464794966227885,46.99714318078308],[-1.703169943472119,46.74319587026319],[-2.249702059086303,46.4972552886681],[-2.7868421049454923,46.25897375129565],[-3.4896272912986888,45.95263773333368],[-4.007495562998258,45.73104856538375],[-4.690856613942685,45.444282038098635],[-5.192585694869848,45.23804638799701],[-5.688287556136174,45.03800950489823],[-6.178428673044806,44.84398264496148],[-6.66344806513024,44.65579276202519],[-7.143760301861818,44.47328114441976],[-7.461548163693351,44.35468892974142],[-7.93487831719446,44.18132361092103],[-8.248353545701775,44.06870766990234],[-8.715706939213192,43.90413850255799],[-9.025514711401485,43.79728195944674],[-9.33761151501011,43.691450245766724],[-9.798122280610897,43.53872943641546],[-10.25623778010808,43.39091959791225],[-10.71225594523355,43.247941442681636],[-11.166466253156386,43.10972339486662],[-11.468408382614882,43.02019051551067],[-11.920229606306606,42.88976667602211],[-12.220833495386188,42.80537831594396],[-12.671022946814844,42.68260206178496],[-12.97423034582792,42.60236472368107],[-13.423517198803495,42.487143692745605],[-13.722923041077252,42.41281692449072],[-14.172046335268078,42.30503791545119],[-14.471583661277577,42.235649953011894],[-14.921264574240695,42.13525259490816],[-15.221414212570323,42.07077222694201],[-15.672375882616734,41.97772317248618],[-15.973622264682888,41.91813713160767],[-16.278913747221708,41.859864818782135],[-16.732911259471507,41.777120287417944],[-17.188658687007887,41.69879731702581],[-17.493599369682784,41.64904687349003],[-17.952883652098592,41.57813541909843],[-18.260446959811986,41.53334942590042],[-18.724071963417458,41.46992784402441],[-19.03480666614226,41.43016873885303],[-19.346970242705993,41.39244263874526],[-19.821755968564332,41.3393152974221],[-20.29668087615542,41.291258255564756],[-20.61555823488365,41.261843548005956],[-20.93636772766604,41.23455210574273],[-21.259219079604236,41.20940702049302],[-21.747573849495552,41.17576895263795],[-22.07603506924798,41.15610330107746],[-22.57337435588579,41.13081963606596],[-22.912186962485833,41.11669033359686],[-23.419791039828453,41.100097470107585],[-23.76192421846008,41.09201117842948],[-24.107219329615532,41.086354927036275],[-24.455836712612665,41.083174612125596],[-24.98536244655253,41.08315506110356],[-25.343040678148526,41.086387540302205],[-25.704669435290782,41.09228411115792],[-26.074897921528674,41.10106478347081],[-26.445106329828775,41.11250691255979],[-26.81991027848329,41.126816553457374],[-27.199550259802606,41.144071581492604],[-27.584282149160856,41.16435581013662],[-27.974378759825242,41.187759548930316],[-28.370131598389293,41.21438023420727],[-28.77185285364027,41.24432314440753],[-29.185000566360088,41.27820210159715],[-29.5997866823204,41.315176729097765],[-30.021631954016243,41.355847069848025],[-30.45095790256883,41.40035934862454],[-30.888221943022046,41.44887311112459],[-31.560103451663593,41.529532863358504],[-32.01949301533702,41.5888514539106],[-32.488777993670965,41.65286138882713],[-32.97492915766057,41.72281691500741],[-33.46631596441233,41.79703150284806],[-33.96990918881528,41.876760382367884],[-34.48665697892858,41.96234272427088],[-35.0176243665376,42.054160136860496],[-35.84341367704661,42.20453740904682],[-36.423394785670666,42.315622535387924],[-37.01507813167444,42.43319265175608],[-37.62797170929514,42.55950933345567],[-38.26436192945462,42.695394761549665],[-38.592194119079295,42.76722268149417],[-39.278736964009255,42.921758912518165],[-40.62443762004983,44.11396200847475],[-39.8550030999306,43.9189923523976],[-39.12508154730409,43.73999014724477],[-38.4295138210573,43.575028273914306],[-38.093282723728464,43.49731537300717],[-37.44169858009266,43.35059267841606],[-36.81543240693645,43.21453171077526],[-36.51096659157491,43.15019000433903],[-35.917942259063125,43.02835023054231],[-35.34447059449039,42.91501556763622],[-35.06451201469201,42.861330159899595],[-34.517170774836416,42.75955756663897],[-33.98543938151974,42.664816967170886],[-33.21443669642943,42.53489410673383],[-32.4721976957772,42.41842509844313],[-31.755695303013994,42.31428706623099],[-31.062354542038918,42.22152876338359],[-30.389962236818434,42.13933677965639],[-29.73659854149065,42.067009899422146],[-29.105756970261268,42.00436950947929]]]}}]}