{"type":"FeatureCollection","features":[{"type":"Feature","properties":{"t_inicio":-1.0000000000000107,"t_fim":0.30555555555554026},"geometry":{"type":"LineString","coordinates":[[-39.8930351408203,43.49093724172589],[-39.52993394868719,43.403649686098355],[-39.1755247995992,43.31983815211843],[-38.829254789820595,43.23930010331441],[-38.4906254401281,43.16185287651137],[-38.15918548496168,43.08733106059575],[-37.83452484372381,43.01558430403094],[-37.516269545768694,42.94647546838992],[-37.20407743102416,42.879879063404026],[-36.8976344861797,42.81567991277465],[-36.596651705309625,42.75377201046599],[-36.300862386054035,42.69405753525516],[-36.01001978974398,42.636445997566526],[-35.72389510736426,42.58085349751006],[-35.44227568390082,42.527202076903386],[-35.164963462077566,42.475419151121855],[-34.891773613256674,42.42543700907575],[-34.622533328721545,42.37719237158683],[-34.357080748975136,42.33062600003816],[-34.09526401227973,42.28568234847399],[-33.83694040660893,42.24230925339555],[-33.5819756116052,42.200457656377196],[-33.330243019143865,42.16008135535695],[-33.08162312277017,42.12113678105986],[-32.83600296766875,42.0835827955182],[-32.59327565399266,42.04738051007796],[-32.3533398873609,42.012493120636236],[-32.11609957116565,41.978885758158384],[-31.881463436033528,41.94652535277751],[-31.649344702386486,41.91538050999986],[-31.41966077255981,41.88542139772331],[-31.192332949373622,41.85661964293835],[-30.9672861784328,41.8289482371166],[-30.744448811754978,41.80238144941162],[-30.52375239060777,41.77689474689844],[-30.30513144568104,41.75246472116753],[-30.08852331293204,41.729069020666714],[-29.873867963625457,41.70668628825041],[-29.661107847253675,41.685296103456636],[-29.450187746162158,41.66487892908184],[-29.241054640831067,41.64541606167032],[-29.03365758487172,41.62688958557404],[-28.8279475888948,41.6092823302743],[-28.623877512490765,41.592577830688],[-28.42140196363937,41.576760290207574],[-28.22047720493157,41.56181454624986],[-28.02106106604714,41.54772603810957],[-27.823112861983617,41.53448077693282],[-27.62659331657946,41.5220653176432],[-27.431464490917392,41.51046673266925],[-27.237689716230364,41.499672587334125],[-27.045233530967494,41.48967091678276],[-26.854061621706734,41.48045020433118],[-26.664140767629647,41.47199936113393],[-26.475438788296913,41.46430770707374],[-26.287924494486106,41.45736495278579],[-26.10156764187343,41.451161182736804],[-25.916338887358677,41.4456868392854],[-25.732209747849595,41.440932707655975],[-25.549152561336257,41.436889901764225],[-25.36714045010035,41.43354985083743],[-25.18614728591521,41.43090428677651],[-25.006147657104975,41.4289452322119],[-24.827116837340753,41.4276649892078],[-24.64903075606071,41.4270561285743],[-24.47186597041039,41.42711147974842],[-24.29559963860595,41.42782412120902],[-24.12020949463178,41.42918737139314],[-23.94567382418859,41.43119478008246],[-23.77197144181588,41.43384012023263],[-23.599081669116543,41.437117380219064],[-23.426984314017346,41.441020756474195],[-23.255659651003555,41.44554464649466],[-23.08508840226969,41.45068364219647],[-22.915251719732908,41.45643252359889],[-22.746131167858778,41.462786252818894],[-22.57770870725261,41.469739968358695],[-22.409966678972637,41.47728897967099],[-22.24288778952416,41.485428761986476],[-22.076455096496147,41.49415495139038],[-21.910651994804823,41.5034633401343],[-21.745462203510442,41.51334987217194],[-21.580869753175506,41.5238106389067],[-21.41685897373526,41.53484187514098],[-21.253414482852406,41.54643995521693],[-21.0905211747301,41.55860138933939],[-20.928164209358414,41.57132282007225],[-20.76632900217146,41.58460101899993],[-20.60500121409305,41.59843288354637],[-20.444166741950852,41.61281543394418],[-20.283811709238904,41.62774581034708],[-20.123922457211165,41.64322127007963],[-19.964485536288038,41.659239185017476],[-19.805487697759787,41.67579703909323],[-19.646915885771733,41.69289242592235],[-19.488757229576038,41.71052304654379],[-19.33099903603653,41.72868670727116],[-19.17362878237367,41.74738131764979],[-19.016634109136476,41.76660488851533],[-18.86000281339031,41.786355530150416],[-18.703722842108903,41.80663145053536],[-18.547782285759837,41.827430953689635],[-18.39216937207354,41.848752438100625],[-18.236872459985875,41.87059439523713],[-18.081880033744994,41.89295540814424],[-17.927180697174066,41.915834150116964],[-17.772763168080672,41.93922938345058],[-17.618616272805497,41.96313995826466],[-17.46472894090192,41.987564811399054],[-17.311090199939855,42.012502965379674],[-17.15768917042567,42.03795352745195],[-17.004515060832517,42.06391568868049],[-16.85155716273337,42.09038872311294],[-16.698804846031152,42.11737198700671],[-16.546247554279688,42.14486491811715],[-16.39387480008918,42.17286703504569],[-16.241676160611036,42.20137793664679],[-16.089641273096134,42.23039730149278],[-15.937759830521259,42.25992488739514],[-15.786021577278461,42.28996053098189],[-15.634416304922297,42.320504147329494],[-15.482933847970088,42.35155572964947],[-15.331564079749938,42.383115349028124],[-15.180296908292433,42.4151831542196],[-15.02912227226085,42.44775937149121],[-14.878030136915498,42.480844304521085],[-14.727010490107745,42.51443833434734],[-14.576053338299403,42.54854191936918],[-14.425148702602797,42.583155595399106],[-14.274286614837592,42.61827997576639],[-14.123457113599812,42.653915751472205],[-13.972650240338965,42.69006369139579],[-13.821856035438998,42.72672464255228],[-13.671064534298836,42.76389953040241],[-13.520265763408304,42.8015893592141],[-13.369449736415163,42.83979521247667],[-13.218606450179237,42.878518253367815],[-13.06772588080895,42.91775972527413],[-12.916797979676346,42.957520952365925],[-12.76581266940616,42.997803340226454],[-12.614759839834221,43.0386083765371],[-12.463629343931387,43.07993763181876],[-12.312410993687706,43.121792760231145],[-12.161094555952758,43.16417550043],[-12.00966974822714,43.20708767648449],[-11.8581262344006,43.250531198855356],[-11.706453620431432,43.29450806543536],[-11.55464144996256,43.33902036265339],[-11.402679199868828,43.384070266644194],[-11.25055627573019,43.42966004448476],[-11.09826200722543,43.47579205549972],[-10.945785643440615,43.52246875263733],[-10.793116348086443,43.56969268391849],[-10.640243194618478,43.617466493960265],[-10.487155161253867,43.665792925577],[-10.33384112587811,43.71467482146107],[-10.18028986083516,43.764115125945885],[-10.02649002759361,43.814116886854066],[-9.872430171281849,43.864683257433626],[-9.718098715084295,43.91581749838546],[-9.56348395449109,43.96752297998488],[-9.408574051392549,44.019803184301814],[-9.253357028009674,44.072661707522],[-9.097820760652127,44.126102262374225],[-8.941952973293269,44.18012868066704],[-8.785741230952993,44.23474491594011],[-8.629172932877452,44.289955046233786],[-8.472235305504682,44.34576327698303],[-8.314915395204565,44.40217394403996],[-8.157200060781008,44.459191516831375],[-7.999075965723307,44.516820601656214],[-7.840529570193183,44.57506594513022],[-7.681547122733491,44.6339324377836],[-7.522114651683012,44.69342511781879],[-7.3622179562818815,44.753549175036504],[-7.20184259745065,44.814309954936626],[-7.040973888225068,44.875712963003714],[-6.87959688382827,44.937763869184664],[-6.717696371359494,45.000468512569235],[-6.555256859079435,45.063832906282165],[-6.39226256526868,45.12786324259877],[-6.228697406636286,45.19256589829406],[-6.064544986252827,45.25794744023885],[-5.899788580981266,45.32401463125407],[-5.7344111283769905,45.39077443623845],[-5.568395213026918,45.45823402858282],[-5.401723052294983,45.52640079688756],[-5.2343764814400515,45.595282351998904],[-5.066336938068844,45.66488653438236],[-4.8975854458855395,45.735221421851705],[-4.728102597695397,45.80629533767376],[-4.557868537618248,45.8781168590704],[-4.3868629424635515,45.950694826141245],[-4.215065002216335,46.02403835123093],[-4.042453399578534,46.098156828768055],[-3.8690062885075918,46.17305994560365],[-3.6947012716886434,46.2487576918798],[-3.5195153768730165,46.32526037246108],[-3.3434250320099466,46.40257861896326],[-3.1664060390935447,46.480723402417965],[-2.988433546640465,46.55970604661267],[-2.809482020707719,46.63953824215077],[-2.629525214352782,46.72023206127795],[-2.448536135430203,46.801799973526144],[-2.2664870126109804,46.88425486222952],[-2.083349259501034,46.967610041972286],[-1.899093436725508,47.05187927703185],[-1.7136892118342928,47.13707680088685],[-1.5271053168718254,47.223217336865844],[-1.339309503441342,47.310316120017475],[-1.150268495078194,47.39838892029119],[-0.9599479367314814,47.487452067125005],[-0.7683123411345321,47.577522475544875],[-0.5753250318258551,47.668617673890154],[-0.3809480825595415,47.76075583328978],[-0.18514225282044094,47.853955799025414],[0.012133080867783974,47.94823712393033],[0.21091999818270324,48.04362010398725],[0.4112621131664014,48.140125816303296],[0.6132046577227754,48.23777615965894],[0.8167945709015498,48.33659389784616],[1.0220805944675249,48.436602706032865],[1.2291133753040242,48.53782722041554],[1.4379455752587091,48.640293091448946],[1.6486319891021708,48.74402704097117],[1.8612296713451428,48.849056923579006],[2.0757980727389054,48.955411792644576],[2.292399187378578,49.063121971408634],[2.5110977114315176,49.17221912963667],[2.7319612146323493,49.28273636637687],[2.955060325820085,49.39470829942392],[3.180468933946628,49.508171162165105],[3.4082644061592475,49.62316290856546],[3.6385278247604163,49.739723327143395],[3.871344245076614,49.857894164895875],[4.106802976530645,49.97771926225465]]}}]}