{"type":"FeatureCollection","features":[{"type":"Feature","properties":{"magnitude":0.9,"percentagem":90.0,"territorio":"continente"},"geometry":{"type":"LineString","coordinates":[[-10.5,37.449851492137114],[-10.46,37.46164525541937],[-10.420000000000002,37.473469917464996],[-10.397969417104754,37.47999999999997],[-10.380000000000003,37.485331070708796],[-10.340000000000003,37.497229947909],[-10.300000000000004,37.5091595257562],[-10.26374544400441,37.51999999999997],[-10.260000000000005,37.52112092188773],[-10.220000000000006,37.53312443030484],[-10.180000000000007,37.545158438119664],[-10.140000000000008,37.55722287078085],[-10.130816707166375,37.55999999999997],[-10.100000000000009,37.56932756278095],[-10.06000000000001,37.58146550469656],[-10.02000000000001,37.5936336662299],[-9.999125685681221,37.599999999999966],[-9.980000000000011,37.60583817447255],[-9.940000000000012,37.61807954470595],[-9.900000000000013,37.63035092629838],[-9.86862550659524,37.639999999999965],[-9.860000000000014,37.642655063779664],[-9.820000000000014,37.654999346751],[-9.780000000000015,37.667373429837916],[-9.740000000000016,37.67977723564085],[-9.739283471665082,37.679999999999964],[-9.700000000000017,37.692223669135615],[-9.660000000000018,37.70469992552444],[-9.620000000000019,37.7172056896128],[-9.611084644660322,37.71999999999996],[-9.58000000000002,37.72975124019086],[-9.54000000000002,37.742329132187464],[-9.500000000000021,37.75493631399235],[-9.48397298273739,37.75999999999996],[-9.460000000000022,37.76758075861088],[-9.420000000000023,37.78025973914903],[-9.380000000000024,37.79296778877766],[-9.357917679891129,37.79999999999997],[-9.340000000000025,37.80571089379862],[-9.300000000000026,37.818490406572295],[-9.260000000000026,37.831298764940854],[-9.232889042237593,37.83999999999996],[-9.220000000000027,37.844140286220345],[-9.180000000000028,37.85701976581869],[-9.140000000000029,37.869927864788224],[-9.108858439677231,37.87999999999995],[-9.10000000000003,37.88286754776949],[-9.06000000000003,37.89584641981435],[-9.020000000000032,37.90885368232915],[-8.985798260037818,37.91999999999996],[-8.980000000000032,37.921891262138885],[-8.940000000000033,37.93496894342513],[-8.900000000000034,37.94807478365359],[-8.863681865550284,37.95999999999996],[-8.860000000000035,37.961209985201684],[-8.820000000000036,37.9743858838398],[-8.780000000000037,37.98758970731791],[-8.742483551519976,37.99999999999996],[-8.740000000000036,38.00082224540043],[-8.700000000000038,38.01409576096165],[-8.66000000000004,38.02739696473867],[-8.622178507065144,38.03999999999996],[-8.62000000000004,38.04072654414413],[-8.580000000000041,38.05409706780773],[-8.540000000000042,38.06749504059419],[-8.502742777802307,38.079999999999956],[-8.500000000000043,38.08092135621278],[-8.460000000000043,38.094388270915786],[-8.420000000000044,38.1078823932337],[-8.384153230368574,38.11999999999995],[-8.380000000000045,38.12140513016971],[-8.340000000000046,38.134967810758525],[-8.300000000000047,38.148557455093766],[-8.266387518674165,38.159999999999954],[-8.260000000000048,38.16217628878084],[-8.220000000000049,38.17583410216499],[-8.18000000000005,38.18951863312151],[-8.149424051788522,38.19999999999995],[-8.14000000000005,38.20323322944076],[-8.100000000000051,38.216985534748666],[-8.060000000000052,38.23076430920472],[-8.033241963368805,38.23999999999995],[-8.020000000000053,38.244574324605715],[-7.980000000000054,38.2584204733421],[-7.940000000000055,38.272292840608344],[-7.917821082543972,38.27999999999996],[-7.9000000000000545,38.28619792223254],[-7.860000000000056,38.30013725843784],[-7.820000000000057,38.31410256041697],[-7.803141906174913,38.31999999999995],[-7.780000000000058,38.32810234622401],[-7.740000000000059,38.34213420663535],[-7.70000000000006,38.35619177798352],[-7.689185572415957,38.35999999999995],[-7.6600000000000605,38.37028589687984],[-7.620000000000061,38.38440961109342],[-7.580000000000062,38.39855877938329],[-7.575933835505334,38.39999999999995],[-7.540000000000063,38.41274685135301],[-7.500000000000064,38.42696174198824],[-7.463376674493671,38.43999999999995],[-7.460000000000065,38.4412031063967],[-7.420000000000066,38.455483464111666],[-7.3800000000000665,38.469788846976435],[-7.351499838716242,38.47999999999995],[-7.340000000000067,38.484123546173755],[-7.300000000000068,38.498493967405544],[-7.260000000000069,38.512889151663],[-7.240277408681818,38.519999999999946],[-7.22000000000007,38.52731678249141],[-7.180000000000071,38.541776571737415],[-7.140000000000072,38.55626086007376],[-7.129693301410837,38.559999999999945],[-7.1000000000000725,38.570781010947734],[-7.060000000000073,38.58532946633858],[-7.020000000000074,38.59990215513206],[-7.019731943674513,38.599999999999945],[-6.980000000000075,38.614514406179374],[-6.940000000000076,38.62915081964876],[-6.910400678022873,38.639999999999944],[-6.900000000000077,38.64381525456071],[-6.860000000000078,38.65851512234413],[-6.820000000000078,38.67323877979936],[-6.801663862932076,38.67999999999994],[-6.780000000000079,38.68799463156144],[-6.74000000000008,38.70278129360707],[-6.700000000000081,38.717591475100775],[-6.693506697979325,38.71999999999994],[-6.660000000000082,38.73243830241657],[-6.620000000000083,38.74731103463016],[-6.585927851847364,38.75999999999994],[-6.580000000000084,38.76220936373559],[-6.540000000000084,38.77714436834651],[-6.500000000000085,38.79210244106465],[-6.478915958252391,38.79999999999994],[-6.460000000000086,38.80709102748773],[-6.420000000000087,38.82211091188283],[-6.380000000000088,38.8371535900464],[-6.372444227754898,38.83999999999994],[-6.340000000000089,38.852231972090266],[-6.3000000000000895,38.867335997365544],[-6.266513377377677,38.87999999999994],[-6.26000000000009,38.8824651626732],[-6.220000000000091,38.89763024929836],[-6.180000000000092,38.91281767144264],[-6.161113985122516,38.91999999999994],[-6.140000000000093,38.92803588092111],[-6.100000000000094,38.943283893501956],[-6.060000000000095,38.9585539635716],[-6.056218529322365,38.95999999999994],[-6.0200000000000955,38.973860736175865],[-5.980000000000096,38.989190922228914],[-5.951839045060027,38.999999999999936],[-5.940000000000097,39.00454772488623],[-5.900000000000098,39.01993773424989],[-5.860000000000099,39.03534933664945],[-5.847948732062852,39.039999999999935],[-5.8200000000001,39.050793919513076],[-5.780000000000101,39.06626486492847],[-5.744537963217352,39.07999999999994],[-5.7400000000001015,39.08175899416281],[-5.700000000000102,39.097288985835036],[-5.660000000000103,39.112840102476724],[-5.641611414427008,39.11999999999993],[-5.620000000000104,39.12842121020098],[-5.580000000000105,39.14403088728038],[-5.540000000000106,39.15966140614719]]}},{"type":"Feature","properties":{"magnitude":0.95,"percentagem":95.0,"territorio":"continente"},"geometry":{"type":"LineString","coordinates":[[-10.5,40.57218537350724],[-10.46,40.58445147457254],[-10.420000000000002,40.596747166152625],[-10.40944494538919,40.5999999999999],[-10.380000000000003,40.60908325231361],[-10.340000000000003,40.62145269474664],[-10.300000000000004,40.63385150860001],[-10.280213150652042,40.6399999999999],[-10.260000000000005,40.64628714836857],[-10.220000000000006,40.658759400397685],[-10.180000000000007,40.671260801794645],[-10.152104405667462,40.6799999999999],[-10.140000000000008,40.68379582130157],[-10.100000000000009,40.696370341501975],[-10.06000000000001,40.70897378610823],[-10.02508659505917,40.7199999999999],[-10.020000000000012,40.72160800070442],[-9.980000000000011,40.734284238129185],[-9.940000000000012,40.74698917213779],[-9.900000000000013,40.75972271942429],[-9.899131115591649,40.7599999999999],[-9.860000000000014,40.772499780790724],[-9.820000000000014,40.78530564105692],[-9.780000000000015,40.79813988319786],[-9.774216534653815,40.7999999999999],[-9.740000000000016,40.811015630796845],[-9.700000000000017,40.82392184497573],[-9.660000000000018,40.83685620688562],[-9.650300464103164,40.8399999999999],[-9.620000000000019,40.84983042062275],[-9.58000000000002,40.86283640730933],[-9.54000000000002,40.87587030489476],[-9.527355339688166,40.879999999999896],[-9.500000000000021,40.888942754283384],[-9.460000000000022,40.902047923155415],[-9.420000000000023,40.9151807634582],[-9.405354570171617,40.919999999999895],[-9.380000000000024,40.92835120771644],[-9.340000000000025,40.94155495967939],[-9.300000000000026,40.95478614102268],[-9.28427249595985,40.959999999999894],[-9.260000000000026,40.968054329173384],[-9.220000000000027,40.98135605650815],[-9.180000000000028,40.99468496864431],[-9.164084349807096,40.99999999999989],[-9.140000000000029,41.008050639618574],[-9.10000000000003,41.02144972613105],[-9.06000000000003,41.03487575039234],[-9.044766219476529,41.03999999999989],[-9.020000000000032,41.048338633135586],[-8.980000000000032,41.06183445430878],[-8.940000000000033,41.07535696375961],[-8.926295012242834,41.07999999999989],[-8.900000000000034,41.088916777341225],[-8.860000000000035,41.10250870048917],[-8.820000000000036,41.11612706008094],[-8.808648421133903,41.11999999999989],[-8.780000000000037,41.12978351380617],[-8.740000000000038,41.14347089822999],[-8.700000000000038,41.1571844649575],[-8.6918048928103,41.15999999999989],[-8.66000000000004,41.17093725848273],[-8.62000000000004,41.18471945562858],[-8.580000000000041,41.19852757868858],[-8.575743596993199,41.19999999999989],[-8.540000000000042,41.21237640213893],[-8.500000000000043,41.22625275575778],[-8.460445453733112,41.23999999999989],[-8.460000000000043,41.240154962954676],[-8.420000000000044,41.254099310798836],[-8.380000000000045,41.26806915710774],[-8.345901678873965,41.27999999999989],[-8.340000000000046,41.282066894535305],[-8.300000000000047,41.29610432618878],[-8.260000000000048,41.31016699403412],[-8.232083129080323,41.31999999999989],[-8.220000000000049,41.32425992704837],[-8.18000000000005,41.33838976618926],[-8.14000000000005,41.3525445772113],[-8.11897150129588,41.359999999999886],[-8.100000000000051,41.36673236208484],[-8.060000000000052,41.38095392529233],[-8.020000000000053,41.3952001940913],[-8.006549087264531,41.399999999999885],[-7.980000000000054,41.40948247814265],[-7.940000000000055,41.42379507506401],[-7.900000000000055,41.43813210936732],[-7.894798750388745,41.439999999999884],[-7.860000000000056,41.45250853109247],[-7.820000000000057,41.46691146461143],[-7.78371222034044,41.47999999999988],[-7.780000000000058,41.48134017826689],[-7.740000000000059,41.495808754648436],[-7.70000000000006,41.51030132105467],[-7.673277942939974,41.51999999999988],[-7.6600000000000605,41.524823588500496],[-7.620000000000061,41.53938136084305],[-7.580000000000062,41.55396285000278],[-7.563468504023863,41.55999999999988],[-7.540000000000062,41.5685782868873],[-7.500000000000064,41.58322454050624],[-7.460000000000065,41.59789423603384],[-7.454268777434422,41.59999999999988],[-7.420000000000066,41.612602449676956],[-7.3800000000000665,41.62733646374804],[-7.345676374973607,41.63999999999989],[-7.340000000000068,41.64209616823366],[-7.300000000000068,41.65689423271269],[-7.260000000000069,41.67171528044503],[-7.237678130998047,41.67999999999988],[-7.22000000000007,41.6865671270418],[-7.180000000000071,41.70145177191962],[-7.140000000000072,41.716359120729834],[-7.130247700220009,41.71999999999988],[-7.1000000000000725,41.731302695242405],[-7.060000000000073,41.746273183797],[-7.0233788066354155,41.75999999999988],[-7.020000000000074,41.76126762372721],[-6.980000000000074,41.77630097590695],[-6.940000000000076,41.791356565912615],[-6.9170727250303035,41.799999999999876],[-6.900000000000076,41.80644206411621],[-6.860000000000078,41.82156005349704],[-6.820000000000078,41.836699997399876],[-6.811296052991132,41.839999999999876],[-6.780000000000079,41.85187611916986],[-6.74000000000008,41.867077994363235],[-6.706048947835489,41.87999999999987],[-6.700000000000081,41.88230431976322],[-6.660000000000082,41.89756784266538],[-6.620000000000083,41.912852847246],[-6.6013256306746975,41.919999999999874],[-6.580000000000084,41.92816909323638],[-6.540000000000084,41.94351527109603],[-6.500000000000085,41.95888264377834],[-6.497096475348637,41.95999999999987],[-6.460000000000086,41.97428835617133],[-6.420000000000087,41.989716424175],[-6.393376998646685,41.99999999999987],[-6.380000000000088,42.00517164376574],[-6.340000000000089,42.020660116574035],[-6.3000000000000895,42.03616930534073],[-6.290135763119101,42.03999999999987],[-6.26000000000009,42.05171325672871],[-6.220000000000091,42.06728236650498],[-6.187370793253487,42.07999999999987],[-6.180000000000093,42.08287537666703],[-6.140000000000093,42.098504112833396],[-6.100000000000094,42.11415308258642],[-6.085077162823865,42.11999999999987],[-6.060000000000095,42.1298340710408],[-6.0200000000000955,42.14554217786898],[-5.98323147813284,42.15999999999987],[-5.980000000000096,42.16127176426339],[-5.940000000000097,42.17703870965139],[-5.900000000000098,42.19282540302552],[-5.881847133387565,42.19999999999987],[-5.860000000000099,42.20864219598554],[-5.8200000000001,42.22448723340272],[-5.780887122054952,42.23999999999987],[-5.780000000000101,42.24035215149251],[-5.7400000000001015,42.25625523074896],[-5.700000000000102,42.27217756944012],[-5.680375621945423,42.279999999999866],[-5.660000000000103,42.28812890483103],[-5.620000000000104,42.304108785960985],[-5.580269191803993,42.319999999999865],[-5.580000000000105,42.320107762133865],[-5.540000000000106,42.33614488001786]]}},{"type":"Feature","properties":{"magnitude":0.9,"percentagem":90.0,"territorio":"acores"},"geometry":{"type":"LineString","coordinates":[[-32.0,36.27224359248948],[-31.96,36.26604126786388],[-31.92,36.25986171391385],[-31.880000000000003,36.253704989084675],[-31.840000000000003,36.24757115185263],[-31.800000000000004,36.24146026072421],[-31.790403708984677,36.239999999999995],[-31.760000000000005,36.2353773710768],[-31.720000000000006,36.2293190991064],[-31.680000000000007,36.22328392689619],[-31.640000000000008,36.217271912966645],[-31.60000000000001,36.21128311586471],[-31.56000000000001,36.205317594163],[-31.524203569712625,36.199999999999996],[-31.52000000000001,36.19937608070565],[-31.48000000000001,36.19346367649557],[-31.440000000000012,36.187574701023536],[-31.400000000000013,36.18170921285805],[-31.360000000000014,36.17586727058945],[-31.320000000000014,36.17004893282902],[-31.28000000000002,36.16425425820829],[-31.250510778927996,36.16],[-31.240000000000016,36.15848494250734],[-31.200000000000017,36.15274397534215],[-31.160000000000018,36.1470268242137],[-31.12000000000002,36.14133354772756],[-31.08000000000002,36.13566420450537],[-31.04000000000002,36.130018853184104],[-31.000000000000018,36.12439755241521],[-30.9685715747364,36.12],[-30.960000000000022,36.1188016555954],[-30.920000000000023,36.113234648231746],[-30.880000000000024,36.10769184376442],[-30.840000000000025,36.10217330079629],[-30.800000000000026,36.096679077940436],[-30.760000000000026,36.09120923381935],[-30.720000000000027,36.085763827064085],[-30.680000000000028,36.0803429163133],[-30.67745761398997,36.080000000000005],[-30.64000000000003,36.07495201436882],[-30.60000000000003,36.06958607149941],[-30.56000000000003,36.064244776229664],[-30.52000000000003,36.05892818712279],[-30.480000000000032,36.053636362745195],[-30.44000000000003,36.04836936166574],[-30.400000000000034,36.04312724245469],[-30.37602130472268,36.04],[-30.360000000000035,36.03791231883264],[-30.320000000000036,36.032725743203436],[-30.280000000000037,36.02756420023112],[-30.240000000000038,36.02242774838623],[-30.20000000000004,36.017316446136086],[-30.16000000000004,36.01223035194412],[-30.12000000000004,36.00716952426876],[-30.080000000000037,36.00213402156254],[-30.06296010651814,36.0]]}},{"type":"Feature","properties":{"magnitude":0.95,"percentagem":95.0,"territorio":"acores"},"geometry":{"type":"LineString","coordinates":[[-32.0,39.16932985255876],[-31.96,39.16334637168236],[-31.937537690456672,39.15999999999993],[-31.92,39.157389781739596],[-31.880000000000003,39.15146100723966],[-31.840000000000003,39.14555604075627],[-31.800000000000004,39.1396749424446],[-31.760000000000005,39.133817772474856],[-31.720000000000006,39.12798459103152],[-31.680000000000007,39.12217545831247],[-31.664955585084577,39.11999999999993],[-31.640000000000008,39.11639482156668],[-31.60000000000001,39.11064097081399],[-31.56000000000001,39.104911322647766],[-31.52000000000001,39.09920593719919],[-31.480000000000015,39.09352487460835],[-31.440000000000012,39.087868195023304],[-31.400000000000013,39.08223595859931],[-31.384048453558677,39.07999999999993],[-31.360000000000014,39.07663232211567],[-31.320000000000014,39.07105593791127],[-31.280000000000015,39.06550414991821],[-31.240000000000016,39.05997701820046],[-31.200000000000017,39.05447460282445],[-31.160000000000018,39.04899696385824],[-31.12000000000002,39.04354416137048],[-31.09387964867023,39.039999999999935],[-31.08000000000002,39.03811854323815],[-31.04000000000002,39.0327221573621],[-31.00000000000002,39.02735076007852],[-30.960000000000022,39.02200441133945],[-30.920000000000023,39.016683171092836],[-30.88000000000002,39.01138709928157],[-30.840000000000025,39.00611625584243],[-30.800000000000026,39.00087070070515],[-30.793326852155005,38.99999999999994],[-30.760000000000026,38.99565577486521],[-30.720000000000027,38.99046728545313],[-30.680000000000028,38.985304235257054],[-30.64000000000003,38.980166684060194],[-30.60000000000003,38.975054691633716],[-30.56000000000003,38.969968317735756],[-30.52000000000003,38.96490762211051],[-30.4810113705328,38.95999999999994],[-30.480000000000032,38.95987281901941],[-30.440000000000033,38.95486973915374],[-30.400000000000034,38.94989248725965],[-30.360000000000035,38.94494112290782],[-30.320000000000036,38.94001570564985],[-30.280000000000037,38.93511629501715],[-30.240000000000038,38.93024295052005],[-30.20000000000004,38.92539573164648],[-30.16000000000004,38.9205746978612],[-30.15520463344492,38.91999999999994],[-30.12000000000004,38.915785028866324],[-30.08000000000004,38.91102233084224],[-30.040000000000042,38.906285965894114],[-30.000000000000043,38.901575993277184],[-29.960000000000043,38.89689247221811],[-29.920000000000048,38.892235461913955],[-29.880000000000045,38.88760502153092],[-29.840000000000046,38.88300121020349],[-29.8137699501547,38.87999999999994],[-29.800000000000047,38.878425998228856],[-29.760000000000048,38.87388114183811],[-29.72000000000005,38.869363060753976],[-29.68000000000005,38.8648718138685],[-29.64000000000005,38.86040746003651],[-29.60000000000005,38.85597005807445],[-29.560000000000052,38.85155966675914],[-29.520000000000053,38.84717634482688],[-29.480000000000054,38.842820150972],[-29.453939717946177,38.83999999999994],[-29.440000000000055,38.838492973015086],[-29.400000000000055,38.83419642714315],[-29.360000000000056,38.82992715344007],[-29.320000000000057,38.825685210319826],[-29.280000000000058,38.82147065614885],[-29.24000000000006,38.81728354924509],[-29.20000000000006,38.81312394787672],[-29.16000000000006,38.80899191026095],[-29.12000000000006,38.804887494562934],[-29.08000000000006,38.80081075889445],[-29.07198907134743,38.79999999999994],[-29.040000000000063,38.79676568563838],[-29.000000000000064,38.7927493583978],[-28.960000000000065,38.78876085260487],[-28.920000000000066,38.78480022604704],[-28.880000000000067,38.78086753645273],[-28.840000000000067,38.77696284149006],[-28.800000000000068,38.773086198765576],[-28.76000000000007,38.76923766582318],[-28.720000000000073,38.765417300142765],[-28.68000000000007,38.76162515913907],[-28.662726628369334,38.75999999999994],[-28.64000000000007,38.7578638908161],[-28.600000000000072,38.75413289685417],[-28.560000000000073,38.750430265997295],[-28.520000000000074,38.74675605529072],[-28.480000000000075,38.743110321708485],[-28.440000000000076,38.73949312215231],[-28.400000000000077,38.73590451345024],[-28.360000000000078,38.7323445523554],[-28.32000000000008,38.72881329554468],[-28.28000000000008,38.72531079961763],[-28.24000000000008,38.721837121094985],[-28.218665780113305,38.71999999999994],[-28.20000000000008,38.718394262944],[-28.160000000000082,38.71498252489064],[-28.120000000000083,38.71159973901905],[-28.080000000000084,38.7082459614293],[-28.040000000000084,38.70492124813666],[-28.000000000000085,38.701625655070174],[-27.960000000000086,38.698359238071504],[-27.920000000000087,38.6951220528935],[-27.880000000000084,38.69191415519897],[-27.84000000000009,38.68873560055938],[-27.80000000000009,38.68558644445344],[-27.760000000000087,38.68246674226592],[-27.72806871407468,38.67999999999994],[-27.72000000000009,38.67937730375357],[-27.680000000000092,38.67632037936332],[-27.640000000000093,38.6732930392343],[-27.600000000000094,38.67029533827312],[-27.560000000000095,38.66732733128608],[-27.520000000000095,38.664389072977826],[-27.480000000000096,38.66148061794999],[-27.440000000000097,38.65860202069993],[-27.400000000000098,38.65575333561924],[-27.3600000000001,38.652934616992525],[-27.3200000000001,38.65014591899601],[-27.2800000000001,38.64738729569616],[-27.240000000000098,38.64465880104836],[-27.200000000000102,38.64196048889545],[-27.170606641231277,38.639999999999944],[-27.160000000000103,38.63929326879352],[-27.120000000000104,38.63665867338054],[-27.080000000000105,38.634054385020576],[-27.040000000000106,38.631480457009474],[-27.000000000000107,38.628936942524035],[-26.960000000000107,38.62642389462072],[-26.92000000000011,38.6239413662343],[-26.88000000000011,38.62148941017648],[-26.84000000000011,38.619068079134394],[-26.80000000000011,38.61667742566942],[-26.76000000000011,38.61431750221558],[-26.720000000000113,38.61198836107825],[-26.680000000000113,38.609690054432754],[-26.640000000000114,38.60742263432304],[-26.60000000000012,38.60518615266003],[-26.56000000000012,38.60298066122052],[-26.520000000000117,38.600806211645576],[-26.504952443212602,38.59999999999995],[-26.480000000000118,38.59866447172016],[-26.44000000000012,38.59655481359079],[-26.40000000000012,38.59447631394029],[-26.36000000000012,38.592429023776404],[-26.32000000000012,38.59041299396465],[-26.280000000000122,38.58842827522675],[-26.240000000000123,38.58647491813933],[-26.200000000000124,38.58455297313239],[-26.160000000000124,38.5826624904879],[-26.120000000000125,38.580803520338435],[-26.080000000000126,38.578976112665714],[-26.040000000000127,38.57718031729914],[-26.000000000000128,38.575416183914406],[-25.96000000000013,38.57368376203205],[-25.92000000000013,38.57198310101596],[-25.88000000000013,38.57031425007208],[-25.840000000000135,38.56867725824681],[-25.800000000000132,38.56707217442566],[-25.760000000000133,38.56549904733187],[-25.720000000000134,38.563957925524676],[-25.680000000000135,38.5624488573983],[-25.64000000000014,38.560971891180124],[-25.61309147731228,38.559999999999945],[-25.600000000000136,38.559527646094836],[-25.560000000000137,38.558116733805605],[-25.520000000000138,38.556738028207604],[-25.48000000000014,38.555391576781005],[-25.44000000000014,38.55407742683259],[-25.40000000000014,38.5527956254943],[-25.36000000000014,38.55154621972165],[-25.320000000000142,38.550329256292414],[-25.280000000000143,38.54914478180516],[-25.240000000000144,38.54799284267773],[-25.200000000000145,38.5468734851458],[-25.160000000000146,38.54578675526145],[-25.120000000000147,38.544732698891764],[-25.080000000000148,38.543711361717236],[-25.04000000000015,38.54272278923043],[-25.00000000000015,38.54176702673452],[-24.96000000000015,38.54084411934174],[-24.92000000000015,38.53995411197207],[-24.88000000000015,38.53909704935158],[-24.840000000000153,38.53827297601127],[-24.800000000000153,38.53748193628525],[-24.760000000000154,38.536723974309595],[-24.720000000000155,38.535999134020734],[-24.680000000000156,38.53530745915401],[-24.640000000000157,38.53464899324227],[-24.600000000000158,38.53402377961432],[-24.56000000000016,38.533431861393595],[-24.520000000000163,38.532873281496606],[-24.48000000000016,38.532348082631536],[-24.44000000000016,38.53185630729674],[-24.400000000000162,38.531397997779344],[-24.360000000000163,38.530973196153795],[-24.320000000000164,38.5305819442803],[-24.28000000000016,38.530224283803555],[-24.240000000000165,38.52990025615119],[-24.200000000000166,38.52960990253224],[-24.160000000000167,38.5293532639359],[-24.120000000000168,38.52913038112993],[-24.08000000000017,38.528941294659234],[-24.04000000000017,38.52878604484444]]}},{"type":"Feature","properties":{"magnitude":0.8,"percentagem":80.0,"territorio":"madeira"},"geometry":{"type":"LineString","coordinates":[[-18.0,30.46053275075948],[-17.96,30.464573999836396],[-17.92,30.468651870609033],[-17.880000000000003,30.472766373419006],[-17.840000000000003,30.476917518274117],[-17.800000000000004,30.481105314847422],[-17.760000000000005,30.48532977247644],[-17.720000000000006,30.48959090016227],[-17.680000000000007,30.493888706568782],[-17.640000000000008,30.498223200021805],[-17.623740342774767,30.49999999999998],[-17.60000000000001,30.502596684814883],[-17.56000000000001,30.507008476222005],[-17.52000000000001,30.511457008559503],[-17.48000000000001,30.515942288760193],[-17.440000000000012,30.52046432341436],[-17.400000000000013,30.525023118768754],[-17.360000000000014,30.52961868072597],[-17.320000000000014,30.534251014843647],[-17.280000000000015,30.538920126333707],[-17.27082080309221,30.539999999999978],[-17.240000000000016,30.543629228037556],[-17.200000000000017,30.548376102860217],[-17.160000000000018,30.553159799360166],[-17.12000000000002,30.557980321321093],[-17.08000000000002,30.56283767217676],[-17.04000000000002,30.56773185501046],[-17.00000000000002,30.572662872554268],[-16.960000000000022,30.57763072718836],[-16.941063241151305,30.579999999999977],[-16.920000000000023,30.5826377516703],[-16.880000000000024,30.587683743355004],[-16.840000000000025,30.592766607701485],[-16.800000000000026,30.597886345632624],[-16.760000000000026,30.60304295771566],[-16.720000000000027,30.608236444161644],[-16.680000000000028,30.61346680482474],[-16.64000000000003,30.61873403920179],[-16.63045276456485,30.619999999999976],[-16.60000000000003,30.62404171600023],[-16.56000000000003,30.629387414110848],[-16.52000000000003,30.634770012580752],[-16.480000000000032,30.64018950942318],[-16.440000000000033,30.645645902290596],[-16.400000000000034,30.651139188474303],[-16.360000000000035,30.656669364903824],[-16.336068768594444,30.659999999999975],[-16.320000000000036,30.662238404387615],[-16.280000000000037,30.66784730089353],[-16.240000000000038,30.673493106330827],[-16.20000000000004,30.679175816124438],[-16.16000000000004,30.68489542533468],[-16.12000000000004,30.690651928656713],[-16.08000000000004,30.696445320420313],[-16.05561209050473,30.699999999999974],[-16.040000000000042,30.702277604577468],[-16.000000000000043,30.708149935199575],[-15.960000000000043,30.714059164862405],[-15.920000000000044,30.720005286372306],[-15.880000000000045,30.725988292167685],[-15.840000000000046,30.732008174318622],[-15.800000000000047,30.738064924526437],[-15.787297563234658,30.739999999999974],[-15.760000000000048,30.744162205382583],[-15.720000000000049,30.75029807496191],[-15.68000000000005,30.756470814996604],[-15.64000000000005,30.762680415648376],[-15.600000000000051,30.768926866708213],[-15.560000000000052,30.775210157596067],[-15.529685058649378,30.779999999999973],[-15.520000000000053,30.78153162790103],[-15.480000000000054,30.787894173525977],[-15.440000000000055,30.79429355425609],[-15.400000000000055,30.80072975795926],[-15.360000000000056,30.807202772130694],[-15.320000000000057,30.81371258389263],[-15.281583597107142,30.819999999999972],[-15.280000000000058,30.820259408645903],[-15.240000000000059,30.826848581602867],[-15.20000000000006,30.833474540236544],[-15.16000000000006,30.840137270106673],[-15.120000000000061,30.846836756398762],[-15.080000000000062,30.853572983923993],[-15.042043054352561,30.85999999999997],[-15.040000000000061,30.86034624217407]]}}]}