{"type":"FeatureCollection","properties":{"largura_maxima_km":144.285,"largura_sobre_pt_km":135.507,"linha_central_sobre_pt":false,"desenhavel_como_area":true,"perfil_largura":[{"t":-0.90556,"lat":53.0085,"lon":-10.6164,"largura_km":null,"eixo_na_terra":false},{"t":-0.87778,"lat":49.9715,"lon":-5.6869,"largura_km":144.285,"eixo_na_terra":true},{"t":-0.87222,"lat":49.6623,"lon":-5.1481,"largura_km":142.957,"eixo_na_terra":true},{"t":-0.86667,"lat":49.3704,"lon":-4.6383,"largura_km":141.856,"eixo_na_terra":true},{"t":-0.86111,"lat":49.0934,"lon":-4.1538,"largura_km":140.911,"eixo_na_terra":true},{"t":-0.85556,"lat":48.8295,"lon":-3.6913,"largura_km":140.075,"eixo_na_terra":true},{"t":-0.85,"lat":48.5775,"lon":-3.2483,"largura_km":139.329,"eixo_na_terra":true},{"t":-0.84444,"lat":48.3359,"lon":-2.8228,"largura_km":138.649,"eixo_na_terra":true},{"t":-0.83889,"lat":48.1039,"lon":-2.413,"largura_km":138.027,"eixo_na_terra":true},{"t":-0.83333,"lat":47.8805,"lon":-2.0175,"largura_km":137.452,"eixo_na_terra":true},{"t":-0.82778,"lat":47.665,"lon":-1.6349,"largura_km":136.915,"eixo_na_terra":true},{"t":-0.82222,"lat":47.4569,"lon":-1.2642,"largura_km":136.415,"eixo_na_terra":true},{"t":-0.81667,"lat":47.2555,"lon":-0.9044,"largura_km":135.947,"eixo_na_terra":true},{"t":-0.81111,"lat":47.0603,"lon":-0.5547,"largura_km":135.507,"eixo_na_terra":true},{"t":-0.80556,"lat":46.871,"lon":-0.2144,"largura_km":135.092,"eixo_na_terra":true},{"t":-0.8,"lat":46.6871,"lon":0.1172,"largura_km":134.698,"eixo_na_terra":true},{"t":-0.79444,"lat":46.5084,"lon":0.4407,"largura_km":134.325,"eixo_na_terra":true},{"t":-0.78889,"lat":46.3344,"lon":0.7567,"largura_km":133.97,"eixo_na_terra":true},{"t":-0.78333,"lat":46.165,"lon":1.0655,"largura_km":133.633,"eixo_na_terra":true},{"t":-0.77778,"lat":45.9999,"lon":1.3676,"largura_km":133.312,"eixo_na_terra":true},{"t":-0.77222,"lat":45.8388,"lon":1.6633,"largura_km":133.007,"eixo_na_terra":true},{"t":-0.76667,"lat":45.6815,"lon":1.9532,"largura_km":132.717,"eixo_na_terra":true},{"t":-0.76111,"lat":45.528,"lon":2.2374,"largura_km":132.44,"eixo_na_terra":true},{"t":-0.75556,"lat":45.3779,"lon":2.5162,"largura_km":132.177,"eixo_na_terra":true},{"t":-0.75,"lat":45.2311,"lon":2.79,"largura_km":131.925,"eixo_na_terra":true},{"t":-0.74444,"lat":45.0876,"lon":3.0589,"largura_km":131.684,"eixo_na_terra":true},{"t":-0.73889,"lat":44.947,"lon":3.3233,"largura_km":131.454,"eixo_na_terra":true},{"t":-0.73333,"lat":44.8094,"lon":3.5833,"largura_km":131.235,"eixo_na_terra":true},{"t":-0.72778,"lat":44.6746,"lon":3.8392,"largura_km":131.025,"eixo_na_terra":true},{"t":-0.72222,"lat":44.5425,"lon":4.091,"largura_km":130.824,"eixo_na_terra":true},{"t":-0.71667,"lat":44.413,"lon":4.339,"largura_km":130.632,"eixo_na_terra":true},{"t":-0.71111,"lat":44.2859,"lon":4.5834,"largura_km":130.448,"eixo_na_terra":true},{"t":-0.70556,"lat":44.1613,"lon":4.8243,"largura_km":130.273,"eixo_na_terra":true}]},"features":[{"type":"Feature","properties":{},"geometry":{"type":"Polygon","coordinates":[[[-7.686413068022489,52.01835168621392],[-5.60704815428079,50.79378163834684],[-4.472748453742497,50.12855333022708],[-3.003560414181038,49.2715688739761],[-2.1424540362868925,48.772219053853995],[-1.3266960704003736,48.302873333013046],[-0.2253189843120822,47.67342051067178],[0.45750850111789987,47.28664410740038],[1.1059016848183774,46.92212672814464],[1.7382503097903168,46.56990827588212],[2.3295964639606836,46.24281383059381],[2.8974966269390166,45.93135765883624],[3.444396298534514,45.634062838914524],[3.972362537806191,45.3496800105693],[4.48316113287143,45.07714127212149],[5.09149850917953,43.32192227764924],[4.389338074409352,43.677530813538375],[3.904839559322454,43.92566560344287],[2.8912688265704105,44.45147267818335],[2.0864965629997414,44.87486303216934],[1.222933301537978,45.33478368540785],[0.6272846792024325,45.654560203083314],[-0.6459931239789967,46.34493248270552],[-2.0736616074977405,47.12895657889863],[-3.6918240928345085,48.02699698329958],[-4.609520380227707,48.54025062556593],[-7.686413068022489,52.01835168621392]]]}},{"type":"Feature","properties":{},"geometry":{"type":"Polygon","coordinates":[[[-7.321113430047433,51.043566464602435],[-7.113376981115664,50.83244992058144],[-6.99055287393719,50.70104877642142],[-6.880023169524804,50.57727460686466],[-6.78159155827143,50.46125777996781],[-6.695068045141909,50.35312697813797],[-6.620268092796437,50.25300812130132],[-6.557012023494565,50.161023467313804],[-6.50512462376895,50.077290855233684],[-6.4644349092642415,50.00192306494057],[-6.434776017209288,49.93502727251998],[-6.415985201653427,49.87670458537053],[-6.410615608121589,49.8507879938461],[-6.407903912506129,49.827049644520045],[-6.407830976039634,49.80550030135536],[-6.4103779440368385,49.786150284421645],[-6.415526253616235,49.769009461901454],[-6.4232576421690055,49.754087242751304],[-6.43355415653906,49.74139256998906],[-6.446398162887135,49.73093391458395],[-6.461772357219331,49.72271926993216],[-6.479659776568724,49.71675614690428],[-6.500043810823911,49.71305156945615],[-6.522908215208247,49.71161207080037],[-6.548237123418005,49.712443690138535],[-6.576015061436522,49.715551969961105],[-6.6388581800792394,49.728618185323384],[-6.711322194834111,49.75084505694568],[-6.7932990145849885,49.78225890548154],[-6.884688416030883,49.822878057060144],[-6.933883824433167,49.84664317943375],[-7.039223004375401,49.90108735414712],[-7.1537630777552295,49.96474829578544],[-7.342681348330814,50.07750019259164],[-7.551977059716933,50.210909601748654],[-7.702771496773039,50.311281577018214],[-7.862559401409271,50.42076035929248],[-8.03134511806968,50.539307233492806],[-8.301453676687402,50.73403760527796],[-8.592048402945409,50.948928194621814],[-8.90345526718869,51.183838007979475],[-9.470215877793123,51.61956902087445],[-10.951502246798839,52.775211708199826],[-11.42325979923362,53.140811209518006],[-11.75868771809013,53.398506677787864],[-12.114152824009636,53.66896219625555],[-12.494076534438364,53.95444969976949],[-12.905530255422434,54.258763267050725],[-13.126605256695143,54.41992295547162],[-13.611932800876673,54.76726954766801],[-13.885208513896316,54.95859208999246],[-14.190081587675365,55.16809129871194],[-14.544897618271762,55.40631875390645],[-14.996550348267078,55.70029172882937],[-15.876358185326012,56.241055904553384],[-14.79567890694483,56.23161842184853],[-13.76134211247637,55.622630301657566],[-13.404356886184644,55.41027832776608],[-12.80084193228879,55.04677024812178],[-12.533539113770587,54.88346954696539],[-12.044114850054598,54.57996513309688],[-11.599397788590409,54.29829804185039],[-11.188664679716624,54.03237254285301],[-10.805688816919826,53.77874137063167],[-10.446537881336667,53.53531327059825],[-10.108573809507106,53.300765478556414],[-9.946935425747938,53.18654143812237],[-9.63743817598396,52.96380976270082],[-9.345373502949258,52.74835228268409],[-9.205589384514155,52.643259634935454],[-8.938050471719976,52.43823087636988],[-8.68603604314103,52.23998982516644],[-8.56568419708185,52.143398255064994],[-8.336006988027862,51.95526998977105],[-8.12070177198558,51.77390760921875],[-7.823935423264004,51.514685205311636],[-7.557701671455163,51.27111556479899],[-7.321113430047433,51.043566464602435]]]}}]}