{"type":"FeatureCollection","features":[{"type":"Feature","properties":{"t_inicio":-0.8777777777777889,"t_fim":-0.7055555555555673},"geometry":{"type":"LineString","coordinates":[[-5.686858659736686,49.971544093768266],[-5.148055080651432,49.66234166061606],[-4.638321208778734,49.37035824374126],[-4.153762152943216,49.093352978160205],[-3.6912707231274453,48.82953591385076],[-3.2483213722140363,48.57745036720196],[-2.822828607575957,48.335892025789626],[-2.4130468188569125,48.10385167690136],[-2.0174976183765807,47.88047363778885],[-1.6349159902919723,47.66502492607473],[-1.2642096221788393,47.45687196161474],[-0.9044276792259893,47.25546266604852],[-0.5547364735994051,47.060312505933716],[-0.21440025572832155,46.87099346682698],[0.11723413091783641,46.68712523935242],[0.44074964025742247,46.50836809787881],[0.7566691257438833,46.33441709068237],[1.0654636501016057,46.16499725792785],[1.3675593763716734,45.99985966358228],[1.6633433252903274,45.83877807807145],[1.9531682187518982,45.68154618580308],[2.237356580500091,45.52797521948546],[2.516204228572633,45.377891944117955],[2.789983266163233,45.23113692948035],[3.058944656148583,45.087563062206456],[3.323320447927017,44.9470342580388],[3.5833257122366717,44.80942434229726],[3.8391602293864935,44.67461607245956],[4.0910099682188275,44.54250028140708],[4.339048386625166,44.41297512361254],[4.583437579219037,44.285945409544404],[4.824329293538369,44.16132201598746]]}}]}