{"type":"FeatureCollection","features":[{"type":"Feature","properties":{"magnitude":0.2,"de":0.2,"ate":0.5,"percentagem":20.0},"geometry":{"type":"Polygon","coordinates":[[[-34.5,30.0],[-34.44,30.0],[-16.015582404041023,30.0],[-19.379999999999427,31.7447590860741],[-22.61999999999955,33.38064772496587],[-26.639999999999702,35.3425948666429],[-30.599999999999852,37.19721694339227],[-31.08448706124637,37.499999999999844],[-31.56072375511984,37.97999999999983],[-31.799999999999898,38.32614892354481],[-31.979999999999905,38.65879693499224],[-32.279999999999916,39.461785715044854],[-32.466175379917445,40.37999999999978],[-32.537759261897605,41.39999999999976],[-32.49004459179249,42.539999999999736],[-32.32026319080121,43.73999999999971],[-32.04287245083267,44.939999999999685],[-34.5,44.939999999999685],[-34.5,30.0]]]}},{"type":"Feature","properties":{"magnitude":0.5,"de":0.5,"ate":0.8,"percentagem":50.0},"geometry":{"type":"Polygon","coordinates":[[[-19.919999999999447,32.02059419872543],[-16.015582404041023,30.0],[-3.5399999999988268,30.0],[-3.5399999999988268,37.2155384584797],[-12.359999999999161,42.03632261733901],[-17.79533668960776,44.939999999999685],[-32.04287245083267,44.939999999999685],[-32.30885702286258,43.799999999999706],[-32.47827236494401,42.65999999999973],[-32.53843088132985,41.57999999999976],[-32.487908907712125,40.559999999999775],[-32.332105288180635,39.6599999999998],[-32.0791174946325,38.87999999999981],[-31.733106984694512,38.21999999999983],[-31.499999999999886,37.905413426062054],[-31.259999999999877,37.65131633391108],[-30.959999999999866,37.40744126879137],[-30.659999999999854,37.226950196497995],[-27.059999999999718,35.5430194975053],[-23.579999999999586,33.85621588212156],[-19.919999999999447,32.02059419872543]]]}},{"type":"Feature","properties":{"magnitude":0.8,"de":0.8,"ate":0.95,"percentagem":80.0},"geometry":{"type":"Polygon","coordinates":[[[-12.359999999999161,42.03632261733901],[-3.5399999999988268,37.2155384584797],[-3.5399999999988268,44.939999999999685],[-17.79533668960776,44.939999999999685],[-12.359999999999161,42.03632261733901]]]}}]}