{"type":"FeatureCollection","features":[{"type":"Feature","properties":{"magnitude":0.6,"percentagem":60.0,"territorio":"continente"},"geometry":{"type":"LineString","coordinates":[[-5.540000000000106,42.58636412262749],[-5.580000000000105,42.58449272359883],[-5.620000000000104,42.58260649813671],[-5.660000000000103,42.58070545306524],[-5.700000000000102,42.57878959520308],[-5.7400000000001015,42.57685893136334],[-5.780000000000101,42.5749134683538],[-5.8200000000001,42.57295321297676],[-5.860000000000099,42.570978172029214],[-5.900000000000098,42.56898835230276],[-5.940000000000097,42.56698376058374],[-5.980000000000096,42.5649644036532],[-6.0200000000000955,42.562930288286935],[-6.060000000000095,42.56088142125559],[-6.077085954226261,42.55999999999986],[-6.100000000000094,42.558818139436454],[-6.140000000000093,42.55674036965034],[-6.180000000000091,42.55464787250578],[-6.220000000000091,42.5525406547507],[-6.26000000000009,42.55041872312805],[-6.3000000000000895,42.54828208437576],[-6.340000000000089,42.546130745226776],[-6.380000000000088,42.54396471240917],[-6.420000000000087,42.54178399264608],[-6.460000000000086,42.53958859265576],[-6.500000000000085,42.53737851915165],[-6.540000000000084,42.5351537788424],[-6.580000000000084,42.53291437843184],[-6.620000000000083,42.53066032461911],[-6.660000000000082,42.52839162409862],[-6.700000000000081,42.52610828356009],[-6.74000000000008,42.52381030968863],[-6.780000000000079,42.5214977091647],[-6.805743394189517,42.51999999999986],[-6.820000000000078,42.51917071953011],[-6.860000000000078,42.51682953743351],[-6.900000000000076,42.51447375267564],[-6.940000000000076,42.51210337191713],[-6.980000000000075,42.50971840181406],[-7.020000000000074,42.507318849018155],[-7.060000000000072,42.50490472017678],[-7.1000000000000725,42.50247602193295],[-7.140000000000072,42.50003276092535],[-7.180000000000071,42.49757494378843],[-7.22000000000007,42.49510257715235],[-7.260000000000069,42.49261566764311],[-7.300000000000068,42.49011422188245],[-7.340000000000067,42.487598246488034],[-7.3800000000000665,42.48506774807337],[-7.420000000000066,42.48252273324787],[-7.459425089344901,42.47999999999986],[-7.460000000000064,42.47996321882556],[-7.500000000000064,42.477389905174334],[-7.540000000000063,42.47480209885411],[-7.580000000000062,42.47219980645683],[-7.620000000000061,42.46958303457051],[-7.6600000000000605,42.466951789779344],[-7.700000000000061,42.464306078663625],[-7.740000000000059,42.46164590779982],[-7.780000000000058,42.45897128376067],[-7.820000000000057,42.45628221311509],[-7.860000000000056,42.45357870242829],[-7.900000000000055,42.45086075826181],[-7.940000000000055,42.4481283871735],[-7.980000000000054,42.44538159571755],[-8.020000000000053,42.44262039044459],[-8.057763298720305,42.43999999999986],[-8.060000000000052,42.43984482085012],[-8.100000000000051,42.43705557950923],[-8.14000000000005,42.43425194788672],[-8.18000000000005,42.43143393251801],[-8.220000000000049,42.428601539935116],[-8.260000000000048,42.4257547766666],[-8.300000000000047,42.4228936492377],[-8.340000000000046,42.420018164170315],[-8.380000000000045,42.41712832798302],[-8.420000000000044,42.414224147191085],[-8.460000000000043,42.41130562830658],[-8.500000000000043,42.40837277783832],[-8.540000000000042,42.40542560229194],[-8.580000000000041,42.402464108169916],[-8.613122567430489,42.399999999999864],[-8.62000000000004,42.399488443179635],[-8.66000000000004,42.39649915651134],[-8.700000000000038,42.393495574633974],[-8.740000000000038,42.390477704036925],[-8.780000000000037,42.387445551206625],[-8.820000000000036,42.38439912262651],[-8.860000000000035,42.38133842477714],[-8.900000000000034,42.3782634641361],[-8.940000000000033,42.375174247178165],[-8.980000000000032,42.37207078037524],[-9.020000000000032,42.36895307019642],[-9.06000000000003,42.36582112310801],[-9.10000000000003,42.362674945573566],[-9.133856410092184,42.35999999999987],[-9.140000000000029,42.359514677689184],[-9.180000000000028,42.35634093251176],[-9.220000000000027,42.353152980118544],[-9.260000000000026,42.34995082696196],[-9.300000000000026,42.346734479491836],[-9.340000000000025,42.34350394415548],[-9.380000000000024,42.340259227397624],[-9.420000000000023,42.337000335660534],[-9.460000000000022,42.33372727538398],[-9.500000000000021,42.330440053005304],[-9.54000000000002,42.327138674959386],[-9.58000000000002,42.32382314767876],[-9.620000000000019,42.32049347759359],[-9.625903826122423,42.319999999999865],[-9.660000000000018,42.31715045392568],[-9.700000000000017,42.31379343967304],[-9.740000000000016,42.31042230573046],[-9.780000000000015,42.307037058518915],[-9.820000000000014,42.30363770445711],[-9.860000000000014,42.30022424996166],[-9.900000000000013,42.29679670144701],[-9.940000000000012,42.29335506532546],[-9.980000000000011,42.28989934800725],[-10.02000000000001,42.286429555900575],[-10.06000000000001,42.28294569541151],[-10.093685783092619,42.279999999999866],[-10.100000000000009,42.27944792427351],[-10.140000000000008,42.27593690861757],[-10.180000000000007,42.272411847609824],[-10.220000000000006,42.268872747648814],[-10.260000000000005,42.26531961513121],[-10.300000000000004,42.261752456451816],[-10.340000000000003,42.25817127800363],[-10.380000000000003,42.25457608617786],[-10.420000000000002,42.25096688736393],[-10.46,42.247343687949524],[-10.5,42.24370649432061]]}},{"type":"Feature","properties":{"magnitude":0.8,"percentagem":80.0,"territorio":"continente"},"geometry":{"type":"LineString","coordinates":[[-5.540000000000106,36.180129872026924],[-5.580000000000105,36.17775315447736],[-5.620000000000104,36.17535962602038],[-5.660000000000103,36.17294929770308],[-5.700000000000102,36.17052218056997],[-5.7400000000001015,36.168078285662915],[-5.780000000000101,36.1656176240212],[-5.8200000000001,36.16314020668152],[-5.860000000000099,36.16064604467804],[-5.870292582522453,36.16],[-5.900000000000098,36.158135510393386],[-5.940000000000097,36.15560838197814],[-5.980000000000096,36.15306454528179],[-6.0200000000000955,36.15050401132799],[-6.060000000000094,36.147926791138005],[-6.100000000000094,36.14533289573069],[-6.140000000000093,36.142722336122475],[-6.180000000000092,36.14009512332747],[-6.220000000000091,36.13745126835738],[-6.26000000000009,36.13479078222162],[-6.3000000000000895,36.132113675927286],[-6.340000000000089,36.12941996047917],[-6.380000000000088,36.1267096468798],[-6.420000000000087,36.12398274612946],[-6.460000000000086,36.12123926922618],[-6.477961139733599,36.12],[-6.500000000000084,36.118479521351254],[-6.540000000000084,36.115703462303586],[-6.580000000000084,36.11291086336102],[-6.620000000000083,36.11010173551279],[-6.660000000000082,36.10727608974601],[-6.700000000000081,36.10443393704571],[-6.74000000000008,36.101575288394834],[-6.780000000000079,36.09870015477429],[-6.820000000000078,36.095808547162946],[-6.860000000000078,36.092900476537665],[-6.900000000000077,36.08997595387328],[-6.940000000000076,36.087034990142676],[-6.980000000000075,36.08407759631678],[-7.020000000000074,36.08110378336457],[-7.034766218956582,36.08],[-7.060000000000073,36.078113926613334],[-7.1000000000000725,36.07510788910685],[-7.140000000000072,36.07208546863361],[-7.180000000000071,36.06904667615532],[-7.220000000000069,36.06599152263185],[-7.260000000000069,36.062920019021284],[-7.300000000000068,36.05983217627997],[-7.340000000000067,36.05672800536237],[-7.3800000000000665,36.053607517221316],[-7.420000000000066,36.050470722807866],[-7.460000000000065,36.04731763307136],[-7.500000000000064,36.04414825895945],[-7.540000000000063,36.040962611418145],[-7.552026385723519,36.04],[-7.580000000000063,36.037761133290005],[-7.6200000000000605,36.03454359251725],[-7.6600000000000605,36.03130981439857],[-7.70000000000006,36.028059809874065],[-7.740000000000059,36.0247935898823],[-7.780000000000058,36.021511165360295],[-7.820000000000057,36.01821254724353],[-7.860000000000056,36.014897746466005],[-7.900000000000055,36.01156677396021],[-7.940000000000055,36.00821964065718],[-7.980000000000054,36.00485635748646],[-8.020000000000053,36.001476935376196],[-8.037399596730035,36.0]]}},{"type":"Feature","properties":{"magnitude":0.6,"percentagem":60.0,"territorio":"acores"},"geometry":{"type":"LineString","coordinates":[[-24.04000000000017,40.26395854675168],[-24.08000000000017,40.25605472116723],[-24.120000000000168,40.24813935464629],[-24.160000000000167,40.24021245433473],[-24.16107071839927,40.23999999999991],[-24.200000000000166,40.232276090607485],[-24.240000000000165,40.22432826895396],[-24.280000000000165,40.216368939824584],[-24.320000000000164,40.208398110384664],[-24.360000000000163,40.20041578780199],[-24.36208094254471,40.19999999999992],[-24.400000000000166,40.192424003942115],[-24.44000000000016,40.18442085721006],[-24.48000000000016,40.176406243747536],[-24.52000000000016,40.16838017074182],[-24.56000000000016,40.16034264538267],[-24.561703129212525,40.15999999999991],[-24.600000000000158,40.15229573491436],[-24.640000000000157,40.14423748295236],[-24.680000000000156,40.136167805147],[-24.720000000000155,40.12808670870744],[-24.759971341414953,40.11999999999991],[-24.760000000000154,40.11999420239579],[-24.800000000000153,40.11189245787716],[-24.840000000000153,40.1037793213155],[-24.88000000000015,40.095654799939446],[-24.92000000000015,40.08751890097999],[-24.956915520301173,40.07999999999991],[-24.960000000000154,40.07937179976644],[-25.00000000000015,40.07121535091409],[-25.04000000000015,40.063047551167784],[-25.080000000000148,40.05486840777792],[-25.120000000000147,40.046677927997365],[-25.15256928800515,40.039999999999914],[-25.160000000000146,40.03847652699468],[-25.200000000000145,40.030265595868855],[-25.240000000000144,40.02204335514011],[-25.280000000000143,40.01380981208066],[-25.320000000000142,40.00556497396507],[-25.346963437825153,39.999999999999915],[-25.36000000000014,39.997309568921835],[-25.40000000000014,39.9890443783722],[-25.44000000000014,39.9807679196527],[-25.48000000000014,39.97248020005722],[-25.520000000000138,39.96418122688195],[-25.540127723077006,39.959999999999916],[-25.560000000000137,39.95587211419922],[-25.600000000000136,39.94755288786671],[-25.640000000000136,39.93922243493929],[-25.680000000000135,39.93088076273236],[-25.720000000000134,39.92252787856365],[-25.732090899691592,39.919999999999916],[-25.760000000000133,39.91416535531086],[-25.800000000000132,39.90579231762909],[-25.84000000000013,39.897408095069],[-25.88000000000013,39.88901269496745],[-25.92000000000013,39.88060612466366],[-25.922880766765303,39.87999999999992],[-25.96000000000013,39.872190488593766],[-26.000000000000128,39.863763864790016],[-26.040000000000127,39.85532609796591],[-26.080000000000126,39.846877195479735],[-26.11251740062462,39.83999999999992],[-26.120000000000125,39.838417589761995],[-26.160000000000124,39.82994871425617],[-26.200000000000124,39.82146873035185],[-26.240000000000123,39.812977645426336],[-26.280000000000122,39.80447546685904],[-26.30103022065699,39.79999999999991],[-26.320000000000125,39.79596328730227],[-26.36000000000012,39.78744123639302],[-26.40000000000012,39.77890811920402],[-26.44000000000012,39.77036394313362],[-26.480000000000118,39.76180871558236],[-26.48844710237699,39.75999999999992],[-26.520000000000117,39.75324426184262],[-26.560000000000116,39.74466926299959],[-26.600000000000115,39.7360832401359],[-26.640000000000114,39.72748620067091],[-26.674787899268075,39.71999999999993],[-26.680000000000113,39.71887845394915],[-26.720000000000113,39.710261724495666],[-26.76000000000011,39.70163400598251],[-26.80000000000011,39.69299530584775],[-26.84000000000011,39.68434563153151],[-26.86007274233876,39.67999999999992],[-26.88000000000011,39.67568615287965],[-26.92000000000011,39.66701689029522],[-26.960000000000107,39.65833668116879],[-27.000000000000107,39.64964553295913],[-27.040000000000106,39.640943453126994],[-27.04433202523653,39.63999999999993],[-27.080000000000105,39.632232544209074],[-27.120000000000104,39.62351097820349],[-27.160000000000103,39.614778508312476],[-27.200000000000102,39.60603514201527],[-27.22757754888439,39.59999999999992],[-27.2400000000001,39.5972816203798],[-27.2800000000001,39.58851885004193],[-27.3200000000001,39.57974521111582],[-27.3600000000001,39.57096071109903],[-27.400000000000098,39.56216535749113],[-27.4098371117255,39.559999999999924],[-27.440000000000097,39.553360951301535],[-27.480000000000096,39.54454629642059],[-27.520000000000095,39.53572081586344],[-27.560000000000095,39.52688451714783],[-27.591128031874298,39.519999999999925],[-27.600000000000094,39.51803793813287],[-27.640000000000093,39.50918242081108],[-27.680000000000092,39.500316113326164],[-27.72000000000009,39.49143902321396],[-27.76000000000009,39.48255115801216],[-27.771469304274866,39.479999999999926],[-27.80000000000009,39.47365424240949],[-27.84000000000009,39.4647472620424],[-27.880000000000088,39.45582953467729],[-27.920000000000087,39.44690106786979],[-27.950881461505695,39.43999999999993],[-27.960000000000083,39.43796242088034],[-28.000000000000085,39.42901492210901],[-28.040000000000084,39.42005671206666],[-28.080000000000084,39.41108779832672],[-28.120000000000083,39.40210818846435],[-28.129381299506107,39.39999999999993],[-28.160000000000082,39.39311975516803],[-28.20000000000008,39.38412121745533],[-28.24000000000008,39.37511201188698],[-28.28000000000008,39.366092146055806],[-28.30698648916555,39.35999999999993],[-28.32000000000008,39.357062424409705],[-28.360000000000078,39.34802371446381],[-28.400000000000077,39.33897437260096],[-28.440000000000076,39.32991440643143],[-28.480000000000075,39.32084382356716],[-28.483717483527986,39.31999999999992],[-28.520000000000074,39.31176486826183],[-28.560000000000073,39.302675546067135],[-28.600000000000072,39.293575635617984],[-28.64000000000007,39.284465144543624],[-28.65958371969196,39.27999999999993],[-28.680000000000067,39.275345345569875],[-28.72000000000007,39.26621619943353],[-28.76000000000007,39.25707650119057],[-28.800000000000068,39.24792625848731],[-28.83461048780793,39.23999999999993],[-28.840000000000067,39.23876581465982],[-28.88000000000007,39.229597001398275],[-28.920000000000066,39.220417672272944],[-28.960000000000065,39.211227834947145],[-29.000000000000064,39.202027497085766],[-29.00880623940018,39.19999999999993],[-29.04000000000006,39.19281862220959],[-29.080000000000062,39.183599819537534],[-29.12000000000006,39.1743705450191],[-29.16000000000006,39.165130806335966],[-29.18218881730603,39.15999999999993],[-29.20000000000006,39.1558817336652],[-29.24000000000006,39.14662361520455],[-29.280000000000058,39.137355061345346],[-29.320000000000057,39.128076079785814],[-29.35477638394911,39.11999999999993],[-29.360000000000056,39.118787009110896],[-29.400000000000055,39.10948973304053],[-29.440000000000055,39.10018205811257],[-29.480000000000054,39.0908639920416],[-29.520000000000053,39.081535542543676],[-29.526578147610348,39.079999999999934],[-29.560000000000052,39.07219884835655],[-29.60000000000005,39.06285221105001],[-29.64000000000005,39.053495219250024],[-29.68000000000005,39.04412788068889],[-29.69760927261898,39.039999999999935],[-29.72000000000005,39.03475163800523],[-29.760000000000048,39.025366197426486],[-29.800000000000047,39.01597043909547],[-29.840000000000046,39.00656437076045],[-29.86788665199048,38.999999999999936],[-29.880000000000045,38.99714878037768],[-29.920000000000044,38.98772469604708],[-29.960000000000043,38.9782903307963],[-30.000000000000043,38.96884569238936],[-30.037423156496317,38.95999999999994],[-30.040000000000045,38.95939095539955],[-30.08000000000004,38.94992838724915],[-30.12000000000004,38.94045557510081],[-30.16000000000004,38.93097252673413],[-30.20000000000004,38.92147924993011],[-30.206227200769202,38.91999999999994],[-30.240000000000038,38.91197795289767],[-30.280000000000037,38.90246685428254],[-30.320000000000036,38.89294555647614],[-30.360000000000035,38.8834140672748],[-30.374314112072003,38.87999999999994],[-30.400000000000038,38.87387407638011],[-30.440000000000033,38.8643248521349],[-30.480000000000032,38.85476546581398],[-30.52000000000003,38.8451959252288],[-30.541697618839514,38.83999999999994],[-30.56000000000003,38.83561744260055],[-30.60000000000003,38.82603025396532],[-30.64000000000003,38.816432940457574],[-30.680000000000028,38.80682550990372],[-30.70838943805164,38.79999999999994],[-30.720000000000027,38.79720873797342],[-30.760000000000026,38.787583746588766],[-30.800000000000026,38.77794866762159],[-30.840000000000025,38.76830350891307],[-30.87440102509474,38.75999999999994],[-30.880000000000024,38.75864865041659],[-30.920000000000023,38.74898601832065],[-30.960000000000022,38.73931333601821],[-31.00000000000002,38.72963061136503],[-31.03974358093785,38.71999999999994],[-31.040000000000017,38.719937869343724],[-31.08000000000002,38.71023775896928],[-31.12000000000002,38.70052763584951],[-31.160000000000018,38.69080750785451],[-31.200000000000017,38.68107738285532],[-31.204425319858778,38.67999999999994],[-31.240000000000016,38.67133965982769],[-31.280000000000015,38.66159225879909],[-31.320000000000014,38.65183489045482],[-31.360000000000014,38.64206756268001],[-31.368460000090668,38.639999999999944],[-31.400000000000013,38.63229241366491],[-31.440000000000012,38.622507898023315],[-31.48000000000001,38.612713452708775],[-31.52000000000001,38.6029090856203],[-31.531858238653413,38.599999999999945],[-31.56000000000001,38.593096714716765],[-31.600000000000005,38.583275248142],[-31.640000000000008,38.57344388961925],[-31.680000000000007,38.56360264706115],[-31.69463026483036,38.559999999999945],[-31.720000000000006,38.553753258676004],[-31.760000000000005,38.54389500522843],[-31.800000000000004,38.53402689763912],[-31.840000000000003,38.524148943834135],[-31.856786086843087,38.519999999999946],[-31.880000000000006,38.51426274268215],[-31.92,38.504367866799036],[-31.96,38.494463174660794],[-32.0,38.484548674206636]]}},{"type":"Feature","properties":{"magnitude":0.9,"percentagem":90.0,"territorio":"madeira"},"geometry":{"type":"LineString","coordinates":[[-15.040000000000063,31.9647120230114],[-15.080000000000062,31.95827383793841],[-15.120000000000061,31.95182118047811],[-15.16000000000006,31.945354064136446],[-15.193042682084068,31.939999999999948],[-15.20000000000006,31.93887267820185],[-15.240000000000059,31.93237769808976],[-15.280000000000058,31.925868303076385],[-15.320000000000057,31.919344506668953],[-15.360000000000056,31.91280632237313],[-15.400000000000055,31.90625376369293],[-15.43809280045248,31.89999999999995],[-15.440000000000055,31.89968689299874],[-15.480000000000055,31.893106653720796],[-15.520000000000055,31.886512084063085],[-15.560000000000052,31.87990319753078],[-15.600000000000051,31.8732800076274],[-15.64000000000005,31.866642527854808],[-15.679944514610341,31.859999999999953],[-15.68000000000005,31.85999077315469],[-15.720000000000049,31.853325796072944],[-15.760000000000048,31.84664657315108],[-15.800000000000047,31.839953117891916],[-15.840000000000046,31.833245443796567],[-15.880000000000045,31.82652356436439],[-15.918738283091066,31.81999999999995],[-15.920000000000044,31.819787526324316],[-15.960000000000045,31.81303833299124],[-16.000000000000043,31.806274978374816],[-16.040000000000042,31.799497475975215],[-16.08000000000004,31.792705839290782],[-16.12000000000004,31.78590008181805],[-16.154605990206488,31.779999999999955],[-16.16000000000004,31.77908036105468],[-16.20000000000004,31.77224747321233],[-16.240000000000038,31.765400508659358],[-16.280000000000037,31.758539480892907],[-16.320000000000036,31.751664403408235],[-16.360000000000035,31.744775289698698],[-16.387671580516376,31.739999999999952],[-16.400000000000034,31.7378724868161],[-16.440000000000033,31.730956426394076],[-16.480000000000032,31.724026373848766],[-16.52000000000003,31.717082342673898],[-16.56000000000003,31.710124346361276],[-16.60000000000003,31.703152398400697],[-16.618051638155897,31.699999999999953],[-16.64000000000003,31.69616711402521],[-16.680000000000028,31.689168403137536],[-16.720000000000027,31.682155784726973],[-16.760000000000026,31.675129272283453],[-16.800000000000026,31.668088879294956],[-16.840000000000025,31.66103461924732],[-16.845855916525935,31.659999999999954],[-16.880000000000024,31.653967454060734],[-16.920000000000023,31.646886615001556],[-16.960000000000022,31.639791953031292],[-17.00000000000002,31.632683481635706],[-17.04000000000002,31.62556121429846],[-17.071173585488282,31.619999999999955],[-17.08000000000002,31.618425412260514],[-17.12000000000002,31.61127671927184],[-17.160000000000018,31.604114274510117],[-17.200000000000017,31.596938091458668],[-17.240000000000016,31.589748183598658],[-17.280000000000015,31.582544564409048],[-17.29410398562902,31.579999999999956],[-17.320000000000014,31.575327983667258],[-17.360000000000014,31.568098122979343],[-17.400000000000013,31.560854595152332],[-17.440000000000012,31.55359741366459],[-17.48000000000001,31.54632659199219],[-17.514740986975145,31.539999999999957],[-17.52000000000001,31.53904229468495],[-17.56000000000001,31.531745385064497],[-17.60000000000001,31.524434879469545],[-17.640000000000008,31.51711079137541],[-17.680000000000007,31.509773134254978],[-17.720000000000006,31.50242192157878],[-17.733155516516653,31.499999999999957],[-17.760000000000005,31.495057947766494],[-17.800000000000004,31.487680831536352],[-17.840000000000003,31.480290203981163],[-17.880000000000003,31.472886078570355],[-17.92,31.46546846877088],[-17.949436891689754,31.459999999999958],[-17.96,31.458037698468434],[-18.0,31.45059433885822]]}},{"type":"Feature","properties":{"magnitude":0.95,"percentagem":95.0,"territorio":"madeira"},"geometry":{"type":"LineString","coordinates":[[-15.040000000000063,30.377409472577835],[-15.080000000000062,30.37077419373987],[-15.120000000000061,30.364124301164225],[-15.16000000000006,30.357459809669482],[-15.20000000000006,30.350780734071282],[-15.240000000000059,30.34408708918223],[-15.264372109152815,30.339999999999982],[-15.280000000000058,30.33737925495353],[-15.320000000000057,30.330657453416144],[-15.360000000000056,30.32392113044331],[-15.400000000000055,30.31717030084357],[-15.440000000000055,30.31040497942238],[-15.480000000000054,30.303625180982095],[-15.501344079990933,30.299999999999983],[-15.520000000000053,30.296831362487783],[-15.560000000000052,30.290023605450564],[-15.60000000000005,30.283201419252833],[-15.64000000000005,30.276364818692564],[-15.68000000000005,30.269513818564548],[-15.720000000000049,30.26264843366036],[-15.735399826304029,30.259999999999984],[-15.760000000000048,30.255769270117653],[-15.800000000000047,30.248876124715963],[-15.840000000000046,30.241968642399133],[-15.880000000000045,30.235046837954044],[-15.920000000000044,30.22811072616433],[-15.960000000000043,30.221160321810256],[-15.966664862432621,30.219999999999985],[-16.000000000000043,30.21419645227119],[-16.040000000000042,30.20721848556758],[-16.08000000000004,30.200226274162233],[-16.12000000000004,30.193219832830415],[-16.16000000000004,30.186199176344026],[-16.19524897125456,30.179999999999986],[-16.20000000000004,30.17916443658651],[-16.240000000000038,30.172116382850554],[-16.280000000000037,30.165054161825115],[-16.320000000000036,30.157977788276817],[-16.360000000000035,30.15088727696877],[-16.400000000000034,30.1437826426606],[-16.421256054220088,30.13999999999999],[-16.440000000000033,30.13666436853316],[-16.480000000000032,30.129532535208035],[-16.52000000000003,30.122386626747755],[-16.56000000000003,30.115226657906298],[-16.60000000000003,30.108052643434068],[-16.64000000000003,30.100864598077827],[-16.64480258632074,30.099999999999987],[-16.680000000000028,30.093663428208103],[-16.720000000000027,30.086448382115528],[-16.760000000000026,30.079219353002678],[-16.800000000000026,30.071976355610346],[-16.840000000000025,30.064719404675607],[-16.865964666657153,30.059999999999988],[-16.880000000000024,30.057448874354034],[-16.920000000000023,30.050165087879847],[-16.960000000000022,30.04286739572715],[-17.00000000000002,30.03555581262671],[-17.04000000000002,30.028230353305553],[-17.08000000000002,30.020891032486812],[-17.084847715630048,30.01999999999999],[-17.12000000000002,30.013538777164783],[-17.160000000000018,30.00617281916862],[-17.200000000000017,29.99879304753538],[-17.240000000000016,29.991399476981556],[-17.280000000000015,29.98399212221971],[-17.30151913124598,29.97999999999999],[-17.320000000000014,29.976571482713133],[-17.360000000000014,29.969137656029602],[-17.400000000000013,29.961690092996935],[-17.440000000000012,29.954228808320668],[-17.48000000000001,29.946753816702376],[-17.516075327629835,29.93999999999999],[-17.52000000000001,29.939265236878352],[-17.56000000000001,29.931763938617753],[-17.60000000000001,29.924248981271493],[-17.640000000000008,29.916720379533782],[-17.680000000000007,29.909178148094743],[-17.720000000000006,29.901622301640337],[-17.728573928019806,29.89999999999999],[-17.760000000000005,29.894053698834867],[-17.800000000000004,29.886471744207306],[-17.840000000000003,29.878876222413787],[-17.880000000000003,29.871267148132553],[-17.92,29.863644536037594],[-17.939092533422006,29.859999999999992],[-17.96,29.856008968163565],[-18.0,29.848360413226956]]}}]}