{"type":"FeatureCollection","properties":{"largura_maxima_km":248.23,"largura_sobre_pt_km":246.102,"linha_central_sobre_pt":false,"desenhavel_como_area":true,"perfil_largura":[{"t":-0.53333,"lat":25.0423,"lon":1.0707,"largura_km":248.23,"eixo_na_terra":true},{"t":-0.52778,"lat":25.107,"lon":1.1807,"largura_km":248.032,"eixo_na_terra":true},{"t":-0.52222,"lat":25.1716,"lon":1.2905,"largura_km":247.835,"eixo_na_terra":true},{"t":-0.51667,"lat":25.236,"lon":1.4,"largura_km":247.638,"eixo_na_terra":true},{"t":-0.51111,"lat":25.3002,"lon":1.5092,"largura_km":247.443,"eixo_na_terra":true},{"t":-0.50556,"lat":25.3642,"lon":1.6182,"largura_km":247.249,"eixo_na_terra":true},{"t":-0.5,"lat":25.4281,"lon":1.7269,"largura_km":247.055,"eixo_na_terra":true},{"t":-0.49444,"lat":25.4918,"lon":1.8354,"largura_km":246.862,"eixo_na_terra":true},{"t":-0.48889,"lat":25.5553,"lon":1.9437,"largura_km":246.671,"eixo_na_terra":true},{"t":-0.48333,"lat":25.6187,"lon":2.0517,"largura_km":246.48,"eixo_na_terra":true},{"t":-0.47778,"lat":25.6819,"lon":2.1595,"largura_km":246.29,"eixo_na_terra":true},{"t":-0.47222,"lat":25.7449,"lon":2.267,"largura_km":246.102,"eixo_na_terra":true},{"t":-0.46667,"lat":25.8077,"lon":2.3744,"largura_km":245.914,"eixo_na_terra":true},{"t":-0.46111,"lat":25.8704,"lon":2.4815,"largura_km":245.727,"eixo_na_terra":true},{"t":-0.45556,"lat":25.933,"lon":2.5883,"largura_km":245.541,"eixo_na_terra":true},{"t":-0.45,"lat":25.9953,"lon":2.695,"largura_km":245.356,"eixo_na_terra":true},{"t":-0.44444,"lat":26.0575,"lon":2.8015,"largura_km":245.172,"eixo_na_terra":true},{"t":-0.43889,"lat":26.1196,"lon":2.9077,"largura_km":244.989,"eixo_na_terra":true},{"t":-0.43333,"lat":26.1815,"lon":3.0138,"largura_km":244.806,"eixo_na_terra":true},{"t":-0.42778,"lat":26.2432,"lon":3.1196,"largura_km":244.625,"eixo_na_terra":true},{"t":-0.42222,"lat":26.3048,"lon":3.2253,"largura_km":244.445,"eixo_na_terra":true},{"t":-0.41667,"lat":26.3662,"lon":3.3307,"largura_km":244.265,"eixo_na_terra":true},{"t":-0.41111,"lat":26.4275,"lon":3.436,"largura_km":244.087,"eixo_na_terra":true},{"t":-0.40556,"lat":26.4886,"lon":3.5411,"largura_km":243.909,"eixo_na_terra":true},{"t":-0.4,"lat":26.5495,"lon":3.646,"largura_km":243.733,"eixo_na_terra":true},{"t":-0.39444,"lat":26.6103,"lon":3.7507,"largura_km":243.557,"eixo_na_terra":true},{"t":-0.38889,"lat":26.6709,"lon":3.8553,"largura_km":243.382,"eixo_na_terra":true},{"t":-0.38333,"lat":26.7314,"lon":3.9597,"largura_km":243.209,"eixo_na_terra":true},{"t":-0.37778,"lat":26.7917,"lon":4.0639,"largura_km":243.036,"eixo_na_terra":true},{"t":-0.37222,"lat":26.8519,"lon":4.1679,"largura_km":242.864,"eixo_na_terra":true},{"t":-0.36667,"lat":26.9119,"lon":4.2718,"largura_km":242.693,"eixo_na_terra":true},{"t":-0.36111,"lat":26.9718,"lon":4.3756,"largura_km":242.523,"eixo_na_terra":true},{"t":-0.35556,"lat":27.0316,"lon":4.4792,"largura_km":242.354,"eixo_na_terra":true},{"t":-0.35,"lat":27.0911,"lon":4.5826,"largura_km":242.186,"eixo_na_terra":true},{"t":-0.34444,"lat":27.1506,"lon":4.6859,"largura_km":242.018,"eixo_na_terra":true},{"t":-0.33889,"lat":27.2098,"lon":4.789,"largura_km":241.852,"eixo_na_terra":true},{"t":-0.33333,"lat":27.269,"lon":4.892,"largura_km":241.687,"eixo_na_terra":true},{"t":-0.32778,"lat":27.328,"lon":4.9948,"largura_km":241.522,"eixo_na_terra":true}]},"features":[{"type":"Feature","properties":{},"geometry":{"type":"Polygon","coordinates":[[[0.17475438875175087,25.855326683368638],[1.3974714201347638,26.564442649128537],[2.3760376867591617,27.12959163134789],[3.3381156214015846,27.681897155987205],[4.181591271627383,28.162495236689846],[5.779676356317339,26.49642909819858],[4.968387197716822,26.02466375114625],[4.043925954685733,25.48237303711148],[3.104729129492739,24.92736912246691],[1.9329785655004912,24.230917572770785],[0.17475438875175087,25.855326683368638]]]}}]}