{"type":"FeatureCollection","features":[{"type":"Feature","properties":{"t_inicio":-0.5333333333333456,"t_fim":-0.3277777777777908},"geometry":{"type":"LineString","coordinates":[[1.0706603976035467,25.04231891999315],[1.1806972286907467,25.10704634198156],[1.290465690545716,25.171599022264786],[1.3999702835847074,25.235978012767976],[1.5092154490646408,25.300184347287345],[1.618205570359919,25.36421904183837],[1.7269449742058782,25.428083094994776],[1.8354379319097234,25.491777488218563],[1.9436886605300288,25.5553031861813],[2.051701324025771,25.61866113707703],[2.159480034376429,25.681852272927046],[2.2670288526725244,25.744877509876698],[2.374351790179958,25.80773774848463],[2.481452809376492,25.870433874004533],[2.5883358249625985,25.932966756659702],[2.6950047048475767,25.99533725191067],[2.8014632711108334,26.057546200715983],[2.907715300939742,26.1195944297865],[3.0137645275447653,26.181482751833244],[3.1196146410522374,26.24321196580914],[3.225269289375319,26.30478285714466],[3.3307320790648873,26.366196197977768],[3.4360065761393344,26.42745274737805],[3.5410963068949854,26.488553251565506],[3.646004758697586,26.549498444123877],[3.750735380755202,26.610289046208866],[3.855291584872873,26.670925766751303],[3.959676746190098,26.73140930265539],[4.063894203901498,26.791740338992238],[4.167947261960194,26.851919549188704],[4.271839189766638,26.911947595211803],[4.375573222840046,26.97182512774871],[4.479152563476475,27.031552786382495],[4.582580381391153,27.091131199763804],[4.6858598143466565,27.150560985778377],[4.788993968767784,27.209842751710763],[4.891985920342506,27.268977094404182],[4.994838714609386,27.327964600416674]]}}]}