{"type":"FeatureCollection","features":[{"type":"Feature","properties":{"magnitude":0.2,"de":0.2,"ate":0.5,"percentagem":20.0},"geometry":{"type":"Polygon","coordinates":[[[-34.5,30.0],[-33.151995798660394,30.0],[-30.53999999999985,31.638502191664635],[-27.89999999999975,33.402438797769676],[-25.01999999999964,35.443294881563816],[-21.959999999999525,37.727824188880355],[-19.00447940251037,40.01999999999978],[-12.782465757974775,44.939999999999685],[-34.5,44.939999999999685],[-34.5,30.0]]]}},{"type":"Feature","properties":{"magnitude":0.5,"de":0.5,"ate":0.8,"percentagem":50.0},"geometry":{"type":"Polygon","coordinates":[[[-33.151995798660394,30.0],[-10.151834717566524,30.0],[-3.5399999999988268,35.18059596746307],[-3.5399999999988268,44.939999999999685],[-12.782465757974775,44.939999999999685],[-20.27999999999946,39.022698248773324],[-24.599999999999625,35.75029518900931],[-26.81999999999971,34.15411041147423],[-28.932375093167884,32.699999999999946],[-31.034583822504086,31.319999999999972],[-33.151995798660394,30.0]]]}},{"type":"Feature","properties":{"magnitude":0.8,"de":0.8,"ate":0.95,"percentagem":80.0},"geometry":{"type":"Polygon","coordinates":[[[-10.151834717566524,30.0],[-3.5399999999988268,30.0],[-3.5399999999988268,35.18059596746307],[-8.279999999999006,31.45897856358704],[-10.151834717566524,30.0]]]}}]}