{"type":"FeatureCollection","properties":{"largura_maxima_km":120.898,"largura_sobre_pt_km":116.158,"linha_central_sobre_pt":false,"desenhavel_como_area":true,"perfil_largura":[{"t":0.96667,"lat":44.2469,"lon":-39.4972,"largura_km":120.898,"eixo_na_terra":true},{"t":0.97222,"lat":44.3844,"lon":-38.8017,"largura_km":120.328,"eixo_na_terra":true},{"t":0.97778,"lat":44.5247,"lon":-38.0752,"largura_km":119.731,"eixo_na_terra":true},{"t":0.98333,"lat":44.6682,"lon":-37.314,"largura_km":119.106,"eixo_na_terra":true},{"t":0.98889,"lat":44.8151,"lon":-36.5134,"largura_km":118.446,"eixo_na_terra":true},{"t":0.99444,"lat":44.966,"lon":-35.6678,"largura_km":117.743,"eixo_na_terra":true},{"t":1.0,"lat":45.1214,"lon":-34.77,"largura_km":116.986,"eixo_na_terra":true},{"t":1.00556,"lat":45.2821,"lon":-33.8106,"largura_km":116.158,"eixo_na_terra":true},{"t":1.01111,"lat":45.4492,"lon":-32.7771,"largura_km":115.233,"eixo_na_terra":true},{"t":1.01667,"lat":45.624,"lon":-31.6519,"largura_km":114.157,"eixo_na_terra":true},{"t":1.02222,"lat":45.8088,"lon":-30.4095,"largura_km":112.804,"eixo_na_terra":true},{"t":1.02778,"lat":46.0067,"lon":-29.0093,"largura_km":110.725,"eixo_na_terra":true},{"t":1.03333,"lat":46.4124,"lon":-25.9611,"largura_km":null,"eixo_na_terra":false},{"t":1.03889,"lat":46.5738,"lon":-24.359,"largura_km":null,"eixo_na_terra":false},{"t":1.04444,"lat":46.626,"lon":-23.5412,"largura_km":null,"eixo_na_terra":false},{"t":1.05,"lat":46.6712,"lon":-22.6671,"largura_km":null,"eixo_na_terra":false},{"t":1.05556,"lat":46.7288,"lon":-21.4282,"largura_km":null,"eixo_na_terra":false},{"t":1.06111,"lat":46.8428,"lon":-19.853,"largura_km":null,"eixo_na_terra":false}]},"features":[{"type":"Feature","properties":{},"geometry":{"type":"Polygon","coordinates":[[[-37.19159390069444,45.2447279006159],[-36.33510965866708,45.397109931432865],[-35.47343321941128,45.54589888620543],[-34.557653740349934,45.69914205218944],[-33.57787321876313,45.85760897053335],[-32.52075281478304,46.022334181668796],[-31.309388614425785,46.203229657620916],[-30.026494050793303,46.385941457781676],[-28.572865012440133,46.58211044282948],[-26.866270620598897,46.798051600992466],[-26.989120980667614,46.74650213665861],[-26.401887325262237,46.83483485700474],[-25.79108237172923,46.91873229566699],[-25.157785045694823,46.99786447087969],[-24.504597586229607,47.07175847840562],[-24.059488024952316,47.11790727688636],[-23.394147854793193,47.18087754123301],[-22.8762375946408,47.23951880957604],[-22.555577946484334,47.27413264931709],[-21.86590330368503,47.34481265345731],[-21.490132321025584,47.381375683427976],[-20.646029905767676,47.4592471092772],[-20.152461215099464,47.5024635804817],[-18.816997632620854,47.613059073908865],[-18.80862462130811,47.60382377234072],[-18.732125674384037,47.61063996265484],[-18.760810693667345,47.55108575200057],[-18.651438579929465,47.43045000748925],[-18.501524321262366,47.42547551404018],[-18.426025981016267,47.417604177492635],[-18.39319059055947,47.40586122309394],[-18.406260456595362,47.38999516362813],[-18.463418072720714,47.37015537943258],[-18.572941359544362,47.343868791312694],[-18.26095402077806,46.99975159723178],[-18.62964954609171,46.96102466152279],[-18.130554119381117,46.726383382070004],[-19.555688514986542,46.5992143431964],[-21.25875928887151,46.44128151274656],[-23.608688197554642,46.178548764263056],[-24.104957731382882,46.12417621473498],[-24.67981714143531,46.06388483329716],[-25.31479310656374,45.98008321075221],[-25.92384799619535,45.90228252562909],[-26.46725800077226,45.8365878776463],[-26.849467767276266,45.79368299140159],[-27.336315738086796,45.7225972115057],[-27.824707122577877,45.65483751436825],[-28.270903823948316,45.5973008179767],[-28.5602996137841,45.563057737123536],[-29.11258068667601,45.47699608066157],[-29.389417462484488,45.43658052111939],[-29.652113467348784,45.40035509981598],[-30.01883725710664,45.354125662819854],[-30.24459232350648,45.328851075590045],[-30.405962481242977,45.3127550237497],[-30.49663273597116,45.27470871228885],[-31.78282317304422,45.07665792366545],[-32.89176610074688,44.89861933169679],[-33.96050887820252,44.72000695529927],[-34.90454793232561,44.55674249478779],[-35.78860373054354,44.398932837491145],[-36.62169924849886,44.245794780411295],[-37.41080282949801,44.09672203132425],[-38.161429310130984,43.95123361234421],[-38.87803227925795,43.80894016065948],[-39.564269870799365,43.66952107338572],[-40.22319062240666,43.53270851134099],[-38.70207175883729,44.96489954804536],[-37.96462443042034,45.10330932651469],[-37.19159390069444,45.2447279006159]]]}}]}