{"type":"FeatureCollection","features":[{"type":"Feature","properties":{"t_inicio":0.966666666666649,"t_fim":1.0444444444444265},"geometry":{"type":"LineString","coordinates":[[-39.497197955700756,44.24685432427074],[-38.80168940348142,44.384402155404075],[-38.075202028913395,44.52473745401607],[-37.31397343001038,44.66817290015965],[-36.51341545519401,44.81508884464508],[-35.66783543304325,44.96595603416382],[-34.770023232873626,45.121369242937],[-33.81061560348138,45.282098996441306],[-32.777070557051246,45.44917494931469],[-31.651912155820952,45.62402844524699],[-30.409488828444665,45.80875556649838],[-29.009337089983717,46.00665514017605],[-27.380424070010832,46.22350499371845],[-25.37368976477123,46.47140194831687],[-22.530480280619287,46.787478236016334]]}}]}