{"type":"FeatureCollection","features":[{"type":"Feature","properties":{"magnitude":0.2,"de":0.2,"ate":0.5,"percentagem":20.0},"geometry":{"type":"Polygon","coordinates":[[[-22.352954407978185,30.0],[-9.51233317926965,30.0],[-8.975901276264688,31.559999999999967],[-8.475664201776192,33.23999999999993],[-8.02777825486287,34.97999999999989],[-7.616241505905439,36.839999999999854],[-7.255142392845583,38.75999999999981],[-6.935061542036575,40.79999999999977],[-6.675391491654864,42.83999999999973],[-6.467948499868787,44.939999999999685],[-10.642035733848122,44.939999999999685],[-10.930977875506441,42.71999999999973],[-11.317629154769364,40.61999999999978],[-11.81744659595037,38.57999999999981],[-12.386313160739485,36.77999999999986],[-13.019999999999186,35.19687493699486],[-13.3799999999992,34.44541362574641],[-13.74116508398085,33.779999999999916],[-14.110616341179378,33.179999999999936],[-14.519999999999243,32.5999018410459],[-14.939999999999259,32.08840871301561],[-15.359999999999275,31.65407750772536],[-15.839999999999293,31.244675010620636],[-16.31999999999931,30.921616843274816],[-16.79999999999933,30.679820823652804],[-17.33999999999935,30.500373986596756],[-17.759999999999366,30.426399361667116],[-22.352954407978185,30.0]]]}},{"type":"Feature","properties":{"magnitude":0.5,"de":0.5,"ate":0.8,"percentagem":50.0},"geometry":{"type":"Polygon","coordinates":[[[-34.5,30.0],[-22.352954407978185,30.0],[-17.57999999999936,30.45116469320724],[-17.219999999999345,30.53197045916084],[-16.85999999999933,30.655111303170944],[-16.199999999999307,30.994590335351035],[-15.719999999999288,31.33869839369997],[-15.210859488058237,31.79999999999996],[-14.759999999999252,32.297774839356194],[-14.279999999999234,32.929653094421745],[-13.859999999999218,33.57854850857821],[-13.439999999999202,34.32905590986696],[-13.036676052523237,35.15999999999989],[-12.680086216281408,35.99999999999987],[-12.32298531812425,36.95999999999985],[-11.999999999999147,37.953769211755514],[-11.699999999999136,39.012135013427645],[-11.423293735515553,40.13999999999979],[-10.969310222739617,42.479999999999734],[-10.642035733848122,44.939999999999685],[-14.881834804044058,44.939999999999685],[-15.090274993245888,43.979999999999706],[-15.331604377588068,43.139999999999716],[-15.619573918548818,42.35999999999974],[-15.959999999999297,41.644601386420305],[-16.31999999999931,41.065723944139634],[-16.690885273300225,40.61999999999978],[-17.09999999999934,40.277631447818806],[-17.519999999999357,40.07291480279441],[-17.819999999999368,40.01325599903117],[-22.859999999999555,39.53139497560487],[-26.5799999999997,39.089690920225834],[-30.599999999999852,38.523943743811216],[-34.5,37.880860367802576],[-34.5,30.0]]]}},{"type":"Feature","properties":{"magnitude":0.8,"de":0.8,"ate":0.95,"percentagem":80.0},"geometry":{"type":"Polygon","coordinates":[[[-34.5,42.90529523747977],[-34.5,37.880860367802576],[-30.419999999999845,38.55133273976938],[-26.27999999999969,39.1281518383516],[-22.07999999999953,39.61452338794909],[-17.759999999999366,40.01946335102996],[-17.459999999999354,40.09343968711319],[-17.03999999999934,40.31871373344536],[-16.679999999999325,40.63097275144024],[-16.29584641166057,41.09999999999977],[-15.930340112616536,41.69999999999975],[-15.599999999999284,42.407051745223676],[-15.33160437758807,43.139999999999716],[-15.090274993245888,43.979999999999706],[-14.881834804044058,44.939999999999685],[-18.872511024837245,44.939999999999685],[-21.719999999999516,44.66490529920878],[-24.95999999999964,44.302722129156784],[-28.19999999999976,43.88556144080111],[-31.37999999999988,43.419727486095375],[-34.5,42.90529523747977]]]}},{"type":"Feature","properties":{"magnitude":0.95,"de":0.95,"ate":0.99,"percentagem":95.0},"geometry":{"type":"Polygon","coordinates":[[[-34.5,44.280646649132606],[-34.5,42.90529523747977],[-30.41999999999985,43.56642732405956],[-26.219999999999686,44.147185239943084],[-22.559999999999548,44.57612416082122],[-18.872511024837245,44.939999999999685],[-30.415521898712303,44.939999999999685],[-34.5,44.280646649132606]]]}},{"type":"Feature","properties":{"magnitude":0.99,"de":0.99,"ate":2.0,"percentagem":99.0},"geometry":{"type":"Polygon","coordinates":[[[-34.5,44.939999999999685],[-34.5,44.280646649132606],[-30.415521898712303,44.939999999999685],[-34.5,44.939999999999685]]]}}]}