{"type":"FeatureCollection","features":[{"type":"Feature","properties":{"magnitude":0.6,"percentagem":60.0,"territorio":"acores"},"geometry":{"type":"LineString","coordinates":[[-31.503068487654247,40.479999999999905],[-31.48000000000001,40.47477453109958],[-31.440000000000012,40.46570391854172],[-31.400000000000013,40.45662280220422],[-31.360000000000014,40.447531186182935],[-31.32690254054298,40.439999999999905],[-31.320000000000014,40.4384294134398],[-31.280000000000015,40.42931877778971],[-31.240000000000016,40.420197659993306],[-31.200000000000017,40.4110660641452],[-31.160000000000018,40.40192399433733],[-31.151590237905342,40.399999999999906],[-31.12000000000002,40.39277301738897],[-31.08000000000002,40.38361199557671],[-31.04000000000002,40.37444051736602],[-31.00000000000002,40.36525858684766],[-30.97711586538681,40.35999999999991],[-30.960000000000022,40.356067059791066],[-30.920000000000023,40.346866231549846],[-30.880000000000024,40.33765496858505],[-30.840000000000025,40.32843327498638],[-30.80346058811169,40.31999999999991],[-30.800000000000026,40.319201328048734],[-30.760000000000026,40.30996079111129],[-30.720000000000027,40.30070984114706],[-30.680000000000028,40.29144848224479],[-30.64000000000003,40.28217671849062],[-30.630618490329148,40.2799999999999],[-30.60000000000003,40.2728960980735],[-30.56000000000003,40.26360555901252],[-30.52000000000003,40.25430463273172],[-30.480000000000032,40.244993323316365],[-30.45857152142718,40.23999999999991],[-30.440000000000033,40.23567257687336],[-30.400000000000034,40.2263425467681],[-30.360000000000035,40.21700215118398],[-30.320000000000036,40.2076513942055],[-30.287304552900196,40.19999999999991],[-30.280000000000037,40.19829065258231],[-30.240000000000038,40.18892122963672],[-30.20000000000004,40.179541462976346],[-30.16000000000004,40.170151356684926],[-30.12000000000004,40.16075091484363],[-30.116807747367194,40.15999999999991],[-30.08000000000004,40.15134203348721],[-30.040000000000042,40.14192299413111],[-30.000000000000043,40.13249363693075],[-29.960000000000043,40.12305396596667],[-29.947071559293175,40.11999999999991],[-29.920000000000044,40.113605384843744],[-29.880000000000045,40.10414717132742],[-29.840000000000046,40.09467866177742],[-29.800000000000043,40.08519986027375],[-29.778078894546688,40.07999999999991],[-29.760000000000048,40.075711710894794],[-29.72000000000005,40.066214421910296],[-29.68000000000005,40.056706858726805],[-29.64000000000005,40.04718902542378],[-29.609818353978966,40.039999999999914],[-29.60000000000005,40.03766143950193],[-29.560000000000052,40.02812517389926],[-29.520000000000053,40.0185786559566],[-29.480000000000054,40.009021889753015],[-29.442278781302136,39.999999999999915],[-29.440000000000055,39.99945499920815],[-29.400000000000055,39.98987985599658],[-29.360000000000056,39.980294482328716],[-29.320000000000057,39.97069888228317],[-29.28000000000006,39.96109305993613],[-29.275452455104052,39.959999999999916],[-29.24000000000006,39.951478897595344],[-29.20000000000006,39.941854767397054],[-29.16000000000006,39.932220432729295],[-29.12000000000006,39.922575897667954],[-29.109326527238863,39.919999999999916],[-29.080000000000062,39.912922728787045],[-29.040000000000063,39.9032599414152],[-29.000000000000064,39.89358697150729],[-28.960000000000065,39.883903823138986],[-28.943888938060454,39.87999999999992],[-28.920000000000066,39.87421178036895],[-28.880000000000067,39.8645104353437],[-28.840000000000067,39.85479892974125],[-28.800000000000068,39.845077267637],[-28.779129462438583,39.83999999999992],[-28.76000000000007,39.83534648385117],[-28.72000000000007,39.82560668085705],[-28.68000000000007,39.81585673927019],[-28.64000000000007,39.80609666316586],[-28.615038087399114,39.79999999999992],[-28.600000000000072,39.796327271463305],[-28.560000000000073,39.78654911035024],[-28.520000000000074,39.776760832654766],[-28.48000000000008,39.766962442452055],[-28.451605006689928,39.75999999999992],[-28.440000000000076,39.75715457616095],[-28.400000000000077,39.747338156945254],[-28.360000000000078,39.73751164318351],[-28.32000000000008,39.72767503895088],[-28.288820615511636,39.71999999999992],[-28.28000000000008,39.71782883163169],[-28.24000000000008,39.707974254497],[-28.20000000000008,39.698109604878894],[-28.160000000000082,39.688234886852506],[-28.12667550540637,39.67999999999992],[-28.120000000000083,39.678350472300956],[-28.080000000000084,39.66845783759912],[-28.040000000000084,39.658555152502885],[-28.000000000000085,39.648642421087445],[-27.96516045930005,39.63999999999992],[-27.960000000000086,39.63871993333756],[-27.920000000000087,39.62878934158939],[-27.880000000000088,39.618848721562436],[-27.84000000000009,39.60889807733196],[-27.80426644669288,39.59999999999992],[-27.80000000000009,39.59893765065878],[-27.76000000000009,39.58896920255489],[-27.72000000000009,39.57899074831454],[-27.680000000000092,39.569002292013124],[-27.643984618991375,39.55999999999993],[-27.640000000000093,39.559004060935465],[-27.600000000000094,39.548997857336886],[-27.560000000000095,39.538981669771054],[-27.520000000000095,39.52895550231355],[-27.48430630497997,39.519999999999925],[-27.480000000000096,39.51891960159645],[-27.440000000000097,39.50887574353536],[-27.400000000000098,39.49882192370319],[-27.3600000000001,39.48875814617577],[-27.32522300642435,39.479999999999926],[-27.3200000000001,39.478684710833065],[-27.2800000000001,39.46860329951327],[-27.2400000000001,39.458511948645764],[-27.200000000000102,39.44841066230658],[-27.16672639380393,39.43999999999993],[-27.160000000000103,39.438299827603146],[-27.120000000000104,39.428180964400696],[-27.080000000000105,39.41805218390112],[-27.040000000000106,39.40791349018075],[-27.00880830216918,39.39999999999993],[-27.000000000000107,39.39776539163471],[-26.960000000000107,39.38760917809839],[-26.92000000000011,39.37744306954286],[-26.880000000000106,39.36726707004482],[-26.851460727117942,39.35999999999993],[-26.84000000000011,39.357081843429626],[-26.80000000000011,39.34688838128131],[-26.76000000000011,39.33668504641919],[-26.720000000000116,39.32647184292028],[-26.69467582088898,39.31999999999993],[-26.680000000000113,39.3162496242667],[-26.640000000000114,39.30601901540182],[-26.600000000000115,39.29577855615605],[-26.560000000000116,39.28552825060676],[-26.53844588856681,39.27999999999993],[-26.520000000000117,39.27526917620476],[-26.480000000000118,39.265001522692586],[-26.44000000000012,39.25472404116],[-26.40000000000012,39.244436735684886],[-26.382763384395528,39.239999999999924],[-26.36000000000012,39.23414094208527],[-26.32000000000012,39.223836346169165],[-26.280000000000122,39.21352194462088],[-26.240000000000123,39.20319774151862],[-26.227620908198013,39.19999999999993],[-26.200000000000124,39.19286536553478],[-26.160000000000124,39.182523929632495],[-26.120000000000122,39.17217271051394],[-26.080000000000126,39.16181171225782],[-26.073011201895316,39.15999999999993],[-26.040000000000127,39.15144289096711],[-26.000000000000128,39.1410647176709],[-25.96000000000013,39.13067678360214],[-25.920000000000133,39.12027909284001],[-25.918927146125753,39.11999999999993],[-25.88000000000013,39.10987396358527],[-25.84000000000013,39.09945915566211],[-25.800000000000132,39.0890346094379],[-25.76536482940208,39.079999999999934],[-25.760000000000133,39.078600649107585],[-25.720000000000134,39.06815902938317],[-25.680000000000135,39.057707689774716],[-25.64000000000014,39.04724663436459],[-25.612315170868005,39.039999999999935],[-25.600000000000136,39.03677660596684],[-25.560000000000137,39.02629853514692],[-25.520000000000138,39.01581076696967],[-25.48000000000014,39.00531330551801],[-25.459770816681385,38.999999999999936],[-25.44000000000014,38.99480734710818],[-25.40000000000014,38.98429292845613],[-25.36000000000014,38.97376883500136],[-25.320000000000142,38.96323507082729],[-25.307725159935142,38.95999999999994],[-25.280000000000143,38.95269332073079],[-25.240000000000144,38.94214265768476],[-25.200000000000145,38.93158234241845],[-25.160000000000146,38.92101237901589],[-25.156171717230027,38.91999999999994],[-25.120000000000147,38.910434975829105],[-25.080000000000148,38.89984817200184],[-25.04000000000015,38.889251738564624],[-25.00510692483797,38.87999999999994],[-25.00000000000015,38.878645991955324],[-24.96000000000015,38.868032762193145],[-24.92000000000015,38.85740992137191],[-24.88000000000015,38.84677747357894],[-24.854524028258915,38.83999999999994],[-24.840000000000153,38.8361363158689],[-24.800000000000153,38.82548713040887],[-24.760000000000154,38.81482835655524],[-24.720000000000155,38.804159998395946],[-24.704414769754703,38.79999999999994],[-24.680000000000156,38.793483568908165],[-24.640000000000157,38.78279853185816],[-24.600000000000158,38.77210392910783],[-24.560000000000162,38.76139976474573],[-24.554773123184393,38.75999999999994],[-24.52000000000016,38.75068820307687],[-24.48000000000016,38.73996741871865],[-24.44000000000016,38.72923709138116],[-24.40559613529386,38.71999999999994],[-24.400000000000162,38.718497574063136],[-24.360000000000163,38.70775067117438],[-24.320000000000164,38.696994243963275],[-24.280000000000168,38.686228296521755],[-24.256877963544735,38.67999999999994],[-24.240000000000165,38.675453890684075],[-24.200000000000166,38.66467142679513],[-24.160000000000167,38.653879461359715],[-24.12000000000017,38.64307799847046],[-24.108610102726317,38.639999999999944],[-24.08000000000017,38.63226884444301],[-24.04000000000017,38.62145092432767]]}}]}