{"type":"FeatureCollection","properties":{"largura_maxima_km":206.105,"largura_sobre_pt_km":205.282,"linha_central_sobre_pt":false,"desenhavel_como_area":true,"perfil_largura":[{"t":-1.79444,"lat":25.0515,"lon":-0.1555,"largura_km":206.105,"eixo_na_terra":true},{"t":-1.78889,"lat":25.1328,"lon":0.0292,"largura_km":205.829,"eixo_na_terra":true},{"t":-1.78333,"lat":25.2134,"lon":0.2127,"largura_km":205.555,"eixo_na_terra":true},{"t":-1.77778,"lat":25.2932,"lon":0.3951,"largura_km":205.282,"eixo_na_terra":true},{"t":-1.77222,"lat":25.3724,"lon":0.5763,"largura_km":205.012,"eixo_na_terra":true},{"t":-1.76667,"lat":25.4508,"lon":0.7563,"largura_km":204.745,"eixo_na_terra":true},{"t":-1.76111,"lat":25.5285,"lon":0.9353,"largura_km":204.479,"eixo_na_terra":true},{"t":-1.75556,"lat":25.6055,"lon":1.1133,"largura_km":204.215,"eixo_na_terra":true},{"t":-1.75,"lat":25.6818,"lon":1.2901,"largura_km":203.953,"eixo_na_terra":true},{"t":-1.74444,"lat":25.7575,"lon":1.466,"largura_km":203.693,"eixo_na_terra":true},{"t":-1.73889,"lat":25.8325,"lon":1.6408,"largura_km":203.436,"eixo_na_terra":true},{"t":-1.73333,"lat":25.9069,"lon":1.8147,"largura_km":203.181,"eixo_na_terra":true},{"t":-1.72778,"lat":25.9806,"lon":1.9875,"largura_km":202.928,"eixo_na_terra":true},{"t":-1.72222,"lat":26.0537,"lon":2.1595,"largura_km":202.677,"eixo_na_terra":true},{"t":-1.71667,"lat":26.1262,"lon":2.3305,"largura_km":202.428,"eixo_na_terra":true},{"t":-1.71111,"lat":26.198,"lon":2.5005,"largura_km":202.18,"eixo_na_terra":true},{"t":-1.70556,"lat":26.2693,"lon":2.6697,"largura_km":201.935,"eixo_na_terra":true},{"t":-1.7,"lat":26.3399,"lon":2.838,"largura_km":201.691,"eixo_na_terra":true},{"t":-1.69444,"lat":26.41,"lon":3.0055,"largura_km":201.45,"eixo_na_terra":true},{"t":-1.68889,"lat":26.4794,"lon":3.1721,"largura_km":201.21,"eixo_na_terra":true},{"t":-1.68333,"lat":26.5483,"lon":3.3378,"largura_km":200.972,"eixo_na_terra":true},{"t":-1.67778,"lat":26.6167,"lon":3.5028,"largura_km":200.736,"eixo_na_terra":true},{"t":-1.67222,"lat":26.6844,"lon":3.6669,"largura_km":200.502,"eixo_na_terra":true},{"t":-1.66667,"lat":26.7516,"lon":3.8303,"largura_km":200.269,"eixo_na_terra":true},{"t":-1.66111,"lat":26.8183,"lon":3.9929,"largura_km":200.038,"eixo_na_terra":true},{"t":-1.65556,"lat":26.8844,"lon":4.1547,"largura_km":199.809,"eixo_na_terra":true},{"t":-1.65,"lat":26.95,"lon":4.3158,"largura_km":199.581,"eixo_na_terra":true},{"t":-1.64444,"lat":27.015,"lon":4.4761,"largura_km":199.355,"eixo_na_terra":true},{"t":-1.63889,"lat":27.0795,"lon":4.6357,"largura_km":199.131,"eixo_na_terra":true},{"t":-1.63333,"lat":27.1435,"lon":4.7946,"largura_km":198.908,"eixo_na_terra":true},{"t":-1.62778,"lat":27.207,"lon":4.9528,"largura_km":198.686,"eixo_na_terra":true}]},"features":[{"type":"Feature","properties":{},"geometry":{"type":"Polygon","coordinates":[[[-0.9658504986320509,25.729073483913965],[-0.40113620880686085,25.974457943688734],[0.33507142394546463,26.291281052169168],[1.0757706447270152,26.606504978191413],[1.7775566067751356,26.901342870512835],[2.2939636067319498,27.115902789060975],[2.9701593470009016,27.393635131936573],[3.633169267260655,27.66225157606017],[4.283908030396901,27.922172124471228],[5.574407501231008,26.48163157057996],[4.949890121280589,26.22702601762974],[4.314047341847413,25.96405629161077],[3.6660666041880177,25.692339604131664],[3.1929748788822394,25.491503097689108],[2.521912715372764,25.203680669360438],[1.83602437383297,24.905848457064426],[1.134102689739393,24.597440900915608],[0.5963294061314173,24.35881622990146],[-0.9658504986320509,25.729073483913965]]]}}]}