{"type":"FeatureCollection","features":[{"type":"Feature","properties":{"magnitude":0.6,"percentagem":60.0,"territorio":"continente"},"geometry":{"type":"LineString","coordinates":[[-5.540000000000106,37.932433665522055],[-5.570072343199168,37.91999999999996],[-5.580000000000105,37.91589503118849],[-5.620000000000104,37.89934547649461],[-5.660000000000103,37.88278200212941],[-5.666714522358591,37.87999999999996],[-5.700000000000102,37.866207985003406],[-5.7400000000001015,37.84962077160526],[-5.763184143772976,37.83999999999996],[-5.780000000000101,37.8330214048868],[-5.8200000000001,37.81641055666453],[-5.859485016544113,37.79999999999996],[-5.860000000000099,37.7997859505994],[-5.900000000000098,37.78315157209546],[-5.940000000000097,37.766503430299814],[-5.955615682310901,37.75999999999996],[-5.980000000000096,37.74984403329483],[-6.0200000000000955,37.733172513130356],[-6.05158095094047,37.71999999999996],[-6.060000000000095,37.71648815626319],[-6.100000000000094,37.69979336306744],[-6.140000000000093,37.68308491713839],[-6.147381138740262,37.679999999999964],[-6.180000000000092,37.666366197033426],[-6.220000000000091,37.64963463109203],[-6.243017767796811,37.63999999999996],[-6.260000000000091,37.632891232541624],[-6.3000000000000895,37.6161366527017],[-6.338494094551282,37.599999999999966],[-6.340000000000089,37.59936868769118],[-6.380000000000088,37.582591200381586],[-6.420000000000087,37.56580021929707],[-6.433809180397857,37.55999999999997],[-6.460000000000085,37.548998493123406],[-6.500000000000085,37.53218475910937],[-6.528966967995261,37.51999999999997],[-6.540000000000084,37.51535875049118],[-6.580000000000084,37.498522370725965],[-6.620000000000083,37.48167260948848],[-6.623968597631168,37.47999999999997],[-6.660000000000082,37.46481327458176],[-6.700000000000081,37.447941023173236],[-6.71881445176353,37.43999999999997],[-6.74000000000008,37.43105769167007],[-6.780000000000079,37.41416305799881],[-6.813508034474998,37.39999999999997],[-6.820000000000078,37.39725584353712],[-6.860000000000078,37.38033893580724],[-6.900000000000077,37.36340880797879],[-6.9080495214019875,37.35999999999997],[-6.940000000000076,37.34646887898469],[-6.980000000000075,37.32951663410416],[-7.002440761970854,37.31999999999997],[-7.020000000000074,37.31255311045578],[-7.060000000000073,37.29557885742927],[-7.096684340773897,37.27999999999997],[-7.100000000000073,37.278591853677916],[-7.140000000000072,37.26159570169585],[-7.180000000000071,37.24458649233356],[-7.1907800399340704,37.239999999999974],[-7.22000000000007,37.22756739116918],[-7.260000000000069,37.21053644122726],[-7.2847305814688585,37.199999999999974],[-7.300000000000068,37.193494150632475],[-7.340000000000067,37.17644156997479],[-7.378537939270522,37.159999999999975],[-7.380000000000067,37.1593762053808],[-7.4200000000000665,37.142302104143724],[-7.460000000000065,37.12521510953125],[-7.472201746542732,37.119999999999976],[-7.500000000000064,37.10811826980414],[-7.540000000000063,37.091009914299725],[-7.565725097100481,37.07999999999998],[-7.580000000000062,37.073890293522666],[-7.620000000000061,37.05676068790714],[-7.659109615484062,37.03999999999998],[-7.6600000000000605,37.03961840235632],[-7.70000000000006,37.02246765767097],[-7.740000000000059,37.005304184842835],[-7.752354987303786,36.99999999999998],[-7.780000000000058,36.98813105138946],[-7.820000000000057,36.97094660043169],[-7.845464264699901,36.95999999999998],[-7.860000000000056,36.9537510973353],[-7.900000000000055,36.9365457799043],[-7.938438939932285,36.91999999999998],[-7.940000000000055,36.91932802424948],[-7.980000000000054,36.902101952249794],[-8.020000000000053,36.884863318508295],[-8.031278912007547,36.87999999999998],[-8.060000000000052,36.86761534691578],[-8.100000000000051,36.85035612073905],[-8.12398685933246,36.83999999999998],[-8.14000000000005,36.83308619380175],[-8.18000000000005,36.81580648767952],[-8.216564317667878,36.79999999999998],[-8.220000000000049,36.798514723252694],[-8.260000000000048,36.78121464991058],[-8.300000000000047,36.76390218233648],[-8.309011522837725,36.759999999999984],[-8.340000000000046,36.746580838448345],[-8.380000000000045,36.72924816692078],[-8.401330523293847,36.719999999999985],[-8.420000000000044,36.71190528473785],[-8.460000000000043,36.69455252253733],[-8.493523035608776,36.679999999999986],[-8.500000000000043,36.67718822064622],[-8.540000000000042,36.65981548127658],[-8.580000000000041,36.64243051623358],[-8.585589720886235,36.639999999999986],[-8.62000000000004,36.62503727564079],[-8.66000000000004,36.6076324977672],[-8.677531811979296,36.59999999999999],[-8.700000000000038,36.5902181385373],[-8.740000000000038,36.57279366186135],[-8.769351307770703,36.55999999999999],[-8.780000000000037,36.55535830327188],[-8.820000000000036,36.53791424203233],[-8.860000000000035,36.52045812466656],[-8.861049350611902,36.51999999999999],[-8.900000000000034,36.5029944721843],[-8.940000000000033,36.48551893560421],[-8.95262623772668,36.47999999999999],[-8.980000000000032,36.4680345866023],[-9.020000000000032,36.45053974554023],[-9.044084318504435,36.43999999999999],[-9.06000000000003,36.4330348199455],[-9.10000000000003,36.415520789331495],[-9.13542481080699,36.39999999999999],[-9.140000000000029,36.39799540724007],[-9.180000000000028,36.38046230219824],[-9.220000000000027,36.362917362679454],[-9.226648311732635,36.35999999999999],[-9.260000000000026,36.345364519717066],[-9.300000000000026,36.32780067233702],[-9.31775626383487,36.31999999999999],[-9.340000000000025,36.310227677813884],[-9.380000000000024,36.292645038149985],[-9.40875028535962,36.279999999999994],[-9.420000000000023,36.27505201275684],[-9.460000000000022,36.25745069656744],[-9.4996315533396,36.239999999999995],[-9.500000000000021,36.239837761149154],[-9.54000000000002,36.22221788436997],[-9.58000000000002,36.204586396207944],[-9.590400390994839,36.199999999999996],[-9.620000000000019,36.18694683866231],[-9.660000000000018,36.16929695759005],[-9.681058830204625,36.16],[-9.700000000000017,36.15163779686622],[-9.740000000000016,36.13396963923206],[-9.771608049150105,36.12],[-9.780000000000015,36.11629099671326],[-9.820000000000014,36.09860467902971],[-9.860000000000014,36.080906922575785],[-9.862049036238584,36.08],[-9.900000000000013,36.063202315177506],[-9.940000000000012,36.045486567141005],[-9.9523824940206,36.04],[-9.980000000000011,36.0277627861614],[-10.02000000000001,36.01002916343596],[-10.04261017452674,36.0]]}},{"type":"Feature","properties":{"magnitude":0.4,"percentagem":40.0,"territorio":"acores"},"geometry":{"type":"LineString","coordinates":[[-24.04000000000017,38.867352076318475],[-24.08000000000017,38.84844427680418],[-24.097859595946133,38.83999999999994],[-24.120000000000168,38.8295334313914],[-24.160000000000167,38.8106186955948],[-24.18244961213018,38.79999999999994],[-24.200000000000166,38.79170003213913],[-24.240000000000165,38.772778471765314],[-24.26700523000995,38.759999999999934],[-24.280000000000165,38.75385210546007],[-24.320000000000164,38.73492383213211],[-24.351527054132106,38.71999999999994],[-24.360000000000163,38.715989878022945],[-24.400000000000162,38.69705500327867],[-24.43601568618101,38.67999999999994],[-24.44000000000016,38.67811357626019],[-24.48000000000016,38.65917221154902],[-24.52000000000016,38.64022352358654],[-24.520471790597032,38.639999999999944],[-24.56000000000016,38.62127568304088],[-24.600000000000158,38.60232066515672],[-24.604896453705148,38.59999999999995],[-24.640000000000157,38.58336564359901],[-24.680000000000156,38.56440440703463],[-24.689289719850866,38.559999999999945],[-24.720000000000155,38.54544231880857],[-24.760000000000154,38.526474974706346],[-24.773652179449336,38.519999999999946],[-24.80000000000015,38.50750593398849],[-24.840000000000153,38.48853259338854],[-24.85798442019849,38.47999999999995],[-24.88000000000015,38.4695567141849],[-24.92000000000015,38.45057748802192],[-24.942287027106698,38.43999999999995],[-24.96000000000015,38.43159488416455],[-25.00000000000015,38.412609883264835],[-25.02656058251994,38.39999999999995],[-25.04000000000015,38.393620668408246],[-25.080000000000148,38.37463000348664],[-25.110805666148586,38.35999999999995],[-25.120000000000147,38.35563429110451],[-25.160000000000146,38.33663807276121],[-25.195022855094077,38.31999999999996],[-25.200000000000145,38.317635976143045],[-25.240000000000144,38.298634314860664],[-25.27921272387529,38.27999999999995],[-25.280000000000143,38.27962594710833],[-25.320000000000142,38.260618953248894],[-25.36000000000014,38.241605136298226],[-25.363376358233193,38.23999999999995],[-25.40000000000014,38.222592211075124],[-25.44000000000014,38.20357322019799],[-25.447513938972506,38.19999999999995],[-25.48000000000014,38.18455431116774],[-25.520000000000138,38.16553025644203],[-25.53162591411169,38.159999999999954],[-25.560000000000137,38.14650547602799],[-25.600000000000136,38.127476467400804],[-25.61571284803037,38.119999999999955],[-25.640000000000136,38.10844592782365],[-25.680000000000135,38.08941207510846],[-25.69977530265744,38.079999999999956],[-25.720000000000134,38.07037588838293],[-25.760000000000133,38.051337301256645],[-25.783813837495607,38.03999999999996],[-25.80000000000013,38.032295579188215],[-25.84000000000013,38.01325236718831],[-25.867829009646396,37.99999999999996],[-25.88000000000013,37.99420522137021],[-25.92000000000013,37.97515749389166],[-25.95182137383403,37.95999999999996],[-25.96000000000013,37.956105035701405],[-26.000000000000128,37.937052901994065],[-26.035791482430234,37.91999999999996],[-26.040000000000127,37.91799524259058],[-26.080000000000126,37.89893881175613],[-26.11973988547744,37.87999999999996],[-26.120000000000125,37.879876062076285],[-26.160000000000124,37.86081544306559],[-26.200000000000124,37.84174849775091],[-26.203667735085915,37.83999999999996],[-26.240000000000123,37.822683015431494],[-26.280000000000122,37.80361203875053],[-26.287575020824356,37.79999999999996],[-26.32000000000012,37.78454174797822],[-26.36000000000012,37.76546684852603],[-26.371462243294044,37.75999999999996],[-26.40000000000012,37.74639185943977],[-26.44000000000012,37.727313145651046],[-26.45532994342215,37.71999999999996],[-26.480000000000118,37.70823356815376],[-26.520000000000117,37.68915114830011],[-26.539178659926428,37.679999999999964],[-26.560000000000116,37.670067092055845],[-26.600000000000115,37.65098107424309],[-26.623008929337814,37.63999999999996],[-26.640000000000114,37.63189264867394],[-26.680000000000113,37.612803140839304],[-26.706821286022766,37.599999999999966],[-26.720000000000113,37.59371045512255],[-26.76000000000011,37.57461756503207],[-26.790616262205422,37.55999999999996],[-26.80000000000011,37.55552072809706],[-26.84000000000011,37.536424563342976],[-26.874394387989657,37.51999999999997],[-26.88000000000011,37.51732368386828],[-26.92000000000011,37.49822435186624],[-26.95815619138082,37.47999999999997],[-26.960000000000107,37.479119538276905],[-27.000000000000107,37.460017146263425],[-27.040000000000106,37.44090892011456],[-27.041902534835216,37.43999999999997],[-27.080000000000105,37.42180316175779],[-27.120000000000104,37.4026920301494],[-27.12563393562947,37.39999999999997],[-27.160000000000103,37.38358261312892],[-27.200000000000102,37.364468682875106],[-27.209350591509477,37.35999999999997],[-27.2400000000001,37.345355714707274],[-27.2800000000001,37.32623909243429],[-27.293053022293826,37.31999999999997],[-27.3200000000001,37.30712268036895],[-27.3600000000001,37.28800347251268],[-27.37674174581124,37.27999999999997],[-27.400000000000098,37.26888372353042],[-27.440000000000097,37.249762036333685],[-27.460417277920797,37.239999999999974],[-27.480000000000096,37.23063905714315],[-27.520000000000095,37.211514996653456],[-27.544080132532677,37.199999999999974],[-27.560000000000095,37.19238889368847],[-27.600000000000094,37.17326256575549],[-27.627730821628248,37.159999999999975],[-27.640000000000093,37.15413344517255],[-27.680000000000092,37.1350049554455],[-27.71136985527975,37.119999999999976],[-27.72000000000009,37.11587292312103],[-27.76000000000009,37.09674237704657],[-27.794997741670727,37.07999999999998],[-27.80000000000009,37.07760753857433],[-27.84000000000009,37.05847504139381],[-27.878614987114908,37.03999999999998],[-27.880000000000088,37.03933750208221],[-27.920000000000087,37.02020315882956],[-27.960000000000086,37.00106351469941],[-27.962222517470387,36.99999999999998],[-28.000000000000085,36.98192693919847],[-28.040000000000084,36.96278560062648],[-28.04582068116191,36.95999999999998],[-28.080000000000084,36.94364659184254],[-28.120000000000083,36.92450366337307],[-28.129409717899094,36.91999999999998],[-28.160000000000082,36.905362325596286],[-28.20000000000008,36.8862179115582],[-28.21299012673242,36.87999999999998],[-28.24000000000008,36.86707434878197],[-28.28000000000008,36.84792855328644],[-28.29656240494113,36.83999999999998],[-28.32000000000008,36.82878286920501],[-28.360000000000078,36.80963579614301],[-28.380127048051314,36.79999999999998],[-28.400000000000077,36.79048809414891],[-28.440000000000076,36.771339847189296],[-28.463684549854737,36.759999999999984],[-28.480000000000075,36.75219023037101],[-28.520000000000074,36.73304091295808],[-28.547235402426992,36.719999999999985],[-28.560000000000073,36.71388948409774],[-28.600000000000072,36.69473919944908],[-28.63078009614533,36.679999999999986],[-28.64000000000007,36.67558606101997],[-28.68000000000007,36.65643491212431],[-28.714319119707,36.639999999999986],[-28.72000000000007,36.637280166288754],[-28.76000000000007,36.618128255903756],[-28.797852960146617,36.599999999999994],[-28.800000000000065,36.59897200451067],[-28.840000000000067,36.57981943516083],[-28.880000000000067,36.56066208980404],[-28.881382381781034,36.55999999999999],[-28.920000000000066,36.54150865371805],[-28.960000000000065,36.52235079768201],[-28.964908027031946,36.51999999999999],[-29.000000000000064,36.5031961148428],[-29.040000000000063,36.48403785010193],[-29.048429947048252,36.47999999999999],[-29.080000000000062,36.46488202124284],[-29.12000000000006,36.44572344953129],[-29.131948622434386,36.43999999999999],[-29.16000000000006,36.42656657506238],[-29.20000000000006,36.40740779787195],[-29.215464532220906,36.39999999999999],[-29.24000000000006,36.38824997787759],[-29.280000000000058,36.36909109645581],[-29.298978153881308,36.35999999999999],[-29.320000000000057,36.34993243069276],[-29.360000000000056,36.330773546040795],[-29.382489963348696,36.31999999999999],[-29.400000000000055,36.31161413393613],[-29.440000000000055,36.29245534680675],[-29.46600043503208,36.279999999999994],[-29.480000000000057,36.2732952874557],[-29.520000000000053,36.25413669835153],[-29.549510041833297,36.239999999999995],[-29.560000000000052,36.23497609051562],[-29.60000000000005,36.21581779968703],[-29.633019255162747,36.199999999999996],[-29.64000000000005,36.19665674179191],[-29.68000000000005,36.17749884923521],[-29.716528544955906,36.16],[-29.720000000000045,36.15833743936894],[-29.760000000000048,36.13918004482432],[-29.800000000000047,36.120018389464185],[-29.800038387881717,36.12],[-29.840000000000046,36.10086158368516],[-29.880000000000045,36.081700570898136],[-29.88354998761679,36.08],[-29.920000000000044,36.0625436624472],[-29.960000000000043,36.04338339136967],[-29.967063072260473,36.04],[-30.000000000000043,36.02422647713502],[-30.040000000000042,36.00506704664111],[-30.05057810607141,36.0]]}},{"type":"Feature","properties":{"magnitude":0.6,"percentagem":60.0,"territorio":"madeira"},"geometry":{"type":"LineString","coordinates":[[-15.040000000000063,33.721583655125556],[-15.080000000000062,33.70292791721077],[-15.086276360743428,33.69999999999991],[-15.120000000000061,33.68426901283773],[-15.16000000000006,33.66560298049389],[-15.172003684097543,33.65999999999991],[-15.20000000000006,33.64693301106844],[-15.240000000000059,33.62825680318691],[-15.25767896506057,33.61999999999991],[-15.28000000000006,33.609575890953344],[-15.320000000000057,33.590889626337436],[-15.343302925483815,33.57999999999991],[-15.360000000000056,33.57219789341614],[-15.400000000000055,33.553501690778006],[-15.42887628277174,33.53999999999991],[-15.440000000000055,33.53479925916183],[-15.480000000000054,33.516093237118895],[-15.514399749929217,33.499999999999915],[-15.520000000000053,33.497380228669584],[-15.560000000000052,33.47866450574131],[-15.59987403560862,33.459999999999916],[-15.600000000000053,33.45994104218579],[-15.64000000000005,33.4412157367904],[-15.68000000000005,33.4224827246777],[-15.685300208160246,33.419999999999916],[-15.720000000000049,33.403747170168295],[-15.760000000000048,33.38500474638312],[-15.770678626697965,33.37999999999992],[-15.800000000000047,33.366259045527315],[-15.840000000000046,33.34750732823423],[-15.856009978335255,33.33999999999992],[-15.880000000000045,33.32875160226307],[-15.920000000000044,33.309990709514295],[-15.941294954465793,33.299999999999926],[-15.960000000000042,33.291225079507804],[-16.000000000000043,33.27245512923984],[-16.026534242365276,33.25999999999992],[-16.040000000000042,33.25367971612341],[-16.08000000000004,33.234900826153954],[-16.11172852523557,33.21999999999992],[-16.12000000000004,33.21611575069483],[-16.16000000000004,33.19732803871956],[-16.196878482247953,33.17999999999992],[-16.20000000000004,33.178533421523404],[-16.240000000000038,33.159737005112746],[-16.280000000000037,33.14093326597856],[-16.28198494875688,33.13999999999992],[-16.320000000000036,33.122127963216116],[-16.360000000000035,33.10331568923572],[-16.367048695512906,33.09999999999992],[-16.400000000000034,33.08450115061213],[-16.440000000000033,33.065680459045836],[-16.45207014268597,33.059999999999924],[-16.480000000000032,33.04685680457669],[-16.52000000000003,33.02802781254886],[-16.53704995348894,33.019999999999925],[-16.56000000000003,33.009195162072395],[-16.60000000000003,32.99035798656851],[-16.621988787320635,32.979999999999926],[-16.64000000000003,32.97151645974229],[-16.680000000000028,32.95267121760579],[-16.70688729980596,32.93999999999993],[-16.720000000000027,32.93382093390325],[-16.760000000000026,32.9149677418325],[-16.79174614283599,32.89999999999993],[-16.800000000000026,32.89610882053959],[-16.840000000000025,32.87724779508484],[-16.876565964607302,32.85999999999993],[-16.880000000000024,32.858380355296674],[-16.920000000000023,32.839511612857194],[-16.960000000000022,32.82063598075109],[-16.961347536094458,32.81999999999993],[-17.00000000000002,32.801759430295576],[-17.04000000000002,32.7828762491385],[-17.046091699813783,32.77999999999993],[-17.08000000000002,32.763991482191585],[-17.12000000000002,32.74510086801144],[-17.130798775955427,32.73999999999993],[-17.160000000000018,32.7262080029761],[-17.200000000000017,32.70731007163961],[-17.215469398115772,32.69999999999993],[-17.240000000000016,32.68840922671302],[-17.280000000000015,32.669504093922846],[-17.300104196394102,32.65999999999993],[-17.320000000000014,32.650595387093155],[-17.360000000000014,32.63168316838504],[-17.384703797429715,32.61999999999993],[-17.400000000000013,32.61276671742827],[-17.440000000000012,32.593847528168055],[-17.469268824438252,32.579999999999934],[-17.48000000000001,32.57492345064476],[-17.52000000000001,32.55599740602562],[-17.553799897248048,32.539999999999935],[-17.56000000000001,32.53706581927787],[-17.60000000000001,32.51813303431747],[-17.638297632335775,32.499999999999936],[-17.640000000000008,32.49919405546558],[-17.680000000000007,32.4802546450032],[-17.720000000000006,32.46130882493736],[-17.722762941011876,32.45999999999994],[-17.760000000000005,32.44236246963655],[-17.800000000000004,32.42341018980809],[-17.807196325807546,32.41999999999994],[-17.840000000000003,32.40445673935944],[-17.880000000000003,32.38549811417215],[-17.891598211972052,32.37999999999994],[-17.92,32.36653768489613],[-17.96,32.34757282856618],[-17.975969202764183,32.33999999999994],[-18.0,32.32860553654759]]}}]}