{"type":"FeatureCollection","properties":{"largura_maxima_km":null,"largura_sobre_pt_km":null,"linha_central_sobre_pt":false,"desenhavel_como_area":true,"perfil_largura":[{"t":-2.27778,"lat":24.2436,"lon":-0.3944,"largura_km":null,"eixo_na_terra":false},{"t":-2.27222,"lat":24.5982,"lon":0.3158,"largura_km":null,"eixo_na_terra":false},{"t":-2.26667,"lat":24.887,"lon":0.9464,"largura_km":null,"eixo_na_terra":false},{"t":-2.26111,"lat":25.2323,"lon":1.6486,"largura_km":null,"eixo_na_terra":false},{"t":-2.25556,"lat":25.4099,"lon":1.9489,"largura_km":null,"eixo_na_terra":false},{"t":-2.25,"lat":25.7932,"lon":2.7734,"largura_km":null,"eixo_na_terra":false}]},"features":[{"type":"Feature","properties":{},"geometry":{"type":"Polygon","coordinates":[[[-2.5043478798116894,24.01373563986795],[-2.117114736628081,24.1690215049959],[-2.059706346002997,24.418890238847247],[-1.3098548903001301,24.731167668543975],[-0.37096094538469515,25.119317909338257],[-0.00300184009432769,25.269801496705135],[0.5824716333717721,25.506290889784644],[1.1058026930834899,25.72794022823644],[1.5559465178689607,25.915282251395887],[2.1803410716198073,26.168822111614993],[2.569362559238357,26.32237698791801],[3.1187525791226562,26.532475722475553],[3.464646842935508,26.660176664121956],[3.9555323763798356,26.834518191006765],[4.265099292182413,26.939840337944695],[4.703914679344734,27.082215940441916],[4.979768982301721,27.167082143408592],[5.368799253848522,27.279823165565652],[5.611697483984813,27.345547357840974],[5.951299366407341,27.430406515784316],[6.161109818975433,27.47806599788247],[6.261005408325161,27.499281749331384],[6.450713657885672,27.53658433980957],[6.540498859997854,27.55271074376227],[6.709859424823776,27.5800128561464],[6.789405140831434,27.591228349687512],[6.9381524026043735,27.608888198048245],[7.00732392645358,27.61537278489117],[7.135188576811061,27.62375248038656],[7.193852646266691,27.625688305466817],[7.300573829536518,27.625154231027693],[7.348603842355999,27.62272543705437],[7.433938130848105,27.613647415187035],[7.47121798650079,27.60703949229272],[7.504890888441139,27.599079838950413],[7.534945941422848,27.5897890956321],[7.5613728157563855,27.579187868777673],[7.5841617646539135,27.56729671329339],[7.603303638767329,27.554136114340256],[7.618789898031423,27.53972646847275],[7.630612620908494,27.52408806417899],[7.638764511107638,27.50724106186469],[7.643238901837719,27.4892054733156],[7.644029757634371,27.47000114066448],[7.6411316737847415,27.449647714881543],[7.634539873356175,27.42816463379874],[7.624250201819791,27.40557109967141],[7.610259119238776,27.381886056271824],[7.592563689976487,27.357128165501486],[7.571161569858191,27.33131578350042],[7.54605099069795,27.304466936221665],[7.484700150283629,27.247730148077032],[7.4085077775966965,27.1870544387223],[7.364847099110477,27.155280310746846],[7.266402710522357,27.088936954998108],[7.153139787725365,27.018963833989805],[7.025076839269673,26.94546909725149],[6.955501965802341,26.907432082040433],[6.805279245102724,26.82883439201031],[6.640310104098035,26.74693671070662],[6.365243247891044,26.61804164383515],[6.057057165665356,26.48201707284211],[5.833177781894392,26.387404439591535],[5.594510861727599,26.289636494959712],[5.24052997996881,26.14944269146337],[4.977292791583295,26.034149550143308],[4.718107229995894,25.924237130847757],[4.439232632517474,25.809092522536453],[4.024887633639164,25.64271848147068],[3.703691835160839,25.50229575235669],[3.3857782245396493,25.367031975142318],[3.0370697652671197,25.221807106061366],[2.5100218474894405,25.006819476503885],[2.0731882974322957,24.816522988448593],[1.6257602417741168,24.62557471609301],[1.1036730144857643,24.405928583624398],[0.22378514150411652,24.03953633952301],[-0.2572919441776662,23.83096579972752],[-1.4442860990737927,23.3217259391589],[-1.464041367707571,23.334622204058828],[-2.056384031911307,23.08526588223465],[-2.019831169529639,23.310603905452965],[-2.344974377006679,23.177267525877273],[-2.1986430931606535,23.814171159985985],[-2.5043478798116894,24.01373563986795]]]}}]}