{"type":"FeatureCollection","properties":{"largura_maxima_km":190.667,"largura_sobre_pt_km":190.667,"linha_central_sobre_pt":false,"desenhavel_como_area":true,"perfil_largura":[{"t":-1.18333,"lat":27.6861,"lon":-39.8369,"largura_km":157.239,"eixo_na_terra":true},{"t":-1.17778,"lat":27.589,"lon":-39.5825,"largura_km":157.759,"eixo_na_terra":true},{"t":-1.17222,"lat":27.494,"lon":-39.3318,"largura_km":158.275,"eixo_na_terra":true},{"t":-1.16667,"lat":27.4008,"lon":-39.0846,"largura_km":158.785,"eixo_na_terra":true},{"t":-1.16111,"lat":27.3096,"lon":-38.8407,"largura_km":159.291,"eixo_na_terra":true},{"t":-1.15556,"lat":27.2201,"lon":-38.6001,"largura_km":159.792,"eixo_na_terra":true},{"t":-1.15,"lat":27.1324,"lon":-38.3625,"largura_km":160.289,"eixo_na_terra":true},{"t":-1.14444,"lat":27.0464,"lon":-38.128,"largura_km":160.781,"eixo_na_terra":true},{"t":-1.13889,"lat":26.962,"lon":-37.8964,"largura_km":161.269,"eixo_na_terra":true},{"t":-1.13333,"lat":26.8792,"lon":-37.6676,"largura_km":161.752,"eixo_na_terra":true},{"t":-1.12778,"lat":26.798,"lon":-37.4415,"largura_km":162.232,"eixo_na_terra":true},{"t":-1.12222,"lat":26.7183,"lon":-37.218,"largura_km":162.709,"eixo_na_terra":true},{"t":-1.11667,"lat":26.6401,"lon":-36.9971,"largura_km":163.182,"eixo_na_terra":true},{"t":-1.11111,"lat":26.5633,"lon":-36.7786,"largura_km":163.651,"eixo_na_terra":true},{"t":-1.10556,"lat":26.4879,"lon":-36.5626,"largura_km":164.116,"eixo_na_terra":true},{"t":-1.1,"lat":26.4138,"lon":-36.3488,"largura_km":164.578,"eixo_na_terra":true},{"t":-1.09444,"lat":26.3411,"lon":-36.1373,"largura_km":165.036,"eixo_na_terra":true},{"t":-1.08889,"lat":26.2697,"lon":-35.928,"largura_km":165.491,"eixo_na_terra":true},{"t":-1.08333,"lat":26.1996,"lon":-35.7208,"largura_km":165.943,"eixo_na_terra":true},{"t":-1.07778,"lat":26.1307,"lon":-35.5156,"largura_km":166.392,"eixo_na_terra":true},{"t":-1.07222,"lat":26.063,"lon":-35.3125,"largura_km":166.837,"eixo_na_terra":true},{"t":-1.06667,"lat":25.9965,"lon":-35.1113,"largura_km":167.279,"eixo_na_terra":true},{"t":-1.06111,"lat":25.9312,"lon":-34.912,"largura_km":167.717,"eixo_na_terra":true},{"t":-1.05556,"lat":25.867,"lon":-34.7145,"largura_km":168.152,"eixo_na_terra":true},{"t":-1.05,"lat":25.8039,"lon":-34.5188,"largura_km":168.584,"eixo_na_terra":true},{"t":-1.04444,"lat":25.7419,"lon":-34.3249,"largura_km":169.013,"eixo_na_terra":true},{"t":-1.03889,"lat":25.6809,"lon":-34.1327,"largura_km":169.439,"eixo_na_terra":true},{"t":-1.03333,"lat":25.621,"lon":-33.9421,"largura_km":169.861,"eixo_na_terra":true},{"t":-1.02778,"lat":25.5622,"lon":-33.7532,"largura_km":170.281,"eixo_na_terra":true},{"t":-1.02222,"lat":25.5043,"lon":-33.5658,"largura_km":170.697,"eixo_na_terra":true},{"t":-1.01667,"lat":25.4475,"lon":-33.3799,"largura_km":171.112,"eixo_na_terra":true},{"t":-1.01111,"lat":25.3916,"lon":-33.1956,"largura_km":171.524,"eixo_na_terra":true},{"t":-1.00556,"lat":25.3366,"lon":-33.0127,"largura_km":171.932,"eixo_na_terra":true},{"t":-1.0,"lat":25.2826,"lon":-32.8313,"largura_km":172.338,"eixo_na_terra":true},{"t":-0.99444,"lat":25.2295,"lon":-32.6512,"largura_km":172.74,"eixo_na_terra":true},{"t":-0.98889,"lat":25.1773,"lon":-32.4725,"largura_km":173.14,"eixo_na_terra":true},{"t":-0.98333,"lat":25.126,"lon":-32.2951,"largura_km":173.537,"eixo_na_terra":true},{"t":-0.97778,"lat":25.0756,"lon":-32.1191,"largura_km":173.93,"eixo_na_terra":true},{"t":-0.97222,"lat":25.0261,"lon":-31.9443,"largura_km":174.321,"eixo_na_terra":true},{"t":0.07778,"lat":25.0393,"lon":-7.4427,"largura_km":190.667,"eixo_na_terra":true},{"t":0.08333,"lat":25.0792,"lon":-7.3187,"largura_km":190.449,"eixo_na_terra":true},{"t":0.08889,"lat":25.1196,"lon":-7.1944,"largura_km":190.229,"eixo_na_terra":true},{"t":0.09444,"lat":25.1604,"lon":-7.0698,"largura_km":190.006,"eixo_na_terra":true},{"t":0.1,"lat":25.2016,"lon":-6.945,"largura_km":189.781,"eixo_na_terra":true},{"t":0.10556,"lat":25.2434,"lon":-6.8198,"largura_km":189.553,"eixo_na_terra":true},{"t":0.11111,"lat":25.2855,"lon":-6.6944,"largura_km":189.323,"eixo_na_terra":true},{"t":0.11667,"lat":25.3282,"lon":-6.5687,"largura_km":189.091,"eixo_na_terra":true},{"t":0.12222,"lat":25.3712,"lon":-6.4427,"largura_km":188.856,"eixo_na_terra":true},{"t":0.12778,"lat":25.4148,"lon":-6.3164,"largura_km":188.619,"eixo_na_terra":true},{"t":0.13333,"lat":25.4588,"lon":-6.1898,"largura_km":188.38,"eixo_na_terra":true},{"t":0.13889,"lat":25.5033,"lon":-6.0628,"largura_km":188.139,"eixo_na_terra":true},{"t":0.14444,"lat":25.5483,"lon":-5.9356,"largura_km":187.895,"eixo_na_terra":true},{"t":0.15,"lat":25.5937,"lon":-5.808,"largura_km":187.649,"eixo_na_terra":true},{"t":0.15556,"lat":25.6396,"lon":-5.68,"largura_km":187.401,"eixo_na_terra":true},{"t":0.16111,"lat":25.686,"lon":-5.5517,"largura_km":187.151,"eixo_na_terra":true},{"t":0.16667,"lat":25.7329,"lon":-5.423,"largura_km":186.9,"eixo_na_terra":true},{"t":0.17222,"lat":25.7803,"lon":-5.294,"largura_km":186.647,"eixo_na_terra":true},{"t":0.17778,"lat":25.8281,"lon":-5.1646,"largura_km":186.392,"eixo_na_terra":true},{"t":0.18333,"lat":25.8765,"lon":-5.0349,"largura_km":186.134,"eixo_na_terra":true},{"t":0.18889,"lat":25.9253,"lon":-4.9047,"largura_km":185.876,"eixo_na_terra":true},{"t":0.19444,"lat":25.9747,"lon":-4.7742,"largura_km":185.616,"eixo_na_terra":true},{"t":0.2,"lat":26.0245,"lon":-4.6432,"largura_km":185.354,"eixo_na_terra":true},{"t":0.20556,"lat":26.0749,"lon":-4.5118,"largura_km":185.09,"eixo_na_terra":true},{"t":0.21111,"lat":26.1258,"lon":-4.3801,"largura_km":184.824,"eixo_na_terra":true},{"t":0.21667,"lat":26.1772,"lon":-4.2478,"largura_km":184.555,"eixo_na_terra":true},{"t":0.22222,"lat":26.2291,"lon":-4.1152,"largura_km":184.285,"eixo_na_terra":true},{"t":0.22778,"lat":26.2815,"lon":-3.9821,"largura_km":184.013,"eixo_na_terra":true},{"t":0.23333,"lat":26.3345,"lon":-3.8486,"largura_km":183.739,"eixo_na_terra":true},{"t":0.23889,"lat":26.3879,"lon":-3.7146,"largura_km":183.463,"eixo_na_terra":true},{"t":0.24444,"lat":26.442,"lon":-3.5801,"largura_km":183.186,"eixo_na_terra":true},{"t":0.25,"lat":26.4965,"lon":-3.4451,"largura_km":182.906,"eixo_na_terra":true},{"t":0.25556,"lat":26.5516,"lon":-3.3097,"largura_km":182.625,"eixo_na_terra":true},{"t":0.26111,"lat":26.6073,"lon":-3.1738,"largura_km":182.341,"eixo_na_terra":true},{"t":0.26667,"lat":26.6635,"lon":-3.0373,"largura_km":182.056,"eixo_na_terra":true},{"t":0.27222,"lat":26.7203,"lon":-2.9003,"largura_km":181.769,"eixo_na_terra":true},{"t":0.27778,"lat":26.7776,"lon":-2.7628,"largura_km":181.481,"eixo_na_terra":true},{"t":0.28333,"lat":26.8355,"lon":-2.6248,"largura_km":181.19,"eixo_na_terra":true},{"t":0.28889,"lat":26.894,"lon":-2.4862,"largura_km":180.899,"eixo_na_terra":true},{"t":0.29444,"lat":26.953,"lon":-2.347,"largura_km":180.606,"eixo_na_terra":true},{"t":0.3,"lat":27.0126,"lon":-2.2073,"largura_km":180.311,"eixo_na_terra":true},{"t":0.30556,"lat":27.0729,"lon":-2.067,"largura_km":180.015,"eixo_na_terra":true},{"t":0.31111,"lat":27.1337,"lon":-1.9261,"largura_km":179.717,"eixo_na_terra":true},{"t":0.31667,"lat":27.1951,"lon":-1.7846,"largura_km":179.418,"eixo_na_terra":true},{"t":0.32222,"lat":27.2571,"lon":-1.6424,"largura_km":179.116,"eixo_na_terra":true},{"t":0.32778,"lat":27.3198,"lon":-1.4997,"largura_km":178.814,"eixo_na_terra":true},{"t":0.33333,"lat":27.383,"lon":-1.3563,"largura_km":178.511,"eixo_na_terra":true},{"t":0.33889,"lat":27.4469,"lon":-1.2122,"largura_km":178.205,"eixo_na_terra":true},{"t":0.34444,"lat":27.5114,"lon":-1.0675,"largura_km":177.898,"eixo_na_terra":true},{"t":0.35,"lat":27.5765,"lon":-0.922,"largura_km":177.59,"eixo_na_terra":true},{"t":0.35556,"lat":27.6423,"lon":-0.7759,"largura_km":177.279,"eixo_na_terra":true},{"t":0.36111,"lat":27.7088,"lon":-0.6291,"largura_km":176.967,"eixo_na_terra":true},{"t":0.36667,"lat":27.7759,"lon":-0.4816,"largura_km":176.654,"eixo_na_terra":true},{"t":0.37222,"lat":27.8437,"lon":-0.3333,"largura_km":176.339,"eixo_na_terra":true},{"t":0.37778,"lat":27.9121,"lon":-0.1842,"largura_km":176.022,"eixo_na_terra":true},{"t":0.38333,"lat":27.9812,"lon":-0.0344,"largura_km":175.703,"eixo_na_terra":true},{"t":0.38889,"lat":28.051,"lon":0.1162,"largura_km":175.383,"eixo_na_terra":true},{"t":0.39444,"lat":28.1216,"lon":0.2676,"largura_km":175.062,"eixo_na_terra":true},{"t":0.4,"lat":28.1928,"lon":0.4198,"largura_km":174.739,"eixo_na_terra":true},{"t":0.40556,"lat":28.2647,"lon":0.5729,"largura_km":174.414,"eixo_na_terra":true},{"t":0.41111,"lat":28.3374,"lon":0.7268,"largura_km":174.087,"eixo_na_terra":true},{"t":0.41667,"lat":28.4108,"lon":0.8815,"largura_km":173.759,"eixo_na_terra":true},{"t":0.42222,"lat":28.4849,"lon":1.0372,"largura_km":173.43,"eixo_na_terra":true},{"t":0.42778,"lat":28.5598,"lon":1.1938,"largura_km":173.098,"eixo_na_terra":true},{"t":0.43333,"lat":28.6354,"lon":1.3513,"largura_km":172.766,"eixo_na_terra":true},{"t":0.43889,"lat":28.7118,"lon":1.5097,"largura_km":172.432,"eixo_na_terra":true},{"t":0.44444,"lat":28.7891,"lon":1.6691,"largura_km":172.097,"eixo_na_terra":true},{"t":0.45,"lat":28.8671,"lon":1.8295,"largura_km":171.76,"eixo_na_terra":true},{"t":0.45556,"lat":28.9459,"lon":1.9909,"largura_km":171.422,"eixo_na_terra":true},{"t":0.46111,"lat":29.0255,"lon":2.1534,"largura_km":171.082,"eixo_na_terra":true},{"t":0.46667,"lat":29.1059,"lon":2.3169,"largura_km":170.74,"eixo_na_terra":true},{"t":0.47222,"lat":29.1872,"lon":2.4815,"largura_km":170.397,"eixo_na_terra":true},{"t":0.47778,"lat":29.2693,"lon":2.6471,"largura_km":170.052,"eixo_na_terra":true},{"t":0.48333,"lat":29.3524,"lon":2.8139,"largura_km":169.706,"eixo_na_terra":true},{"t":0.48889,"lat":29.4362,"lon":2.9819,"largura_km":169.357,"eixo_na_terra":true},{"t":0.49444,"lat":29.521,"lon":3.151,"largura_km":169.007,"eixo_na_terra":true},{"t":0.5,"lat":29.6067,"lon":3.3214,"largura_km":168.656,"eixo_na_terra":true},{"t":0.50556,"lat":29.6933,"lon":3.4929,"largura_km":168.303,"eixo_na_terra":true},{"t":0.51111,"lat":29.7809,"lon":3.6658,"largura_km":167.949,"eixo_na_terra":true},{"t":0.51667,"lat":29.8694,"lon":3.8399,"largura_km":167.593,"eixo_na_terra":true},{"t":0.52222,"lat":29.9588,"lon":4.0153,"largura_km":167.235,"eixo_na_terra":true},{"t":0.52778,"lat":30.0493,"lon":4.1922,"largura_km":166.875,"eixo_na_terra":true},{"t":0.53333,"lat":30.1408,"lon":4.3704,"largura_km":166.513,"eixo_na_terra":true},{"t":0.53889,"lat":30.2332,"lon":4.55,"largura_km":166.15,"eixo_na_terra":true},{"t":0.54444,"lat":30.3268,"lon":4.7311,"largura_km":165.785,"eixo_na_terra":true},{"t":0.55,"lat":30.4213,"lon":4.9136,"largura_km":165.418,"eixo_na_terra":true}]},"features":[{"type":"Feature","properties":{},"geometry":{"type":"Polygon","coordinates":[[[-7.265443625410086,26.007377579421696],[-6.885984143975918,26.131853208096206],[-6.631527320453245,26.21714205293732],[-6.247481450542011,26.348585455939528],[-5.98979572134445,26.438586933010455],[-5.600639859946142,26.577206901297505],[-5.339363655078216,26.67206846378864],[-4.95652368079584,26.81362479132129],[-4.558064441917139,26.964143113709248],[-3.885139825758017,27.225439068465587],[-3.2001880430729273,27.500226157937533],[-2.501963278223684,27.78908287212685],[-2.076092703486495,27.969418031013902],[-1.6572195054098415,28.149742037019198],[-1.21992469030738,28.341049898243043],[-0.7763385559298115,28.538154484865125],[-0.021974300497362265,28.88007767638188],[0.7529529461877189,29.23964726534059],[1.5506995524397098,29.618007625670355],[2.373843310667013,30.016477236893003],[3.2253548294511347,30.43658548165746],[4.094402717185119,30.8729267002416],[5.01326223835872,31.341730433876773],[4.82838411988584,29.511583410598707],[3.9492829783611683,29.054828765369894],[3.4375330633216663,28.79238818353552],[2.936597628305492,28.53814351195256],[2.4457674973683936,28.291719828576998],[1.9643948828464772,28.052775533805253],[1.168421402623153,27.663969645299087],[0.40793810795082663,27.300332034032678],[-0.03862635403055492,27.090614821977947],[-0.4784180494737029,26.886977903129537],[-1.1974066209616865,26.560556905164383],[-1.6209845233763645,26.372193339278923],[-2.0391060915977164,26.18924357128887],[-2.7369046878944516,25.890780301086583],[-3.409363982448241,25.611609523704622],[-4.070036855170855,25.34583955306391],[-4.720015536161924,25.092961714829652],[-5.360303632113897,24.852521944808252],[-5.625707481454924,24.755450474642554],[-6.003572413333586,24.619906529082144],[-6.253892860612069,24.531881375139623],[-6.627120197686651,24.403296385451252],[-6.997794988592489,24.2787944034418],[-7.366081738394996,24.158311747486124],[-7.517008927182474,25.9266700368657],[-7.265443625410086,26.007377579421696]]]}},{"type":"Feature","properties":{},"geometry":{"type":"Polygon","coordinates":[[[-39.79655630418944,28.442942204838868],[-39.28818301759196,28.25311715040714],[-38.7939007407972,28.07099094465413],[-38.312687780323216,27.89607847173585],[-37.843634067519474,27.72794726418293],[-37.38592481453645,27.566209865461527],[-36.938827116142164,27.410517562856516],[-36.30257484892991,27.19296398182622],[-35.87904807393534,27.05094256864342],[-35.46407925586749,26.913988612727227],[-35.05718961226381,26.781874148090218],[-34.6579397452297,26.654390019642165],[-34.07251346327297,26.471428918119972],[-33.690660960435764,26.35471105416554],[-33.12969786049172,26.18712354245902],[-32.76315718838049,26.080181628474353],[-32.22380423372812,25.926614889351615],[-31.681055353641,24.13336128931072],[-32.19890934937007,24.28257627612441],[-32.55041827988646,24.386349835859395],[-33.0876832498775,24.548742447564653],[-33.46756360356372,24.66628107458219],[-34.02686391063145,24.843176155357686],[-34.407698352225225,24.966226626549076],[-34.99174556599337,25.1588945198588],[-35.3901832070988,25.292999238772857],[-36.00247799522302,25.503147833352806],[-36.42110018240359,25.649566798632716],[-36.84865161771438,25.80132913367522],[-37.30208642669078,25.964706613423324],[-37.97715379782076,26.21219329451548],[-38.4410037960684,26.385153602371147],[-38.9168139968958,26.564935772139584],[-39.40547209283298,26.751972086182434],[-40.32017404012038,28.64101326516517],[-39.79655630418944,28.442942204838868]]]}}]}