{"type":"FeatureCollection","features":[{"type":"Feature","properties":{"t_inicio":-1.1833333333333433,"t_fim":-0.972222222222233},"geometry":{"type":"LineString","coordinates":[[-39.83688161933992,27.686094957600343],[-39.58254221567523,27.58903967815249],[-39.331823625393156,27.493976096749044],[-39.08458854342163,27.400838259524374],[-38.840707693666985,27.309564039265126],[-38.60005918789463,27.220094832579978],[-38.362527948793456,27.13237528724879],[-38.12800518954924,27.046353056153162],[-37.89638794331239,26.961978574687137],[-37.66757863684097,26.879204858964805],[-37.441484703359066,26.797987322498113],[-37.21801823031399,26.718283609318124],[-36.99709563826727,26.6400534417722],[-36.7786373876238,26.56325848144891],[-36.5625677103084,26.487862201872304],[-36.348814363846884,26.413829771770484],[-36.137308405609076,26.341127947863676],[-35.92798398523166,26.26972497624],[-35.72077815346515,26.199590501492043],[-35.5156306858853,26.130695482881052],[-35.31248392008223,26.063012116874987],[-35.111282605089826,25.99651376547821],[-34.91197376195041,25.93117488983164],[-34.714506554425725,25.86697098861784],[-34.51883216896675,25.80387854085191],[-34.32490370314591,25.741874952683254],[-34.13267606183379,25.680938507869147],[-33.94210586047478,25.621048321615124],[-33.75315133487695,25.562184297507052],[-33.565772256989106,25.50432708728503],[-33.37992985618615,25.447458053233305],[-33.195586745629726,25.39155923298168],[-33.01270685330968,25.336613306531692],[-32.83125535740842,25.28260356533839],[-32.65119862566132,25.229513883293155],[-32.47250415841589,25.17732868946675],[-32.295140535117696,25.126032942484144],[-32.11907736397413,25.075612106412716],[-31.94428523456895,25.026052128056875]]}},{"type":"Feature","properties":{"t_inicio":0.07777777777776329,"t_fim":0.5499999999999838},"geometry":{"type":"LineString","coordinates":[[-7.44270383953517,25.039306594994578],[-7.318670202123997,25.079218764132243],[-7.194373621578734,25.119577827834103],[-7.0698079892627845,25.160386063167522],[-6.94496712125337,25.20164580121499],[-6.819844756147603,25.24335942811218],[-6.69443455280873,25.28552938612051],[-6.5687300880496196,25.328158174735442],[-6.4427248542514235,25.37124835183206],[-6.316412256914589,25.41480253484875],[-6.189785612139531,25.458823402010825],[-6.062838144034117,25.50331369359532],[-5.935562982045241,25.548276213238346],[-5.807953158211035,25.593713829286973],[-5.680001604330641,25.639629476196774],[-5.551701149048256,25.686026155977256],[-5.423044514847845,25.73290693968664],[-5.294024314954754,25.780274968978073],[-5.1646330501404805,25.8281334576992],[-5.034863105426325,25.876485693547092],[-4.904706746682081,25.925335039780997],[-4.774156117114757,25.9746849369948],[-4.643203233643277,26.024538904952063],[-4.511839983153607,26.074900544485608],[-4.380058118629819,26.125773539464898],[-4.24784925515516,26.177161658833572],[-4.11520486577794,26.22906875872016],[-3.9821162772356615,26.281498784625132],[-3.8485746655319986,26.33445577368755],[-3.7145710513591723,26.38794385703445],[-3.580096295359482,26.441967262216675],[-3.4451410932182966,26.496530315735306],[-3.309695970581032,26.551637445661825],[-3.1737512777862094,26.607293184356934],[-3.0372971844055314,26.66350217129208],[-2.9003236735829034,26.720269155978205],[-2.762820536161996,26.777599001007008],[-2.6247773645931147,26.835496685209478],[-2.486183546608629,26.893967306937142],[-2.3470282586556834,26.953016087472236],[-2.2073004590747303,27.01264837457218],[-2.066988881011355,27.072869646155276],[-1.9260820250482311,27.133685514134218],[-1.784568151543624,27.19510172840436],[-1.6424352726613165,27.25712418099498],[-1.4996711440767854,27.319758910390654],[-1.3562632563431123,27.38301210603194],[-1.212198825898895,27.44689011300416],[-1.0674647856999684,27.51139943692374],[-0.922047775455269,27.576546749032342],[-0.7759341314455241,27.642338891509528],[-0.6291098759032252,27.708782883015413],[-0.4815607059300362,27.775885924475375],[-0.3332719819262593,27.843655405119772],[-0.18422871550626496,27.912098908792387],[-0.03441555687115283,27.981224220542373],[0.11618321839185342,28.051039333514925],[0.2675837231149387,28.121552456157737],[0.4198024729952863,28.19277201976049],[0.572856401717047,28.264706686346635],[0.726762876788996,28.33736535693753],[0.8815397161403382,28.410757180210368],[1.0372052055186884,28.484891561573132],[1.1937781167395372,28.559778172681234],[1.3512777268374805,28.635426961422077],[1.5097238381753755,28.711848162396258],[1.6691367995703388,28.789052307925264],[1.8295375285001114,28.86705023961874],[1.9909475344585132,28.94585312053604],[2.15338894353323,29.02547244797982],[2.3168845242851717,29.105920066962153],[2.4814577150148693,29.187208184386794],[2.6471326525075654,29.269349383994555],[2.8139342023563927,29.35235664212244],[2.9818879909705913,29.436243344331174],[3.151020439384837,29.521023302960657],[3.3213587989949076,29.6067107756767],[3.4929311893553177,29.693320485078758],[3.665766638186227,29.780867639443187],[3.8398951237493293,29.869367954684098],[4.015347619766089,29.958837677619197],[4.19215614306728,30.049293610637825],[4.370353804178933,30.14075313787451],[4.549974861069018,30.233234253002905],[4.73105477629872,30.326755588773775],[4.913630277845556,30.421336448432402]]}}]}