{"type":"FeatureCollection","features":[{"type":"Feature","properties":{"magnitude":0.5,"de":0.5,"ate":0.8,"percentagem":50.0},"geometry":{"type":"Polygon","coordinates":[[[-21.602761410008174,34.01999999999991],[-19.379999999999427,34.00020600363618],[-17.219999999999345,34.11436749822671],[-15.059999999999263,34.3622023289996],[-12.83999999999918,34.755246343970704],[-10.619999999999095,35.28410233372685],[-8.339999999999009,35.96057171457076],[-5.999999999998921,36.78354034628785],[-3.5399999999988268,37.7734791195283],[-3.5399999999988268,44.939999999999685],[-34.5,44.939999999999685],[-34.5,36.49179785342294],[-32.69999999999993,35.946028936552324],[-31.019999999999868,35.486357673749666],[-29.339999999999804,35.07950141818428],[-27.719999999999743,34.7416655380591],[-26.159999999999684,34.470939114552884],[-24.599999999999625,34.25742659697997],[-23.099999999999568,34.10928750634871],[-21.602761410008174,34.01999999999991]]]}},{"type":"Feature","properties":{"magnitude":0.8,"de":0.8,"ate":0.95,"percentagem":80.0},"geometry":{"type":"Polygon","coordinates":[[[-34.5,30.0],[-3.5399999999988268,30.0],[-3.5399999999988268,37.7734791195283],[-5.639999999998906,36.920840821132956],[-7.619999999998981,36.200533586366845],[-9.539999999999054,35.58831388841305],[-11.399999999999123,35.083232253933375],[-13.259999999999195,34.670285441021626],[-15.059999999999263,34.3622023289996],[-16.919999999999334,34.14077112313478],[-18.719999999999402,34.020966772331505],[-20.579999999999472,33.99387447208224],[-22.439999999999543,34.0625695116734],[-24.299999999999613,34.223230250892506],[-26.219999999999686,34.480314936144204],[-28.19999999999976,34.835936370591575],[-30.196400884944467,35.27999999999989],[-32.279999999999916,35.82641732669546],[-34.5,36.49179785342294],[-34.5,30.0]]]}}]}