{"type":"FeatureCollection","features":[{"type":"Feature","properties":{"t_inicio":-0.516666666666679,"t_fim":-0.08888888888890278},"geometry":{"type":"LineString","coordinates":[[-39.913810039898465,26.141465480228945],[-39.77974620508519,26.13608035154639],[-39.645943400471765,26.130436614735903],[-39.51239910147237,26.124535166404044],[-39.37911080712075,26.118376890928445],[-39.24607603958586,26.11196266062345],[-39.11329234369657,26.105293335901905],[-38.980757286475665,26.098369765433244],[-38.84846845668255,26.091192786297952],[-38.716423464364965,26.083763224138497],[-38.58461994041875,26.076081893306924],[-38.45305553615606,26.068149597008876],[-38.32172792288151,26.059967127444562],[-38.1906347914761,26.05153526594633],[-38.05977385198878,26.042854783113235],[-37.92914283323523,26.03392643894244],[-37.79873948240407,26.024750982957684],[-37.66856156466994,26.015329154334815],[-37.53860686281337,26.00566168202444],[-37.408873176847464,25.995749284871753],[-37.27935832365074,25.985592671733702],[-37.15006013660667,25.975192541593415],[-37.02097646524919,25.96454958367194],[-36.89210517491392,25.95366447753762],[-36.763444146395784,25.94253789321273],[-36.63499127561181,25.931170491277754],[-36.50674447326969,25.91956292297334],[-36.37870166454172,25.907715830299708],[-36.250860788743864,25.8956298461139],[-36.12321979902018,25.88330559422474],[-35.995776662031886,25.870743689485483],[-35.868529357651596,25.85794473788444],[-35.74147587866213,25.844909336633354],[-35.614614230459836,25.83163807425369],[-35.48794243076276,25.818131530661034],[-35.361458509322546,25.80439027724722],[-35.23516050764141,25.79041487696073],[-35.10904647869248,25.776205884385067],[-34.98311448664461,25.761763845815125],[-34.857362606591096,25.747089299331925],[-34.73178892428206,25.732182774875312],[-34.60639153586064,25.717044794314976],[-34.48116854760272,25.701675871519647],[-34.35611807566045,25.686076512424606],[-34.23123824580884,25.670247215097493],[-34.10652719319583,25.65418846980236],[-33.98198306209582,25.63790075906219],[-33.85760400566596,25.621384557719743],[-33.73338818570582,25.6046403329968],[-33.60933377242,25.587668544551878],[-33.48543894418347,25.570469644536367],[-33.36170188730992,25.55304407764921],[-33.238120795822795,25.53539228119001],[-33.11469387122892,25.517514685110747],[-32.99141932229486,25.49941171206597],[-32.86829536482563,25.4810837774617],[-32.74532022144592,25.462531289502703],[-32.62249212138377,25.44375464923865],[-32.49980930025629,25.42475425060866],[-32.3772699998579,25.40553048048469],[-32.25487246795055,25.386083718713508],[-32.132614958056024,25.36641433815731],[-32.01049572925032,25.346522704733196],[-31.888513045960025,25.326409177451207],[-31.766665177760444,25.30607410845116],[-31.644950399175713,25.285517843038335],[-31.523366989480536,25.26474071971777],[-31.4019132325038,25.243743070227417],[-31.280587416433605,25.22252521957013],[-31.159387833624123,25.201087486044397],[-31.03831278040377,25.179430181273975],[-30.917360556885058,25.157553610236235],[-30.796529466775638,25.135458071289506],[-30.675817817190904,25.11314385619916],[-30.555223918467675,25.090611250162635],[-30.43474608397949,25.067860531833276],[-30.314382629952547,25.04489197334317],[-30.194131875283347,25.02170584032475]]}}]}