{"type":"FeatureCollection","features":[{"type":"Feature","properties":{"magnitude":0.2,"de":0.2,"ate":0.5,"percentagem":20.0},"geometry":{"type":"Polygon","coordinates":[[[-7.679999999998984,35.362725870410614],[-3.5399999999988268,33.60437939712175],[-3.5399999999988268,44.939999999999685],[-34.5,44.939999999999685],[-34.5,42.00084624437281],[-32.519999999999925,41.79850018873977],[-30.599999999999852,41.56054331895836],[-28.67999999999978,41.28071903337382],[-26.759999999999707,40.95830487029878],[-24.839999999999634,40.59261582411712],[-22.91999999999956,40.18305586779468],[-20.99999999999949,39.72914189731078],[-19.139999999999418,39.24680504880408],[-17.279999999999347,38.722415186629085],[-15.359999999999275,38.13710566681391],[-11.579999999999131,36.85606022414001],[-7.679999999998984,35.362725870410614]]]}},{"type":"Feature","properties":{"magnitude":0.5,"de":0.5,"ate":0.8,"percentagem":50.0},"geometry":{"type":"Polygon","coordinates":[[[-24.359999999999616,30.986657806127823],[-20.810492421881257,30.0],[-3.5399999999988268,30.0],[-3.5399999999988268,33.60437939712175],[-7.619999999998982,35.33845916291955],[-11.51999999999913,36.834375777132095],[-15.299999999999272,38.11809777898047],[-17.203695588407733,38.69999999999982],[-19.079999999999416,39.230546037785075],[-20.939999999999483,39.71423791568345],[-22.85999999999956,40.169545110554935],[-24.77999999999963,40.580483733807725],[-26.699999999999704,40.94753563199976],[-28.619999999999777,41.2712932468431],[-30.599999999999852,41.56054331895836],[-32.519999999999925,41.79850018873977],[-34.5,42.00084624437281],[-34.5,32.80218978672851],[-32.759999999999934,32.594628181963294],[-31.07999999999987,32.353995746827415],[-27.719999999999743,31.75201043643614],[-26.03999999999968,31.389865023983052],[-24.359999999999616,30.986657806127823]]]}},{"type":"Feature","properties":{"magnitude":0.8,"de":0.8,"ate":0.95,"percentagem":80.0},"geometry":{"type":"Polygon","coordinates":[[[-34.5,30.0],[-34.44,30.0],[-20.810492421881257,30.0],[-24.17999999999961,30.94101947379619],[-25.859999999999673,31.348630493729658],[-27.59999999999974,31.727501749606006],[-29.279999999999802,32.05167762881803],[-31.019999999999868,32.344662726929755],[-32.759999999999934,32.594628181963294],[-34.5,32.80218978672851],[-34.5,30.0]]]}}]}