{"type":"FeatureCollection","features":[{"type":"Feature","properties":{"magnitude":0.2,"de":0.2,"ate":0.5,"percentagem":20.0},"geometry":{"type":"Polygon","coordinates":[[[-34.5,44.939999999999685],[-34.5,40.987587979210296],[-31.61999999999989,41.58181126181189],[-29.579999999999814,42.06135313896148],[-27.539999999999736,42.591532784512935],[-25.679999999999666,43.12035093081608],[-23.861952155402502,43.67999999999971],[-22.019999999999527,44.29070568624629],[-20.193149115025562,44.939999999999685],[-34.5,44.939999999999685]]]}},{"type":"Feature","properties":{"magnitude":0.5,"de":0.5,"ate":0.8,"percentagem":50.0},"geometry":{"type":"Polygon","coordinates":[[[-34.5,30.0],[-15.392115338766773,30.0],[-12.479999999999166,30.993365372377404],[-9.539999999999054,32.10476296038882],[-6.599999999998943,33.32395358030439],[-3.5399999999988268,34.70155790336615],[-3.5399999999988268,44.939999999999685],[-20.193149115025562,44.939999999999685],[-23.699999999999587,43.73192887127054],[-27.239999999999725,42.673868606393235],[-30.839999999999865,41.7592936954653],[-34.5,40.987587979210296],[-34.5,30.0]]]}},{"type":"Feature","properties":{"magnitude":0.8,"de":0.8,"ate":0.95,"percentagem":80.0},"geometry":{"type":"Polygon","coordinates":[[[-15.392115338766773,30.0],[-3.5399999999988268,30.0],[-3.5399999999988268,34.70155790336615],[-6.599999999998943,33.32395358030439],[-9.539999999999054,32.104762960388825],[-12.479999999999166,30.993365372377408],[-15.392115338766773,30.0]]]}}]}