{"type":"FeatureCollection","features":[{"type":"Feature","properties":{"magnitude":0.2,"de":0.2,"ate":0.5,"percentagem":20.0},"geometry":{"type":"Polygon","coordinates":[[[-9.24955322360503,30.0],[-3.5399999999988268,30.0],[-3.5399999999988268,42.693632058247005],[-6.839999999998952,43.85486718806736],[-10.062782868411045,44.939999999999685],[-34.5,44.939999999999685],[-34.5,39.813290073722044],[-31.799999999999898,39.18932325870453],[-29.039999999999793,38.49812001137391],[-26.27999999999969,37.755904389498085],[-23.39999999999958,36.930406334620315],[-20.459999999999468,36.03777552106061],[-17.399999999999352,35.05953445211368],[-14.219999999999231,33.99486951175773],[-11.023820006156312,32.87999999999994],[-10.65082005454749,32.699999999999946],[-10.319999999999084,32.46171185741303],[-10.027637639806263,32.159999999999954],[-9.815913821731895,31.859999999999964],[-9.601004420668229,31.43999999999997],[-9.450122579606834,31.019999999999975],[-9.3319405699227,30.53999999999999],[-9.24955322360503,30.0]]]}},{"type":"Feature","properties":{"magnitude":0.5,"de":0.5,"ate":0.8,"percentagem":50.0},"geometry":{"type":"Polygon","coordinates":[[[-34.5,30.0],[-34.44,30.0],[-9.24955322360503,30.0],[-9.3319405699227,30.53999999999999],[-9.450122579606834,31.01999999999998],[-9.601004420668229,31.43999999999997],[-9.815913821731895,31.859999999999964],[-10.027637639806263,32.159999999999954],[-10.319999999999084,32.461711857413036],[-10.65082005454749,32.699999999999946],[-11.023820006156312,32.87999999999994],[-14.219999999999231,33.99486951175773],[-17.399999999999352,35.05953445211368],[-20.459999999999468,36.03777552106061],[-23.39999999999958,36.930406334620315],[-26.27999999999969,37.755904389498085],[-29.039999999999793,38.49812001137391],[-31.799999999999898,39.18932325870453],[-34.5,39.813290073722044],[-34.5,30.0]]]}}]}