{"type":"FeatureCollection","properties":{"largura_maxima_km":null,"largura_sobre_pt_km":null,"linha_central_sobre_pt":false,"desenhavel_como_area":true,"perfil_largura":[{"t":-1.47222,"lat":46.2596,"lon":-6.4891,"largura_km":null,"eixo_na_terra":false},{"t":-1.46667,"lat":45.9666,"lon":-5.3247,"largura_km":null,"eixo_na_terra":false},{"t":-1.46111,"lat":45.7381,"lon":-4.529,"largura_km":null,"eixo_na_terra":false},{"t":-1.45556,"lat":45.5549,"lon":-4.0485,"largura_km":null,"eixo_na_terra":false},{"t":-1.45,"lat":45.4247,"lon":-3.5707,"largura_km":null,"eixo_na_terra":false},{"t":-1.44444,"lat":45.3069,"lon":-2.9666,"largura_km":null,"eixo_na_terra":false},{"t":-1.43889,"lat":45.0441,"lon":-2.2973,"largura_km":null,"eixo_na_terra":false},{"t":-1.43333,"lat":45.2793,"lon":-2.8527,"largura_km":null,"eixo_na_terra":false},{"t":-1.42778,"lat":44.8296,"lon":-1.531,"largura_km":null,"eixo_na_terra":false},{"t":-1.42222,"lat":44.7601,"lon":-1.392,"largura_km":null,"eixo_na_terra":false},{"t":-1.41667,"lat":44.5807,"lon":-0.7068,"largura_km":null,"eixo_na_terra":false},{"t":-1.41111,"lat":44.6068,"lon":-0.6901,"largura_km":null,"eixo_na_terra":false},{"t":-1.40556,"lat":44.2685,"lon":0.1833,"largura_km":null,"eixo_na_terra":false},{"t":-1.4,"lat":44.1875,"lon":0.5034,"largura_km":null,"eixo_na_terra":false},{"t":-1.39444,"lat":44.0065,"lon":1.0062,"largura_km":null,"eixo_na_terra":false},{"t":-1.38889,"lat":43.7589,"lon":1.6429,"largura_km":null,"eixo_na_terra":false}]},"features":[{"type":"Feature","properties":{},"geometry":{"type":"Polygon","coordinates":[[[-6.152770099614287,45.19199652478819],[-7.246381058190821,45.538683446384816],[-7.247521186537781,45.5434127235373],[-7.930613508278901,45.76143514104848],[-8.70998912179175,45.99843113688174],[-8.690269394313496,46.017496538559406],[-9.687549884104328,46.32598395957242],[-9.62633433506715,46.43521598033465],[-9.639407890230927,46.43933547869234],[-9.619987967192715,46.446540334985194],[-8.413256529140028,48.59981210284517],[-7.914638952964725,48.439457353642155],[-7.898061509008187,48.55068726234696],[-6.742209236940543,48.18407212843889],[-6.739102068858074,48.191135026589876],[-5.967395506352558,47.93831542885203],[-5.651855257551972,47.83823185125048],[-4.510280308820882,47.45911932256793],[-3.630788840725643,47.1577693358119],[-2.8893424085380843,46.89656037955219],[-1.9093898524411657,46.54373358487745],[-1.3678009192954619,46.34586768160255],[-0.8642653253531876,46.15773187082957],[0.2672856592691346,45.72661102879754],[0.6679650936748658,45.57039823881535],[1.1457787947120954,45.37927228512111],[1.5974204115098587,45.201662167534806],[1.9374249457917472,45.064467663615396],[2.384348856412148,44.87921701075591],[2.7381090472713936,44.73574170070351],[3.0369954269803543,44.611559008150614],[3.3286788649639334,44.487747655509075],[3.613255400731532,44.36432963825151],[3.890807819319093,44.241332596714734],[4.161407968271817,44.11878903857931],[4.425118665472212,43.99673568482706],[4.6819952786485715,43.8752129148171],[4.9320870393848395,43.75426429157202],[5.175438140886172,43.63393615247139],[5.412088658444475,43.514277253665256],[5.642075323632582,43.39533845891355],[5.865432177133073,43.277172465405144],[6.082191120325888,43.159833560552144],[6.292382382005258,43.04337740488727],[6.4960349136176205,42.927860837086584],[6.69317672404344,42.81334169785313],[6.883835163041283,42.699878669966544],[7.068037160937422,42.58753113226416],[7.245809430898191,42.476359025690606],[7.417178639101962,42.36642272985601],[7.582171547296355,42.25778294879105],[7.740815131534248,42.150500604790295],[7.893136680313205,42.04463673940392],[8.039163874867882,41.94025242077681],[8.17892485396726,41.837408656651036],[8.312448265235332,41.736166312443615],[8.43976330473373,41.636586033893614],[8.560899746304074,41.538728173841704],[8.675887961970204,41.44265272276185],[8.784758934523495,41.348419242715714],[8.887544263270456,41.25608680444091],[8.984276163793595,41.16571392732118],[9.074987462468357,41.07735852201627],[9.159711586384674,40.99107783555671],[9.23848254924036,40.90692839873073],[9.311334933701744,40.82496597561115],[9.37830387066822,40.74524551508645],[9.439425015819836,40.667821104276165],[9.494734523782995,40.59274592372355],[9.544269020206173,40.52007220426995],[9.588065572002847,40.449851185525915],[9.626161655985868,40.38213307586323],[9.658595126088528,40.316967013860044],[9.685404179344971,40.25440103113842],[9.706627320778068,40.194482016541],[9.722303327324425,40.1372556815981],[9.732471210908045,40.08276652724355],[9.737170180758994,40.03105781174112],[9.736439605058592,39.98217151978891],[9.730318971980921,39.93614833277301],[9.718847850187217,39.89302760014524],[9.70206584882203,39.852847311904284],[9.680012577046398,39.81564407216248],[9.652727603138771,39.7814530737839],[9.620250413182362,39.75030807408271],[9.58262036935264,39.72224137157368],[9.53987666780813,39.69728378377021],[9.492058296183927,39.675464626027726],[9.439203990676901,39.65681169143329],[9.381352192706288,39.641351231745816],[9.31854100512561,39.62910793939396],[9.250808147953592,39.62010493054165],[9.17819091358507,39.61436372923524],[9.100726121433695,39.611904252649005],[9.01845007194845,39.61274479744972],[8.931398499937927,39.61690202730498],[8.839606527123976,39.62439096156365],[8.743108613834295,39.635224965142484],[8.641938509731062,39.64941573965628],[8.536129203456937,39.66697331583634],[8.42571287106199,39.68790604728636],[8.31072082305758,39.712220605633085],[8.191183449919379,39.73992197713532],[8.067130165837568,39.77101346082502],[7.938589350483539,39.80549666826204],[7.8055882885287815,39.84337152499646],[7.526308707427859,39.929287480095745],[7.380078700483921,39.97732003879452],[7.074549393506402,40.083500501889034],[6.751725314332589,40.203103841293526],[6.411740730870349,40.33603038800946],[6.054700909172993,40.48215533932225],[5.8698093565043905,40.56012157274579],[5.487311369870952,40.725757570148055],[5.289708779314253,40.8133816100405],[4.912134077722013,40.98428354232337],[4.570996674363471,41.13205447362237],[4.189360926425103,41.301337197260914],[3.7995121395791216,41.46696031833273],[3.413303011758375,41.63456673743156],[2.964426328173829,41.82130770443405],[2.5728266209950688,41.98724865040278],[2.050665201747222,42.19955172623367],[1.6477554567304689,42.36586338490784],[1.0361399791912618,42.60820409836242],[0.6187133905444321,42.775518428219335],[-0.5485762628094087,43.225954570848906],[-1.9139716093500465,43.734264987393885],[-3.613395885271614,44.340000134483546],[-4.714541077100705,44.71458970762195],[-5.497617739674979,44.976827564003145],[-6.152770099614287,45.19199652478819]]]}}]}