{"type":"FeatureCollection","features":[{"type":"Feature","properties":{"magnitude":0.2,"de":0.2,"ate":0.5,"percentagem":20.0},"geometry":{"type":"Polygon","coordinates":[[[-24.502227948914744,30.0],[-8.589249144157542,30.0],[-11.699999999999136,31.060126757865298],[-15.539999999999281,32.23199252931808],[-15.899999999999295,32.367944014820175],[-16.379999999999313,32.625638108509285],[-16.85999999999933,32.98972650231282],[-17.279999999999347,33.42078957389358],[-17.677254068998508,33.959999999999916],[-17.939999999999372,34.41409301998335],[-18.17999999999938,34.92636992152135],[-18.380901619466915,35.45999999999988],[-18.559316365013657,36.059999999999874],[-18.807150605967816,37.319999999999844],[-18.92672871920022,38.69999999999982],[-18.918233621198382,40.13999999999979],[-18.77963181622647,41.69999999999975],[-18.508444863273304,43.31999999999972],[-18.115442235226112,44.939999999999685],[-23.298216160361314,44.939999999999685],[-23.841614013543932,43.019999999999726],[-24.285521213054025,41.039999999999765],[-24.614389222047855,39.0599999999998],[-24.823012603538615,37.139999999999844],[-24.91863841402259,35.219999999999885],[-24.897239102180816,33.41999999999993],[-24.761123417611167,31.679999999999964],[-24.502227948914744,30.0]]]}},{"type":"Feature","properties":{"magnitude":0.5,"de":0.5,"ate":0.8,"percentagem":50.0},"geometry":{"type":"Polygon","coordinates":[[[-11.81999999999914,31.098945171338556],[-8.589249144157542,30.0],[-3.5399999999988268,30.0],[-3.5399999999988268,39.315649224718044],[-7.1999999999989654,40.61239821904296],[-9.419999999999051,41.33385831892834],[-11.699999999999136,42.02776046529479],[-11.939999999999145,42.13692368070724],[-12.179999999999154,42.32448052057736],[-12.359999999999161,42.54136709915518],[-12.526446754837664,42.839999999999726],[-12.65604778490334,43.19999999999972],[-12.73523662269841,43.55999999999971],[-12.7826115021378,43.979999999999706],[-12.760755318272363,44.939999999999685],[-18.115442235226112,44.939999999999685],[-18.508444863273304,43.319999999999716],[-18.77963181622647,41.69999999999975],[-18.918233621198382,40.13999999999979],[-18.92672871920022,38.69999999999982],[-18.807150605967816,37.319999999999844],[-18.559316365013657,36.059999999999874],[-18.38090161946691,35.45999999999988],[-18.17999999999938,34.926369921521356],[-17.95341847989297,34.439999999999905],[-17.699999999999363,33.99569305078773],[-17.329356106919658,33.479999999999926],[-16.871444933981774,32.999999999999936],[-16.402146881874387,32.639999999999944],[-15.899999999999295,32.36794401482017],[-15.539999999999281,32.23199252931808],[-11.81999999999914,31.098945171338556]]]}},{"type":"Feature","properties":{"magnitude":0.8,"de":0.8,"ate":0.95,"percentagem":80.0},"geometry":{"type":"Polygon","coordinates":[[[-7.259999999998968,40.63252234021489],[-3.5399999999988268,39.315649224718044],[-3.5399999999988268,44.939999999999685],[-12.760755318272363,44.939999999999685],[-12.7826115021378,43.979999999999706],[-12.73523662269841,43.55999999999971],[-12.65604778490334,43.19999999999972],[-12.526446754837664,42.839999999999726],[-12.359999999999161,42.54136709915518],[-12.179999999999154,42.32448052057736],[-11.939999999999145,42.13692368070724],[-11.699999999999136,42.02776046529479],[-9.41999999999905,41.33385831892834],[-7.259999999998968,40.63252234021489]]]}}]}