{"type":"FeatureCollection","features":[{"type":"Feature","properties":{"magnitude":0.2,"percentagem":20.0,"territorio":"madeira"},"geometry":{"type":"LineString","coordinates":[[-15.547872698087275,33.7799999999999],[-15.547887592581459,33.73999999999991],[-15.547902462133877,33.69999999999991],[-15.54791730678201,33.65999999999991],[-15.547932126563346,33.61999999999991],[-15.547946921515384,33.57999999999991],[-15.547961691675638,33.539999999999914],[-15.547976437081626,33.499999999999915],[-15.547991157770875,33.45999999999991],[-15.548005853780925,33.419999999999916],[-15.548020525149312,33.37999999999992],[-15.54803517191359,33.33999999999992],[-15.548049794111316,33.29999999999992],[-15.548064391780047,33.25999999999992],[-15.548078964957355,33.21999999999993],[-15.548093513680808,33.17999999999992],[-15.54810803798798,33.13999999999992],[-15.54812253791645,33.09999999999992],[-15.5481370135038,33.059999999999924],[-15.548151464787614,33.019999999999925],[-15.548165891805473,32.979999999999926],[-15.548180294594971,32.93999999999993],[-15.548194673193688,32.89999999999993],[-15.54820902763921,32.85999999999993],[-15.548223357969132,32.81999999999993],[-15.548237664221032,32.77999999999993],[-15.5482519464325,32.73999999999993],[-15.548266204641116,32.69999999999993],[-15.548280438884458,32.65999999999993],[-15.54829464920011,32.61999999999993],[-15.548308835625637,32.579999999999934],[-15.548322998198618,32.539999999999935],[-15.548337136956611,32.499999999999936],[-15.54835125193718,32.45999999999994],[-15.548365343177885,32.41999999999994],[-15.548379410716265,32.37999999999994],[-15.548393454589874,32.33999999999994],[-15.548407474836242,32.29999999999994],[-15.548421471492901,32.25999999999994],[-15.548435444597374,32.21999999999994],[-15.548449394187168,32.17999999999994],[-15.548463320299795,32.139999999999944],[-15.54847722297275,32.099999999999945],[-15.548491102243517,32.059999999999945],[-15.548504958149573,32.019999999999946],[-15.548518790728387,31.97999999999995],[-15.54853260001741,31.939999999999948],[-15.548546386054088,31.89999999999995],[-15.548560148875852,31.85999999999995],[-15.548573888520126,31.81999999999995],[-15.548587605024316,31.77999999999995],[-15.548601298425817,31.739999999999952],[-15.54861496876201,31.699999999999953],[-15.548628616070264,31.659999999999954],[-15.548642240387931,31.619999999999955],[-15.548655841752353,31.579999999999956],[-15.548669420200852,31.539999999999957],[-15.548682975770735,31.499999999999957],[-15.548696508499301,31.459999999999958],[-15.520000000000053,31.431303491500707],[-15.50870667572995,31.41999999999996],[-15.50872016872113,31.37999999999996],[-15.508733638972771,31.33999999999996],[-15.50874708652211,31.29999999999996],[-15.508760511406361,31.259999999999962],[-15.50877391366273,31.219999999999963],[-15.508787293328393,31.17999999999996],[-15.508800650440513,31.139999999999965],[-15.508813985036234,31.099999999999966],[-15.508827297152681,31.05999999999997],[-15.508840586826956,31.019999999999968],[-15.508853854096143,30.97999999999997],[-15.508867098997307,30.93999999999997],[-15.508880321567489,30.89999999999997],[-15.50889352184371,30.85999999999997],[-15.508906699862976,30.819999999999972],[-15.508919855662256,30.779999999999973],[-15.508932989278517,30.739999999999974],[-15.50894610074868,30.699999999999974],[-15.508959190109664,30.65999999999997],[-15.508972257398359,30.61999999999998],[-15.508985302651618,30.579999999999977],[-15.508998325906292,30.539999999999978],[-15.509011327199193,30.49999999999998],[-15.509024306567113,30.459999999999976],[-15.509037264046821,30.41999999999998],[-15.509050199675052,30.37999999999998],[-15.509063113488532,30.339999999999982],[-15.509076005523946,30.299999999999983],[-15.509088875817962,30.259999999999984],[-15.509101724407218,30.219999999999985],[-15.509114551328324,30.179999999999986],[-15.509127356617867,30.139999999999986],[-15.509140140312407,30.099999999999987],[-15.509152902448475,30.059999999999988],[-15.50916564306257,30.01999999999999],[-15.50917836219117,29.97999999999999],[-15.509191059870723,29.939999999999987],[-15.509203736137648,29.89999999999999],[-15.50921639102833,29.859999999999992],[-15.509229024579135,29.819999999999993],[-15.50924163682639,29.779999999999994],[-15.509254227806402,29.74],[-15.509266797555437,29.699999999999996],[-15.50927934610974,29.659999999999997],[-15.509291873505521,29.62],[-15.509304379778962,29.579999999999995],[-15.509316864966214,29.54],[-15.509329329103394,29.5]]}},{"type":"Feature","properties":{"magnitude":0.4,"percentagem":40.0,"territorio":"madeira"},"geometry":{"type":"LineString","coordinates":[[-15.535745396174498,33.77999999999991],[-15.53577518516287,33.73999999999991],[-15.535804924267705,33.69999999999991],[-15.535834613563967,33.65999999999991],[-15.535864253126636,33.61999999999991],[-15.535893843030717,33.57999999999991],[-15.535923383351225,33.539999999999914],[-15.5359528741632,33.499999999999915],[-15.5359823155417,33.459999999999916],[-15.536011707561794,33.419999999999916],[-15.536041050298572,33.37999999999992],[-15.536070343827127,33.33999999999992],[-15.536099588222577,33.29999999999992],[-15.536128783560045,33.25999999999992],[-15.536157929914657,33.21999999999992],[-15.53618702736156,33.17999999999992],[-15.536216075975906,33.13999999999992],[-15.536245075832847,33.09999999999992],[-15.536274027007547,33.059999999999924],[-15.536302929575175,33.019999999999925],[-15.536331783610896,32.979999999999926],[-15.536360589189888,32.93999999999993],[-15.53638934638732,32.89999999999993],[-15.536418055278371,32.85999999999993],[-15.536446715938212,32.81999999999993],[-15.536475328442016,32.77999999999993],[-15.53650389286495,32.73999999999993],[-15.53653240928218,32.69999999999993],[-15.536560877768867,32.65999999999993],[-15.536589298400166,32.61999999999993],[-15.536617671251225,32.579999999999934],[-15.536645996397182,32.539999999999935],[-15.536674273913171,32.499999999999936],[-15.536702503874311,32.45999999999994],[-15.536730686355714,32.41999999999994],[-15.53675882143248,32.37999999999994],[-15.536786909179696,32.33999999999994],[-15.536814949672433,32.29999999999994],[-15.53684294298575,32.25999999999994],[-15.536870889194692,32.21999999999994],[-15.536898788374286,32.17999999999994],[-15.53692664059954,32.139999999999944],[-15.536954445945447,32.099999999999945],[-15.536982204486982,32.059999999999945],[-15.537009916299095,32.019999999999946],[-15.537037581456719,31.979999999999947],[-15.537065200034768,31.939999999999948],[-15.537092772108121,31.89999999999995],[-15.537120297751652,31.85999999999995],[-15.537147777040202,31.81999999999995],[-15.53717521004858,31.77999999999995],[-15.537202596851582,31.739999999999952],[-15.537229937523968,31.699999999999953],[-15.537257232140476,31.659999999999954],[-15.53728448077581,31.619999999999955],[-15.537311683504655,31.579999999999956],[-15.537338840401649,31.539999999999957],[-15.537365951541421,31.499999999999957],[-15.537393016998553,31.459999999999958],[-15.520000000000053,31.44260698300146],[-15.497413351459851,31.41999999999996],[-15.497440337442207,31.37999999999996],[-15.497467277945487,31.33999999999996],[-15.497494173044165,31.29999999999996],[-15.497521022812672,31.259999999999962],[-15.497547827325409,31.219999999999963],[-15.497574586656732,31.179999999999964],[-15.497601300880973,31.139999999999965],[-15.497627970072415,31.099999999999966],[-15.497654594305308,31.059999999999967],[-15.497681173653856,31.019999999999968],[-15.497707708192234,30.97999999999997],[-15.49773419799456,30.93999999999997],[-15.497760643134924,30.89999999999997],[-15.49778704368737,30.85999999999997],[-15.4978133997259,30.819999999999972],[-15.497839711324463,30.779999999999973],[-15.497865978556977,30.739999999999974],[-15.497892201497308,30.699999999999974],[-15.497918380219279,30.659999999999975],[-15.49794451479666,30.619999999999976],[-15.497970605303186,30.579999999999977],[-15.497996651812532,30.539999999999978],[-15.498022654398333,30.49999999999998],[-15.498048613134173,30.45999999999998],[-15.498074528093586,30.41999999999998],[-15.498100399350054,30.37999999999998],[-15.49812622697701,30.339999999999982],[-15.49815201104784,30.299999999999983],[-15.498177751635872,30.259999999999984],[-15.49820344881438,30.219999999999985],[-15.498229102656595,30.179999999999986],[-15.498254713235681,30.139999999999986],[-15.498280280624762,30.099999999999987],[-15.498305804896894,30.059999999999988],[-15.498331286125087,30.01999999999999],[-15.498356724382289,29.97999999999999],[-15.498382119741395,29.93999999999999],[-15.498407472275241,29.89999999999999],[-15.498432782056607,29.859999999999992],[-15.498458049158216,29.819999999999993],[-15.498483273652727,29.779999999999994],[-15.498508455612749,29.739999999999995],[-15.498533595110821,29.699999999999996],[-15.498558692219426,29.659999999999997],[-15.49858374701099,29.619999999999997],[-15.498608759557875,29.58],[-15.498633729932376,29.54],[-15.498658658206736,29.5]]}},{"type":"Feature","properties":{"magnitude":0.6,"percentagem":60.0,"territorio":"madeira"},"geometry":{"type":"LineString","coordinates":[[-15.523618094261723,33.77999999999991],[-15.523662777744276,33.73999999999991],[-15.52370738640153,33.69999999999991],[-15.523751920345925,33.65999999999991],[-15.52379637968993,33.61999999999991],[-15.523840764546048,33.57999999999991],[-15.523885075026811,33.539999999999914],[-15.523929311244775,33.499999999999915],[-15.523973473312525,33.459999999999916],[-15.524017561342667,33.419999999999916],[-15.524061575447831,33.37999999999992],[-15.524105515740667,33.33999999999992],[-15.52414938233384,33.29999999999992],[-15.524193175340038,33.25999999999992],[-15.524236894871958,33.21999999999992],[-15.524280541042316,33.17999999999992],[-15.524324113963834,33.13999999999992],[-15.524367613749245,33.09999999999992],[-15.524411040511296,33.059999999999924],[-15.524454394362735,33.019999999999925],[-15.524497675416319,32.979999999999926],[-15.524540883784805,32.93999999999993],[-15.524584019580955,32.89999999999993],[-15.524627082917531,32.85999999999993],[-15.524670073907291,32.81999999999993],[-15.524712992662996,32.77999999999993],[-15.524755839297397,32.73999999999993],[-15.524798613923243,32.69999999999993],[-15.524841316653275,32.65999999999993],[-15.524883947600223,32.61999999999993],[-15.524926506876811,32.579999999999934],[-15.524968994595747,32.539999999999935],[-15.525011410869729,32.499999999999936],[-15.52505375581144,32.45999999999994],[-15.525096029533545,32.41999999999994],[-15.525138232148693,32.37999999999994],[-15.525180363769515,32.33999999999994],[-15.525222424508621,32.29999999999994],[-15.525264414478599,32.25999999999994],[-15.525306333792011,32.21999999999994],[-15.525348182561403,32.17999999999994],[-15.525389960899284,32.139999999999944],[-15.525431668918147,32.099999999999945],[-15.525473306730447,32.059999999999945],[-15.525514874448616,32.019999999999946],[-15.525556372185052,31.979999999999947],[-15.525597800052122,31.939999999999948],[-15.525639158162157,31.89999999999995],[-15.525680446627456,31.85999999999995],[-15.525721665560276,31.81999999999995],[-15.525762815072845,31.77999999999995],[-15.525803895277349,31.739999999999952],[-15.525844906285927,31.699999999999953],[-15.525885848210688,31.659999999999954],[-15.52592672116369,31.619999999999955],[-15.525967525256956,31.579999999999956],[-15.526008260602449,31.539999999999957],[-15.526048927312106,31.499999999999957],[-15.526089525497802,31.459999999999958],[-15.520000000000053,31.45391047450221],[-15.48612002718975,31.41999999999996],[-15.486160506163284,31.37999999999996],[-15.486200916918206,31.33999999999996],[-15.486241259566222,31.29999999999996],[-15.486281534218982,31.259999999999962],[-15.486321740988085,31.219999999999963],[-15.486361879985074,31.179999999999964],[-15.486401951321435,31.139999999999965],[-15.4864419551086,31.099999999999966],[-15.486481891457935,31.059999999999967],[-15.486521760480759,31.019999999999968],[-15.486561562288323,30.97999999999997],[-15.486601296991813,30.93999999999997],[-15.48664096470236,30.89999999999997],[-15.48668056553103,30.85999999999997],[-15.486720099588819,30.819999999999972],[-15.486759566986667,30.779999999999973],[-15.486798967835439,30.739999999999974],[-15.486838302245935,30.699999999999974],[-15.486877570328891,30.659999999999975],[-15.486916772194963,30.619999999999976],[-15.486955907954751,30.579999999999977],[-15.486994977718771,30.539999999999978],[-15.487033981597474,30.49999999999998],[-15.487072919701232,30.45999999999998],[-15.48711179214035,30.41999999999998],[-15.487150599025053,30.37999999999998],[-15.487189340465491,30.339999999999982],[-15.487228016571734,30.299999999999983],[-15.487266627453781,30.259999999999984],[-15.487305173221545,30.219999999999985],[-15.487343653984865,30.179999999999986],[-15.487382069853497,30.139999999999986],[-15.487420420937116,30.099999999999987],[-15.487458707345315,30.059999999999988],[-15.487496929187603,30.01999999999999],[-15.487535086573406,29.97999999999999],[-15.487573179612065,29.93999999999999],[-15.487611208412833,29.89999999999999],[-15.487649173084886,29.859999999999992],[-15.487687073737298,29.819999999999993],[-15.487724910479066,29.779999999999994],[-15.487762683419097,29.739999999999995],[-15.487800392666205,29.699999999999996],[-15.487838038329114,29.659999999999997],[-15.48787562051646,29.619999999999997],[-15.487913139336785,29.58],[-15.487950594898539,29.54],[-15.487987987310076,29.5]]}}]}