{"type":"FeatureCollection","properties":{"largura_maxima_km":80.548,"largura_sobre_pt_km":64.079,"linha_central_sobre_pt":true,"desenhavel_como_area":true,"perfil_largura":[{"t":1.43333,"lat":25.0229,"lon":-32.0107,"largura_km":80.548,"eixo_na_terra":true},{"t":1.43889,"lat":25.1479,"lon":-31.7548,"largura_km":80.234,"eixo_na_terra":true},{"t":1.44444,"lat":25.2743,"lon":-31.4952,"largura_km":79.916,"eixo_na_terra":true},{"t":1.45,"lat":25.4021,"lon":-31.2318,"largura_km":79.594,"eixo_na_terra":true},{"t":1.45556,"lat":25.5313,"lon":-30.9644,"largura_km":79.268,"eixo_na_terra":true},{"t":1.46111,"lat":25.6621,"lon":-30.6929,"largura_km":78.937,"eixo_na_terra":true},{"t":1.46667,"lat":25.7944,"lon":-30.4171,"largura_km":78.601,"eixo_na_terra":true},{"t":1.47222,"lat":25.9282,"lon":-30.1369,"largura_km":78.261,"eixo_na_terra":true},{"t":1.47778,"lat":26.0638,"lon":-29.852,"largura_km":77.916,"eixo_na_terra":true},{"t":1.48333,"lat":26.201,"lon":-29.5624,"largura_km":77.566,"eixo_na_terra":true},{"t":1.48889,"lat":26.3401,"lon":-29.2677,"largura_km":77.211,"eixo_na_terra":true},{"t":1.49444,"lat":26.481,"lon":-28.9678,"largura_km":76.85,"eixo_na_terra":true},{"t":1.5,"lat":26.6238,"lon":-28.6624,"largura_km":76.484,"eixo_na_terra":true},{"t":1.50556,"lat":26.7686,"lon":-28.3513,"largura_km":76.111,"eixo_na_terra":true},{"t":1.51111,"lat":26.9155,"lon":-28.0341,"largura_km":75.733,"eixo_na_terra":true},{"t":1.51667,"lat":27.0646,"lon":-27.7108,"largura_km":75.349,"eixo_na_terra":true},{"t":1.52222,"lat":27.216,"lon":-27.3808,"largura_km":74.957,"eixo_na_terra":true},{"t":1.52778,"lat":27.3698,"lon":-27.0439,"largura_km":74.558,"eixo_na_terra":true},{"t":1.53333,"lat":27.526,"lon":-26.6997,"largura_km":74.152,"eixo_na_terra":true},{"t":1.53889,"lat":27.6849,"lon":-26.3478,"largura_km":73.738,"eixo_na_terra":true},{"t":1.54444,"lat":27.8466,"lon":-25.9878,"largura_km":73.316,"eixo_na_terra":true},{"t":1.55,"lat":28.0112,"lon":-25.6192,"largura_km":72.884,"eixo_na_terra":true},{"t":1.55556,"lat":28.1788,"lon":-25.2414,"largura_km":72.444,"eixo_na_terra":true},{"t":1.56111,"lat":28.3497,"lon":-24.8539,"largura_km":71.993,"eixo_na_terra":true},{"t":1.56667,"lat":28.5241,"lon":-24.4561,"largura_km":71.532,"eixo_na_terra":true},{"t":1.57222,"lat":28.7022,"lon":-24.0472,"largura_km":71.06,"eixo_na_terra":true},{"t":1.57778,"lat":28.8842,"lon":-23.6264,"largura_km":70.576,"eixo_na_terra":true},{"t":1.58333,"lat":29.0704,"lon":-23.1929,"largura_km":70.078,"eixo_na_terra":true},{"t":1.58889,"lat":29.2611,"lon":-22.7457,"largura_km":69.567,"eixo_na_terra":true},{"t":1.59444,"lat":29.4567,"lon":-22.2835,"largura_km":69.041,"eixo_na_terra":true},{"t":1.6,"lat":29.6575,"lon":-21.8051,"largura_km":68.499,"eixo_na_terra":true},{"t":1.60556,"lat":29.8642,"lon":-21.309,"largura_km":67.939,"eixo_na_terra":true},{"t":1.61111,"lat":30.0771,"lon":-20.7933,"largura_km":67.36,"eixo_na_terra":true},{"t":1.61667,"lat":30.2969,"lon":-20.2562,"largura_km":66.76,"eixo_na_terra":true},{"t":1.62222,"lat":30.5244,"lon":-19.6951,"largura_km":66.135,"eixo_na_terra":true},{"t":1.62778,"lat":30.7605,"lon":-19.107,"largura_km":65.482,"eixo_na_terra":true},{"t":1.63333,"lat":31.0062,"lon":-18.4885,"largura_km":64.799,"eixo_na_terra":true},{"t":1.63889,"lat":31.263,"lon":-17.8351,"largura_km":64.079,"eixo_na_terra":true},{"t":1.64444,"lat":31.5325,"lon":-17.1411,"largura_km":63.315,"eixo_na_terra":true},{"t":1.65,"lat":31.8169,"lon":-16.3994,"largura_km":62.499,"eixo_na_terra":true},{"t":1.65556,"lat":32.1193,"lon":-15.6002,"largura_km":61.617,"eixo_na_terra":true},{"t":1.66111,"lat":32.4436,"lon":-14.73,"largura_km":60.645,"eixo_na_terra":true},{"t":1.66667,"lat":32.7959,"lon":-13.7693,"largura_km":59.541,"eixo_na_terra":true},{"t":1.67222,"lat":33.1855,"lon":-12.6872,"largura_km":58.189,"eixo_na_terra":true},{"t":1.67778,"lat":33.6827,"lon":-11.2739,"largura_km":null,"eixo_na_terra":false},{"t":1.68333,"lat":34.2791,"lon":-9.5318,"largura_km":null,"eixo_na_terra":false},{"t":1.68889,"lat":34.9701,"lon":-7.407,"largura_km":null,"eixo_na_terra":false},{"t":1.69444,"lat":35.2718,"lon":-6.3607,"largura_km":null,"eixo_na_terra":false},{"t":1.7,"lat":35.7952,"lon":-4.5863,"largura_km":null,"eixo_na_terra":false}]},"features":[{"type":"Feature","properties":{},"geometry":{"type":"Polygon","coordinates":[[[-31.511999716695755,25.67300266726102],[-30.70206792336907,26.05878885270411],[-29.840745598568475,26.46425634877633],[-28.946980283455474,26.879576097020028],[-28.002876302956935,27.31230019689634],[-27.000900793856317,27.764773674276874],[-26.296164973144386,28.078821511334095],[-25.1752147383381,28.571184669143502],[-24.37893668584823,28.915595017093203],[-23.537022806018598,29.274919566644684],[-22.642367526113986,29.65133057444697],[-21.685860459081795,30.047604538306285],[-20.655495231343025,30.467388986222957],[-20.089459690620515,30.69497657652931],[-19.516033466682416,30.923211534415024],[-18.91431061348723,31.16029533034133],[-18.280408280439502,31.40739717267707],[-17.609478989243286,31.665974329883852],[-16.895338318138215,31.9378828968434],[-16.12988468820666,32.225550282118355],[-15.302148924734524,32.532257542644224],[-14.396636148081484,32.86263156171487],[-13.419596399860751,33.21296073118998],[-12.278303956107493,33.61458913169464],[-12.385754606927733,33.500656762364876],[-12.24100232415742,33.566294085703866],[-12.043090494122367,33.652365455791276],[-11.834517242386625,33.73917134474171],[-11.690420827984212,33.797061329467326],[-11.542951583773487,33.85468932803247],[-11.316771558356265,33.940109899351384],[-11.163627374407156,33.9960166895781],[-10.932138293990988,34.077689585975484],[-10.700792907418816,34.15597144974706],[-10.472315722131555,34.229985670021776],[-10.249604376333224,34.298842511504425],[-10.067878723689592,34.352374699161714],[-9.81049744755677,34.44624005575712],[-9.523729132536232,34.54721629078005],[-9.328303438356414,34.6140301879532],[-9.030636887471502,34.71287118576712],[-8.830368931475249,34.77745984028384],[-8.529519229002375,34.871677849930244],[-8.231242683812354,34.96177290876122],[-8.010915181851809,35.026112634453355],[-7.70816254927297,35.13002053694244],[-7.418210763548188,35.227276412311696],[-6.77890571848576,35.43523556707424],[-6.230585553413306,35.607820214384255],[-5.815992430895875,35.73554847400641],[-5.060729188132484,35.963772297778846],[-4.331322304978954,36.18077451004614],[-4.239760449549062,35.957337037749674],[-4.157087991600548,35.98459579007153],[-4.228810056459022,35.930614903939656],[-4.193088769375379,35.843444607360674],[-4.323557995064548,35.80093146911292],[-4.279076455256757,35.72128455074597],[-5.165034990449556,35.442946072542036],[-6.704551512813254,34.95518732798309],[-7.145486419407575,34.81824151447014],[-7.435760601904793,34.73014367260681],[-8.269331931951314,34.438562704181855],[-8.824939628738832,34.24908062494272],[-9.30878728611546,34.090317688389334],[-9.685347932113118,33.97349003224391],[-10.128117650525809,33.808560867689636],[-10.545344692882992,33.65924852263557],[-10.926002468570204,33.53009758703215],[-11.066670194347836,33.48463782747529],[-11.26318874519104,33.423796707904145],[-11.528493093837369,33.32019545876792],[-11.742055503640557,33.23956092354054],[-12.015071612624553,33.14057863273151],[-12.208895601316073,33.07360658593846],[-12.44990161450039,32.99509186599491],[-12.668085869663258,32.929931918184174],[-12.860634455707157,32.87901431770172],[-13.0016464746129,32.847612604878144],[-13.092510601722182,32.7512673039459],[-14.147471996389385,32.362701784113554],[-15.065622988187556,32.018543570661],[-15.902246713251287,31.70001048215367],[-16.67408403674719,31.40193494617545],[-17.392853023369042,31.12069367511523],[-18.067134059526296,30.853629093335254],[-18.703432650448093,30.59872289985332],[-19.30681991835067,30.354399190950346],[-19.881339380096335,30.11939933005838],[-20.956343533383176,29.6734510957284],[-21.461810466834834,29.460945678714342],[-22.402332115243013,29.060636152039987],[-23.29688755259599,28.674104228170833],[-24.13805453636553,28.305426187592396],[-24.93311193131393,27.952302564537398],[-25.687849474044754,27.61289873830769],[-26.40696142807215,27.285722751027212],[-27.09431586498755,26.969541604600725],[-27.75314445657,26.663322178880954],[-28.681296312937633,26.22662760287968],[-29.571781947853765,25.80200193166473],[-30.417861916396078,25.393424819311697],[-31.22457229499068,24.999263569486484],[-31.996098693088015,24.618156050569148],[-32.032225909927206,25.422898481002225],[-31.511999716695755,25.67300266726102]]]}}]}