{"type":"FeatureCollection","features":[{"type":"Feature","properties":{"t_inicio":1.433333333333314,"t_fim":1.6888888888888687},"geometry":{"type":"LineString","coordinates":[[-32.01065282032715,25.022896441125198],[-31.75477457592163,25.147925329179504],[-31.49519815133044,25.274314467341355],[-31.231790511872845,25.402106592793615],[-30.964410905483277,25.531346867304034],[-30.692910223831603,25.66208307530506],[-30.417130293967944,25.794365843356573],[-30.136903091039414,25.928248883886816],[-29.852049861067,26.0637892665835],[-29.562380140910562,26.20104772137377],[-29.267690660314173,26.34008897761494],[-28.967764108230398,26.480982144938313],[-28.662367742358015,26.62380114218379],[-28.35125181685214,26.76862518207466],[-28.034147798301717,26.91553932076278],[-27.710766334076936,27.064635083199164],[-27.38079492973347,27.216011177542022],[-27.043895282914235,27.36977431462697],[-26.699700209591157,27.52604015205085],[-26.3478100838349,27.684934386875828],[-25.987788693642756,27.846594026629152],[-25.619158391408178,28.011168875547707],[-25.241394386615497,28.178823282428244],[-24.853917987835814,28.349738208737804],[-24.456088547644185,28.52411369185607],[-24.047193792768127,28.70217179994563],[-23.626438125543956,28.884160204117137],[-23.19292835124108,29.070356533406557],[-22.745656103599543,29.261073733271505],[-22.28347598465794,29.456666725901428],[-21.805078068552376,29.65754078152293],[-21.308952885534666,29.86416217125385],[-20.79334621005566,30.07707191167803],[-20.256199772978164,30.296903775184568],[-19.69507214262802,30.524408306753095],[-19.107031013410875,30.760485495757322],[-18.488503163386582,31.00623025403763],[-17.83505978625817,31.26299743351138],[-17.141099539469792,31.532497751171952],[-16.399362599717875,31.81694474894976],[-15.600150566467079,32.11929053332408],[-14.730000110599235,32.44362628503086],[-13.769254591982246,32.79591498068607],[-12.687152981550497,33.18547207558603],[-11.430381144829056,33.62841454412566],[-9.889664898445318,34.15771677576898],[-7.748687518421406,34.86864693343291]]}}]}