{"type":"FeatureCollection","features":[{"type":"Feature","properties":{"magnitude":0.2,"percentagem":20.0,"territorio":"continente"},"geometry":{"type":"LineString","coordinates":[[-5.540000000000106,42.83009000644924],[-5.549927056304284,42.839999999999854],[-5.54994019690805,42.87999999999985],[-5.549953366281311,42.919999999999845],[-5.580000000000104,42.95004663371864],[-5.589970553894913,42.95999999999985]]}},{"type":"Feature","properties":{"magnitude":0.4,"percentagem":40.0,"territorio":"continente"},"geometry":{"type":"LineString","coordinates":[[-5.540000000000106,42.82018001289863],[-5.559854112608463,42.83999999999986],[-5.559880393815995,42.87999999999985],[-5.559906732562518,42.91999999999985],[-5.580000000000105,42.94009326743744],[-5.59994110778972,42.95999999999985]]}},{"type":"Feature","properties":{"magnitude":0.6,"percentagem":60.0,"territorio":"continente"},"geometry":{"type":"LineString","coordinates":[[-5.540000000000106,42.810270019348025],[-5.569781168912641,42.839999999999854],[-5.569820590723941,42.87999999999985],[-5.569860098843725,42.91999999999985],[-5.580000000000105,42.93013990115623],[-5.609911661684528,42.95999999999985]]}},{"type":"Feature","properties":{"magnitude":0.8,"percentagem":80.0,"territorio":"continente"},"geometry":{"type":"LineString","coordinates":[[-5.540000000000106,42.80036002579742],[-5.5797082252168195,42.839999999999854],[-5.579760787631885,42.87999999999985],[-5.57981346512493,42.91999999999985],[-5.580000000000105,42.92018653487503],[-5.619882215579335,42.95999999999985]]}},{"type":"Feature","properties":{"magnitude":0.8,"percentagem":80.0,"territorio":"continente"},"geometry":{"type":"LineString","coordinates":[[-5.9135895613470275,42.95999999999985],[-5.940000000000097,42.951983964365965],[-5.980000000000096,42.939833276683856],[-6.0200000000000955,42.927671899438565],[-6.045213060150033,42.91999999999985],[-6.0600000000000955,42.91550190941992],[-6.100000000000094,42.90332477653628],[-6.140000000000093,42.8911369350928],[-6.176519394227283,42.87999999999985],[-6.180000000000092,42.878938867107834],[-6.220000000000091,42.866735240735196],[-6.26000000000009,42.85452088676187],[-6.3000000000000895,42.84229579512033],[-6.307506194495009,42.83999999999986],[-6.340000000000089,42.83006456327739],[-6.380000000000088,42.81782364834953],[-6.420000000000087,42.80557197664514],[-6.438177457365265,42.799999999999855],[-6.460000000000086,42.79331263786929],[-6.500000000000085,42.78104511346992],[-6.540000000000084,42.768766813141816],[-6.568536688525851,42.759999999999856],[-6.580000000000084,42.75647935792951],[-6.620000000000083,42.74418517545004],[-6.660000000000082,42.73188019784596],[-6.698585514114309,42.71999999999986],[-6.700000000000081,42.71956461659141],[-6.74000000000008,42.70724372733241],[-6.780000000000079,42.69491202370943],[-6.820000000000078,42.68256949554606],[-6.828321128633544,42.67999999999986],[-6.860000000000078,42.67022066187772],[-6.900000000000077,42.65786218340301],[-6.940000000000076,42.6454928610819],[-6.957748993008041,42.63999999999986],[-6.980000000000075,42.633115871567604],[-7.020000000000074,42.62073056931925],[-7.060000000000073,42.608334403875375],[-7.086871455841539,42.59999999999986],[-7.1000000000000725,42.5959292486074],[-7.140000000000072,42.58351707357515],[-7.180000000000071,42.57109401595537],[-7.215690103477115,42.55999999999986],[-7.22000000000007,42.55866068492895],[-7.260000000000069,42.546221588015044],[-7.300000000000068,42.53377158907896],[-7.340000000000067,42.52131067783575],[-7.344204299681388,42.51999999999986],[-7.3800000000000665,42.508844004213586],[-7.420000000000066,42.49636701473434],[-7.460000000000065,42.483879093447605],[-7.472415730078474,42.47999999999986],[-7.500000000000064,42.47138421347863],[-7.540000000000063,42.45888018414377],[-7.580000000000062,42.446365203458896],[-7.600328223983313,42.43999999999987],[-7.6200000000000605,42.43384210685437],[-7.6600000000000605,42.421310988266754],[-7.70000000000006,42.40876889874458],[-7.727943329074313,42.399999999999864],[-7.740000000000059,42.396217575124304],[-7.780000000000058,42.38365931780294],[-7.820000000000057,42.37109006992081],[-7.855262583980432,42.359999999999864],[-7.860000000000056,42.3585105088144],[-7.900000000000055,42.34592506319548],[-7.940000000000055,42.33332860734808],[-7.980000000000054,42.320721130856],[-7.982286328824276,42.319999999999865],[-8.020000000000053,42.30810811463415],[-8.060000000000052,42.29548440113445],[-8.100000000000051,42.282849647258075],[-8.109014972875283,42.279999999999866],[-8.14000000000005,42.27020836205869],[-8.18000000000005,42.25755734113896],[-8.220000000000049,42.24489526006962],[-8.235452495082345,42.23999999999987],[-8.260000000000048,42.232225695162164],[-8.300000000000047,42.21954731697491],[-8.340000000000046,42.206857858824435],[-8.361600396741718,42.19999999999987],[-8.380000000000045,42.19416000339428],[-8.420000000000044,42.18145421801333],[-8.460000000000043,42.16873733281514],[-8.487460170411584,42.15999999999987],[-8.500000000000043,42.15601117596506],[-8.540000000000042,42.143277933386486],[-8.580000000000041,42.130533571096606],[-8.613033299969931,42.11999999999987],[-8.62000000000004,42.11777910184824],[-8.66000000000004,42.10501835199152],[-8.700000000000038,42.092246462489534],[-8.738321260672206,42.07999999999986],[-8.740000000000038,42.079463669784865],[-8.780000000000037,42.06667536249391],[-8.820000000000036,42.05387589558422],[-8.860000000000035,42.04106525846384],[-8.86332381811454,42.03999999999987],[-8.900000000000034,42.02824885333145],[-8.940000000000033,42.01542175874422],[-8.980000000000032,42.002583473910946],[-8.988043426463213,41.99999999999987],[-9.020000000000032,41.98973871271774],[-9.06000000000003,41.97688394011017],[-9.10000000000003,41.96401795718228],[-9.11248239440429,41.95999999999987],[-9.140000000000029,41.95114482864627],[-9.180000000000028,41.93826232760365],[-9.220000000000027,41.92536859612788],[-9.236642161589796,41.919999999999874],[-9.260000000000026,41.912467088894225],[-9.300000000000026,41.89955680893113],[-9.340000000000025,41.88663527838385],[-9.360524159337272,41.87999999999987],[-9.380000000000024,41.87370538102648],[-9.420000000000023,41.860767271588],[-9.460000000000022,41.84781789137642],[-9.484129810683937,41.839999999999876],[-9.500000000000021,41.83485959239972],[-9.54000000000002,41.82189360286266],[-9.58000000000002,41.808916322326056],[-9.607460530439962,41.799999999999876],[-9.620000000000019,41.795929610166546],[-9.660000000000018,41.78293568984073],[-9.700000000000017,41.769930458251686],[-9.730517725241473,41.75999999999988],[-9.740000000000016,41.75691532127977],[-9.780000000000015,41.743893419409204],[-9.820000000000014,41.73086018597491],[-9.85330279360256,41.719999999999885],[-9.860000000000014,41.71781661249655],[-9.900000000000013,41.704766678260846],[-9.940000000000012,41.691705392124476],[-9.97581712596737,41.67999999999988],[-9.980000000000011,41.67863337038299],[-10.02000000000001,41.665555352898636],[-10.06000000000001,41.65246596314057],[-10.098062104760976,41.63999999999988],[-10.100000000000009,41.639365481318414],[-10.140000000000008,41.62625932964017],[-10.180000000000007,41.6131417852794],[-10.220000000000006,41.60001283738317],[-10.220039084953978,41.59999999999988],[-10.260000000000005,41.586878494622226],[-10.300000000000004,41.57373274461781],[-10.340000000000003,41.56057557061199],[-10.341748621793007,41.55999999999988],[-10.380000000000003,41.54741273380548],[-10.420000000000002,41.5342387270579],[-10.46,41.52105327580813],[-10.463193040287544,41.51999999999988],[-10.5,41.50786193297925]]}},{"type":"Feature","properties":{"magnitude":0.9,"percentagem":90.0,"territorio":"continente"},"geometry":{"type":"LineString","coordinates":[[-5.540000000000106,39.38474027722572],[-5.580000000000105,39.372567149913706],[-5.620000000000104,39.36038347964747],[-5.621258086024279,39.35999999999993],[-5.660000000000103,39.348193743502705],[-5.700000000000102,39.335993600667024],[-5.7400000000001015,39.32378289630155],[-5.752382613408557,39.31999999999993],[-5.7800000000001015,39.311564824542295],[-5.8200000000001,39.299337617185664],[-5.860000000000099,39.287099829683235],[-5.883187636375816,39.27999999999993],[-5.900000000000098,39.27485340608469],[-5.940000000000097,39.262599085120335],[-5.980000000000096,39.25033416535385],[-6.013674832388563,39.23999999999993],[-6.0200000000000955,39.23805937358131],[-6.060000000000095,39.22577788983366],[-6.100000000000094,39.21348578858749],[-6.140000000000093,39.20118306051173],[-6.14384369460826,39.19999999999993],[-6.180000000000092,39.188873916403104],[-6.220000000000091,39.17655458437396],[-6.26000000000009,39.164224606758026],[-6.273694672082838,39.15999999999993],[-6.3000000000000895,39.151887049623866],[-6.340000000000089,39.13954043742157],[-6.380000000000088,39.12718316083574],[-6.403232994208441,39.11999999999993],[-6.420000000000087,39.11481717401182],[-6.460000000000086,39.10244323216028],[-6.500000000000085,39.09005860708906],[-6.532460297499691,39.079999999999934],[-6.540000000000084,39.07766417380658],[-6.580000000000084,39.0652628527446],[-6.620000000000083,39.052850829587676],[-6.660000000000082,39.04042809490804],[-6.6613774364310085,39.039999999999935],[-6.700000000000081,39.027999183056735],[-6.74000000000008,39.01555971212991],[-6.780000000000079,39.00310951074546],[-6.789982758620572,38.999999999999936],[-6.820000000000078,38.9906521067098],[-6.860000000000078,38.97818513824585],[-6.900000000000077,38.9657074203508],[-6.91828210447604,38.95999999999994],[-6.940000000000076,38.953221507050955],[-6.980000000000075,38.94072699120068],[-7.020000000000074,38.9282217069075],[-7.046277070742319,38.91999999999994],[-7.060000000000073,38.91570726716474],[-7.1000000000000725,38.9031851539979],[-7.140000000000072,38.89065225333829],[-7.173969244868712,38.87999999999994],[-7.180000000000071,38.878109269876404],[-7.22000000000007,38.86555950938275],[-7.260000000000069,38.852998942308666],[-7.300000000000068,38.840427559109884],[-7.301359450915963,38.83999999999994],[-7.340000000000067,38.82784993984563],[-7.3800000000000665,38.815261656230284],[-7.420000000000066,38.802662537344574],[-7.428446843968903,38.79999999999994],[-7.460000000000065,38.79005632762557],[-7.500000000000064,38.77744027726452],[-7.540000000000063,38.76481337245027],[-7.555236332583593,38.75999999999994],[-7.580000000000062,38.75217855471393],[-7.620000000000061,38.739534687326085],[-7.6600000000000605,38.72687994626538],[-7.681729465827779,38.71999999999994],[-7.70000000000006,38.7142165028578],[-7.740000000000059,38.70154476808665],[-7.780000000000058,38.68886214038636],[-7.8079277837972825,38.67999999999995],[-7.820000000000057,38.676170053563986],[-7.860000000000056,38.66347040097859],[-7.900000000000055,38.650759836171524],[-7.933832817676311,38.639999999999944],[-7.940000000000055,38.638039088102595],[-7.980000000000054,38.62531146719877],[-8.020000000000053,38.61257291474483],[-8.059446089797165,38.599999999999945],[-8.060000000000052,38.59982348751095],[-8.100000000000051,38.58706784771245],[-8.14000000000005,38.57430125699977],[-8.18000000000005,38.56152370567324],[-8.184766509221902,38.559999999999945],[-8.220000000000049,38.548739423257246],[-8.260000000000048,38.53594474360342],[-8.300000000000047,38.52313908391637],[-8.309798051484123,38.519999999999946],[-8.340000000000046,38.5103260743471],[-8.380000000000045,38.49750325500041],[-8.420000000000044,38.484669436166236],[-8.434542514066067,38.47999999999995],[-8.460000000000043,38.4718276812764],[-8.500000000000043,38.458976671417034],[-8.540000000000042,38.44611464258143],[-8.559001382718876,38.43999999999995],[-8.580000000000041,38.43324412412417],[-8.62000000000004,38.420364872865534],[-8.66000000000004,38.40747458310774],[-8.683176134641336,38.39999999999995],[-8.700000000000038,38.39457528275835],[-8.740000000000038,38.38166773914833],[-8.780000000000037,38.36874913748245],[-8.807068238535795,38.35999999999995],[-8.820000000000036,38.355821036840084],[-8.860000000000035,38.34288514986237],[-8.900000000000034,38.329938185238696],[-8.93067915466344,38.31999999999995],[-8.940000000000033,38.31698126582806],[-8.980000000000032,38.304016984403574],[-9.020000000000032,38.291041605709985],[-9.054010334899523,38.27999999999996],[-9.06000000000003,38.27805584898326],[-9.10000000000003,38.26506312197138],[-9.140000000000029,38.25205927803468],[-9.177063222786868,38.23999999999996],[-9.180000000000028,38.23904466537316],[-9.220000000000027,38.22602344157334],[-9.260000000000026,38.21299108116066],[-9.29983925359042,38.19999999999995],[-9.300000000000026,38.19994759387679],[-9.340000000000025,38.18689782202979],[-9.380000000000024,38.173836893850115],[-9.420000000000023,38.16076479942837],[-9.422338604201691,38.159999999999954],[-9.460000000000022,38.14768614197864],[-9.500000000000021,38.13459659468419],[-9.54000000000002,38.1214958613773],[-9.544564009377963,38.119999999999955],[-9.58000000000002,38.10838827988023],[-9.620000000000019,38.09527006206802],[-9.660000000000018,38.08214063844214],[-9.666516964253615,38.079999999999956],[-9.700000000000017,38.06900411402228],[-9.740000000000016,38.055857174235605],[-9.780000000000015,38.04269900880358],[-9.788198869833103,38.03999999999996],[-9.820000000000014,38.02953352252493],[-9.860000000000014,38.01635780925498],[-9.900000000000013,38.003170850478014],[-9.90961111911049,37.99999999999996],[-9.940000000000012,37.989976383345926],[-9.980000000000011,37.97677184503327],[-10.02000000000001,37.96355604132246],[-10.030755097118895,37.95999999999996],[-10.06000000000001,37.950332574285746],[-10.100000000000009,37.937099159322074],[-10.140000000000008,37.92385445904003],[-10.151632180980354,37.91999999999996],[-10.180000000000007,37.91060197299298],[-10.220000000000006,37.897339629722666],[-10.260000000000005,37.8840659811852],[-10.27224373995465,37.87999999999996],[-10.300000000000004,37.87078445696971],[-10.340000000000003,37.857493133691534],[-10.380000000000003,37.84419048516935],[-10.392591135487837,37.83999999999996],[-10.420000000000002,37.8308799035771],[-10.46,37.817559548545944],[-10.5,37.80422784826633]]}},{"type":"Feature","properties":{"magnitude":0.95,"percentagem":95.0,"territorio":"continente"},"geometry":{"type":"LineString","coordinates":[[-5.540000000000106,37.58965255963734],[-5.580000000000105,37.577421313691154],[-5.620000000000104,37.56517954513615],[-5.636910977878511,37.55999999999997],[-5.660000000000103,37.552929663766925],[-5.700000000000102,37.54067102056652],[-5.7400000000001015,37.528401836277155],[-5.767369337438328,37.51999999999997],[-5.780000000000101,37.51612342719368],[-5.8200000000001,37.50383733716458],[-5.860000000000099,37.49154068752817],[-5.897509004551097,37.47999999999997],[-5.900000000000098,37.47923373107344],[-5.940000000000097,37.46692014455545],[-5.980000000000096,37.45459597987379],[-6.0200000000000955,37.44226122801291],[-6.027327411883267,37.43999999999997],[-6.060000000000095,37.42991932352888],[-6.100000000000094,37.41756759401916],[-6.140000000000093,37.40520525871638],[-6.156829232526324,37.39999999999997],[-6.180000000000092,37.3928347545973],[-6.220000000000091,37.38045541039306],[-6.26000000000009,37.36806544174447],[-6.286017568672102,37.35999999999997],[-6.3000000000000895,37.355666317999116],[-6.340000000000089,37.343259309151165],[-6.380000000000088,37.33084165717041],[-6.414894067538475,37.31999999999997],[-6.420000000000087,37.31841389370182],[-6.460000000000086,37.305979170179285],[-6.500000000000085,37.29353378479852],[-6.540000000000084,37.28107772845304],[-6.543458379706865,37.27999999999997],[-6.580000000000084,37.26861487309666],[-6.620000000000083,37.25614170416759],[-6.660000000000082,37.243657845492244],[-6.671711378485931,37.239999999999974],[-6.700000000000081,37.23116629725939],[-6.74000000000008,37.21866529455431],[-6.780000000000079,37.20615358328503],[-6.799657618133098,37.199999999999974],[-6.820000000000078,37.193633321763954],[-6.860000000000078,37.18110443497673],[-6.900000000000077,37.168564820771394],[-6.9272987059060664,37.15999999999998],[-6.940000000000075,37.15601582545065],[-6.980000000000076,37.143459004197844],[-7.020000000000074,37.13089143663727],[-7.054636239726967,37.119999999999976],[-7.060000000000073,37.118313686907214],[-7.1000000000000725,37.105728880729174],[-7.140000000000072,37.09313330931825],[-7.180000000000071,37.08052696345866],[-7.1816708583029225,37.07999999999998],[-7.22000000000007,37.06791394283448],[-7.260000000000069,37.05529031700331],[-7.300000000000068,37.04265589774405],[-7.308402223302469,37.03999999999998],[-7.340000000000067,37.030014068533546],[-7.3800000000000665,37.017362337638566],[-7.420000000000066,37.00469979430134],[-7.434834956881066,36.99999999999998],[-7.460000000000065,36.992029135606],[-7.500000000000064,36.97934924893114],[-7.540000000000063,36.966658530765436],[-7.560970618396404,36.95999999999998],[-7.580000000000062,36.9539590215952],[-7.620000000000061,36.941250928353085],[-7.6600000000000605,36.92853198453749],[-7.686810758196035,36.91999999999998],[-7.70000000000006,36.915803603812236],[-7.740000000000059,36.90306725314541],[-7.780000000000058,36.89032003278872],[-7.812356917677613,36.87999999999998],[-7.820000000000057,36.87756275933997],[-7.860000000000056,36.864798100322155],[-7.900000000000055,36.8520225524647],[-7.937610629349476,36.83999999999998],[-7.940000000000055,36.83923636503726],[-7.980000000000053,36.82644334667455],[-8.020000000000053,36.813639420289434],[-8.060000000000052,36.80082457652097],[-8.062571975955146,36.79999999999998],[-8.100000000000051,36.78800286877525],[-8.14000000000005,36.77517051276962],[-8.18000000000005,36.76232722014655],[-8.187242745637214,36.759999999999984],[-8.220000000000049,36.74947654298266],[-8.260000000000048,36.7366157061991],[-8.300000000000047,36.72374391353179],[-8.311625783354112,36.719999999999985],[-8.340000000000046,36.710864245445286],[-8.380000000000045,36.69797487666313],[-8.420000000000044,36.68507453269912],[-8.435722584858636,36.679999999999986],[-8.460000000000043,36.67216585210631],[-8.500000000000043,36.65924790004303],[-8.540000000000042,36.64631895346834],[-8.559534637314528,36.639999999999986],[-8.580000000000041,36.63338123870809],[-8.62000000000004,36.62043465202068],[-8.66000000000004,36.607477051461295],[-8.683063419352681,36.59999999999999],[-8.700000000000038,36.594510280796754],[-8.740000000000038,36.58153500808319],[-8.780000000000037,36.568548702106504],[-8.806310401126769,36.55999999999999],[-8.820000000000036,36.55555285372706],[-8.860000000000035,36.54254884352778],[-8.900000000000034,36.529533780644016],[-8.92927704436833,36.51999999999999],[-8.940000000000033,36.51650883266713],[-8.980000000000032,36.503476033466455],[-9.020000000000032,36.49043216213019],[-9.051964802440764,36.47999999999999],[-9.06000000000003,36.47737809260333],[-9.10000000000003,36.46431645283105],[-9.140000000000029,36.45124372144278],[-9.174375120393808,36.43999999999999],[-9.180000000000028,36.43816050834542],[-9.220000000000027,36.42506997637829],[-9.260000000000026,36.411968333285884],[-9.29650943501581,36.39999999999999],[-9.300000000000026,36.398855954531356],[-9.340000000000025,36.38573647869476],[-9.380000000000024,36.37260587219517],[-9.418369174887324,36.35999999999999],[-9.420000000000023,36.35946430563281],[-9.460000000000022,36.34631583420227],[-9.500000000000021,36.33315621254308],[-9.539955760432568,36.31999999999999],[-9.540000000000022,36.31998543596021],[-9.58000000000002,36.306807917163056],[-9.620000000000019,36.293619228544145],[-9.660000000000018,36.28041936049563],[-9.661269911813507,36.279999999999994],[-9.700000000000017,36.267212601685266],[-9.740000000000016,36.25399479426046],[-9.780000000000015,36.24076578776871],[-9.782313851268258,36.239999999999995],[-9.820000000000014,36.227529761728334],[-9.860000000000014,36.21428278360719],[-9.900000000000013,36.201024586755395],[-9.903088997529753,36.199999999999996],[-9.940000000000012,36.1877592711087],[-9.980000000000011,36.17448307035821],[-10.02000000000001,36.16119563118746],[-10.023596737235016,36.16],[-10.06000000000001,36.14790100350547],[-10.100000000000009,36.13459552815177],[-10.140000000000008,36.12127879466295],[-10.143838449124347,36.12],[-10.180000000000007,36.10795483246616],[-10.220000000000006,36.09462003049646],[-10.260000000000005,36.08127395065197],[-10.263815504089816,36.08],[-10.300000000000004,36.067920631412626],[-10.340000000000003,36.054556450777],[-10.380000000000003,36.041180972502644],[-10.383529265223135,36.04],[-10.420000000000002,36.02779827364713],[-10.46,36.01440466226033],[-10.5,36.0009997334472]]}},{"type":"Feature","properties":{"magnitude":0.99,"percentagem":99.0,"territorio":"continente"},"geometry":{"type":"LineString","coordinates":[[-5.540000000000106,36.17331424286308],[-5.580000000000105,36.161032662873055],[-5.583360817299102,36.16],[-5.620000000000104,36.14874409557881],[-5.660000000000103,36.13644533205365],[-5.700000000000102,36.12413603982514],[-5.713430064485831,36.12],[-5.7400000000001015,36.111818775208725],[-5.780000000000101,36.09949226782307],[-5.8200000000001,36.08715521328885],[-5.84318055535348,36.08],[-5.860000000000099,36.074809229084],[-5.900000000000098,36.06245492772449],[-5.940000000000097,36.05009006073509],[-5.972613973933613,36.04],[-5.980000000000096,36.03771533456529],[-6.0200000000000955,36.02533318903701],[-6.060000000000095,36.01294045936164],[-6.100000000000094,36.000537136722464],[-6.10173097628219,36.0]]}},{"type":"Feature","properties":{"magnitude":0.8,"percentagem":80.0,"territorio":"acores"},"geometry":{"type":"LineString","coordinates":[[-24.04000000000017,36.47238727637021],[-24.08000000000017,36.45576210050496],[-24.11789294718895,36.43999999999999],[-24.120000000000168,36.439123711935714],[-24.160000000000167,36.42247852267279],[-24.200000000000166,36.40581973683408],[-24.213964728499157,36.39999999999999],[-24.240000000000165,36.38915201757057],[-24.280000000000165,36.372473200353056],[-24.30989127113496,36.35999999999999],[-24.320000000000164,36.35578258505087],[-24.360000000000163,36.33908372488323],[-24.400000000000162,36.32237124484334],[-24.405671921112354,36.31999999999999],[-24.44000000000016,36.30565131071106],[-24.48000000000016,36.2889187703268],[-24.501305791734385,36.279999999999994],[-24.52000000000016,36.272175958396446],[-24.56000000000016,36.25542334650913],[-24.59679686754893,36.239999999999995],[-24.600000000000158,36.23865766877691],[-24.640000000000157,36.221884974399615],[-24.680000000000156,36.205098631480425],[-24.692141619144245,36.199999999999996],[-24.720000000000155,36.188303655291335],[-24.760000000000154,36.171497213347614],[-24.787343664801114,36.16],[-24.800000000000153,36.154679390765544],[-24.840000000000153,36.13785283924115],[-24.88000000000015,36.121012616945],[-24.88240382357417,36.12],[-24.92000000000015,36.10416551121381],[-24.96000000000015,36.087305163435694],[-24.97731929141655,36.08],[-25.00000000000015,36.07043523161724],[-25.04000000000015,36.05355474824523],[-25.072094829104117,36.04],[-25.080000000000148,36.03666200310629],[-25.120000000000147,36.01976137421305],[-25.160000000000146,36.00284704746382],[-25.166728761821787,36.0]]}},{"type":"Feature","properties":{"magnitude":0.95,"percentagem":95.0,"territorio":"madeira"},"geometry":{"type":"LineString","coordinates":[[-17.0158708599976,29.5],[-17.00000000000002,29.50625209098982],[-16.960000000000022,29.52199838541584],[-16.920000000000023,29.537732069709154],[-16.9142303613916,29.54],[-16.880000000000024,29.553456394891015],[-16.840000000000025,29.569168666331215],[-16.812405031235414,29.58],[-16.800000000000026,29.584869521232925],[-16.760000000000026,29.600560400597118],[-16.720000000000027,29.616238698291433],[-16.710397246150325,29.619999999999997],[-16.680000000000028,29.631907297652248],[-16.64000000000003,29.647564233677294],[-16.608204885619678,29.659999999999997],[-16.60000000000003,29.663209382741545],[-16.56000000000003,29.678844978067417],[-16.52000000000003,29.694468020370266],[-16.50582640929259,29.699999999999996],[-16.480000000000032,29.710080956880056],[-16.440000000000033,29.72568268916029],[-16.403263978542924,29.739999999999995],[-16.400000000000034,29.741272195626394],[-16.360000000000035,29.75685263903904],[-16.320000000000036,29.772420558250403],[-16.30051137650694,29.779999999999994],[-16.280000000000037,29.78797789568121],[-16.240000000000038,29.803524556959747],[-16.20000000000004,29.819058713276505],[-16.197574617414393,29.819999999999993],[-16.16000000000004,29.83458390952586],[-16.12000000000004,29.850096838990225],[-16.094445621404624,29.859999999999992],[-16.08000000000004,29.865598641864036],[-16.040000000000042,29.881090365909245],[-16.000000000000043,29.896569614067168],[-15.991129448594409,29.89999999999999],[-15.960000000000043,29.9120393200973],[-15.920000000000044,29.927497394156774],[-15.88762256502513,29.93999999999999],[-15.880000000000045,29.942943727694658],[-15.840000000000046,29.95838064925384],[-15.800000000000047,29.97380512415274],[-15.783923466419775,29.97999999999999],[-15.760000000000048,29.98921940563799],[-15.720000000000049,30.004622759586663],[-15.68003557533118,30.01999999999999],[-15.680000000000051,30.0200136896593],[-15.64000000000005,30.035395944413494],[-15.600000000000051,30.05076578187865],[-15.575950008220172,30.059999999999988],[-15.560000000000052,30.06612470511377],[-15.520000000000053,30.081473475153253],[-15.480000000000054,30.09680984742568],[-15.47167379769204,30.099999999999987],[-15.440000000000055,30.112136792752548],[-15.400000000000055,30.12745212949084],[-15.367202357456682,30.13999999999999],[-15.360000000000056,30.142755761343427],[-15.320000000000057,30.158050084539376],[-15.280000000000058,30.173332039545098],[-15.262534218325365,30.179999999999986],[-15.240000000000059,30.188603739354782],[-15.20000000000006,30.20386471291206],[-15.16000000000006,30.219113337903707],[-15.157672570099498,30.219999999999985],[-15.120000000000061,30.234353135016054],[-15.080000000000062,30.249580810766425],[-15.052610052695098,30.259999999999984],[-15.040000000000063,30.264797332804424]]}},{"type":"Feature","properties":{"magnitude":0.95,"percentagem":95.0,"territorio":"madeira"},"geometry":{"type":"LineString","coordinates":[[-16.7583728509786,33.77999999999991],[-16.760000000000026,33.77939002409403],[-16.800000000000026,33.76438523983636],[-16.840000000000025,33.749368118140126],[-16.864934306198965,33.73999999999991],[-16.880000000000024,33.73434047571947],[-16.920000000000023,33.71930350725842],[-16.960000000000022,33.70425418161465],[-16.97129943716645,33.69999999999991],[-17.00000000000002,33.68919597467709],[-17.04000000000002,33.674126772301754],[-17.077468036691055,33.65999999999991],[-17.08000000000002,33.65904550066484],[-17.12000000000002,33.64395640119172],[-17.160000000000018,33.628854915335275],[-17.18343688996456,33.61999999999991],[-17.200000000000017,33.61374304866729],[-17.240000000000016,33.59862163594457],[-17.280000000000015,33.58348781718908],[-17.28921229685711,33.57999999999991],[-17.320000000000014,33.56834533535904],[-17.360000000000014,33.55319156008859],[-17.39479279531208,33.539999999999914],[-17.400000000000013,33.53802599414216],[-17.440000000000012,33.522852242223195],[-17.48000000000001,33.507666055264295],[-17.500177413702367,33.499999999999915],[-17.52000000000001,33.492469844283434],[-17.56000000000001,33.4772636512412],[-17.60000000000001,33.462045003615664],[-17.6053714199352,33.459999999999916],[-17.640000000000008,33.44681812792344],[-17.680000000000007,33.43157944490903],[-17.71037130791955,33.419999999999916],[-17.720000000000006,33.41632946620445],[-17.760000000000005,33.401070727917684],[-17.800000000000004,33.3857995062536],[-17.815179938971742,33.37999999999992],[-17.840000000000003,33.37051883367569],[-17.880000000000003,33.35522752766389],[-17.91980065712556,33.33999999999992],[-17.92,33.339923743293745],[-17.96,33.32461233321723],[-18.0,33.30928841111877]]}},{"type":"Feature","properties":{"magnitude":0.99,"percentagem":99.0,"territorio":"madeira"},"geometry":{"type":"LineString","coordinates":[[-18.0,30.52418861407725],[-17.960305785918848,30.539999999999978],[-17.96,30.540121815450032],[-17.92,30.556046432041022],[-17.880000000000003,30.571958272001467],[-17.85976973810959,30.579999999999977],[-17.840000000000003,30.587859432252216],[-17.800000000000004,30.603749962984693],[-17.760000000000005,30.619627736111855],[-17.759061576119628,30.619999999999976],[-17.720000000000006,30.635496878546657],[-17.680000000000007,30.651353371674418],[-17.658171914424244,30.659999999999975],[-17.640000000000008,30.66719904128934],[-17.60000000000001,30.683034274483557],[-17.56000000000001,30.698856778501447],[-17.557108007682505,30.699999999999974],[-17.52000000000001,30.714670467344103],[-17.48000000000001,30.73047174096045],[-17.455861949109078,30.739999999999974],[-17.440000000000012,30.746261973173496],[-17.400000000000013,30.76204203666245],[-17.360000000000014,30.77780939960227],[-17.354439017107037,30.779999999999973],[-17.320000000000014,30.793567688717385],[-17.280000000000015,30.809313871352877],[-17.25283361520819,30.819999999999972],[-17.240000000000016,30.825048720340888],[-17.200000000000017,30.840773743146084],[-17.160000000000018,30.85648609421806],[-17.151048348751562,30.85999999999997],[-17.12000000000002,30.872189038379958],[-17.08000000000002,30.887880259723637],[-17.049080635807435,30.89999999999997],[-17.04000000000002,30.903559780551497],[-17.00000000000002,30.919229892832668],[-16.960000000000022,30.934887362376],[-16.94692969677873,30.93999999999997],[-16.920000000000023,30.95053501721469],[-16.880000000000024,30.966171408064625],[-16.844596683577127,30.97999999999997],[-16.840000000000025,30.98179565663174],[-16.800000000000026,30.997410989637817],[-16.760000000000026,31.013013709071917],[-16.742076704692714,31.019999999999968],[-16.720000000000027,31.028606131020457],[-16.680000000000028,31.0441878232354],[-16.64000000000003,31.059756921462732],[-16.639375080452922,31.059999999999967],[-16.60000000000003,31.075317542244832],[-16.56000000000003,31.090865644021715],[-16.536482964866504,31.09999999999997],[-16.52000000000003,31.106402890264683],[-16.480000000000032,31.12193001671705],[-16.440000000000033,31.137444578593033],[-16.433407119041817,31.139999999999965],[-16.400000000000034,31.152950063861123],[-16.360000000000035,31.168443681419106],[-16.330142018060226,31.179999999999964],[-16.320000000000036,31.183925809842535],[-16.280000000000037,31.19939850437246],[-16.240000000000038,31.214858663885394],[-16.22668850717082,31.219999999999963],[-16.20000000000004,31.230309071980678],[-16.16000000000004,31.245748339699126],[-16.12304735292875,31.259999999999962],[-16.12000000000004,31.26117540884157],[-16.08000000000004,31.276593806212226],[-16.040000000000042,31.29199969826522],[-16.01921270342751,31.29999999999996],[-16.000000000000043,31.30739508815263],[-15.960000000000043,31.322780141307906],[-15.920000000000044,31.338152709001836],[-15.915190061007436,31.33999999999996],[-15.880000000000045,31.353516446166637],[-15.840000000000046,31.36886820653418],[-15.810973113523339,31.37999999999996],[-15.800000000000047,31.38420863775536],[-15.760000000000048,31.39953961247788],[-15.720000000000049,31.414858131636947],[-15.706563981827824,31.41999999999996],[-15.68000000000005,31.430166951863356],[-15.64000000000005,31.445464717149036],[-15.60196308977656,31.459999999999958],[-15.600000000000051,31.460750249776563],[-15.560000000000054,31.476027283008868],[-15.520000000000053,31.491291890695305],[-15.497163916696467,31.499999999999957],[-15.480000000000054,31.50654585441065],[-15.440000000000055,31.521789762005838],[-15.400000000000055,31.537021264068795],[-15.392172072689066,31.539999999999957],[-15.360000000000056,31.552243686054613],[-15.320000000000057,31.567454520094564],[-15.286983132966762,31.579999999999956],[-15.280000000000058,31.58265368818608],[-15.240000000000059,31.597843876229888],[-15.20000000000006,31.613021688926455],[-15.181595772075264,31.619999999999955],[-15.16000000000006,31.628189357914714],[-15.120000000000061,31.64334655685868],[-15.080000000000062,31.658491400549003],[-15.076012865048998,31.659999999999954],[-15.040000000000063,31.673627597970683]]}},{"type":"Feature","properties":{"magnitude":0.99,"percentagem":99.0,"territorio":"madeira"},"geometry":{"type":"LineString","coordinates":[[-15.040000000000063,32.98408664175735],[-15.051172038426373,32.979999999999926],[-15.080000000000062,32.96945640224973],[-15.120000000000061,32.954815334113235],[-15.16000000000006,32.94016221279795],[-15.1604425139103,32.93999999999993],[-15.20000000000006,32.92550134011722],[-15.240000000000059,32.91082845256475],[-15.269496605857988,32.89999999999993],[-15.280000000000058,32.896144637209794],[-15.320000000000057,32.88145196188519],[-15.360000000000056,32.86674720379632],[-15.378340325900492,32.85999999999993],[-15.400000000000055,32.85203271826236],[-15.440000000000055,32.837308141063524],[-15.480000000000054,32.82257146141634],[-15.486974961423607,32.81999999999993],[-15.520000000000051,32.80782628148167],[-15.560000000000052,32.79306975147019],[-15.59539929278793,32.77999999999993],[-15.60000000000005,32.778301602647275],[-15.64000000000005,32.763525200901434],[-15.68000000000005,32.748736667244515],[-15.70361311412849,32.73999999999993],[-15.720000000000049,32.733937787380206],[-15.760000000000048,32.71912935088585],[-15.800000000000047,32.70430876286057],[-15.811620940980596,32.69999999999993],[-15.840000000000046,32.689479128017496],[-15.880000000000045,32.67463860614328],[-15.919423532617127,32.65999999999993],[-15.920000000000044,32.65978597642188],[-15.960000000000043,32.644925499508176],[-16.000000000000043,32.63005284174005],[-16.027016404503375,32.61999999999993],[-16.040000000000042,32.61516942082283],[-16.08000000000004,32.60027677716876],[-16.12000000000004,32.58537193311447],[-16.134406325584028,32.579999999999934],[-16.16000000000004,32.570457697384285],[-16.20000000000004,32.55553283669752],[-16.240000000000038,32.54059575609122],[-16.24159432215622,32.539999999999935],[-16.280000000000037,32.52565068207113],[-16.320000000000036,32.51069355418894],[-16.348575846205932,32.49999999999994],[-16.360000000000035,32.49572544733192],[-16.400000000000034,32.48074825125441],[-16.440000000000033,32.465758806148294],[-16.4553566378325,32.45999999999994],[-16.480000000000032,32.45075982548607],[-16.52000000000003,32.43575028172615],[-16.56000000000003,32.42072846950666],[-16.56193848644538,32.41999999999994],[-16.60000000000003,32.40569859193419],[-16.64000000000003,32.39065665071432],[-16.668316741372152,32.37999999999994],[-16.680000000000028,32.375603715130936],[-16.720000000000027,32.360541624208274],[-16.760000000000026,32.34546723589823],[-16.774497055025194,32.33999999999994],[-16.800000000000026,32.33038336846154],[-16.840000000000025,32.31528880030227],[-16.880000000000024,32.300181915424],[-16.880481362214613,32.29999999999994],[-16.920000000000023,32.28506709344029],[-16.960000000000022,32.26993999868752],[-16.986264050091616,32.25999999999994],[-17.00000000000002,32.25480209396708],[-17.04000000000002,32.23965476887119],[-17.08000000000002,32.22449509832884],[-17.0918524140973,32.21999999999994],[-17.12000000000002,32.209326204757474],[-17.160000000000018,32.1941462740627],[-17.197246346492943,32.17999999999994],[-17.200000000000017,32.17895428519681],[-17.240000000000016,32.163754074037],[-17.280000000000015,32.14854148884398],[-17.302442395238018,32.139999999999944],[-17.320000000000014,32.13331847723846],[-17.360000000000014,32.11808558199729],[-17.400000000000013,32.102840293581586],[-17.40744721638923,32.099999999999945],[-17.440000000000012,32.08758623728868],[-17.48000000000001,32.0723206093787],[-17.512258095136836,32.059999999999945],[-17.52000000000001,32.05704343392361],[-17.56000000000001,32.04175744646957],[-17.60000000000001,32.02645903748738],[-17.616876067134974,32.019999999999946],[-17.640000000000008,32.01115078420996],[-17.680000000000007,31.995831986480724],[-17.720000000000006,31.980500748212517],[-17.721305632250424,31.979999999999947],[-17.760000000000005,31.965161395687673],[-17.800000000000004,31.94980973961669],[-17.8255409214607,31.939999999999948],[-17.840000000000003,31.93444724470678],[-17.880000000000003,31.919075151064796],[-17.92,31.90369058878469],[-17.929589028056917,31.89999999999995],[-17.96,31.888296962320407],[-18.0,31.872891933674286]]}}]}