{"type":"FeatureCollection","properties":{"largura_maxima_km":335.756,"largura_sobre_pt_km":333.908,"linha_central_sobre_pt":false,"desenhavel_como_area":true,"perfil_largura":[{"t":1.23889,"lat":25.6246,"lon":-39.9317,"largura_km":333.908,"eixo_na_terra":true},{"t":1.24444,"lat":25.4854,"lon":-39.7454,"largura_km":334.368,"eixo_na_terra":true},{"t":1.25,"lat":25.3452,"lon":-39.5567,"largura_km":334.828,"eixo_na_terra":true},{"t":1.25556,"lat":25.2043,"lon":-39.3656,"largura_km":335.292,"eixo_na_terra":true},{"t":1.26111,"lat":25.0625,"lon":-39.172,"largura_km":335.756,"eixo_na_terra":true}]},"features":[{"type":"Feature","properties":{},"geometry":{"type":"Polygon","coordinates":[[[-37.7055867977561,25.952973639359442],[-37.2929565101453,25.661595852059907],[-36.867946884135534,25.3660541505052],[-41.181468619309925,24.644903343173596],[-41.560009898719585,24.934933249808566],[-41.907011684308344,25.20524848493388],[-37.7055867977561,25.952973639359442]]]}}]}