{"type":"FeatureCollection","features":[{"type":"Feature","properties":{"magnitude":0.2,"de":0.2,"ate":0.5,"percentagem":20.0},"geometry":{"type":"Polygon","coordinates":[[[-4.979999999998881,39.61345895225881],[-3.5399999999988268,38.97658869725119],[-3.5399999999988268,44.939999999999685],[-13.875603553776042,44.939999999999685],[-12.719999999999175,44.08655906264511],[-11.51999999999913,43.25816713482273],[-10.259999999999081,42.44728097062642],[-8.999999999999034,41.69231948831145],[-7.722740015678629,40.97999999999976],[-6.359999999998934,40.274575969186536],[-4.979999999998881,39.61345895225881]]]}},{"type":"Feature","properties":{"magnitude":0.5,"de":0.5,"ate":0.8,"percentagem":50.0},"geometry":{"type":"Polygon","coordinates":[[[-32.48765493461033,31.499999999999968],[-30.383460324702654,30.0],[-3.5399999999988268,30.0],[-3.5399999999988268,38.97658869725119],[-4.950768948947281,39.599999999999795],[-6.330720704915366,40.25999999999978],[-7.679999999998984,40.95705378052019],[-8.999999999999034,41.69231948831145],[-10.259999999999081,42.44728097062642],[-11.51999999999913,43.25816713482273],[-12.719999999999175,44.08655906264511],[-13.875603553776042,44.939999999999685],[-34.5,44.939999999999685],[-34.5,33.05179404243393],[-32.48765493461033,31.499999999999968]]]}},{"type":"Feature","properties":{"magnitude":0.8,"de":0.8,"ate":0.95,"percentagem":80.0},"geometry":{"type":"Polygon","coordinates":[[[-34.5,30.0],[-34.44,30.0],[-30.383460324702654,30.0],[-32.45999999999992,31.479484773684643],[-34.5,33.05179404243393],[-34.5,30.0]]]}}]}