{"type":"FeatureCollection","properties":{"largura_maxima_km":227.694,"largura_sobre_pt_km":225.626,"linha_central_sobre_pt":false,"desenhavel_como_area":true,"perfil_largura":[{"t":-1.56111,"lat":28.3408,"lon":-13.1576,"largura_km":null,"eixo_na_terra":false},{"t":-1.55556,"lat":28.8056,"lon":-11.9551,"largura_km":null,"eixo_na_terra":false},{"t":-1.55,"lat":28.998,"lon":-11.476,"largura_km":null,"eixo_na_terra":false},{"t":-1.54444,"lat":29.3394,"lon":-10.6486,"largura_km":null,"eixo_na_terra":false},{"t":-1.53889,"lat":29.5548,"lon":-10.1996,"largura_km":null,"eixo_na_terra":false},{"t":-1.53333,"lat":29.706,"lon":-9.951,"largura_km":null,"eixo_na_terra":false},{"t":-1.52778,"lat":29.8036,"lon":-9.867,"largura_km":null,"eixo_na_terra":false},{"t":-1.52222,"lat":30.0709,"lon":-9.3364,"largura_km":null,"eixo_na_terra":false},{"t":-1.51667,"lat":30.3586,"lon":-8.5141,"largura_km":null,"eixo_na_terra":false},{"t":-1.51111,"lat":30.4457,"lon":-8.46,"largura_km":null,"eixo_na_terra":false},{"t":-1.50556,"lat":30.696,"lon":-7.8333,"largura_km":null,"eixo_na_terra":false},{"t":-1.5,"lat":30.8648,"lon":-7.4687,"largura_km":null,"eixo_na_terra":false},{"t":-1.49444,"lat":31.783,"lon":-4.3442,"largura_km":227.694,"eixo_na_terra":true},{"t":-1.48889,"lat":32.0452,"lon":-3.5441,"largura_km":225.626,"eixo_na_terra":true},{"t":-1.48333,"lat":32.2885,"lon":-2.7974,"largura_km":224.143,"eixo_na_terra":true},{"t":-1.47778,"lat":32.5163,"lon":-2.0947,"largura_km":222.916,"eixo_na_terra":true},{"t":-1.47222,"lat":32.7309,"lon":-1.4293,"largura_km":221.833,"eixo_na_terra":true},{"t":-1.46667,"lat":32.934,"lon":-0.7959,"largura_km":220.847,"eixo_na_terra":true},{"t":-1.46111,"lat":33.1272,"lon":-0.1903,"largura_km":219.94,"eixo_na_terra":true},{"t":-1.45556,"lat":33.3115,"lon":0.3907,"largura_km":219.084,"eixo_na_terra":true},{"t":-1.45,"lat":33.4879,"lon":0.95,"largura_km":218.277,"eixo_na_terra":true},{"t":-1.44444,"lat":33.6572,"lon":1.4896,"largura_km":217.504,"eixo_na_terra":true},{"t":-1.43889,"lat":33.8201,"lon":2.0116,"largura_km":216.76,"eixo_na_terra":true},{"t":-1.43333,"lat":33.977,"lon":2.5176,"largura_km":216.049,"eixo_na_terra":true},{"t":-1.42778,"lat":34.1285,"lon":3.0088,"largura_km":215.362,"eixo_na_terra":true},{"t":-1.42222,"lat":34.275,"lon":3.4866,"largura_km":214.694,"eixo_na_terra":true},{"t":-1.41667,"lat":34.4169,"lon":3.9519,"largura_km":214.046,"eixo_na_terra":true},{"t":-1.41111,"lat":34.5545,"lon":4.4057,"largura_km":213.415,"eixo_na_terra":true},{"t":-1.40556,"lat":34.688,"lon":4.8488,"largura_km":212.804,"eixo_na_terra":true}]},"features":[{"type":"Feature","properties":{},"geometry":{"type":"Polygon","coordinates":[[[-7.553894871877162,29.6225700026311],[-8.037868562810274,29.453861059782035],[-8.301789794685988,29.36392922289514],[-8.897746552318551,29.164808700744103],[-9.248831256263884,29.041292276686764],[-9.913944447872609,28.8122547226827],[-10.740447004947304,28.53302936244027],[-11.814316492420119,28.15876153341628],[-13.420551249396965,27.606497139334095],[-13.421596550231943,27.615111190245955],[-14.101675257677698,27.37736743745654],[-14.090376992666513,27.55304294988936],[-14.531547751857715,27.406943435798212],[-14.587514722240863,28.151914682442417],[-14.719289499037245,28.234727681835306],[-14.596502814631926,28.271554361840522],[-14.604490280670817,28.37787479497787],[-15.078518728968561,28.235699885773666],[-15.563954916440139,28.949692582827762],[-15.306044408032097,29.041665171349],[-15.4949452390087,29.1425261092664],[-14.748200812403303,29.388257272047547],[-14.76069216912532,29.42319633659488],[-13.005928495769183,30.015047928891633],[-11.930407419816447,30.372955376485034],[-11.389848616997497,30.549579421257185],[-10.987089099482432,30.68684741828682],[-10.304110408751512,30.91532327376756],[-9.607023301328478,31.14166648415438],[-9.323158336833956,31.238672255389616],[-8.800679425752946,31.412866821648485],[-8.2938176607243,31.57615696388607],[-8.045916674791556,31.653841494108004],[-7.673456917771382,31.76753405327456],[-7.4694166801431265,31.83656845447247],[-6.2517063954104515,32.240119010014],[-5.249834013615555,32.56779513474574],[-3.492731865327528,33.136961938977294],[-2.0231005032018743,33.605714550694316],[-0.10979828516354928,34.20650464081535],[1.5366636724273235,34.7136957344139],[3.079924612183902,35.181406347851514],[6.325457984754394,34.12392451825104],[5.869132801461092,33.986302189442426],[5.013229764426569,33.72476759262487],[4.116407011494971,33.447583630662564],[3.172238638523652,33.152467876796024],[1.6484230279489793,32.66951815668977],[0.4849882034112625,32.29672434266527],[-0.10267642293860035,32.106352986682914],[-1.4269897422875601,31.67521564047523],[-2.110470110370182,31.450932198631943],[-2.394352284485592,31.352622110667948],[-2.6802449636649612,31.259176753554737],[-2.8437614817457013,31.207866543293278],[-2.991234412451149,31.156042143004576],[-3.2859025969325444,31.05671398681969],[-3.614345197927876,30.95150748849513],[-3.930981036071273,30.841542136085433],[-4.25909431959019,30.73310713338733],[-4.445165783012531,30.673707139005117],[-4.792207955164258,30.55294157343786],[-5.14999027353781,30.4340299733409],[-5.352469972583698,30.368804752270684],[-5.739021451795679,30.23406325906364],[-6.136370964128673,30.101232035179265],[-6.361394200011483,30.028053881777588],[-6.80236195483036,29.874145262761935],[-7.553894871877162,29.6225700026311]]]}}]}