{"type":"FeatureCollection","features":[{"type":"Feature","properties":{"t_inicio":-1.5277777777777866,"t_fim":-1.4055555555555648},"geometry":{"type":"LineString","coordinates":[[-12.23195055028873,29.141939919102516],[-10.001395697878195,29.89670342119552],[-8.470427251254137,30.411838601881648],[-7.230809792395291,30.826710079038097],[-6.162576614104637,31.182335741330846],[-5.21063253516985,31.497579870589373],[-4.3442321600263085,31.782983995435842],[-3.54414570479571,32.04515028180048],[-2.79739865420197,32.28853926302189],[-2.094748307296811,32.51633275410617],[-1.429335245486186,32.73089526651368],[-0.7959032008471354,32.93404109580114],[-0.19031936845885866,33.12719864461185],[0.3907351935984593,33.31151654172109],[0.9499734409763505,33.48793493552271],[1.4896465830615853,33.657234991209044],[2.0116469873527763,33.820074223618086],[2.517583363200515,33.977012326861804],[3.0088368380317547,34.12853045054726],[3.4866035447698778,34.27504584759185],[3.951927485246415,34.41692318395067],[4.405726252355407,34.55448339577264],[4.848811420223512,34.68801071453983]]}}]}