{"type":"FeatureCollection","features":[{"type":"Feature","properties":{"magnitude":0.8,"percentagem":80.0,"territorio":"continente"},"geometry":{"type":"LineString","coordinates":[[-5.540000000000106,38.63222490535387],[-5.580000000000105,38.61923264982526],[-5.620000000000104,38.606234151190485],[-5.63917702015511,38.599999999999945],[-5.660000000000103,38.59323196802487],[-5.700000000000102,38.58022591400899],[-5.7400000000001015,38.56721365037887],[-5.7621663390958835,38.559999999999945],[-5.780000000000101,38.554197374679234],[-5.8200000000001,38.54117763379967],[-5.860000000000099,38.52815171678014],[-5.885022320031883,38.51999999999995],[-5.900000000000097,38.5151214748111],[-5.940000000000097,38.502088158618534],[-5.980000000000096,38.489048699741815],[-6.007746536429173,38.47999999999995],[-6.0200000000000955,38.47600461762129],[-6.060000000000095,38.46295783759051],[-6.100000000000094,38.44990494831231],[-6.13034054673943,38.43999999999995],[-6.140000000000093,38.436847152008035],[-6.180000000000092,38.423787019535226],[-6.220000000000091,38.41072081123171],[-6.2528058946122425,38.39999999999995],[-6.2600000000000895,38.39764942655804],[-6.3000000000000895,38.38457605295779],[-6.340000000000089,38.37149663692293],[-6.375144109103778,38.35999999999995],[-6.380000000000089,38.35841178953732],[-6.420000000000087,38.34532528603988],[-6.460000000000086,38.33223277348247],[-6.497356704882398,38.31999999999995],[-6.500000000000084,38.31913458888225],[-6.540000000000084,38.306035066630656],[-6.580000000000084,38.292929568671454],[-6.619445182430683,38.27999999999995],[-6.620000000000083,38.2798181721905],[-6.660000000000082,38.26670574223772],[-6.700000000000081,38.25358736990681],[-6.74000000000008,38.240463063154685],[-6.741410944341346,38.23999999999995],[-6.780000000000079,38.22733766001832],[-6.820000000000078,38.214206524252184],[-6.860000000000078,38.20106948736329],[-6.86325552808078,38.19999999999995],[-6.900000000000077,38.18793116677037],[-6.940000000000076,38.17478737840915],[-6.980000000000075,38.161637722199025],[-6.984980425994214,38.159999999999954],[-7.020000000000074,38.148486608923534],[-7.060000000000073,38.13533027870825],[-7.1000000000000725,38.12216811389263],[-7.1065870829112345,38.119999999999955],[-7.140000000000072,38.10900433253054],[-7.180000000000071,38.095835571100366],[-7.22000000000007,38.08266100829232],[-7.228076930462117,38.079999999999956],[-7.260000000000069,38.06948468325824],[-7.300000000000068,38.05630360114772],[-7.340000000000067,38.043116750855084],[-7.349451387261226,38.03999999999996],[-7.3800000000000665,38.02992800637897],[-7.420000000000066,38.01673471401537],[-7.460000000000065,38.003535686637946],[-7.470711859087903,37.99999999999996],[-7.500000000000064,37.990334646761866],[-7.540000000000063,37.97712925446241],[-7.580000000000062,37.9639181602892],[-7.591859739063909,37.95999999999996],[-7.620000000000061,37.95070494886413],[-7.6600000000000605,37.93748756683331],[-7.70000000000006,37.92426451603995],[-7.712896407828832,37.91999999999996],[-7.740000000000059,37.91103925672243],[-7.780000000000058,37.89780999504944],[-7.820000000000057,37.88457509769543],[-7.8338232337125095,37.87999999999996],[-7.860000000000056,37.87133791394445],[-7.900000000000055,37.858096882600336],[-7.940000000000055,37.8448502486265],[-7.954641572904478,37.83999999999996],[-7.980000000000053,37.831601263700165],[-8.020000000000053,37.818348572535356],[-8.060000000000052,37.80509031176119],[-8.075352769621514,37.79999999999996],[-8.100000000000051,37.7918296487136],[-8.14000000000005,37.77856540745526],[-8.18000000000005,37.765295629576165],[-8.195958156271837,37.75999999999996],[-8.220000000000049,37.752023411254235],[-8.260000000000048,37.73874772950356],[-8.300000000000047,37.72546654408843],[-8.316459053617237,37.71999999999996],[-8.340000000000046,37.71218289312864],[-8.380000000000045,37.698895880358414],[-8.420000000000044,37.68560339684694],[-8.436856770932977,37.679999999999964],[-8.460000000000043,37.67230843567229],[-8.500000000000043,37.65901020122415],[-8.540000000000042,37.64570652892434],[-8.557152606164468,37.639999999999965],[-8.580000000000041,37.6324003797411],[-8.62000000000004,37.61909103282317],[-8.66000000000004,37.6057762809087],[-8.677347846082478,37.599999999999966],[-8.700000000000038,37.59245906570336],[-8.740000000000038,37.57913871538753],[-8.780000000000037,37.565812992895296],[-8.797443766435133,37.55999999999997],[-8.820000000000036,37.55248483343139],[-8.860000000000035,37.53915358865093],[-8.900000000000034,37.52581700447851],[-8.917441632098464,37.51999999999997],[-8.940000000000033,37.512478022293635],[-8.980000000000032,37.49913599184063],[-9.020000000000032,37.485788654743764],[-9.037342697223885,37.47999999999997],[-9.06000000000003,37.47243897114636],[-9.10000000000003,37.45908626366928],[-9.140000000000029,37.44572828225942],[-9.157148205384118,37.43999999999997],[-9.180000000000028,37.432368018325825],[-9.220000000000027,37.41900474232698],[-9.260000000000026,37.40563622506885],[-9.27685938971642,37.39999999999997],[-9.300000000000026,37.3922655016402],[-9.340000000000025,37.37889176547344],[-9.380000000000024,37.36551282068249],[-9.396477473064033,37.35999999999997],[-9.420000000000023,37.35213175836174],[-9.460000000000022,37.33874767022981],[-9.500000000000021,37.32535840606998],[-9.516003668115241,37.31999999999997],[-9.54000000000002,37.31196712521888],[-9.58000000000002,37.2985727931712],[-9.620000000000019,37.285173317652365],[-9.63543917754068,37.27999999999997],[-9.660000000000018,37.27177193838845],[-9.700000000000017,37.2583674703186],[-9.740000000000016,37.244957891294256],[-9.754785194127926,37.239999999999974],[-9.780000000000015,37.231546533487894],[-9.820000000000014,37.21813203713141],[-9.860000000000014,37.204712462296214],[-9.874042900915235,37.199999999999974],[-9.900000000000013,37.19129124556773],[-9.940000000000012,37.177866828499546],[-9.980000000000011,37.16443736538713],[-9.993213471322164,37.159999999999975],[-10.02000000000001,37.15100640910377],[-10.06000000000001,37.13757217873601],[-10.100000000000009,37.12413293471646],[-10.112298069278655,37.119999999999976],[-10.140000000000008,37.11069235798963],[-10.180000000000007,37.097248421569255],[-10.220000000000006,37.08379950384699],[-10.231297849352819,37.07999999999998],[-10.260000000000005,37.070349425529145],[-10.300000000000004,37.056895890135706],[-10.340000000000003,37.04343740574704],[-10.350213956875653,37.03999999999998],[-10.380000000000003,37.02997794442912],[-10.420000000000002,37.016514916972376],[-10.46,37.00304697278335],[-10.469047528065072,36.99999999999998],[-10.5,36.98957824679167]]}},{"type":"Feature","properties":{"magnitude":0.2,"percentagem":20.0,"territorio":"acores"},"geometry":{"type":"LineString","coordinates":[[-25.546915713158207,40.479999999999905],[-25.520000000000138,40.453084286841836],[-25.506939477596454,40.439999999999905],[-25.48000000000014,40.4130605224036],[-25.46696317239075,40.399999999999906],[-25.44000000000014,40.373036827609305],[-25.426986797818472,40.35999999999991],[-25.427004250309004,40.31999999999991],[-25.40000000000014,40.29299574969104],[-25.387027756040446,40.2799999999999],[-25.36000000000014,40.252972243959604],[-25.347051193154716,40.23999999999991],[-25.320000000000146,40.21294880684534],[-25.30707456192399,40.19999999999991],[-25.280000000000143,40.172925438076064],[-25.26709786261908,40.15999999999991],[-25.240000000000144,40.132902137380974],[-25.227121095509418,40.11999999999991],[-25.200000000000145,40.09287890449064],[-25.18714426086309,40.07999999999991],[-25.160000000000146,40.052855739136966],[-25.14716735894681,40.039999999999914],[-25.120000000000147,40.01283264105325],[-25.107190390025963,39.999999999999915],[-25.080000000000148,39.9728096099741],[-25.06721335436459,39.959999999999916],[-25.04000000000015,39.932786645635474],[-25.02723625222541,39.919999999999916],[-25.000000000000153,39.89276374777466],[-24.987259083869823,39.879999999999924],[-24.96000000000015,39.852740916130244],[-24.94728184955791,39.83999999999992],[-24.92000000000015,39.81271815044216],[-24.90730454954846,39.79999999999992],[-24.88000000000015,39.77269545045161],[-24.867327184098958,39.75999999999992],[-24.84000000000015,39.73267281590111],[-24.82734975346561,39.71999999999992],[-24.800000000000153,39.69265024653447],[-24.78737225790333,39.67999999999992],[-24.760000000000154,39.65262774209675],[-24.74739469766577,39.63999999999993],[-24.720000000000155,39.612605302334316],[-24.707417073005317,39.59999999999992],[-24.707433609329605,39.559999999999924],[-24.680000000000156,39.53256639067048],[-24.667455873456383,39.519999999999925],[-24.640000000000157,39.4925441265437],[-24.627478073842422,39.479999999999926],[-24.600000000000158,39.45252192615766],[-24.587500210735467,39.43999999999993],[-24.56000000000016,39.412499789264615],[-24.547522284382048,39.39999999999993],[-24.52000000000016,39.37247771561805],[-24.50754429502745,39.35999999999993],[-24.48000000000016,39.33245570497264],[-24.467566242915776,39.31999999999993],[-24.440000000000165,39.29243375708432],[-24.42758812828989,39.27999999999993],[-24.400000000000162,39.2524118717102],[-24.38760995139149,39.239999999999924],[-24.360000000000163,39.2123900486086],[-24.34763171246106,39.19999999999993],[-24.32000000000016,39.17236828753903],[-24.307653411737903,39.15999999999993],[-24.280000000000165,39.132346588262195],[-24.26767504946015,39.11999999999993],[-24.240000000000165,39.09232495053995],[-24.227696625864755,39.079999999999934],[-24.200000000000166,39.05230337413535],[-24.187718141187517,39.039999999999935],[-24.187734046741557,38.999999999999936],[-24.160000000000167,38.97226595325854],[-24.147755456587664,38.95999999999994],[-24.120000000000168,38.93224454341244],[-24.10777680598943,38.91999999999994],[-24.08000000000017,38.892223194010676],[-24.067798095178382,38.87999999999994],[-24.04000000000017,38.852201904821726]]}},{"type":"Feature","properties":{"magnitude":0.4,"percentagem":40.0,"territorio":"acores"},"geometry":{"type":"LineString","coordinates":[[-25.533831426316276,40.479999999999905],[-25.520000000000138,40.46616857368377],[-25.493878955192763,40.439999999999905],[-25.48000000000014,40.42612104480728],[-25.45392634478135,40.399999999999906],[-25.44000000000014,40.386073655218695],[-25.413973595636808,40.35999999999991],[-25.414008500617875,40.31999999999991],[-25.40000000000014,40.30599149938217],[-25.374055512080755,40.27999999999991],[-25.36000000000014,40.2659444879193],[-25.33410238630929,40.23999999999991],[-25.320000000000142,40.22589761369076],[-25.294149123847838,40.19999999999991],[-25.280000000000143,40.185850876152216],[-25.254195725238013,40.15999999999991],[-25.240000000000144,40.14580427476204],[-25.2142421910187,40.11999999999991],[-25.200000000000145,40.10575780898136],[-25.174288521726034,40.07999999999991],[-25.160000000000146,40.065711478274025],[-25.134334717893474,40.039999999999914],[-25.120000000000147,40.02566528210659],[-25.09438078005178,39.999999999999915],[-25.080000000000148,39.98561921994828],[-25.054426708729032,39.959999999999916],[-25.04000000000015,39.94557329127103],[-25.014472504450673,39.919999999999916],[-25.00000000000015,39.90552749554939],[-24.974518167739497,39.87999999999992],[-24.96000000000015,39.86548183226057],[-24.93456369911567,39.83999999999992],[-24.92000000000015,39.8254363008844],[-24.894609099096773,39.79999999999992],[-24.88000000000015,39.785390900903295],[-24.85465436819777,39.75999999999992],[-24.840000000000153,39.7453456318023],[-24.814699506931067,39.71999999999992],[-24.800000000000153,39.705300493069004],[-24.774744515806503,39.67999999999992],[-24.760000000000154,39.66525548419357],[-24.734789395331383,39.63999999999992],[-24.720000000000155,39.625210604668695],[-24.69483414601047,39.59999999999992],[-24.694867218659052,39.559999999999924],[-24.680000000000156,39.54513278134103],[-24.65491174691261,39.519999999999925],[-24.640000000000157,39.50508825308747],[-24.614956147684687,39.479999999999926],[-24.600000000000158,39.4650438523154],[-24.57500042147078,39.43999999999993],[-24.56000000000016,39.42499957852931],[-24.53504456876393,39.39999999999993],[-24.52000000000016,39.38495543123616],[-24.495088590054742,39.35999999999993],[-24.48000000000016,39.34491140994535],[-24.455132485831385,39.31999999999993],[-24.44000000000016,39.304867514168706],[-24.415176256579624,39.27999999999993],[-24.400000000000162,39.264823743420465],[-24.375219902782824,39.23999999999993],[-24.360000000000163,39.22478009721727],[-24.33526342492196,39.19999999999993],[-24.320000000000164,39.18473657507814],[-24.29530682347564,39.15999999999993],[-24.280000000000165,39.144693176524456],[-24.255350098920132,39.11999999999993],[-24.240000000000165,39.104649901079966],[-24.215393251729346,39.079999999999934],[-24.200000000000166,39.064606748270755],[-24.175436282374868,39.039999999999935],[-24.175468093482955,38.999999999999936],[-24.160000000000167,38.98453190651715],[-24.13551091317516,38.95999999999994],[-24.120000000000168,38.944489086824944],[-24.09555361197869,38.91999999999994],[-24.08000000000017,38.90444638802141],[-24.055596190356596,38.87999999999994],[-24.04000000000017,38.86440380964351]]}},{"type":"Feature","properties":{"magnitude":0.6,"percentagem":60.0,"territorio":"acores"},"geometry":{"type":"LineString","coordinates":[[-25.52074713947435,40.479999999999905],[-25.520000000000138,40.4792528605257],[-25.48081843278908,40.439999999999905],[-25.48000000000014,40.439181567210966],[-25.440889517171964,40.399999999999906],[-25.44000000000014,40.399110482828085],[-25.400960393455144,40.35999999999991],[-25.401012750926743,40.31999999999991],[-25.40000000000014,40.31898724907331],[-25.36108326812106,40.27999999999991],[-25.36000000000014,40.278916731878994],[-25.32115357946386,40.23999999999991],[-25.320000000000142,40.23884642053619],[-25.281223685771685,40.19999999999991],[-25.280000000000143,40.19877631422837],[-25.24129358785695,40.15999999999991],[-25.240000000000144,40.158706412143104],[-25.20136328652797,40.11999999999991],[-25.200000000000145,40.11863671347208],[-25.161432782588978,40.07999999999991],[-25.160000000000146,40.07856721741108],[-25.121502076840137,40.039999999999914],[-25.120000000000147,40.03849792315992],[-25.08157117007759,39.999999999999915],[-25.080000000000148,39.99842882992247],[-25.041640063093475,39.959999999999916],[-25.04000000000015,39.95835993690659],[-25.001708756675935,39.919999999999916],[-25.00000000000015,39.918291243324134],[-24.96177725160917,39.87999999999992],[-24.96000000000015,39.878222748390904],[-24.921845548673435,39.83999999999992],[-24.92000000000015,39.83815445132664],[-24.881913648645085,39.79999999999992],[-24.88000000000015,39.79808635135499],[-24.84198155229658,39.75999999999992],[-24.840000000000153,39.75801844770349],[-24.802049260396522,39.71999999999992],[-24.800000000000153,39.71795073960355],[-24.76211677370968,39.67999999999992],[-24.760000000000154,39.67788322629039],[-24.722184092996997,39.63999999999992],[-24.720000000000155,39.63781590700308],[-24.682251219015633,39.59999999999992],[-24.6823008279885,39.559999999999924],[-24.680000000000156,39.55769917201158],[-24.642367620368837,39.519999999999925],[-24.640000000000157,39.517632379631245],[-24.602434221526952,39.479999999999926],[-24.600000000000158,39.477565778473135],[-24.56250063220609,39.43999999999993],[-24.56000000000016,39.437499367794],[-24.52256685314582,39.39999999999993],[-24.52000000000016,39.397433146854276],[-24.482632885082033,39.35999999999993],[-24.48000000000016,39.35736711491806],[-24.442698728747,39.31999999999993],[-24.44000000000016,39.317301271253086],[-24.402764384869354,39.27999999999993],[-24.400000000000162,39.27723561513074],[-24.36282985417415,39.23999999999993],[-24.360000000000163,39.23717014582594],[-24.322895137382854,39.19999999999993],[-24.320000000000164,39.19710486261724],[-24.282960235213384,39.15999999999993],[-24.280000000000165,39.15703976478672],[-24.243025148380116,39.11999999999993],[-24.240000000000165,39.116974851619986],[-24.203089877593936,39.079999999999934],[-24.200000000000166,39.07691012240616],[-24.163154423562222,39.039999999999935],[-24.163202140224346,38.999999999999936],[-24.160000000000167,38.99679785977576],[-24.123266369762657,38.95999999999994],[-24.120000000000168,38.95673363023745],[-24.083330417967954,38.91999999999994],[-24.08000000000017,38.91666958203215],[-24.043394285534813,38.87999999999994],[-24.04000000000017,38.8766057144653]]}},{"type":"Feature","properties":{"magnitude":0.2,"percentagem":20.0,"territorio":"madeira"},"geometry":{"type":"LineString","coordinates":[[-18.0,31.62925927457787],[-17.990754266861575,31.61999999999995],[-17.96,31.589245733138377],[-17.950767775737816,31.579999999999956],[-17.92,31.54923222426214],[-17.910781252156113,31.539999999999957],[-17.91079124137474,31.499999999999957],[-17.880000000000003,31.469208758625218],[-17.870804661564932,31.459999999999958],[-17.840000000000003,31.429195338435033],[-17.830818049582845,31.41999999999996],[-17.800000000000004,31.38918195041712],[-17.79083140553217,31.37999999999996],[-17.790841305788632,31.339999999999964],[-17.760000000000005,31.309158694211334],[-17.750854606181292,31.299999999999958],[-17.720000000000006,31.269145393818672],[-17.710867874786693,31.25999999999996],[-17.680000000000007,31.229132125213273],[-17.670881111706954,31.219999999999963],[-17.640000000000008,31.18911888829302],[-17.630894317043765,31.179999999999964],[-17.630904106080997,31.139999999999965],[-17.60000000000001,31.109095893918976],[-17.59091725669779,31.099999999999966],[-17.56000000000001,31.069082743302186],[-17.55093037600707,31.059999999999967],[-17.52000000000001,31.029069623992907],[-17.510943464108998,31.019999999999968],[-17.510953166553165,30.979999999999972],[-17.48000000000001,30.94904683344682],[-17.470966200583728,30.93999999999997],[-17.440000000000012,30.909033799416253],[-17.43097920367871,30.89999999999997],[-17.400000000000013,30.869020796321273],[-17.390992175936756,30.85999999999997],[-17.391001792807185,30.819999999999972],[-17.360000000000014,30.788998207192797],[-17.351014711632782,30.779999999999973],[-17.320000000000014,30.748985288367205],[-17.311027599889123,30.739999999999974],[-17.280000000000015,30.708972400110866],[-17.271040457673372,30.699999999999974],[-17.271049989974177,30.659999999999975],[-17.240000000000016,30.628950010025815],[-17.23106279495532,30.619999999999976],[-17.200000000000017,30.588937205044672],[-17.191075569728042,30.579999999999973],[-17.19108504068391,30.539999999999978],[-17.160000000000018,30.508914959316087],[-17.151097763108396,30.499999999999975],[-17.12000000000002,30.468902236891598],[-17.11111045558524,30.45999999999998],[-17.08000000000002,30.42888954441476],[-17.071123118209094,30.41999999999998],[-17.07113250629984,30.37999999999998],[-17.04000000000002,30.34886749370016],[-17.03114511718864,30.339999999999982],[-17.00000000000002,30.30885488281136],[-16.99115769848134,30.299999999999983],[-16.960000000000022,30.268842301518664],[-16.95117025027118,30.259999999999984],[-16.951179556460737,30.21999999999998],[-16.920000000000023,30.188820443539267],[-16.911192057119596,30.179999999999986],[-16.880000000000024,30.148807942880413],[-16.871204528528672,30.139999999999986],[-16.840000000000025,30.10879547147134],[-16.83121697077981,30.099999999999987],[-16.831226196017887,30.059999999999988],[-16.800000000000026,30.028773803982126],[-16.791238587733183,30.01999999999999],[-16.760000000000026,29.988761412266832],[-16.75125095053987,29.97999999999999],[-16.720000000000027,29.94874904946015],[-16.711263284528428,29.93999999999999],[-16.711272429750775,29.89999999999999],[-16.680000000000028,29.868727570249245],[-16.67128471378985,29.859999999999992],[-16.64000000000003,29.828715286210173],[-16.631296969256436,29.819999999999993],[-16.631306056427356,29.779999999999994],[-16.60000000000003,29.748693943572672],[-16.591318262368347,29.739999999999995],[-16.56000000000003,29.708681737631675],[-16.55133043997985,29.699999999999996],[-16.52000000000003,29.66866956002018],[-16.511342589350043,29.659999999999997],[-16.511351598094173,29.619999999999997],[-16.480000000000032,29.588648401905857],[-16.47136369851028,29.58],[-16.440000000000033,29.54863630148975],[-16.431375770924504,29.540000000000003],[-16.400000000000034,29.508624229075533],[-16.391387815423727,29.5]]}},{"type":"Feature","properties":{"magnitude":0.4,"percentagem":40.0,"territorio":"madeira"},"geometry":{"type":"LineString","coordinates":[[-18.0,31.638518549155783],[-17.98150853372315,31.619999999999955],[-17.96,31.598491466276805],[-17.941535551475635,31.579999999999956],[-17.92,31.558464448524326],[-17.901562504312224,31.539999999999957],[-17.901582482749475,31.499999999999957],[-17.880000000000003,31.47841751725048],[-17.86160932312986,31.459999999999958],[-17.840000000000003,31.4383906768701],[-17.82163609916568,31.41999999999996],[-17.800000000000004,31.398363900834283],[-17.781662811064333,31.379999999999963],[-17.78168261157726,31.33999999999996],[-17.760000000000005,31.318317388422706],[-17.74170921236258,31.29999999999996],[-17.720000000000006,31.27829078763738],[-17.70173574957338,31.259999999999962],[-17.680000000000007,31.23826425042658],[-17.661762223413902,31.219999999999967],[-17.640000000000008,31.198237776586076],[-17.621788634087522,31.179999999999964],[-17.621808212161987,31.139999999999965],[-17.60000000000001,31.118191787837986],[-17.58183451339557,31.099999999999966],[-17.56000000000001,31.078165486604405],[-17.54186075201413,31.059999999999967],[-17.52000000000001,31.038139247985846],[-17.501886928217985,31.019999999999968],[-17.50190633310632,30.97999999999997],[-17.48000000000001,30.95809366689366],[-17.46193240116745,30.93999999999997],[-17.440000000000012,30.918067598832533],[-17.421958407357412,30.89999999999997],[-17.400000000000013,30.87804159264257],[-17.381984351873502,30.85999999999997],[-17.38200358561436,30.819999999999972],[-17.360000000000014,30.797996414385626],[-17.34202942326555,30.779999999999973],[-17.320000000000014,30.757970576734436],[-17.30205519977823,30.739999999999974],[-17.280000000000015,30.71794480022176],[-17.26208091534673,30.699999999999974],[-17.26209997994834,30.659999999999975],[-17.240000000000016,30.637900020051653],[-17.222125589910625,30.619999999999976],[-17.200000000000017,30.597874410089368],[-17.182151139456064,30.579999999999977],[-17.182170081367804,30.539999999999978],[-17.160000000000018,30.51782991863219],[-17.142195526216778,30.49999999999998],[-17.12000000000002,30.47780447378322],[-17.102220911170463,30.45999999999998],[-17.08000000000002,30.437779088829537],[-17.06224623641817,30.41999999999998],[-17.062265012599664,30.37999999999998],[-17.04000000000002,30.357734987400335],[-17.022290234377262,30.33999999999998],[-17.00000000000002,30.317709765622737],[-16.98231539696266,30.299999999999983],[-16.960000000000022,30.277684603037343],[-16.942340500542336,30.259999999999984],[-16.94235911292145,30.219999999999985],[-16.920000000000023,30.197640887078556],[-16.902384114239172,30.179999999999986],[-16.880000000000024,30.15761588576084],[-16.86240905705732,30.139999999999986],[-16.840000000000025,30.117590942942694],[-16.822433941559595,30.099999999999987],[-16.82245239203575,30.059999999999988],[-16.800000000000026,30.037547607964264],[-16.78247717546634,30.01999999999999],[-16.760000000000026,29.997522824533675],[-16.742501901079706,29.979999999999993],[-16.720000000000027,29.95749809892031],[-16.702526569056833,29.93999999999999],[-16.702544859501522,29.89999999999999],[-16.680000000000028,29.877455140498498],[-16.66256942757967,29.859999999999992],[-16.64000000000003,29.837430572420352],[-16.622593938512846,29.819999999999993],[-16.62261211285468,29.779999999999994],[-16.60000000000003,29.75738788714535],[-16.582636524736667,29.739999999999995],[-16.56000000000003,29.717363475263355],[-16.54266087995967,29.699999999999996],[-16.52000000000003,29.677339120040358],[-16.502685178700055,29.659999999999997],[-16.50270319618831,29.619999999999997],[-16.480000000000032,29.597296803811716],[-16.46272739702053,29.58],[-16.440000000000033,29.557272602979502],[-16.422751541848974,29.54],[-16.400000000000034,29.51724845815106],[-16.38277563084742,29.5]]}},{"type":"Feature","properties":{"magnitude":0.6,"percentagem":60.0,"territorio":"madeira"},"geometry":{"type":"LineString","coordinates":[[-18.0,31.647777823733698],[-17.972262800584726,31.619999999999955],[-17.96,31.60773719941523],[-17.932303327213454,31.579999999999956],[-17.92,31.567696672786507],[-17.892343756468335,31.539999999999957],[-17.892373724124216,31.499999999999957],[-17.880000000000003,31.487626275875748],[-17.85241398469479,31.459999999999958],[-17.840000000000003,31.447586015305173],[-17.81245414874852,31.41999999999996],[-17.800000000000004,31.40754585125144],[-17.7724942165965,31.37999999999996],[-17.772523917365888,31.33999999999996],[-17.760000000000005,31.327476082634078],[-17.732563818543873,31.29999999999996],[-17.720000000000006,31.287436181456098],[-17.69260362436007,31.259999999999962],[-17.680000000000007,31.247396375639894],[-17.652643335120842,31.219999999999963],[-17.640000000000008,31.20735666487913],[-17.612682951131283,31.179999999999964],[-17.612712318242977,31.139999999999965],[-17.60000000000001,31.127287681756997],[-17.57275177009335,31.099999999999966],[-17.56000000000001,31.087248229906624],[-17.53279112802119,31.059999999999967],[-17.52000000000001,31.047208871978782],[-17.492830392326972,31.019999999999968],[-17.492859499659474,30.97999999999997],[-17.48000000000001,30.967140500340506],[-17.452898601751166,30.93999999999997],[-17.440000000000012,30.927101398248816],[-17.41293761103611,30.89999999999997],[-17.400000000000013,30.88706238896387],[-17.372976527810245,30.85999999999997],[-17.37300537842153,30.819999999999972],[-17.360000000000014,30.80699462157845],[-17.33304413489832,30.779999999999973],[-17.320000000000014,30.766955865101664],[-17.29308279966734,30.739999999999974],[-17.280000000000015,30.726917200332647],[-17.253121373020086,30.699999999999974],[-17.253149969922504,30.659999999999975],[-17.240000000000016,30.646850030077488],[-17.21318838486593,30.619999999999976],[-17.200000000000017,30.606811615134063],[-17.17322670918409,30.579999999999977],[-17.1732551220517,30.539999999999978],[-17.160000000000018,30.526744877948296],[-17.13329328932516,30.49999999999998],[-17.12000000000002,30.486706710674838],[-17.093331366755688,30.45999999999998],[-17.08000000000002,30.44666863324431],[-17.053369354627243,30.41999999999998],[-17.053397518899487,30.37999999999998],[-17.04000000000002,30.366602481100514],[-17.013435351565885,30.339999999999982],[-17.00000000000002,30.326564648434122],[-16.97347309544398,30.299999999999983],[-16.960000000000022,30.286526904556027],[-16.933510750813493,30.259999999999984],[-16.933538669382163,30.219999999999985],[-16.920000000000023,30.20646133061785],[-16.893576171358745,30.179999999999986],[-16.880000000000024,30.166423828641264],[-16.853613585585965,30.139999999999986],[-16.840000000000025,30.126386414414046],[-16.81365091233938,30.099999999999987],[-16.813678588053612,30.059999999999988],[-16.800000000000026,30.0463214119464],[-16.773715763199498,30.01999999999999],[-16.760000000000026,30.006284236800518],[-16.73375285161955,29.97999999999999],[-16.720000000000027,29.966247148380468],[-16.693789853585233,29.93999999999999],[-16.693817289252273,29.89999999999999],[-16.680000000000028,29.886182710747747],[-16.653854141369486,29.859999999999992],[-16.64000000000003,29.846145858630535],[-16.613890907769257,29.819999999999993],[-16.613918169282005,29.779999999999994],[-16.60000000000003,29.766081830718022],[-16.573954787104988,29.739999999999995],[-16.56000000000003,29.726045212895038],[-16.533991319939485,29.699999999999996],[-16.52000000000003,29.686008680060542],[-16.494027768050067,29.659999999999997],[-16.49405479428245,29.619999999999997],[-16.480000000000032,29.605945205717575],[-16.45409109553078,29.58],[-16.440000000000033,29.565908904469246],[-16.414127312773445,29.54],[-16.400000000000034,29.525872687226588],[-16.374163446271112,29.5]]}},{"type":"Feature","properties":{"magnitude":0.8,"percentagem":80.0,"territorio":"madeira"},"geometry":{"type":"LineString","coordinates":[[-18.0,31.65703709831161],[-17.9630170674463,31.619999999999955],[-17.96,31.616982932553654],[-17.92307110295127,31.579999999999956],[-17.92,31.57692889704869],[-17.883125008624447,31.539999999999957],[-17.883164965498953,31.499999999999957],[-17.880000000000003,31.496835034501007],[-17.843218646259714,31.459999999999958],[-17.840000000000003,31.456781353740247],[-17.80327219833136,31.41999999999996],[-17.800000000000004,31.416727801668603],[-17.76332562212866,31.37999999999996],[-17.763365223154516,31.33999999999996],[-17.760000000000005,31.33663477684545],[-17.72341842472516,31.29999999999996],[-17.720000000000006,31.296581575274807],[-17.683471499146762,31.259999999999962],[-17.680000000000007,31.256528500853207],[-17.64352444682779,31.219999999999963],[-17.640000000000008,31.21647555317218],[-17.60357726817504,31.179999999999964],[-17.60361642432397,31.139999999999965],[-17.60000000000001,31.136383575676003],[-17.563669026791132,31.099999999999966],[-17.56000000000001,31.096330973208843],[-17.523721504028252,31.059999999999967],[-17.52000000000001,31.056278495971725],[-17.48377385643596,31.019999999999968],[-17.48381266621263,30.97999999999997],[-17.48000000000001,30.97618733378735],[-17.443864802334886,30.93999999999997],[-17.440000000000012,30.936135197665095],[-17.403916814714812,30.89999999999997],[-17.400000000000013,30.89608318528517],[-17.363968703746988,30.85999999999997],[-17.364007171228707,30.819999999999972],[-17.360000000000014,30.81599282877128],[-17.324058846531088,30.779999999999973],[-17.320000000000014,30.775941153468903],[-17.28411039955645,30.739999999999974],[-17.280000000000015,30.73588960044354],[-17.244161830693443,30.699999999999974],[-17.244199959896665,30.659999999999975],[-17.240000000000016,30.655800040103326],[-17.204251179821235,30.619999999999976],[-17.200000000000017,30.61574882017876],[-17.164302278912114,30.579999999999977],[-17.16434016273559,30.539999999999978],[-17.160000000000018,30.535659837264404],[-17.124391052433538,30.49999999999998],[-17.12000000000002,30.495608947566456],[-17.08444182234091,30.45999999999998],[-17.08000000000002,30.455558177659093],[-17.044492472836314,30.41999999999998],[-17.044530025199307,30.37999999999998],[-17.04000000000002,30.375469974800694],[-17.004580468754504,30.339999999999982],[-17.00000000000002,30.335419531245496],[-16.9646307939253,30.299999999999983],[-16.960000000000022,30.295369206074707],[-16.92468100108465,30.259999999999984],[-16.924718225842877,30.219999999999985],[-16.920000000000023,30.21528177415713],[-16.88476822847832,30.179999999999986],[-16.880000000000024,30.175231771521688],[-16.844818114114613,30.139999999999986],[-16.840000000000025,30.135181885885398],[-16.804867883119165,30.099999999999987],[-16.804904784071475,30.059999999999988],[-16.800000000000026,30.05509521592854],[-16.764954350932655,30.01999999999999],[-16.760000000000026,30.01504564906736],[-16.72500380215939,29.97999999999999],[-16.720000000000027,29.974996197840632],[-16.685053138113638,29.93999999999999],[-16.68508971900302,29.89999999999999],[-16.680000000000028,29.894910280997],[-16.645138855159306,29.859999999999992],[-16.64000000000003,29.854861144840715],[-16.605187877025667,29.819999999999993],[-16.60522422570933,29.779999999999994],[-16.60000000000003,29.774775774290696],[-16.565273049473305,29.739999999999995],[-16.56000000000003,29.734726950526717],[-16.525321759919304,29.699999999999996],[-16.52000000000003,29.694678240080727],[-16.48537035740008,29.659999999999997],[-16.485406392376593,29.619999999999997],[-16.480000000000032,29.61459360762344],[-16.44545479404103,29.58],[-16.440000000000033,29.574545205959],[-16.405503083697912,29.54],[-16.400000000000034,29.53449691630212],[-16.365551261694808,29.5]]}},{"type":"Feature","properties":{"magnitude":0.9,"percentagem":90.0,"territorio":"madeira"},"geometry":{"type":"LineString","coordinates":[[-15.040000000000063,31.162438189926455],[-15.080000000000062,31.148627680394895],[-15.104985222018133,31.139999999999965],[-15.120000000000061,31.134816442601576],[-15.16000000000006,31.121005765875275],[-15.20000000000006,31.107192458604903],[-15.220825025930086,31.099999999999966],[-15.240000000000059,31.09337898692519],[-15.280000000000058,31.07956557477759],[-15.320000000000057,31.065749560324303],[-15.336644267358711,31.059999999999967],[-15.360000000000056,31.05193394894673],[-15.400000000000055,31.038117891706705],[-15.440000000000055,31.024299260314518],[-15.45244367039645,31.019999999999968],[-15.480000000000054,31.010481603012547],[-15.520000000000053,30.996662990696755],[-15.560000000000052,30.982841832297428],[-15.568223955272114,30.97999999999997],[-15.600000000000051,30.969022222428826],[-15.64000000000005,30.95520114474133],[-15.68000000000005,30.94137754895388],[-15.68398583840175,30.93999999999997],[-15.720000000000049,30.927556079460302],[-15.760000000000048,30.91373262579205],[-15.799730056330912,30.89999999999997],[-15.800000000000045,30.899906716693835],[-15.840000000000046,30.88608344532867],[-15.880000000000045,30.872257704757125],[-15.915457653795574,30.85999999999997],[-15.920000000000044,30.85843008746625],[-15.960000000000043,30.844604590211404],[-16.000000000000043,30.830776651500173],[-16.031168988029282,30.819999999999975],[-16.040000000000042,30.816947417850404],[-16.08000000000004,30.803119783240504],[-16.12000000000004,30.789289734838803],[-16.146864760602774,30.779999999999973],[-16.16000000000004,30.775458976246135],[-16.20000000000004,30.761629292501233],[-16.240000000000038,30.747797222543646],[-16.262545669514658,30.739999999999974],[-16.280000000000037,30.73396503000579],[-16.320000000000036,30.720133385030977],[-16.360000000000035,30.706299381337033],[-16.37821240923838,30.699999999999974],[-16.400000000000034,30.692465845433198],[-16.440000000000033,30.67863232681818],[-16.480000000000032,30.664796476892057],[-16.49386567076816,30.659999999999975],[-16.52000000000003,30.650961687782363],[-16.56000000000003,30.63712638280132],[-16.60000000000003,30.62328877383147],[-16.60950614166527,30.619999999999976],[-16.64000000000003,30.609452821256852],[-16.680000000000028,30.595615816867912],[-16.720000000000027,30.58177653572676],[-16.72513450610272,30.579999999999977],[-16.760000000000026,30.567939509008497],[-16.800000000000026,30.55410089185359],[-16.840000000000025,30.540260025097282],[-16.840751444910275,30.539999999999978],[-16.880000000000024,30.526422013136738],[-16.920000000000023,30.51258186954123],[-16.956357999386256,30.49999999999998],[-16.960000000000022,30.498739976552763],[-17.00000000000002,30.484900594687716],[-17.04000000000002,30.47105901066019],[-17.071954565243537,30.45999999999998],[-17.04005403194085,30.41999999999998],[-17.04009627834922,30.37999999999998],[-17.04000000000002,30.37990372165078],[-17.000153027348816,30.339999999999982],[-17.00000000000002,30.339846972651188],[-16.960209643165957,30.299999999999983],[-16.960000000000022,30.29979035683405],[-16.92026612622023,30.259999999999984],[-16.920308004073235,30.219999999999985],[-16.920000000000023,30.219691995926777],[-16.880364257038107,30.179999999999986],[-16.880000000000024,30.179635742961903],[-16.840420378378937,30.139999999999986],[-16.840000000000025,30.139579621621074],[-16.80047636850906,30.099999999999987],[-16.800517882080403,30.059999999999988],[-16.800000000000026,30.059482117919607],[-16.760573644799234,30.01999999999999],[-16.760000000000026,30.019426355200782],[-16.720629277429307,29.97999999999999],[-16.720000000000027,29.97937072257071],[-16.680684780377838,29.93999999999999],[-16.680725933878392,29.89999999999999],[-16.680000000000028,29.899274066121624],[-16.64078121205422,29.859999999999992],[-16.64000000000003,29.859218787945803],[-16.600836361653872,29.819999999999993],[-16.60087725392299,29.779999999999994],[-16.60000000000003,29.779122746077032],[-16.560932180657467,29.739999999999995],[-16.56000000000003,29.73906781934256],[-16.520986979909214,29.699999999999996],[-16.52000000000003,29.699013020090813],[-16.481041652075085,29.659999999999997],[-16.48108219142366,29.619999999999997],[-16.480000000000032,29.61891780857637],[-16.441136643296158,29.58],[-16.440000000000033,29.578863356703877],[-16.401190969160147,29.54],[-16.400000000000034,29.538809030839886],[-16.361245169406654,29.5]]}}]}