{"type":"FeatureCollection","features":[{"type":"Feature","properties":{"magnitude":0.2,"de":0.2,"ate":0.5,"percentagem":20.0},"geometry":{"type":"Polygon","coordinates":[[[-34.5,30.0],[-28.61839211923717,30.0],[-24.899999999999636,30.61721322276783],[-21.2999999999995,31.10161147278653],[-17.819999999999368,31.4545636528548],[-14.399999999999238,31.681184655156116],[-11.579999999999131,31.770742420871606],[-8.819999999999027,31.76618078166564],[-6.1199999999989245,31.666334433811574],[-3.5399999999988268,31.47546259040479],[-3.5399999999988268,40.78725361379752],[-7.079999999998961,41.00804294935549],[-10.7399999999991,41.09057857608236],[-14.519999999999245,41.03192000046843],[-18.35999999999939,40.833007114120576],[-22.259999999999533,40.4965818481299],[-26.27999999999969,40.01682390426748],[-30.359999999999843,39.400274081674276],[-34.5,38.64944900425793],[-34.5,30.0]]]}},{"type":"Feature","properties":{"magnitude":0.5,"de":0.5,"ate":0.8,"percentagem":50.0},"geometry":{"type":"Polygon","coordinates":[[[-34.5,44.939999999999685],[-34.5,38.64944900425793],[-30.119999999999834,39.440011226892594],[-25.79999999999967,40.080931510377845],[-21.959999999999525,40.527076362191366],[-18.17999999999938,40.84533108999216],[-14.399999999999238,41.03592337951198],[-10.679999999999097,41.09035925784113],[-7.079999999998961,41.00804294935549],[-3.5399999999988268,40.78725361379752],[-3.5399999999988268,44.939999999999685],[-34.5,44.939999999999685]]]}}]}