{"type":"FeatureCollection","features":[{"type":"Feature","properties":{"magnitude":0.2,"de":0.2,"ate":0.5,"percentagem":20.0},"geometry":{"type":"Polygon","coordinates":[[[-20.039999999999452,32.249799706157035],[-13.443497722960824,30.0],[-4.2912094737135345,30.0],[-3.846258784083974,31.79999999999996],[-3.5399999999988268,33.34530563443526],[-3.5399999999988268,37.412001097487014],[-3.7611942259053643,37.91999999999983],[-4.019999999998845,38.29165396714736],[-4.439999999998861,38.66269503003188],[-4.979999999998881,38.92323825946276],[-15.059999999999263,42.37010964444037],[-19.19999999999942,43.72480681211066],[-23.06173823223809,44.939999999999685],[-34.5,44.939999999999685],[-34.5,36.83979906948952],[-30.05999999999983,35.503247057733674],[-25.319999999999652,33.99786695865496],[-20.039999999999452,32.249799706157035]]]}},{"type":"Feature","properties":{"magnitude":0.5,"de":0.5,"ate":0.8,"percentagem":50.0},"geometry":{"type":"Polygon","coordinates":[[[-34.5,30.0],[-34.44,30.0],[-13.443497722960824,30.0],[-19.97999999999945,32.22960264231587],[-25.319999999999652,33.99786695865496],[-30.05999999999983,35.503247057733674],[-34.5,36.83979906948952],[-34.5,30.0]]]}}]}