{"type":"FeatureCollection","features":[{"type":"Feature","properties":{"t_inicio":1.1277777777777596,"t_fim":1.2555555555555369},"geometry":{"type":"LineString","coordinates":[[-7.375935544601504,49.86736417155992],[-6.962268079232899,49.67660350123136],[-6.542695127781457,49.48247232294001],[-6.116839506339545,49.284800005605746],[-5.684288506107862,49.08339980078468],[-5.244589009916098,48.878066643600775],[-4.797241711791088,48.668574551479914],[-4.341694229859229,48.45467352690226],[-3.877332842375239,48.23608584338493],[-3.403472495100658,48.01250155751242],[-2.919344616897149,47.78357304016182],[-2.424082126285441,47.54890825135521],[-1.9167007952391657,47.308062386682614],[-1.3960758273960323,47.06052738552728],[-0.8609120585520316,46.80571859120626],[-0.30970552099151405,46.5429575564838],[0.25930689709318244,46.271449538275505],[0.8482145363705911,45.990253526648445],[1.4595241457590475,45.698241536446616],[2.096286653059053,45.39404204664644],[2.7622781270716814,45.07595931575135],[3.4622662376324342,44.74185465713442],[4.202417433407277,44.38896513934481],[4.990947899241263,44.013613940042596]]}}]}