{"type":"FeatureCollection","features":[{"type":"Feature","properties":{"magnitude":0.2,"de":0.2,"ate":0.5,"percentagem":20.0},"geometry":{"type":"Polygon","coordinates":[[[-34.5,30.0],[-34.44,30.0],[-16.3762271525833,30.0],[-22.439999999999543,32.78373758788348],[-26.87999999999971,34.77181078244955],[-30.83999999999986,36.47613105330055],[-34.5,37.97051883313596],[-34.5,30.0]]]}},{"type":"Feature","properties":{"magnitude":0.5,"de":0.5,"ate":0.8,"percentagem":50.0},"geometry":{"type":"Polygon","coordinates":[[[-22.559999999999548,32.83824224695432],[-16.3762271525833,30.0],[-3.5399999999988268,30.0],[-3.5399999999988268,37.072787825108676],[-14.279999999999234,42.0136289572759],[-17.759999999999366,43.567713940632956],[-20.93130386888124,44.939999999999685],[-34.5,44.939999999999685],[-34.5,37.97051883313596],[-30.899999999999864,36.501315428313724],[-26.939999999999714,34.79818853399591],[-22.559999999999548,32.83824224695432]]]}},{"type":"Feature","properties":{"magnitude":0.8,"de":0.8,"ate":0.95,"percentagem":80.0},"geometry":{"type":"Polygon","coordinates":[[[-3.55566069205271,37.07999999999985],[-3.5399999999988268,44.45184416841519],[-4.589164338824375,44.939999999999685],[-20.93130386888124,44.939999999999685],[-17.759999999999366,43.56771394063295],[-14.279999999999236,42.0136289572759],[-3.55566069205271,37.07999999999985]]]}},{"type":"Feature","properties":{"magnitude":0.95,"de":0.95,"ate":0.99,"percentagem":95.0},"geometry":{"type":"Polygon","coordinates":[[[-3.55751410424478,44.459999999999695],[-3.5399999999988268,44.939999999999685],[-4.589164338824375,44.939999999999685],[-4.1399999999988495,44.73116598304863],[-3.55751410424478,44.459999999999695]]]}}]}