{"type":"FeatureCollection","features":[{"type":"Feature","properties":{"magnitude":0.2,"percentagem":20.0,"territorio":"continente"},"geometry":{"type":"LineString","coordinates":[[-5.540000000000106,42.801341216948394],[-5.580000000000105,42.803764598600125],[-5.620000000000104,42.806178902869576],[-5.660000000000103,42.808584136876775],[-5.700000000000102,42.810980307730595],[-5.7400000000001015,42.81336742252883],[-5.780000000000101,42.815745488358175],[-5.8200000000001,42.81811451229425],[-5.860000000000099,42.82047450140167],[-5.900000000000098,42.82282546273401],[-5.940000000000097,42.82516740333389],[-5.980000000000096,42.8275003302329],[-6.0200000000000955,42.82982425045175],[-6.060000000000095,42.8321391710002],[-6.100000000000094,42.83444509887711],[-6.140000000000093,42.83674204107045],[-6.180000000000092,42.8390300045574],[-6.197025083746082,42.83999999999985],[-6.220000000000091,42.84130940520395],[-6.26000000000009,42.84358014114912],[-6.3000000000000895,42.845841916305176],[-6.340000000000089,42.84809473761022],[-6.380000000000088,42.85033861199153],[-6.420000000000087,42.85257354636573],[-6.460000000000086,42.85479954763869],[-6.500000000000085,42.857016622705615],[-6.540000000000084,42.859224778451036],[-6.580000000000084,42.861424021748846],[-6.620000000000083,42.86361435946234],[-6.660000000000082,42.86579579844419],[-6.700000000000081,42.867968345536525],[-6.74000000000008,42.8701320075709],[-6.780000000000079,42.87228679136835],[-6.820000000000078,42.87443270373943],[-6.860000000000078,42.876569751484155],[-6.900000000000077,42.87869794139214],[-6.924574924282379,42.87999999999985],[-6.940000000000076,42.880817535574266],[-6.980000000000075,42.88292868939805],[-7.020000000000074,42.885031002800716],[-7.060000000000073,42.88712448253414],[-7.1000000000000725,42.88920913533982],[-7.140000000000072,42.89128496794892],[-7.180000000000071,42.89335198708227],[-7.22000000000007,42.895410199450424],[-7.260000000000069,42.897459611753646],[-7.300000000000068,42.899500230681944],[-7.340000000000067,42.901532062915095],[-7.3800000000000665,42.90355511512266],[-7.420000000000066,42.90556939396403],[-7.460000000000065,42.90757490608837],[-7.500000000000064,42.90957165813479],[-7.540000000000063,42.911559656732166],[-7.580000000000063,42.91353890849936],[-7.620000000000061,42.91550942004508],[-7.66000000000006,42.917471197968055],[-7.70000000000006,42.91942424885686],[-7.711844847760578,42.91999999999985],[-7.740000000000059,42.92136900689237],[-7.780000000000058,42.92330522811453],[-7.820000000000057,42.92523273918031],[-7.860000000000056,42.92715154664208],[-7.900000000000055,42.929061657042226],[-7.940000000000055,42.93096307691324],[-7.980000000000054,42.9328558127777],[-8.020000000000053,42.9347398711483],[-8.060000000000052,42.936615258527866],[-8.100000000000051,42.93848198140937],[-8.14000000000005,42.94034004627598],[-8.18000000000005,42.94218945960107],[-8.220000000000049,42.94403022784819],[-8.260000000000048,42.94586235747116],[-8.300000000000047,42.94768585491406],[-8.340000000000046,42.94950072661124],[-8.380000000000045,42.95130697898737],[-8.420000000000044,42.953104618457374],[-8.460000000000043,42.95489365142663],[-8.500000000000043,42.956674084290796],[-8.54000000000004,42.95844592343589],[-8.575254863486581,42.95999999999985]]}},{"type":"Feature","properties":{"magnitude":0.4,"percentagem":40.0,"territorio":"continente"},"geometry":{"type":"LineString","coordinates":[[-9.641180416563852,36.0],[-9.660000000000018,36.00061306629097],[-9.700000000000017,36.0019071157647],[-9.740000000000016,36.00319219939156],[-9.780000000000015,36.00446832454847],[-9.820000000000014,36.00573549860211],[-9.860000000000014,36.00699372890881],[-9.900000000000013,36.008243022814646],[-9.940000000000012,36.009483387655436],[-9.980000000000011,36.01071483075676],[-10.02000000000001,36.01193735943398],[-10.06000000000001,36.01315098099227],[-10.100000000000009,36.01435570272664],[-10.140000000000008,36.015551531921936],[-10.180000000000007,36.016738475852854],[-10.220000000000006,36.01791654178402],[-10.260000000000005,36.01908573696991],[-10.300000000000004,36.020246068655005],[-10.340000000000003,36.02139754407365],[-10.380000000000003,36.02254017045023],[-10.420000000000002,36.02367395499907],[-10.46,36.02479890492453],[-10.5,36.025915027421]]}},{"type":"Feature","properties":{"magnitude":0.2,"percentagem":20.0,"territorio":"acores"},"geometry":{"type":"LineString","coordinates":[[-25.81030925511542,40.479999999999905],[-25.810431581726178,40.439999999999905],[-25.800000000000132,40.42956841827386],[-25.770557724746006,40.399999999999906],[-25.770678091811632,40.35999999999991],[-25.770797512138135,40.31999999999991],[-25.760000000000133,40.3092024878619],[-25.730920669161836,40.27999999999991],[-25.73103819869242,40.23999999999991],[-25.731154814476508,40.19999999999991],[-25.731270527065064,40.15999999999991],[-25.720000000000134,40.14872947293498],[-25.691389880133407,40.11999999999991],[-25.691503788424743,40.07999999999991],[-25.69161682451744,40.039999999999914],[-25.6917289983293,39.999999999999915],[-25.680000000000135,39.988271001670746],[-25.651844719950898,39.959999999999916],[-25.65195517077047,39.919999999999916],[-25.652064788459004,39.87999999999992],[-25.652173582347945,39.83999999999992],[-25.640000000000136,39.827826417652105],[-25.612285834755465,39.79999999999992],[-25.61239298214727,39.75999999999992],[-25.612499333177727,39.71999999999992],[-25.612604896634615,39.67999999999992],[-25.600000000000136,39.66739510336544],[-25.572713832538774,39.63999999999992],[-25.572817821534336,39.59999999999992],[-25.57292104880681,39.559999999999924],[-25.560000000000137,39.54707895119326],[-25.533027581658025,39.519999999999925],[-25.533129285917433,39.479999999999926],[-25.53323025318533,39.43999999999993],[-25.533330491389197,39.39999999999993],[-25.520000000000138,39.386669508610865],[-25.493433954500528,39.35999999999993],[-25.493532734668797,39.31999999999993],[-25.493630809108822,39.27999999999993],[-25.49372818530402,39.23999999999993],[-25.48000000000014,39.22627181469605],[-25.453828708556607,39.19999999999993],[-25.453924688051707,39.15999999999993],[-25.454019991339074,39.11999999999993],[-25.45411462548871,39.079999999999934],[-25.44000000000014,39.06588537451136],[-25.4142123315385,39.039999999999935],[-25.41430562693318,38.999999999999936],[-25.41439827401761,38.95999999999994],[-25.414490279476578,38.91999999999994],[-25.40000000000014,38.905509720523504],[-25.3745852842499,38.87999999999994],[-25.374676005739687,38.83999999999994],[-25.374766105303728,38.79999999999994],[-25.374855589267455,38.75999999999994],[-25.36000000000014,38.74514441073263],[-25.334948002416347,38.71999999999994],[-25.335036254249715,38.67999999999994],[-25.335123909130033,38.639999999999944],[-25.33521097304721,38.599999999999945],[-25.320000000000142,38.584789026952876],[-25.295300898368257,38.559999999999945],[-25.29538677924242,38.519999999999946],[-25.295472086817597,38.47999999999995],[-25.29555682677013,38.43999999999995],[-25.280000000000143,38.42444317322996],[-25.255644362590193,38.39999999999995],[-25.25572796601571,38.35999999999995],[-25.255811018563563,38.31999999999995],[-25.255893525616784,38.27999999999995],[-25.240000000000144,38.26410647438331],[-25.21597876514864,38.23999999999995],[-25.21606017978565,38.19999999999995],[-25.216141064812845,38.159999999999954],[-25.216221425338645,38.119999999999955],[-25.200000000000145,38.10377857466146],[-25.176304457009238,38.079999999999956],[-25.176383766977885,38.03999999999996],[-25.17646256752431,37.99999999999996],[-25.176540863499625,37.95999999999996],[-25.160000000000146,37.94345913650048],[-25.136621771253346,37.91999999999996],[-25.136699056420653,37.87999999999996],[-25.136775851340815,37.83999999999996],[-25.136852160623604,37.79999999999996],[-25.120000000000147,37.783147839376504],[-25.096931024202775,37.75999999999996],[-25.097006360448074,37.71999999999996],[-25.097081224671435,37.679999999999964],[-25.09715562125615,37.639999999999965],[-25.080000000000148,37.62284437874396],[-25.05723251646075,37.599999999999966],[-25.05730597592141,37.55999999999997],[-25.057378980693592,37.51999999999997],[-25.057451534947838,37.47999999999997],[-25.04000000000015,37.46254846505228],[-25.017526533876158,37.43999999999997],[-25.017598185175437,37.39999999999997],[-25.017669398281814,37.35999999999997],[-25.017740177165827,37.31999999999997],[-25.00000000000015,37.302259822834294],[-24.977813348437735,37.27999999999997],[-24.977883256896142,37.239999999999974],[-24.977952742869366,37.199999999999974],[-24.978021810139776,37.159999999999975],[-24.96000000000015,37.14197818986035],[-24.938093219103997,37.119999999999976],[-24.938161446935595,37.07999999999998],[-24.93822926724833,37.03999999999998],[-24.93829668364744,36.99999999999998],[-24.938363699695792,36.95999999999998],[-24.92000000000015,36.94163630030434],[-24.898432999069072,36.91999999999998],[-24.89849921231324,36.87999999999998],[-24.89856503574505,36.83999999999998],[-24.898630472762918,36.79999999999998],[-24.88000000000015,36.78136952723722],[-24.858698145699254,36.759999999999984],[-24.858762807752782,36.719999999999985],[-24.858827093446838,36.679999999999986],[-24.85889100602476,36.639999999999986],[-24.840000000000153,36.62110899397538],[-24.818957108511693,36.59999999999999],[-24.819020272693827,36.55999999999999],[-24.819083073357827,36.51999999999999],[-24.819145513600706,36.47999999999999],[-24.800000000000153,36.46085448639944],[-24.779210099085468,36.43999999999999],[-24.779271816301545,36.39999999999999],[-24.77933318226364,36.35999999999999],[-24.779394199930586,36.31999999999999],[-24.779454872228122,36.279999999999994],[-24.760000000000154,36.260545127772026],[-24.739517638339066,36.239999999999995],[-24.739577617680602,36.199999999999996],[-24.73963726031546,36.16],[-24.739696569040646,36.12],[-24.720000000000155,36.10030343095951],[-24.69975792968982,36.08],[-24.699816568369314,36.04],[-24.699874881422552,36.0]]}}]}