{"type":"FeatureCollection","features":[{"type":"Feature","properties":{"t_inicio":-1.8166666666666744,"t_fim":-1.7111111111111192},"geometry":{"type":"LineString","coordinates":[[-10.977384671559093,45.304697109184964],[-8.846287348786632,44.62581902478589],[-7.292195829301136,44.11266739418292],[-6.020131070286766,43.68099792410861],[-4.923772510659035,43.30037699572882],[-3.9503253575101667,42.955659971929066],[-3.0690226254550907,42.638002589949174],[-2.2600761847695026,42.34170482179156],[-1.5098710035089198,42.06283681064839],[-0.8085665084196876,41.798552416440394],[-0.14877755784095825,41.54671138475638],[0.47520536397894375,41.30565577131179],[1.067903890088587,41.074069976502216],[1.632970943520661,40.85088907157832],[2.173407496429263,40.635236484627775],[2.6917144189954456,40.426380308000844],[3.190001698490164,40.22370184392987],[3.6700687990466463,40.02667244086098],[4.133464966117515,39.834836095295806],[4.581535271719815,39.64779615572232]]}}]}