{"type":"FeatureCollection","features":[{"type":"Feature","properties":{"magnitude":0.8,"percentagem":80.0,"territorio":"continente"},"geometry":{"type":"LineString","coordinates":[[-10.5,38.41035383058217],[-10.4682796672582,38.39999999999995],[-10.46,38.397297965705675],[-10.420000000000002,38.384233717957464],[-10.380000000000003,38.371157347993126],[-10.345901014442237,38.35999999999996],[-10.340000000000003,38.35806953837048],[-10.300000000000004,38.34497360472773],[-10.260000000000005,38.33186552124652],[-10.223824738456704,38.31999999999995],[-10.220000000000006,38.31874572667929],[-10.180000000000007,38.30561803219547],[-10.140000000000008,38.29247816016714],[-10.102049249299586,38.27999999999995],[-10.100000000000009,38.27932634024227],[-10.06000000000001,38.26616680976096],[-10.02000000000001,38.25299507394567],[-9.980572966077743,38.23999999999995],[-9.980000000000011,38.239811188036626],[-9.940000000000012,38.22661974619233],[-9.900000000000013,38.213416071141324],[-9.860000000000014,38.20020015024735],[-9.859394676917288,38.19999999999995],[-9.820000000000014,38.18697664962841],[-9.780000000000015,38.17374095968488],[-9.740000000000016,38.1604929959054],[-9.738512621886677,38.159999999999954],[-9.700000000000017,38.147237327581735],[-9.660000000000018,38.13396954688158],[-9.620000000000019,38.120689464269745],[-9.617924907829916,38.119999999999955],[-9.58000000000002,38.10740158694153],[-9.54000000000002,38.09410163941452],[-9.500000000000023,38.080789361817345],[-9.497629991637574,38.07999999999996],[-9.460000000000022,38.0674692339771],[-9.420000000000023,38.05413704334748],[-9.380000000000024,38.04079249440687],[-9.377626339024147,38.03999999999996],[-9.340000000000025,38.02744007434096],[-9.300000000000026,38.014075564128625],[-9.260000000000028,38.00069866728234],[-9.257912424474142,37.99999999999996],[-9.220000000000027,37.98731391307234],[-9.180000000000028,37.973917006593794],[-9.140000000000029,37.96050768507637],[-9.138486731190063,37.95999999999996],[-9.10000000000003,37.9470905546007],[-9.06000000000003,37.933661174970055],[-9.020000000000032,37.92021935181403],[-9.019347751039952,37.91999999999996],[-8.980000000000032,37.90676980274935],[-8.940000000000033,37.893307872879504],[-8.90049427375945,37.87999999999995],[-8.900000000000034,37.87983353036286],[-8.860000000000035,37.86635146073933],[-8.820000000000036,37.852856903342925],[-8.781925064986355,37.83999999999996],[-8.780000000000037,37.83935007713659],[-8.740000000000038,37.825835331193105],[-8.700000000000038,37.81230806878386],[-8.66363825775218,37.79999999999996],[-8.66000000000004,37.79876871600577],[-8.62000000000004,37.78522121613875],[-8.580000000000041,37.77166117103253],[-8.545632376233685,37.75999999999996],[-8.540000000000042,37.75808924860507],[-8.500000000000043,37.74450891701398],[-8.460000000000043,37.73091601133009],[-8.427905953030871,37.71999999999996],[-8.420000000000044,37.71731147598172],[-8.380000000000045,37.70369823467048],[-8.340000000000046,37.69007239033296],[-8.310457529117999,37.679999999999964],[-8.300000000000047,37.67643519860013],[-8.260000000000048,37.662788969378255],[-8.220000000000049,37.64913010811718],[-8.193285653797037,37.639999999999965],[-8.18000000000005,37.635460216346054],[-8.14000000000005,37.62178092083019],[-8.100000000000051,37.608088964183054],[-8.07638888464989,37.599999999999966],[-8.060000000000052,37.594386328531456],[-8.020000000000053,37.580673888146684],[-7.980000000000053,37.566948757459784],[-7.959765787492467,37.55999999999997],[-7.940000000000055,37.55321333389923],[-7.900000000000055,37.53946766988044],[-7.860000000000056,37.525709286310416],[-7.843414936329124,37.51999999999997],[-7.820000000000057,37.511941030627945],[-7.780000000000058,37.49816206402146],[-7.740000000000059,37.484370348536736],[-7.727334913307404,37.47999999999997],[-7.70000000000006,37.470569216337026],[-7.6600000000000605,37.456756868002174],[-7.620000000000061,37.4429317413845],[-7.61152430867361,37.43999999999997],[-7.580000000000062,37.42909768809198],[-7.540000000000063,37.41525187870251],[-7.500000000000064,37.401393261548606],[-7.495981720729308,37.39999999999997],[-7.460000000000065,37.387526242409564],[-7.420000000000066,37.37364689245542],[-7.3807061586855855,37.35999999999997],[-7.3800000000000665,37.359754791939984],[-7.340000000000067,37.34585467526343],[-7.300000000000068,37.33194170505234],[-7.2656982725090975,37.31999999999998],[-7.260000000000069,37.31801656922153],[-7.22000000000007,37.30408278208963],[-7.18000000000007,37.290136111748936],[-7.150954383938254,37.27999999999997],[-7.140000000000072,37.27617789535588],[-7.1000000000000725,37.26221035779257],[-7.060000000000074,37.24822990727096],[-7.0364731212962734,37.239999999999974],[-7.020000000000074,37.234238564898874],[-6.980000000000075,37.22023719675078],[-6.940000000000076,37.20622288582011],[-6.922253120756139,37.199999999999974],[-6.900000000000077,37.19219837188493],[-6.860000000000078,37.17816309282319],[-6.820000000000078,37.16411484108052],[-6.808293026300404,37.15999999999997],[-6.780000000000079,37.15005710983305],[-6.74000000000008,37.135987839355366],[-6.700000000000081,37.12190556622472],[-6.694591489681705,37.119999999999976],[-6.660000000000082,37.107814571753416],[-6.620000000000083,37.093711229185956],[-6.581147816243017,37.07999999999998],[-6.580000000000084,37.0795949964891],[-6.540000000000084,37.06547055015386],[-6.500000000000085,37.05133305465329],[-6.467963206727912,37.03999999999998],[-6.460000000000086,37.03718348717102],[-6.420000000000087,37.023024837046634],[-6.380000000000089,37.00885310760231],[-6.355033282685035,36.99999999999998],[-6.340000000000089,36.994670158973385],[-6.3000000000000895,36.98047722395535],[-6.26000000000009,36.96627117939138],[-6.242356724818572,36.95999999999998],[-6.220000000000091,36.95205480310187],[-6.180000000000092,36.93782750192209],[-6.140000000000093,36.923587060899585],[-6.129932221416509,36.91999999999998],[-6.100000000000094,36.90933721028567],[-6.060000000000095,36.89507546151466],[-6.020000000000095,36.88080054253407],[-6.017758468314421,36.87999999999998],[-5.980000000000096,36.86651717078485],[-5.940000000000097,36.8522208928341],[-5.905837413845668,36.83999999999998],[-5.900000000000098,36.83791214596038],[-5.860000000000099,36.823594474398064],[-5.8200000000001,36.809263585522416],[-5.794165891176302,36.79999999999998],[-5.780000000000101,36.79492124431772],[-5.7400000000001015,36.780568910470265],[-5.700000000000102,36.766203328770345],[-5.682741367344738,36.759999999999984],[-5.660000000000103,36.75182734601692],[-5.620000000000104,36.73744026790072],[-5.580000000000105,36.72303991132552],[-5.571562566302397,36.719999999999985],[-5.540000000000106,36.70863023966967]]}},{"type":"Feature","properties":{"magnitude":0.9,"percentagem":90.0,"territorio":"continente"},"geometry":{"type":"LineString","coordinates":[[-10.5,42.417578617780464],[-10.46,42.40469552624902],[-10.44543306633429,42.399999999999864],[-10.420000000000002,42.39180405890712],[-10.380000000000003,42.37890262200068],[-10.340000000000003,42.36598907099268],[-10.321464263643287,42.359999999999864],[-10.300000000000004,42.35306654156026],[-10.260000000000005,42.34013460099044],[-10.220000000000006,42.327190518952705],[-10.197798735054526,42.319999999999865],[-10.180000000000007,42.3142368982089],[-10.140000000000008,42.30127438229952],[-10.100000000000009,42.28829969746916],[-10.074434903410626,42.279999999999866],[-10.06000000000001,42.27531495599384],[-10.02000000000001,42.26232179285954],[-9.980000000000011,42.24931643326438],[-9.95137120067708,42.23999999999987],[-9.940000000000012,42.23630054143946],[-9.900000000000013,42.22327665898597],[-9.860000000000014,42.21024055244517],[-9.828606067885023,42.199999999999875],[-9.820000000000014,42.197193480455475],[-9.780000000000015,42.184138806380346],[-9.740000000000016,42.17107188050486],[-9.706137955073663,42.15999999999987],[-9.700000000000017,42.15799359833934],[-9.660000000000018,42.144908060132344],[-9.620000000000019,42.1318102423256],[-9.583965321234052,42.11999999999987],[-9.58000000000002,42.118700719778396],[-9.54000000000002,42.105584244722294],[-9.500000000000021,42.092455462180666],[-9.462086634253446,42.07999999999987],[-9.460000000000022,42.07931466885224],[-9.420000000000023,42.06616718402324],[-9.380000000000024,42.05300736373684],[-9.340500370859873,42.03999999999987],[-9.340000000000025,42.039835269035216],[-9.300000000000026,42.02665670130377],[-9.260000000000026,42.01346577005693],[-9.220000000000027,42.00026246179203],[-9.219205455947199,41.99999999999987],[-9.180000000000028,41.98705261923027],[-9.140000000000029,41.97383050360237],[-9.10000000000003,41.960595982772595],[-9.098200058894024,41.95999999999987],[-9.06000000000003,41.9473547598697],[-9.020000000000032,41.93410138623581],[-8.980000000000032,41.92083557913056],[-8.977482407320997,41.919999999999874],[-8.940000000000033,41.90756294469237],[-8.900000000000034,41.8942782392241],[-8.860000000000035,41.88098107192932],[-8.857051014597598,41.879999999999875],[-8.820000000000036,41.86767699457473],[-8.780000000000037,41.854360883240886],[-8.740000000000038,41.84103228164002],[-8.736904402660823,41.839999999999876],[-8.700000000000038,41.82769672980227],[-8.66000000000004,41.81434913836978],[-8.620000000000038,41.80098902814452],[-8.617041101963908,41.799999999999876],[-8.580000000000041,41.78762197007268],[-8.540000000000042,41.77424282410738],[-8.500000000000043,41.760851130738544],[-8.497459651425961,41.75999999999988],[-8.460000000000043,41.747452534498834],[-8.420000000000044,41.7340417593664],[-8.380000000000043,41.72061840813483],[-8.378158598382116,41.71999999999988],[-8.340000000000046,41.7071882416121],[-8.300000000000047,41.69374576247895],[-8.260000000000048,41.68029067846645],[-8.25913649853434,41.67999999999988],[-8.220000000000049,41.666828909365805],[-8.18000000000005,41.653354651200004],[-8.140392128498181,41.63999999999988],[-8.14000000000005,41.63986781877473],[-8.100000000000051,41.62637435513848],[-8.060000000000052,41.612868242710846],[-8.021924463863192,41.59999999999988],[-8.020000000000053,41.599349760068364],[-7.980000000000054,41.58582439573755],[-7.940000000000055,41.57228635362256],[-7.90373161395123,41.55999999999988],[-7.900000000000055,41.558736187965515],[-7.860000000000056,41.54517884740302],[-7.820000000000057,41.53160879997992],[-7.785812165695993,41.51999999999988],[-7.780000000000058,41.518026918336844],[-7.740000000000059,41.50443752581123],[-7.70000000000006,41.49083539726516],[-7.668164714166251,41.47999999999988],[-7.6600000000000605,41.477221766492306],[-7.620000000000061,41.46360024607874],[-7.580000000000061,41.44996596040187],[-7.550787862521105,41.439999999999884],[-7.540000000000063,41.43632054718478],[-7.500000000000064,41.42266682276641],[-7.460000000000065,41.409000303759164],[-7.433680221963886,41.399999999999885],[-7.420000000000066,41.39532307461449],[-7.3800000000000665,41.38163706988364],[-7.340000000000067,41.36793824115574],[-7.316840411698163,41.359999999999886],[-7.300000000000068,41.35422916243314],[-7.260000000000069,41.34051080089232],[-7.22000000000007,41.3267795858643],[-7.200267058883654,41.31999999999988],[-7.180000000000071,41.31303862374814],[-7.140000000000072,41.29928782871167],[-7.1000000000000725,41.28552415061597],[-7.083958798592672,41.27999999999989],[-7.060000000000073,41.271751271127314],[-7.020000000000074,41.2579679657224],[-6.980000000000075,41.244171747604895],[-6.967914273767427,41.23999999999989],[-6.940000000000076,41.23036691660334],[-6.900000000000077,41.21655102377163],[-6.860000000000078,41.202722188492814],[-6.852132135177909,41.19999999999989],[-6.820000000000078,41.18888537167861],[-6.780000000000079,41.17503681417748],[-6.74000000000008,41.161175284414156],[-6.736611041379902,41.15999999999989],[-6.700000000000081,41.147306447330024],[-6.660000000000082,41.13342514773417],[-6.621350370411407,41.11999999999989],[-6.620000000000083,41.11953105556968],[-6.580000000000084,41.10562995401411],[-6.540000000000084,41.091715834716936],[-6.506350000180407,41.079999999999885],[-6.500000000000085,41.0777896706995],[-6.460000000000086,41.06385570167218],[-6.420000000000087,41.04990868488744],[-6.391606819372287,41.03999999999989],[-6.380000000000088,41.03595041411985],[-6.340000000000089,41.02198349973551],[-6.3000000000000895,41.00800350749887],[-6.277119515593548,40.99999999999989],[-6.26000000000009,40.99401309493435],[-6.220000000000091,40.98001315713091],[-6.180000000000092,40.96600011130168],[-6.162886784040735,40.959999999999894],[-6.140000000000093,40.95197752174619],[-6.100000000000094,40.93794448228634],[-6.060000000000094,40.923898304549105],[-6.048907327462814,40.919999999999895],[-6.0200000000000955,40.9098435026635],[-5.980000000000096,40.895777283136596],[-5.940000000000097,40.88169789500296],[-5.935179856122963,40.879999999999896],[-5.900000000000098,40.86761084530557],[-5.860000000000099,40.853511367129244],[-5.821703972073226,40.8399999999999],[-5.8200000000001,40.839398957529575],[-5.780000000000101,40.82527935680857],[-5.7400000000001015,40.811146541230684],[-5.708480137925331,40.7999999999999],[-5.700000000000102,40.797001830353516],[-5.660000000000103,40.782848843831914],[-5.620000000000104,40.76868261193241],[-5.595504575784351,40.7599999999999],[-5.580000000000105,40.75450556389698],[-5.540000000000106,40.74031911256449]]}},{"type":"Feature","properties":{"magnitude":0.95,"percentagem":95.0,"territorio":"continente"},"geometry":{"type":"LineString","coordinates":[[-5.929172465068289,42.95999999999985],[-5.900000000000098,42.94980134760968],[-5.860000000000099,42.93580503148006],[-5.8200000000001,42.92179548646687],[-5.814877379298265,42.91999999999985],[-5.780000000000101,42.9077788042065],[-5.7400000000001015,42.89374977386781],[-5.700833060468195,42.87999999999985],[-5.700000000000102,42.879707630064054],[-5.660000000000103,42.86565908287942],[-5.620000000000104,42.85159726084311],[-5.587040495174154,42.839999999999854],[-5.580000000000105,42.83752338459743],[-5.540000000000106,42.82344199870445]]}},{"type":"Feature","properties":{"magnitude":0.6,"percentagem":60.0,"territorio":"madeira"},"geometry":{"type":"LineString","coordinates":[[-18.0,33.10872753479755],[-17.969526090069625,33.09999999999992],[-17.96,33.097272115764184],[-17.92,33.08580794673998],[-17.880000000000003,33.07433305850475],[-17.840000000000007,33.06284744143546],[-17.830091932678233,33.059999999999924],[-17.800000000000004,33.05135302734146],[-17.760000000000005,33.03984850932359],[-17.720000000000006,33.028333238922485],[-17.691079441501245,33.019999999999925],[-17.680000000000007,33.01680792215247],[-17.640000000000008,33.005273705919265],[-17.60000000000001,32.993728713672716],[-17.56000000000001,32.982172935711766],[-17.552484817367908,32.979999999999926],[-17.52000000000001,32.97060846621114],[-17.48000000000001,32.95903368337506],[-17.440000000000012,32.94744809108166],[-17.41430800214273,32.93999999999993],[-17.400000000000013,32.93585260737259],[-17.360000000000014,32.924247964972324],[-17.320000000000014,32.91263248929068],[-17.280000000000015,32.9010061705481],[-17.27654119111359,32.89999999999993],[-17.240000000000016,32.88937137466098],[-17.200000000000017,32.877725946304494],[-17.160000000000018,32.86606965094982],[-17.139189598905183,32.85999999999993],[-17.12000000000002,32.854403727891075],[-17.08000000000002,32.842728277342374],[-17.04000000000002,32.83104193577678],[-17.002240665136416,32.81999999999993],[-17.00000000000002,32.81934483936618],[-16.960000000000022,32.80763929687695],[-16.920000000000023,32.79592283927072],[-16.880000000000024,32.78419545665702],[-16.865702386107678,32.77999999999993],[-16.840000000000025,32.77245881863444],[-16.800000000000026,32.760712174926724],[-16.760000000000026,32.74895458199774],[-16.729563581534386,32.73999999999993],[-16.720000000000027,32.737186655594506],[-16.680000000000028,32.72540975549341],[-16.64000000000003,32.71362188187559],[-16.60000000000003,32.701823024771315],[-16.593824839910347,32.69999999999993],[-16.56000000000003,32.690015392973024],[-16.52000000000003,32.67819716806167],[-16.480000000000032,32.666367935254435],[-16.458486072420556,32.65999999999993],[-16.440000000000033,32.6545288986216],[-16.400000000000034,32.64268025158084],[-16.360000000000035,32.630820572152956],[-16.323538266962053,32.61999999999993],[-16.320000000000036,32.618950082949226],[-16.280000000000037,32.607070942712],[-16.240000000000038,32.595180745514625],[-16.20000000000004,32.583279481275234],[-16.18898707308411,32.579999999999934],[-16.16000000000004,32.57136905098845],[-16.12000000000004,32.559448264641524],[-16.08000000000004,32.547516386565206],[-16.054824724899838,32.539999999999935],[-16.040000000000042,32.53557438519816],[-16.000000000000043,32.523622938090554],[-15.960000000000043,32.511660374484244],[-15.921046567486282,32.499999999999936],[-15.920000000000044,32.49968675338423],[-15.880000000000045,32.487704573673774],[-15.840000000000046,32.47571125261329],[-15.800000000000047,32.46370678000827],[-15.787659190666872,32.45999999999994],[-15.760000000000048,32.451692978458915],[-15.720000000000049,32.4396688277892],[-15.68000000000005,32.427633500609026],[-15.654652205416422,32.41999999999994],[-15.64000000000005,32.41558795877001],[-15.600000000000051,32.40353290610507],[-15.560000000000052,32.391466651881714],[-15.522022771852757,32.37999999999994],[-15.520000000000053,32.379389320187855],[-15.480000000000054,32.36730329291105],[-15.440000000000055,32.35520603894586],[-15.400000000000055,32.34309754798452],[-15.389775988462596,32.33999999999994],[-15.360000000000056,32.33097979281497],[-15.320000000000057,32.318851466178685],[-15.280000000000058,32.306711877301474],[-15.257903729617386,32.29999999999994],[-15.240000000000059,32.29456220968309],[-15.20000000000006,32.28240273721612],[-15.16000000000006,32.27023197718133],[-15.126402512398897,32.25999999999994],[-15.120000000000061,32.25805034664087],[-15.080000000000062,32.24585965495346],[-15.040000000000063,32.233657650289324]]}}]}