{"type":"FeatureCollection","properties":{"largura_maxima_km":91.718,"largura_sobre_pt_km":79.038,"linha_central_sobre_pt":true,"desenhavel_como_area":true,"perfil_largura":[{"t":0.11667,"lat":45.2429,"lon":-39.9675,"largura_km":91.718,"eixo_na_terra":true},{"t":0.12222,"lat":45.2471,"lon":-39.7985,"largura_km":91.685,"eixo_na_terra":true},{"t":0.12778,"lat":45.251,"lon":-39.6294,"largura_km":91.653,"eixo_na_terra":true},{"t":0.13333,"lat":45.2546,"lon":-39.4601,"largura_km":91.619,"eixo_na_terra":true},{"t":0.13889,"lat":45.2578,"lon":-39.2907,"largura_km":91.586,"eixo_na_terra":true},{"t":0.14444,"lat":45.2608,"lon":-39.1211,"largura_km":91.552,"eixo_na_terra":true},{"t":0.15,"lat":45.2634,"lon":-38.9514,"largura_km":91.519,"eixo_na_terra":true},{"t":0.15556,"lat":45.2657,"lon":-38.7815,"largura_km":91.484,"eixo_na_terra":true},{"t":0.16111,"lat":45.2677,"lon":-38.6115,"largura_km":91.45,"eixo_na_terra":true},{"t":0.16667,"lat":45.2694,"lon":-38.4414,"largura_km":91.415,"eixo_na_terra":true},{"t":0.17222,"lat":45.2707,"lon":-38.271,"largura_km":91.379,"eixo_na_terra":true},{"t":0.17778,"lat":45.2717,"lon":-38.1006,"largura_km":91.343,"eixo_na_terra":true},{"t":0.18333,"lat":45.2724,"lon":-37.9299,"largura_km":91.306,"eixo_na_terra":true},{"t":0.18889,"lat":45.2728,"lon":-37.7592,"largura_km":91.269,"eixo_na_terra":true},{"t":0.19444,"lat":45.2728,"lon":-37.5882,"largura_km":91.231,"eixo_na_terra":true},{"t":0.2,"lat":45.2726,"lon":-37.4171,"largura_km":91.193,"eixo_na_terra":true},{"t":0.20556,"lat":45.272,"lon":-37.2459,"largura_km":91.154,"eixo_na_terra":true},{"t":0.21111,"lat":45.271,"lon":-37.0745,"largura_km":91.114,"eixo_na_terra":true},{"t":0.21667,"lat":45.2698,"lon":-36.9029,"largura_km":91.074,"eixo_na_terra":true},{"t":0.22222,"lat":45.2682,"lon":-36.7312,"largura_km":91.034,"eixo_na_terra":true},{"t":0.22778,"lat":45.2663,"lon":-36.5593,"largura_km":90.993,"eixo_na_terra":true},{"t":0.23333,"lat":45.2641,"lon":-36.3873,"largura_km":90.951,"eixo_na_terra":true},{"t":0.23889,"lat":45.2615,"lon":-36.215,"largura_km":90.909,"eixo_na_terra":true},{"t":0.24444,"lat":45.2587,"lon":-36.0427,"largura_km":90.866,"eixo_na_terra":true},{"t":0.25,"lat":45.2554,"lon":-35.8701,"largura_km":90.823,"eixo_na_terra":true},{"t":0.25556,"lat":45.2519,"lon":-35.6974,"largura_km":90.779,"eixo_na_terra":true},{"t":0.26111,"lat":45.248,"lon":-35.5245,"largura_km":90.735,"eixo_na_terra":true},{"t":0.26667,"lat":45.2438,"lon":-35.3515,"largura_km":90.691,"eixo_na_terra":true},{"t":0.27222,"lat":45.2393,"lon":-35.1783,"largura_km":90.647,"eixo_na_terra":true},{"t":0.27778,"lat":45.2344,"lon":-35.0049,"largura_km":90.602,"eixo_na_terra":true},{"t":0.28333,"lat":45.2292,"lon":-34.8313,"largura_km":90.557,"eixo_na_terra":true},{"t":0.28889,"lat":45.2237,"lon":-34.6576,"largura_km":90.511,"eixo_na_terra":true},{"t":0.29444,"lat":45.2178,"lon":-34.4837,"largura_km":90.464,"eixo_na_terra":true},{"t":0.3,"lat":45.2116,"lon":-34.3096,"largura_km":90.417,"eixo_na_terra":true},{"t":0.30556,"lat":45.205,"lon":-34.1354,"largura_km":90.37,"eixo_na_terra":true},{"t":0.31111,"lat":45.1981,"lon":-33.9609,"largura_km":90.321,"eixo_na_terra":true},{"t":0.31667,"lat":45.1909,"lon":-33.7863,"largura_km":90.273,"eixo_na_terra":true},{"t":0.32222,"lat":45.1834,"lon":-33.6115,"largura_km":90.223,"eixo_na_terra":true},{"t":0.32778,"lat":45.1755,"lon":-33.4366,"largura_km":90.173,"eixo_na_terra":true},{"t":0.33333,"lat":45.1672,"lon":-33.2614,"largura_km":90.123,"eixo_na_terra":true},{"t":0.33889,"lat":45.1586,"lon":-33.0861,"largura_km":90.071,"eixo_na_terra":true},{"t":0.34444,"lat":45.1497,"lon":-32.9105,"largura_km":90.02,"eixo_na_terra":true},{"t":0.35,"lat":45.1404,"lon":-32.7348,"largura_km":89.967,"eixo_na_terra":true},{"t":0.35556,"lat":45.1308,"lon":-32.5589,"largura_km":89.914,"eixo_na_terra":true},{"t":0.36111,"lat":45.1209,"lon":-32.3828,"largura_km":89.861,"eixo_na_terra":true},{"t":0.36667,"lat":45.1106,"lon":-32.2065,"largura_km":89.807,"eixo_na_terra":true},{"t":0.37222,"lat":45.0999,"lon":-32.0301,"largura_km":89.752,"eixo_na_terra":true},{"t":0.37778,"lat":45.0889,"lon":-31.8534,"largura_km":89.697,"eixo_na_terra":true},{"t":0.38333,"lat":45.0776,"lon":-31.6765,"largura_km":89.642,"eixo_na_terra":true},{"t":0.38889,"lat":45.0659,"lon":-31.4995,"largura_km":89.586,"eixo_na_terra":true},{"t":0.39444,"lat":45.0538,"lon":-31.3222,"largura_km":89.53,"eixo_na_terra":true},{"t":0.4,"lat":45.0414,"lon":-31.1447,"largura_km":89.474,"eixo_na_terra":true},{"t":0.40556,"lat":45.0287,"lon":-30.9671,"largura_km":89.417,"eixo_na_terra":true},{"t":0.41111,"lat":45.0156,"lon":-30.7892,"largura_km":89.359,"eixo_na_terra":true},{"t":0.41667,"lat":45.0021,"lon":-30.6112,"largura_km":89.3,"eixo_na_terra":true},{"t":0.42222,"lat":44.9883,"lon":-30.4329,"largura_km":89.241,"eixo_na_terra":true},{"t":0.42778,"lat":44.9742,"lon":-30.2544,"largura_km":89.182,"eixo_na_terra":true},{"t":0.43333,"lat":44.9596,"lon":-30.0757,"largura_km":89.121,"eixo_na_terra":true},{"t":0.43889,"lat":44.9448,"lon":-29.8968,"largura_km":89.06,"eixo_na_terra":true},{"t":0.44444,"lat":44.9295,"lon":-29.7177,"largura_km":88.999,"eixo_na_terra":true},{"t":0.45,"lat":44.9139,"lon":-29.5384,"largura_km":88.936,"eixo_na_terra":true},{"t":0.45556,"lat":44.898,"lon":-29.3588,"largura_km":88.874,"eixo_na_terra":true},{"t":0.46111,"lat":44.8817,"lon":-29.179,"largura_km":88.81,"eixo_na_terra":true},{"t":0.46667,"lat":44.865,"lon":-28.9991,"largura_km":88.746,"eixo_na_terra":true},{"t":0.47222,"lat":44.8479,"lon":-28.8189,"largura_km":88.681,"eixo_na_terra":true},{"t":0.47778,"lat":44.8305,"lon":-28.6384,"largura_km":88.615,"eixo_na_terra":true},{"t":0.48333,"lat":44.8127,"lon":-28.4578,"largura_km":88.549,"eixo_na_terra":true},{"t":0.48889,"lat":44.7946,"lon":-28.2769,"largura_km":88.482,"eixo_na_terra":true},{"t":0.49444,"lat":44.7761,"lon":-28.0958,"largura_km":88.415,"eixo_na_terra":true},{"t":0.5,"lat":44.7572,"lon":-27.9144,"largura_km":88.347,"eixo_na_terra":true},{"t":0.50556,"lat":44.7379,"lon":-27.7328,"largura_km":88.279,"eixo_na_terra":true},{"t":0.51111,"lat":44.7183,"lon":-27.551,"largura_km":88.21,"eixo_na_terra":true},{"t":0.51667,"lat":44.6983,"lon":-27.3689,"largura_km":88.141,"eixo_na_terra":true},{"t":0.52222,"lat":44.6779,"lon":-27.1866,"largura_km":88.071,"eixo_na_terra":true},{"t":0.52778,"lat":44.6571,"lon":-27.0041,"largura_km":88.001,"eixo_na_terra":true},{"t":0.53333,"lat":44.636,"lon":-26.8213,"largura_km":87.93,"eixo_na_terra":true},{"t":0.53889,"lat":44.6145,"lon":-26.6383,"largura_km":87.858,"eixo_na_terra":true},{"t":0.54444,"lat":44.5926,"lon":-26.455,"largura_km":87.785,"eixo_na_terra":true},{"t":0.55,"lat":44.5703,"lon":-26.2714,"largura_km":87.712,"eixo_na_terra":true},{"t":0.55556,"lat":44.5476,"lon":-26.0877,"largura_km":87.638,"eixo_na_terra":true},{"t":0.56111,"lat":44.5246,"lon":-25.9036,"largura_km":87.563,"eixo_na_terra":true},{"t":0.56667,"lat":44.5012,"lon":-25.7193,"largura_km":87.487,"eixo_na_terra":true},{"t":0.57222,"lat":44.4774,"lon":-25.5347,"largura_km":87.411,"eixo_na_terra":true},{"t":0.57778,"lat":44.4531,"lon":-25.3499,"largura_km":87.334,"eixo_na_terra":true},{"t":0.58333,"lat":44.4286,"lon":-25.1648,"largura_km":87.256,"eixo_na_terra":true},{"t":0.58889,"lat":44.4036,"lon":-24.9794,"largura_km":87.178,"eixo_na_terra":true},{"t":0.59444,"lat":44.3782,"lon":-24.7937,"largura_km":87.098,"eixo_na_terra":true},{"t":0.6,"lat":44.3524,"lon":-24.6078,"largura_km":87.018,"eixo_na_terra":true},{"t":0.60556,"lat":44.3262,"lon":-24.4216,"largura_km":86.938,"eixo_na_terra":true},{"t":0.61111,"lat":44.2997,"lon":-24.2351,"largura_km":86.856,"eixo_na_terra":true},{"t":0.61667,"lat":44.2727,"lon":-24.0483,"largura_km":86.774,"eixo_na_terra":true},{"t":0.62222,"lat":44.2453,"lon":-23.8612,"largura_km":86.691,"eixo_na_terra":true},{"t":0.62778,"lat":44.2175,"lon":-23.6738,"largura_km":86.608,"eixo_na_terra":true},{"t":0.63333,"lat":44.1893,"lon":-23.4862,"largura_km":86.524,"eixo_na_terra":true},{"t":0.63889,"lat":44.1608,"lon":-23.2982,"largura_km":86.439,"eixo_na_terra":true},{"t":0.64444,"lat":44.1318,"lon":-23.11,"largura_km":86.354,"eixo_na_terra":true},{"t":0.65,"lat":44.1024,"lon":-22.9214,"largura_km":86.268,"eixo_na_terra":true},{"t":0.65556,"lat":44.0725,"lon":-22.7325,"largura_km":86.181,"eixo_na_terra":true},{"t":0.66111,"lat":44.0423,"lon":-22.5433,"largura_km":86.093,"eixo_na_terra":true},{"t":0.66667,"lat":44.0117,"lon":-22.3538,"largura_km":86.005,"eixo_na_terra":true},{"t":0.67222,"lat":43.9806,"lon":-22.164,"largura_km":85.915,"eixo_na_terra":true},{"t":0.67778,"lat":43.9491,"lon":-21.9738,"largura_km":85.825,"eixo_na_terra":true},{"t":0.68333,"lat":43.9172,"lon":-21.7834,"largura_km":85.734,"eixo_na_terra":true},{"t":0.68889,"lat":43.8849,"lon":-21.5926,"largura_km":85.642,"eixo_na_terra":true},{"t":0.69444,"lat":43.8521,"lon":-21.4014,"largura_km":85.549,"eixo_na_terra":true},{"t":0.7,"lat":43.8189,"lon":-21.2099,"largura_km":85.456,"eixo_na_terra":true},{"t":0.70556,"lat":43.7853,"lon":-21.0181,"largura_km":85.361,"eixo_na_terra":true},{"t":0.71111,"lat":43.7513,"lon":-20.8259,"largura_km":85.266,"eixo_na_terra":true},{"t":0.71667,"lat":43.7168,"lon":-20.6334,"largura_km":85.169,"eixo_na_terra":true},{"t":0.72222,"lat":43.6819,"lon":-20.4405,"largura_km":85.072,"eixo_na_terra":true},{"t":0.72778,"lat":43.6465,"lon":-20.2472,"largura_km":84.974,"eixo_na_terra":true},{"t":0.73333,"lat":43.6107,"lon":-20.0536,"largura_km":84.875,"eixo_na_terra":true},{"t":0.73889,"lat":43.5745,"lon":-19.8596,"largura_km":84.774,"eixo_na_terra":true},{"t":0.74444,"lat":43.5378,"lon":-19.6652,"largura_km":84.674,"eixo_na_terra":true},{"t":0.75,"lat":43.5007,"lon":-19.4705,"largura_km":84.572,"eixo_na_terra":true},{"t":0.75556,"lat":43.4631,"lon":-19.2754,"largura_km":84.47,"eixo_na_terra":true},{"t":0.76111,"lat":43.425,"lon":-19.0798,"largura_km":84.367,"eixo_na_terra":true},{"t":0.76667,"lat":43.3865,"lon":-18.8839,"largura_km":84.262,"eixo_na_terra":true},{"t":0.77222,"lat":43.3476,"lon":-18.6876,"largura_km":84.157,"eixo_na_terra":true},{"t":0.77778,"lat":43.3082,"lon":-18.4908,"largura_km":84.052,"eixo_na_terra":true},{"t":0.78333,"lat":43.2683,"lon":-18.2937,"largura_km":83.945,"eixo_na_terra":true},{"t":0.78889,"lat":43.2279,"lon":-18.0961,"largura_km":83.837,"eixo_na_terra":true},{"t":0.79444,"lat":43.1871,"lon":-17.8981,"largura_km":83.728,"eixo_na_terra":true},{"t":0.8,"lat":43.1458,"lon":-17.6997,"largura_km":83.618,"eixo_na_terra":true},{"t":0.80556,"lat":43.1041,"lon":-17.5008,"largura_km":83.507,"eixo_na_terra":true},{"t":0.81111,"lat":43.0619,"lon":-17.3015,"largura_km":83.395,"eixo_na_terra":true},{"t":0.81667,"lat":43.0191,"lon":-17.1018,"largura_km":83.282,"eixo_na_terra":true},{"t":0.82222,"lat":42.9759,"lon":-16.9016,"largura_km":83.168,"eixo_na_terra":true},{"t":0.82778,"lat":42.9322,"lon":-16.7009,"largura_km":83.053,"eixo_na_terra":true},{"t":0.83333,"lat":42.8881,"lon":-16.4998,"largura_km":82.936,"eixo_na_terra":true},{"t":0.83889,"lat":42.8434,"lon":-16.2981,"largura_km":82.819,"eixo_na_terra":true},{"t":0.84444,"lat":42.7982,"lon":-16.096,"largura_km":82.7,"eixo_na_terra":true},{"t":0.85,"lat":42.7525,"lon":-15.8934,"largura_km":82.581,"eixo_na_terra":true},{"t":0.85556,"lat":42.7063,"lon":-15.6903,"largura_km":82.46,"eixo_na_terra":true},{"t":0.86111,"lat":42.6597,"lon":-15.4867,"largura_km":82.338,"eixo_na_terra":true},{"t":0.86667,"lat":42.6125,"lon":-15.2826,"largura_km":82.214,"eixo_na_terra":true},{"t":0.87222,"lat":42.5647,"lon":-15.078,"largura_km":82.09,"eixo_na_terra":true},{"t":0.87778,"lat":42.5165,"lon":-14.8728,"largura_km":81.965,"eixo_na_terra":true},{"t":0.88333,"lat":42.4678,"lon":-14.6671,"largura_km":81.838,"eixo_na_terra":true},{"t":0.88889,"lat":42.4185,"lon":-14.4609,"largura_km":81.711,"eixo_na_terra":true},{"t":0.89444,"lat":42.3687,"lon":-14.2541,"largura_km":81.582,"eixo_na_terra":true},{"t":0.9,"lat":42.3183,"lon":-14.0467,"largura_km":81.452,"eixo_na_terra":true},{"t":0.90556,"lat":42.2674,"lon":-13.8387,"largura_km":81.32,"eixo_na_terra":true},{"t":0.91111,"lat":42.216,"lon":-13.6302,"largura_km":81.188,"eixo_na_terra":true},{"t":0.91667,"lat":42.164,"lon":-13.4211,"largura_km":81.054,"eixo_na_terra":true},{"t":0.92222,"lat":42.1115,"lon":-13.2113,"largura_km":80.919,"eixo_na_terra":true},{"t":0.92778,"lat":42.0584,"lon":-13.001,"largura_km":80.783,"eixo_na_terra":true},{"t":0.93333,"lat":42.0047,"lon":-12.79,"largura_km":80.646,"eixo_na_terra":true},{"t":0.93889,"lat":41.9505,"lon":-12.5784,"largura_km":80.507,"eixo_na_terra":true},{"t":0.94444,"lat":41.8957,"lon":-12.3662,"largura_km":80.366,"eixo_na_terra":true},{"t":0.95,"lat":41.8403,"lon":-12.1533,"largura_km":80.225,"eixo_na_terra":true},{"t":0.95556,"lat":41.7844,"lon":-11.9397,"largura_km":80.082,"eixo_na_terra":true},{"t":0.96111,"lat":41.7278,"lon":-11.7255,"largura_km":79.937,"eixo_na_terra":true},{"t":0.96667,"lat":41.6707,"lon":-11.5105,"largura_km":79.791,"eixo_na_terra":true},{"t":0.97222,"lat":41.613,"lon":-11.2949,"largura_km":79.643,"eixo_na_terra":true},{"t":0.97778,"lat":41.5546,"lon":-11.0785,"largura_km":79.494,"eixo_na_terra":true},{"t":0.98333,"lat":41.4957,"lon":-10.8614,"largura_km":79.344,"eixo_na_terra":true},{"t":0.98889,"lat":41.4361,"lon":-10.6436,"largura_km":79.192,"eixo_na_terra":true},{"t":0.99444,"lat":41.3759,"lon":-10.425,"largura_km":79.038,"eixo_na_terra":true},{"t":1.0,"lat":41.3151,"lon":-10.2056,"largura_km":78.882,"eixo_na_terra":true},{"t":1.00556,"lat":41.2537,"lon":-9.9855,"largura_km":78.726,"eixo_na_terra":true},{"t":1.01111,"lat":41.1916,"lon":-9.7645,"largura_km":78.567,"eixo_na_terra":true},{"t":1.01667,"lat":41.1288,"lon":-9.5428,"largura_km":78.407,"eixo_na_terra":true},{"t":1.02222,"lat":41.0654,"lon":-9.3202,"largura_km":78.245,"eixo_na_terra":true},{"t":1.02778,"lat":41.0014,"lon":-9.0967,"largura_km":78.082,"eixo_na_terra":true},{"t":1.03333,"lat":40.9366,"lon":-8.8724,"largura_km":77.917,"eixo_na_terra":true},{"t":1.03889,"lat":40.8712,"lon":-8.6472,"largura_km":77.75,"eixo_na_terra":true},{"t":1.04444,"lat":40.8051,"lon":-8.4211,"largura_km":77.582,"eixo_na_terra":true},{"t":1.05,"lat":40.7384,"lon":-8.1941,"largura_km":77.411,"eixo_na_terra":true},{"t":1.05556,"lat":40.6709,"lon":-7.9662,"largura_km":77.239,"eixo_na_terra":true},{"t":1.06111,"lat":40.6027,"lon":-7.7373,"largura_km":77.065,"eixo_na_terra":true},{"t":1.06667,"lat":40.5337,"lon":-7.5074,"largura_km":76.889,"eixo_na_terra":true},{"t":1.07222,"lat":40.4641,"lon":-7.2766,"largura_km":76.712,"eixo_na_terra":true},{"t":1.07778,"lat":40.3937,"lon":-7.0447,"largura_km":76.532,"eixo_na_terra":true},{"t":1.08333,"lat":40.3226,"lon":-6.8118,"largura_km":76.351,"eixo_na_terra":true},{"t":1.08889,"lat":40.2507,"lon":-6.5778,"largura_km":76.167,"eixo_na_terra":true},{"t":1.09444,"lat":40.178,"lon":-6.3427,"largura_km":75.982,"eixo_na_terra":true},{"t":1.1,"lat":40.1046,"lon":-6.1066,"largura_km":75.794,"eixo_na_terra":true},{"t":1.10556,"lat":40.0304,"lon":-5.8693,"largura_km":75.604,"eixo_na_terra":true},{"t":1.11111,"lat":39.9554,"lon":-5.6308,"largura_km":75.412,"eixo_na_terra":true},{"t":1.11667,"lat":39.8795,"lon":-5.3912,"largura_km":75.218,"eixo_na_terra":true},{"t":1.12222,"lat":39.8029,"lon":-5.1504,"largura_km":75.021,"eixo_na_terra":true},{"t":1.12778,"lat":39.7254,"lon":-4.9083,"largura_km":74.822,"eixo_na_terra":true},{"t":1.13333,"lat":39.647,"lon":-4.665,"largura_km":74.621,"eixo_na_terra":true},{"t":1.13889,"lat":39.5679,"lon":-4.4203,"largura_km":74.418,"eixo_na_terra":true},{"t":1.14444,"lat":39.4878,"lon":-4.1744,"largura_km":74.212,"eixo_na_terra":true},{"t":1.15,"lat":39.4068,"lon":-3.9271,"largura_km":74.003,"eixo_na_terra":true},{"t":1.15556,"lat":39.325,"lon":-3.6784,"largura_km":73.792,"eixo_na_terra":true},{"t":1.16111,"lat":39.2422,"lon":-3.4282,"largura_km":73.579,"eixo_na_terra":true},{"t":1.16667,"lat":39.1585,"lon":-3.1766,"largura_km":73.362,"eixo_na_terra":true},{"t":1.17222,"lat":39.0738,"lon":-2.9235,"largura_km":73.143,"eixo_na_terra":true},{"t":1.17778,"lat":38.9882,"lon":-2.6689,"largura_km":72.922,"eixo_na_terra":true},{"t":1.18333,"lat":38.9016,"lon":-2.4127,"largura_km":72.697,"eixo_na_terra":true},{"t":1.18889,"lat":38.814,"lon":-2.1549,"largura_km":72.47,"eixo_na_terra":true},{"t":1.19444,"lat":38.7254,"lon":-1.8954,"largura_km":72.24,"eixo_na_terra":true},{"t":1.2,"lat":38.6358,"lon":-1.6343,"largura_km":72.008,"eixo_na_terra":true},{"t":1.20556,"lat":38.5451,"lon":-1.3713,"largura_km":71.772,"eixo_na_terra":true},{"t":1.21111,"lat":38.4533,"lon":-1.1066,"largura_km":71.533,"eixo_na_terra":true},{"t":1.21667,"lat":38.3604,"lon":-0.8401,"largura_km":71.29,"eixo_na_terra":true},{"t":1.22222,"lat":38.2664,"lon":-0.5716,"largura_km":71.045,"eixo_na_terra":true},{"t":1.22778,"lat":38.1712,"lon":-0.3012,"largura_km":70.796,"eixo_na_terra":true},{"t":1.23333,"lat":38.0749,"lon":-0.0287,"largura_km":70.544,"eixo_na_terra":true},{"t":1.23889,"lat":37.9774,"lon":0.2458,"largura_km":70.288,"eixo_na_terra":true},{"t":1.24444,"lat":37.8787,"lon":0.5224,"largura_km":70.029,"eixo_na_terra":true},{"t":1.25,"lat":37.7787,"lon":0.8012,"largura_km":69.765,"eixo_na_terra":true},{"t":1.25556,"lat":37.6774,"lon":1.0823,"largura_km":69.499,"eixo_na_terra":true},{"t":1.26111,"lat":37.5748,"lon":1.3657,"largura_km":69.228,"eixo_na_terra":true},{"t":1.26667,"lat":37.4709,"lon":1.6516,"largura_km":68.954,"eixo_na_terra":true},{"t":1.27222,"lat":37.3656,"lon":1.9399,"largura_km":68.675,"eixo_na_terra":true},{"t":1.27778,"lat":37.2589,"lon":2.2308,"largura_km":68.393,"eixo_na_terra":true},{"t":1.28333,"lat":37.1508,"lon":2.5244,"largura_km":68.105,"eixo_na_terra":true},{"t":1.28889,"lat":37.0412,"lon":2.8207,"largura_km":67.814,"eixo_na_terra":true},{"t":1.29444,"lat":36.93,"lon":3.1198,"largura_km":67.518,"eixo_na_terra":true},{"t":1.3,"lat":36.8173,"lon":3.4219,"largura_km":67.217,"eixo_na_terra":true},{"t":1.30556,"lat":36.703,"lon":3.727,"largura_km":66.911,"eixo_na_terra":true},{"t":1.31111,"lat":36.587,"lon":4.0354,"largura_km":66.6,"eixo_na_terra":true},{"t":1.31667,"lat":36.4693,"lon":4.3469,"largura_km":66.284,"eixo_na_terra":true},{"t":1.32222,"lat":36.3498,"lon":4.6619,"largura_km":65.963,"eixo_na_terra":true},{"t":1.32778,"lat":36.2285,"lon":4.9805,"largura_km":65.636,"eixo_na_terra":true}]},"features":[{"type":"Feature","properties":{},"geometry":{"type":"Polygon","coordinates":[[[0.6324827153255512,38.185171443513916],[1.7661336252042474,37.770553003483556],[2.929768053888722,37.33719110811513],[4.1378105609018405,36.879500388023885],[5.397073890959405,36.394551614078836],[4.567236087916513,36.058818408334886],[3.9367298455921116,36.294287789901816],[3.0159783828936497,36.63470491747404],[2.122471346557745,36.96093273032988],[1.2535294043320278,37.27409335454941],[0.6867348772738922,37.47608925945086],[-0.14621045841406044,37.76954939453626],[-0.9600479223624347,38.05223925899904],[-1.7563593394050656,38.3248281968535],[-2.278191598391345,38.50123723828197],[-3.0394998905870807,38.75532183957249],[-3.795486767440167,39.00373299884346],[-4.5383350441983055,39.24391168266205],[-5.268959184561226,39.47625000110744],[-5.988182857484048,39.70110218206759],[-6.696750721267335,39.918789447734746],[-7.3953383115160705,40.1296041126326],[-8.084560392886203,40.333813050093916],[-8.764978056557908,40.531660642397426],[-9.437104786254764,40.723371305708476],[-10.092608562739173,40.90668036694109],[-10.749529062022987,41.08675801222599],[-11.399460749912976,41.26127205201743],[-12.042772367312693,41.4303860942076],[-12.679805034126929,41.59425212890595],[-13.310874866121964,41.75301162541963],[-13.9362752822949,41.906796500335275],[-14.556279046558046,42.05572997476776],[-15.366067662252561,42.24488184008438],[-15.974430429655001,42.382966750117625],[-16.57817784126516,42.51655718160368],[-17.17751180726782,42.64574650770753],[-17.97008321560139,42.811303981045874],[-18.559833345945208,42.930557259203475],[-19.34023785132476,43.08315444907497],[-19.921290098679577,43.19289012266657],[-20.681548654195893,43.331391886480766],[-21.254659533599124,43.43201263191315],[-22.013863091294212,43.56024134943917],[-22.767661657795202,43.681811684428645],[-23.516304217890507,43.79684797863876],[-24.074541795060213,43.87890756531984],[-24.805501458261944,43.98149610958446],[-25.541093220467104,44.07919002293663],[-26.272310480770784,44.17075094974221],[-26.99932745412582,44.25627111346417],[-27.722306246222956,44.335837434168326],[-28.432096080616446,44.40859490418458],[-29.147434606592725,44.476542526737],[-29.6815597000014,44.52374484080853],[-30.390654279793296,44.581726037799775],[-31.096344719221037,44.63410492507465],[-31.798740908451947,44.680944581838],[-32.48857645210853,44.721760595438056],[-33.18468572909151,44.75774570345239],[-33.87779343317436,44.788361970463924],[-34.56798629775881,44.81366060749106],[-35.255346554477256,44.83369027692506],[-35.93055675246305,44.8483128105943],[-36.612485559280685,44.85798827042271],[-37.291806432743755,44.862526606560714],[-37.96858788107454,44.86196752370401],[-38.64289593320865,44.85634873720771],[-39.31479448159362,44.84570605248173],[-39.974970828224315,44.830295686469555],[-39.959397064280864,45.6551670795247],[-39.275171916228174,45.66943923083006],[-38.75097035895348,45.67686551997992],[-38.06257610864506,45.68197949289189],[-37.54467410218501,45.68236837184275],[-36.85195112839904,45.67826083804693],[-36.33073676116254,45.67168888297204],[-35.633506119743174,45.65823784540096],[-35.09934641932523,45.64435548355952],[-34.39741352926072,45.621378621176305],[-33.869143478066604,45.600552614211594],[-33.16229780978594,45.567953770349554],[-32.630257396647494,45.53985323952228],[-31.918263652828813,45.49747399444898],[-31.372812639249133,45.46133959088845],[-30.83506096027159,45.42259160509712],[-30.295511163904678,45.38060590629656],[-29.57324070452404,45.319541767711264],[-29.029326318582093,45.26989463309845],[-28.301067080037853,45.198510092875125],[-27.752526252344552,45.141040131350586],[-27.19254626287099,45.07912676199223],[-26.639811768406076,45.01477375618401],[-25.899414404278787,44.92355677219893],[-25.341468190383125,44.851035809454295],[-24.593876171345755,44.74878863625438],[-24.03033745222737,44.6678849785848],[-23.46427190527345,44.58331711719566],[-22.886352713459047,44.49360597559884],[-22.12390980979248,44.36999790492275],[-21.548787751349437,44.27283427584668],[-20.97073099705156,44.171789986756835],[-20.38962915009938,44.06680810208756],[-19.609885818203168,43.920603009185136],[-19.021208899816656,43.80619457720745],[-18.419974996126342,43.68581502035751],[-17.824229219245893,43.56299723051265],[-17.22471662059465,43.43588111126053],[-16.62127210544992,43.30438624979584],[-16.01371929387335,43.16842738504957],[-15.401869586516995,43.027914003953235],[-14.7855211309016,42.882749894355285],[-14.164457674555223,42.73283264877465],[-13.538447289158,42.57805311222448],[-12.898318078947227,42.41604514672001],[-12.261654046031879,42.25114610263044],[-11.61923716130238,42.08100995891437],[-10.970756630886001,41.90549358620077],[-10.315876885074601,41.724443173156025],[-9.654234998805833,41.53769311334247],[-8.985437756087748,41.345064739686016],[-8.309058296083663,41.14636488018134],[-7.624632265316677,40.94138420288199],[-6.922845493507907,40.72721377816703],[-6.220753906260001,40.50892852467693],[-5.508947350968697,40.28361608007209],[-5.028685942827877,40.12935858071481],[-4.29917299817987,39.8916611487932],[-3.5580109100215793,39.64607889863252],[-2.804328451755879,39.39222758698557],[-2.294443316106907,39.218190776587804],[-1.5176827420200993,38.94958609182707],[-0.7255522649015234,38.67146233781631],[0.0832675314062783,38.38324356557695],[0.6324827153255512,38.185171443513916]]]}}]}