{"type":"FeatureCollection","features":[{"type":"Feature","properties":{"t_inicio":0.11666666666665204,"t_fim":1.3277777777777588},"geometry":{"type":"LineString","coordinates":[[-39.967506918127356,45.24291760860452],[-39.79852029806449,45.247126092204155],[-39.62938927318655,45.25101798469823],[-39.460112965585694,45.25459277768198],[-39.29069049226186,45.257849955934724],[-39.12112096482426,45.26078899736608],[-38.95140348918952,45.263409372960275],[-38.78153716527652,45.26571054671825],[-38.61152108669765,45.267691975597955],[-38.44135434044696,45.26935310945242],[-38.271036006584325,45.27069339096579],[-38.10056515791621,45.27171225558736],[-37.92994085967234,45.27240913146306],[-37.759162169179035,45.272783439365305],[-37.588228135528226,45.27283459262009],[-37.41713779924234,45.272561997032156],[-37.245890191935445,45.27196505080759],[-37.074484335969856,45.27104314447434],[-36.90291924410843,45.269795660800035],[-36.73119391916262,45.2682219747077],[-36.55930735363563,45.26632145318861],[-36.387258529361304,45.26409345521299],[-36.21504641713784,45.26153733163793],[-36.04266997635702,45.25865242511259],[-35.870128154628134,45.255438069981054],[-35.69741988739682,45.25189359218212],[-35.524544097558845,45.24801830914656],[-35.351499695068185,45.243811529691364],[-35.17828557653988,45.239272553911285],[-35.004900624847096,45.23440067306728],[-34.83134370871247,45.22919516947206],[-34.65761368229332,45.223655316372465],[-34.48370938476117,45.21778037782888],[-34.3096296398746,45.21156960859134],[-34.135373255546114,45.20502225397231],[-33.96093902340215,45.1981375497164],[-33.78632571833651,45.190914721866406],[-33.61153209805707,45.18335298662603],[-33.43655690262514,45.175451550219115],[-33.2613988539878,45.167209608745],[-33.08605665550286,45.15862634803057],[-32.910528991456005,45.14970094347817],[-32.7348145265704,45.14043255990982],[-32.5589119055081,45.13082035140755],[-32.38281975236339,45.120863461149476],[-32.206536670147756,45.11056102124196],[-32.03006124026592,45.099912152547454],[-31.853392021983524,45.08891596450794],[-31.67652755188513,45.07757155496416],[-31.499466343323434,45.06587800997004],[-31.32220688585852,45.05383440360269],[-31.144747644687584,45.04143979776764],[-30.96708706006416,45.02869324199896],[-30.789223546707376,45.01559377325483],[-30.61115549320047,45.002140415707565],[-30.43288126137807,44.98833218052876],[-30.254399185702653,44.97416806566883],[-30.0757075726292,44.95964705563118],[-29.896804699957983,44.94476812124077],[-29.717688816175382,44.92953021940678],[-29.53835813978182,44.913932292879466],[-29.358810858607143,44.89797327000089],[-29.179045129112495,44.88165206444943],[-28.99905907567876,44.86496757497788],[-28.818850789880884,44.84791868514502],[-28.63841832974768,44.83050426304041],[-28.457759719007157,44.81272316100229],[-28.27687294631616,44.79457421532839],[-28.095755964474563,44.7760562459794],[-27.914406689623235,44.75716805627494],[-27.732823000425412,44.73790843258201],[-27.551002737230846,44.71827614399519],[-27.368943701222378,44.69826994200904],[-27.186643653544337,44.677888560181934],[-27.004100314412256,44.65713071379141],[-26.821311362203204,44.63599509948058],[-26.638274432526373,44.61448039489563],[-26.454987117273163,44.59258525831368],[-26.2714469636461,44.57030832826131],[-26.08765147316612,44.547648223123],[-25.903598100657234,44.524603540739484],[-25.7192842532084,44.50117285799547],[-25.53470728911111,44.47735473039675],[-25.349864516772726,44.45314769163594],[-25.16475319360427,44.42855025314703],[-24.979370524881915,44.40356090364778],[-24.79371366258175,44.37817810867029],[-24.607779704186242,44.35240031007872],[-24.42156569146212,44.3262259255743],[-24.23506860920841,44.299653348186794],[-24.04828538397379,44.27268094575236],[-23.861212882742024,44.245307060377115],[-23.673847911584687,44.2175300078861],[-23.486187214280022,44.189348077257016],[-23.298227470896563,44.16075953003851],[-23.10996529634062,44.13176259975228],[-22.92139723886632,44.102355491278324],[-22.73251977854673,44.07253638022341],[-22.543329325704974,44.04230341227138],[-22.353822219303765,44.01165470251537],[-22.163994725292127,43.980588334770815],[-21.97384303490736,43.94910236086908],[-21.78336326293143,43.91719479993055],[-21.592551445899204,43.88486363761691],[-21.401403540257576,43.85210682536172],[-21.209915420473408,43.81892227957828],[-21.018082877088375,43.78530788084452],[-20.825901614718873,43.75126147306363],[-20.633367249999083,43.716780862599805],[-20.440475309464716,43.681863817388134],[-20.24722122737583,43.64650806601777],[-20.053600343475694,43.61071129678724],[-19.85960790068407,43.574471156731114],[-19.665239042721566,43.53778525061678],[-19.4704888116635,43.50065113991033],[-19.275352145419475,43.46306634171034],[-19.079823875136412,43.42502832764828],[-18.883898722522048,43.386534522754495],[-18.687571297085555,43.34758230428821],[-18.49083609329199,43.308169000530164],[-18.293687487627636,43.26829188953679],[-18.096119735571676,43.22794819785389],[-17.89812696847173,43.18713509918859],[-17.699703190318104,43.14584971303781],[-17.500842274413458,43.104089103271484],[-17.30153795993317,43.06185027666875],[-17.101783848371866,43.01913018140507],[-16.901573399871722,42.975925705488535],[-16.700899929427067,42.93223367514288],[-16.499756602960105,42.888050853135404],[-16.29813643326301,42.84337393704704],[-16.096032275799104,42.79819955748264],[-15.8934368243589,42.75252427621836],[-15.690342606562695,42.70634458428391],[-15.48674197920485,42.659656899976625],[-15.282627123431013,42.61245756680433],[-15.07799003974202,42.56474285135407],[-14.87282254281618,42.516508941083096],[-14.667116256141412,42.46775194202908],[-14.460862606449268,42.41846787643536],[-14.254052817940703,42.36865268028773],[-14.04667790629469,42.31830220075876],[-13.838728672449236,42.26741219355483],[-13.630195696143574,42.215978320162044],[-13.421069329210866,42.16399614498574],[-13.211339688608604,42.11146113237869],[-13.000996649174681,42.058368643552754],[-12.790029836094988,42.00471393336806],[-12.578428617068766,41.95049214699407],[-12.366182094156386,41.89569831643598],[-12.153279095293527,41.84032735691971],[-11.93970816545496,41.78437406312865],[-11.725457557449715,41.72783310528437],[-11.510515222328763,41.670699025063335],[-11.294868799384687,41.61296623134135],[-11.078505605722455,41.55462899575648],[-10.86141262537717,41.495681448081136],[-10.64357649795619,41.436117571392856],[-10.424983506778034,41.37593119703332],[-10.20561956648163,41.315115999343796],[-9.985470210076528,41.25366549016496],[-9.764520575401662,41.19157301308798],[-9.54275539096119,41.128831737442844],[-9.32015896109965,41.065434652009195],[-9.096715150480463,41.001374558433824],[-8.872407367825332,40.93664406433784],[-8.647218548872303,40.87123557609537],[-8.42113113850553,40.805141291264384],[-8.194127072006722,40.738353190649164],[-7.966187755375245,40.67086302997175],[-7.737294044659336,40.60266233112901],[-7.507426224237122,40.53374237300935],[-7.276563983981134,40.46409418184191],[-7.044686395235999,40.393708521048616],[-6.811771885531925,40.32257588056734],[-6.577798211952654,40.25068646561206],[-6.342742433068821,40.17803018483322],[-6.1065808793409815,40.10459663783862],[-5.8692891218897785,40.03037510203188],[-5.630841939520678,39.95535451872252],[-5.391213283883701,39.879523478457386],[-5.150376242636867,39.80287020551924],[-4.908303000472131,39.72538254153424],[-4.664964797850246,39.64704792812446],[-4.420331887277939,39.56785338853627],[-4.17437348694591,39.487785508170084],[-3.927057731531022,39.40683041392944],[-3.678351619947165,39.32497375230074],[-3.428220959811398,39.24220066606685],[-3.1766303083685727,39.15849576954862],[-2.9235429095956533,39.07384312225911],[-2.6689206271790624,38.98822620084364],[-2.4127238730297336,38.901627869167626],[-2.1549115309680076,38.81403034639994],[-1.8954408751729375,38.725415172924784],[-1.634267482951941,38.63576317389884],[-1.3713451413392193,38.54505442025101],[-1.106625746982104,38.45326818690192],[-0.8400591987165456,38.360382907956286],[-0.5715932821696015,38.266376128595546],[-0.30117354565399523,38.1712244533684],[-0.028743166539413778,38.07490349054319],[0.24575719280741737,37.97738779214896],[0.5223895405252392,37.87865078928912],[0.8012187233328802,37.77866472226338],[1.0823126084392527,37.67740056497847],[1.3657422807053479,37.57482794306623],[1.6515822566484815,37.470915045055314],[1.9399107170792433,37.365628525861844],[2.2308097603910255,37.25893340177006],[2.5243656787847613,37.15079293596618],[2.8206692600167003,37.04116851356464],[3.1198161176085932,36.93001950492121],[3.4219070528677378,36.81730311586166],[3.727048452540487,36.702974223259304],[4.035352726475509,36.58698519416902],[4.346938790326277,36.469285686459536],[4.661932599081467,36.3498224285745],[4.980467738116658,36.22853897568451]]}}]}