{"type":"FeatureCollection","features":[{"type":"Feature","properties":{"magnitude":0.5,"de":0.5,"ate":0.8,"percentagem":50.0},"geometry":{"type":"Polygon","coordinates":[[[-34.5,30.0],[-3.5399999999988268,30.0],[-3.5399999999988268,31.47969487437456],[-7.919999999998993,32.98939579172573],[-12.05999999999915,34.286226187693195],[-16.0199999999993,35.38724744544238],[-19.859999999999445,36.3080576364826],[-23.63999999999959,37.05995045909289],[-27.299999999999727,37.63156653493148],[-30.899999999999864,38.03557847957643],[-32.69999999999993,38.176609541792445],[-34.5,38.27598677314544],[-34.5,30.0]]]}},{"type":"Feature","properties":{"magnitude":0.8,"de":0.8,"ate":0.95,"percentagem":80.0},"geometry":{"type":"MultiPolygon","coordinates":[[[[-3.5399999999988268,31.47969487437456],[-7.979999999998995,33.009153515867915],[-12.119999999999152,34.303973909996124],[-16.079999999999302,35.40278543628184],[-19.919999999999447,36.32122260935659],[-23.63999999999959,37.05995045909289],[-27.299999999999727,37.63156653493148],[-30.899999999999864,38.03557847957643],[-32.69999999999993,38.176609541792445],[-34.5,38.27598677314544],[-34.5,43.1517201409636],[-30.83999999999986,42.94385111562927],[-27.11999999999972,42.57921433925649],[-23.339999999999577,42.054524749593625],[-19.559999999999434,41.379489501764326],[-15.719999999999288,40.546286511656575],[-11.81999999999914,39.556533206373764],[-7.739999999998986,38.378241242503215],[-3.5399999999988268,37.02884481947826],[-3.5399999999988268,31.47969487437456]]],[[[-3.5399999999988268,41.569705610810075],[-6.7799999999989495,42.58088110044912],[-9.839999999999065,43.45722833192941],[-12.899999999999181,44.25218767997584],[-15.859683105642727,44.939999999999685],[-3.5399999999988268,44.939999999999685],[-3.5399999999988268,41.569705610810075]]]]}},{"type":"Feature","properties":{"magnitude":0.95,"de":0.95,"ate":0.99,"percentagem":95.0},"geometry":{"type":"MultiPolygon","coordinates":[[[[-3.5399999999988268,37.02884481947826],[-7.919999999998993,38.433106910686405],[-11.939999999999145,39.589042445545296],[-15.839999999999293,40.57449625104142],[-19.67999999999944,41.40316841431027],[-23.45999999999958,42.07352280539557],[-27.179999999999723,42.58630117452158],[-30.83999999999986,42.94385111562927],[-34.5,43.1517201409636],[-34.5,44.47817160444192],[-32.03999999999991,44.36109226030785],[-29.579999999999814,44.178238388811856],[-27.11999999999972,43.930543141577616],[-24.59999999999962,43.61061692994333],[-22.07999999999953,43.224885426365304],[-19.559999999999437,42.77471144730044],[-17.03999999999934,42.2617083239859],[-14.45999999999924,41.673387170700565],[-11.81999999999914,41.00781659322554],[-9.119999999999038,40.26380318734789],[-6.359999999998934,39.4410748489258],[-3.5399999999988268,38.54042307847374],[-3.5399999999988268,37.02884481947826]]],[[[-3.5399999999988268,40.02363646675067],[-6.3599999999989345,40.93068622760078],[-8.87999999999903,41.68749285457225],[-11.399999999999125,42.39015998902022],[-13.859999999999218,43.0212008684618],[-16.31999999999931,43.5958227996302],[-18.719999999999402,44.10033009490802],[-21.119999999999493,44.548063251144356],[-23.534056365003796,44.939999999999685],[-15.859683105642727,44.939999999999685],[-13.019999999999186,44.28164463017384],[-10.679999999999097,43.683736270847895],[-8.339999999999009,43.03753792896042],[-5.939999999998918,42.32669909877659],[-3.5399999999988268,41.569705610810075],[-3.5399999999988268,40.02363646675067]]]]}},{"type":"Feature","properties":{"magnitude":0.99,"de":0.99,"ate":2.0,"percentagem":99.0},"geometry":{"type":"Polygon","coordinates":[[[-7.4399999999989745,39.77021394375948],[-3.5399999999988268,38.54042307847374],[-3.5399999999988268,40.02363646675067],[-7.259999999998968,41.20699449621839],[-10.919999999999106,42.26062879014208],[-14.45999999999924,43.166631879868945],[-17.939999999999372,43.94253444668158],[-20.75999999999948,44.4845697497596],[-23.534056365003796,44.939999999999685],[-34.5,44.939999999999685],[-34.5,44.47817160444192],[-32.45999999999992,44.38576229468489],[-30.419999999999845,44.24801477329582],[-28.379999999999768,44.0654527799508],[-26.33999999999969,43.83862602411796],[-24.299999999999613,43.56812205502298],[-22.199999999999534,43.24472589542245],[-20.099999999999454,42.876527100713545],[-17.999999999999375,42.4644331065911],[-14.579999999999245,41.70213114414754],[-11.039999999999111,40.799297192536834],[-7.4399999999989745,39.77021394375948]]]}}]}