{"type":"FeatureCollection","properties":{"largura_maxima_km":107.944,"largura_sobre_pt_km":105.468,"linha_central_sobre_pt":false,"desenhavel_como_area":true,"perfil_largura":[{"t":-1.34444,"lat":47.1977,"lon":-39.7171,"largura_km":83.879,"eixo_na_terra":true},{"t":-1.33889,"lat":47.299,"lon":-39.179,"largura_km":84.298,"eixo_na_terra":true},{"t":-1.33333,"lat":47.397,"lon":-38.651,"largura_km":84.705,"eixo_na_terra":true},{"t":-1.32778,"lat":47.4917,"lon":-38.1327,"largura_km":85.101,"eixo_na_terra":true},{"t":-1.32222,"lat":47.5835,"lon":-37.6235,"largura_km":85.487,"eixo_na_terra":true},{"t":-1.31667,"lat":47.6723,"lon":-37.1229,"largura_km":85.863,"eixo_na_terra":true},{"t":-1.31111,"lat":47.7584,"lon":-36.6304,"largura_km":86.231,"eixo_na_terra":true},{"t":-1.30556,"lat":47.8418,"lon":-36.1456,"largura_km":86.59,"eixo_na_terra":true},{"t":-1.3,"lat":47.9228,"lon":-35.6682,"largura_km":86.942,"eixo_na_terra":true},{"t":-1.29444,"lat":48.0013,"lon":-35.1978,"largura_km":87.285,"eixo_na_terra":true},{"t":-1.28889,"lat":48.0775,"lon":-34.7341,"largura_km":87.621,"eixo_na_terra":true},{"t":-1.28333,"lat":48.1515,"lon":-34.2768,"largura_km":87.949,"eixo_na_terra":true},{"t":-1.27778,"lat":48.2234,"lon":-33.8256,"largura_km":88.271,"eixo_na_terra":true},{"t":-1.27222,"lat":48.2932,"lon":-33.3802,"largura_km":88.586,"eixo_na_terra":true},{"t":-1.26667,"lat":48.3611,"lon":-32.9405,"largura_km":88.895,"eixo_na_terra":true},{"t":-1.26111,"lat":48.427,"lon":-32.5061,"largura_km":89.198,"eixo_na_terra":true},{"t":-1.25556,"lat":48.4911,"lon":-32.077,"largura_km":89.495,"eixo_na_terra":true},{"t":-1.25,"lat":48.5534,"lon":-31.6528,"largura_km":89.786,"eixo_na_terra":true},{"t":-1.24444,"lat":48.6139,"lon":-31.2335,"largura_km":90.072,"eixo_na_terra":true},{"t":-1.23889,"lat":48.6728,"lon":-30.8188,"largura_km":90.352,"eixo_na_terra":true},{"t":-1.23333,"lat":48.73,"lon":-30.4085,"largura_km":90.628,"eixo_na_terra":true},{"t":-1.22778,"lat":48.7857,"lon":-30.0026,"largura_km":90.899,"eixo_na_terra":true},{"t":-1.22222,"lat":48.8398,"lon":-29.6009,"largura_km":91.165,"eixo_na_terra":true},{"t":-1.21667,"lat":48.8925,"lon":-29.2033,"largura_km":91.426,"eixo_na_terra":true},{"t":-1.21111,"lat":48.9437,"lon":-28.8095,"largura_km":91.683,"eixo_na_terra":true},{"t":-1.20556,"lat":48.9934,"lon":-28.4196,"largura_km":91.936,"eixo_na_terra":true},{"t":-1.2,"lat":49.0418,"lon":-28.0334,"largura_km":92.185,"eixo_na_terra":true},{"t":-1.19444,"lat":49.0889,"lon":-27.6507,"largura_km":92.431,"eixo_na_terra":true},{"t":-1.18889,"lat":49.1346,"lon":-27.2715,"largura_km":92.672,"eixo_na_terra":true},{"t":-1.18333,"lat":49.1791,"lon":-26.8957,"largura_km":92.911,"eixo_na_terra":true},{"t":-1.17778,"lat":49.2223,"lon":-26.5232,"largura_km":93.145,"eixo_na_terra":true},{"t":-1.17222,"lat":49.2643,"lon":-26.1538,"largura_km":93.376,"eixo_na_terra":true},{"t":-1.16667,"lat":49.3051,"lon":-25.7876,"largura_km":93.603,"eixo_na_terra":true},{"t":-1.16111,"lat":49.3448,"lon":-25.4244,"largura_km":93.827,"eixo_na_terra":true},{"t":-1.15556,"lat":49.3833,"lon":-25.0642,"largura_km":94.048,"eixo_na_terra":true},{"t":-1.15,"lat":49.4207,"lon":-24.7068,"largura_km":94.265,"eixo_na_terra":true},{"t":-1.14444,"lat":49.457,"lon":-24.3523,"largura_km":94.48,"eixo_na_terra":true},{"t":-1.13889,"lat":49.4922,"lon":-24.0005,"largura_km":94.691,"eixo_na_terra":true},{"t":-1.13333,"lat":49.5264,"lon":-23.6513,"largura_km":94.899,"eixo_na_terra":true},{"t":-1.12778,"lat":49.5595,"lon":-23.3048,"largura_km":95.105,"eixo_na_terra":true},{"t":-1.12222,"lat":49.5916,"lon":-22.9608,"largura_km":95.307,"eixo_na_terra":true},{"t":-1.11667,"lat":49.6228,"lon":-22.6194,"largura_km":95.507,"eixo_na_terra":true},{"t":-1.11111,"lat":49.653,"lon":-22.2804,"largura_km":95.704,"eixo_na_terra":true},{"t":-1.10556,"lat":49.6822,"lon":-21.9437,"largura_km":95.898,"eixo_na_terra":true},{"t":-1.1,"lat":49.7105,"lon":-21.6094,"largura_km":96.09,"eixo_na_terra":true},{"t":-1.09444,"lat":49.7379,"lon":-21.2774,"largura_km":96.279,"eixo_na_terra":true},{"t":-1.08889,"lat":49.7644,"lon":-20.9477,"largura_km":96.467,"eixo_na_terra":true},{"t":-1.08333,"lat":49.7899,"lon":-20.6201,"largura_km":96.652,"eixo_na_terra":true},{"t":-1.07778,"lat":49.8147,"lon":-20.2947,"largura_km":96.834,"eixo_na_terra":true},{"t":-1.07222,"lat":49.8385,"lon":-19.9715,"largura_km":97.015,"eixo_na_terra":true},{"t":-1.06667,"lat":49.8615,"lon":-19.6502,"largura_km":97.194,"eixo_na_terra":true},{"t":-1.06111,"lat":49.8837,"lon":-19.3311,"largura_km":97.37,"eixo_na_terra":true},{"t":-1.05556,"lat":49.9051,"lon":-19.0139,"largura_km":97.544,"eixo_na_terra":true},{"t":-1.05,"lat":49.9256,"lon":-18.6987,"largura_km":97.717,"eixo_na_terra":true},{"t":-1.04444,"lat":49.9454,"lon":-18.3854,"largura_km":97.887,"eixo_na_terra":true},{"t":-1.03889,"lat":49.9644,"lon":-18.074,"largura_km":98.054,"eixo_na_terra":true},{"t":-1.03333,"lat":49.9826,"lon":-17.7645,"largura_km":98.22,"eixo_na_terra":true},{"t":-0.70556,"lat":49.9891,"lon":-2.0086,"largura_km":105.468,"eixo_na_terra":true},{"t":-0.7,"lat":49.9747,"lon":-1.7749,"largura_km":105.56,"eixo_na_terra":true},{"t":-0.69444,"lat":49.9598,"lon":-1.5421,"largura_km":105.65,"eixo_na_terra":true},{"t":-0.68889,"lat":49.9446,"lon":-1.3102,"largura_km":105.74,"eixo_na_terra":true},{"t":-0.68333,"lat":49.929,"lon":-1.0792,"largura_km":105.829,"eixo_na_terra":true},{"t":-0.67778,"lat":49.9129,"lon":-0.849,"largura_km":105.916,"eixo_na_terra":true},{"t":-0.67222,"lat":49.8965,"lon":-0.6198,"largura_km":106.003,"eixo_na_terra":true},{"t":-0.66667,"lat":49.8797,"lon":-0.3913,"largura_km":106.09,"eixo_na_terra":true},{"t":-0.66111,"lat":49.8626,"lon":-0.1638,"largura_km":106.175,"eixo_na_terra":true},{"t":-0.65556,"lat":49.845,"lon":0.0629,"largura_km":106.259,"eixo_na_terra":true},{"t":-0.65,"lat":49.8271,"lon":0.2888,"largura_km":106.343,"eixo_na_terra":true},{"t":-0.64444,"lat":49.8088,"lon":0.5139,"largura_km":106.426,"eixo_na_terra":true},{"t":-0.63889,"lat":49.7901,"lon":0.7381,"largura_km":106.508,"eixo_na_terra":true},{"t":-0.63333,"lat":49.7711,"lon":0.9615,"largura_km":106.589,"eixo_na_terra":true},{"t":-0.62778,"lat":49.7517,"lon":1.1841,"largura_km":106.67,"eixo_na_terra":true},{"t":-0.62222,"lat":49.7319,"lon":1.4059,"largura_km":106.75,"eixo_na_terra":true},{"t":-0.61667,"lat":49.7118,"lon":1.6269,"largura_km":106.829,"eixo_na_terra":true},{"t":-0.61111,"lat":49.6914,"lon":1.8471,"largura_km":106.907,"eixo_na_terra":true},{"t":-0.60556,"lat":49.6705,"lon":2.0665,"largura_km":106.985,"eixo_na_terra":true},{"t":-0.6,"lat":49.6494,"lon":2.2851,"largura_km":107.063,"eixo_na_terra":true},{"t":-0.59444,"lat":49.6278,"lon":2.503,"largura_km":107.14,"eixo_na_terra":true},{"t":-0.58889,"lat":49.606,"lon":2.72,"largura_km":107.217,"eixo_na_terra":true},{"t":-0.58333,"lat":49.5838,"lon":2.9364,"largura_km":107.292,"eixo_na_terra":true},{"t":-0.57778,"lat":49.5612,"lon":3.1519,"largura_km":107.368,"eixo_na_terra":true},{"t":-0.57222,"lat":49.5384,"lon":3.3667,"largura_km":107.442,"eixo_na_terra":true},{"t":-0.56667,"lat":49.5151,"lon":3.5808,"largura_km":107.516,"eixo_na_terra":true},{"t":-0.56111,"lat":49.4916,"lon":3.7941,"largura_km":107.589,"eixo_na_terra":true},{"t":-0.55556,"lat":49.4677,"lon":4.0067,"largura_km":107.661,"eixo_na_terra":true},{"t":-0.55,"lat":49.4435,"lon":4.2185,"largura_km":107.733,"eixo_na_terra":true},{"t":-0.54444,"lat":49.419,"lon":4.4297,"largura_km":107.804,"eixo_na_terra":true},{"t":-0.53889,"lat":49.3941,"lon":4.6401,"largura_km":107.874,"eixo_na_terra":true},{"t":-0.53333,"lat":49.3689,"lon":4.8498,"largura_km":107.944,"eixo_na_terra":true}]},"features":[{"type":"Feature","properties":{},"geometry":{"type":"Polygon","coordinates":[[[-39.9780378251599,47.53979884910264],[-38.9113789813764,47.743702339298615],[-37.88274266168577,47.9346802954196],[-36.87082078817747,48.11703399454203],[-36.38527131545521,48.202572351475425],[-35.43559654785173,48.36613625135034],[-34.51234069303945,48.52034981664229],[-34.05990310369265,48.594173767277375],[-33.17214936115613,48.735650684300886],[-32.30573937688547,48.86936734924452],[-31.880035048881894,48.93347481238037],[-31.042729298917152,49.056473759739696],[-30.223152627518346,49.172861763149456],[-29.008844105302842,49.33791183351421],[-27.8443010127624,49.4878515709765],[-26.710730169570866,49.625810850743605],[-25.60564218852943,49.75261285186893],[-24.526882117777404,49.86897772574761],[-23.47257076820665,49.97554030690262],[-22.782456253956695,50.041417157549304],[-22.102030853903443,50.10334080766631],[-21.08398445358182,50.190317471721265],[-20.100401862259673,50.26786794063323],[-19.135349864368095,50.33767345258965],[-18.18782996185365,50.40009264661747],[-17.353312191952,49.56244585741588],[-17.96551730891781,49.52873891993117],[-18.585218145767556,49.49201794436303],[-19.21268567465961,49.45218953912798],[-19.833743029084133,49.41018579053103],[-20.477552889580636,49.36389362708814],[-21.130060889069853,49.314177891060396],[-21.79162603151366,49.26091827743822],[-22.462635498046552,49.20398594022599],[-23.14350779625721,49.14324257028187],[-23.834696369039648,49.07853933998374],[-24.536693747524566,49.00971569040899],[-25.250036351603512,48.93659793128161],[-25.975310065646624,48.8589976170531],[-26.713156747825394,48.776709653685394],[-27.82957187243329,48.64586899550725],[-28.60195981729072,48.55091122500214],[-29.38972231354319,48.45038426765286],[-30.602435554059014,48.28845577448536],[-31.43332298182986,48.17255439164664],[-31.855981860552333,48.11206833446104],[-32.71665699237542,47.98574299998236],[-33.15508183215587,47.91977974066438],[-34.04923685669968,47.781910339841694],[-34.50546933218686,47.70985303415628],[-35.43764638602073,47.55907293057413],[-35.914219561543234,47.48016245683759],[-36.87267276560357,47.31777396530681],[-37.37262908923532,47.23112541787738],[-38.39915604965819,47.049115905064326],[-38.92677899084396,46.95344546072093],[-40.52713107513415,47.43254088108874],[-39.9780378251599,47.53979884910264]]]}},{"type":"Feature","properties":{},"geometry":{"type":"Polygon","coordinates":[[[-1.6831707819966937,50.445487268804776],[-0.9794903900431109,50.400322441909545],[-0.053534144301067954,50.334537153181984],[0.6319658642555623,50.28113131344522],[1.5343528126448405,50.20465066249302],[2.215211967653147,50.14224198787991],[3.09518451367137,50.05554853396583],[3.9629242127232374,49.96328121079732],[4.818787043785676,49.865593185745375],[4.877633512162788,48.87218801015762],[4.046945020893986,48.97203925032735],[3.204781295202622,49.06679704529643],[2.3631362731629793,49.15508728786038],[1.4970217878490644,49.23928287760889],[0.6183022436296142,49.317934824751646],[-0.27343948536076823,49.390875287720775],[-1.1786443341788981,49.457926571198065],[-1.8666632708039401,49.504237352184106],[-2.15678857154262,50.473561434732616],[-1.6831707819966937,50.445487268804776]]]}}]}