{"type":"FeatureCollection","features":[{"type":"Feature","properties":{"t_inicio":-1.3444444444444539,"t_fim":-1.0333333333333439},"geometry":{"type":"LineString","coordinates":[[-39.71711473141977,47.197712729007954],[-39.17896544132253,47.299034816150886],[-38.65103602410494,47.39698269539661],[-38.13272979927342,47.49173484036018],[-37.6235059995995,47.583453395832144],[-37.12287274855163,47.67228621247233],[-36.630381130923695,47.75836856613152],[-36.1456201556947,47.841824619614485],[-35.66821245239447,47.92276867256993],[-35.197810574574135,48.00130623590786],[-34.734093808930595,48.07753495997507],[-34.276765408081474,48.151545440128324],[-33.82555018024334,48.223421918956525],[-33.380192381152426,48.29324290092588],[-32.94045386318288,48.36108169245315],[-32.506112444347195,48.427006878186404],[-32.07696046608959,48.491082742478994],[-31.65280351385053,48.553369643581036],[-31.23345927851193,48.61392434688216],[-30.818756540229003,48.67280032255834],[-30.408534258955513,48.73004801216863],[-30.002640758292443,48.78571506807526],[-29.600932991225704,48.83984656900258],[-29.203275877936846,48.892485214581725],[-28.809541707232313,48.94367150133513],[-28.419609594281894,48.993443882222735],[-28.033364988331527,49.041838911590396],[-27.650699224878622,49.08889137712305],[-27.271509117501807,49.134634420199795],[-26.89569658514222,49.179099645875205],[-26.523168311146037,49.22231722355978],[-26.153835430826007,49.26431597934481],[-25.787613244682063,49.30512348080457],[-25.424420954754964,49.34476611501264],[-25.06418142187505,49.38326916042491],[-24.70682094181842,49.42065685320953],[-24.35226903860473,49.45695244853942],[-24.00045827336038,49.49217827730786],[-23.651324067339942,49.52635579867843],[-23.304804537846792,49.559505648837394],[-22.960840345923714,49.591647686279366],[-22.61937455479932,49.62280103392264],[-22.280352498177706,49.652984118321804],[-21.94372165754885,49.68221470621854],[-21.609431547777433,49.71050993864832],[-21.277433610298317,49.737886362800054],[-20.947681113311944,49.76435996180684],[-20.62012905842556,49.78994618263007],[-20.29473409324322,49.81465996218384],[-19.971454429445544,49.83851575183356],[-19.65024976594725,49.86152754039081],[-19.331081216751386,49.88370887571566],[-19.013911243157793,49.905072885028375],[-18.69870359000737,49.92563229402312],[-18.385423225674913,49.945399444869345],[-18.074036285544025,49.96438631317877],[-17.76451001872232,49.9826045240093]]}},{"type":"Feature","properties":{"t_inicio":-0.7055555555555673,"t_fim":-0.5333333333333456},"geometry":{"type":"LineString","coordinates":[[-2.0086280277843116,49.98913555607247],[-1.7749320638294535,49.97468532180963],[-1.5421337733512814,49.95983653196916],[-1.3102254807994314,49.94459239674852],[-1.0791996296521233,49.92895607830722],[-0.8490487790840007,49.912930691822844],[-0.6197656007429941,49.89651930651366],[-0.39134287563291537,49.87972494662934],[-0.16377349109677652,49.86255059241081],[0.06294956210200553,49.8449991810206],[0.28883319260523876,49.82707360744458],[0.513884211195375,49.80877672536631],[0.7381093334435604,49.79011134801483],[0.9615151822746384,49.771080248987175],[1.1841082904515474,49.75168616304606],[1.4058951029818445,49.7319317868942],[1.6268819794498768,49.711819779925435],[1.8470751962765348,49.69135276495427],[2.066480948910055,49.67053332892383],[2.2851053539493478,49.6493640235935],[2.502954451202754,49.627847366206915],[2.720034205685238,49.605985840140455],[2.936350509554643,49.58378189553387],[3.151909183990597,49.561237949902655],[3.3667159810166822,49.538356388733504],[3.5807765852698026,49.51513956606308],[3.7940966157163416,49.49158980504072],[4.00668162731813,49.46770939847574],[4.218537112650779,49.443500609369536],[4.429668503473522,49.41896567143349],[4.6400811722551225,49.394106789592584],[4.849780433654701,49.36892614047569]]}}]}