{"type":"FeatureCollection","features":[{"type":"Feature","properties":{"magnitude":0.2,"de":0.2,"ate":0.5,"percentagem":20.0},"geometry":{"type":"Polygon","coordinates":[[[-14.039999999999225,31.722948716535868],[-10.46670530584865,30.0],[-3.5399999999988268,30.0],[-3.5399999999988268,38.575905787403926],[-7.679999999998984,40.51570829036527],[-11.459999999999127,42.168588616977544],[-15.119999999999266,43.6394633625318],[-18.695654143997352,44.939999999999685],[-34.5,44.939999999999685],[-34.5,38.9022076620257],[-31.679999999999893,38.23948130611457],[-28.859999999999786,37.46686370445633],[-26.03999999999968,36.58511725123067],[-23.15999999999957,35.57481720404784],[-20.23314161889698,34.439999999999905],[-17.219999999999345,33.16713123399238],[-14.039999999999225,31.722948716535868]]]}},{"type":"Feature","properties":{"magnitude":0.5,"de":0.5,"ate":0.8,"percentagem":50.0},"geometry":{"type":"Polygon","coordinates":[[[-3.548494871795175,38.579999999999814],[-3.5399999999988268,44.939999999999685],[-18.695654143997352,44.939999999999685],[-15.119999999999266,43.6394633625318],[-11.459999999999127,42.168588616977544],[-7.679999999998984,40.51570829036527],[-3.548494871795175,38.579999999999814]]]}}]}