{"type":"FeatureCollection","properties":{"largura_maxima_km":86.199,"largura_sobre_pt_km":76.611,"linha_central_sobre_pt":false,"desenhavel_como_area":true,"perfil_largura":[{"t":0.66667,"lat":49.9578,"lon":-8.5534,"largura_km":69.544,"eixo_na_terra":true},{"t":0.67222,"lat":49.8708,"lon":-8.3885,"largura_km":69.683,"eixo_na_terra":true},{"t":0.67778,"lat":49.7835,"lon":-8.2238,"largura_km":69.823,"eixo_na_terra":true},{"t":0.68333,"lat":49.6958,"lon":-8.0593,"largura_km":69.964,"eixo_na_terra":true},{"t":0.68889,"lat":49.6079,"lon":-7.895,"largura_km":70.106,"eixo_na_terra":true},{"t":0.69444,"lat":49.5196,"lon":-7.7308,"largura_km":70.25,"eixo_na_terra":true},{"t":0.7,"lat":49.4311,"lon":-7.5669,"largura_km":70.395,"eixo_na_terra":true},{"t":0.70556,"lat":49.3422,"lon":-7.403,"largura_km":70.542,"eixo_na_terra":true},{"t":0.71111,"lat":49.253,"lon":-7.2394,"largura_km":70.69,"eixo_na_terra":true},{"t":0.71667,"lat":49.1635,"lon":-7.0759,"largura_km":70.839,"eixo_na_terra":true},{"t":0.72222,"lat":49.0737,"lon":-6.9125,"largura_km":70.99,"eixo_na_terra":true},{"t":0.72778,"lat":48.9835,"lon":-6.7493,"largura_km":71.142,"eixo_na_terra":true},{"t":0.73333,"lat":48.8931,"lon":-6.5862,"largura_km":71.295,"eixo_na_terra":true},{"t":0.73889,"lat":48.8023,"lon":-6.4232,"largura_km":71.45,"eixo_na_terra":true},{"t":0.74444,"lat":48.7112,"lon":-6.2603,"largura_km":71.607,"eixo_na_terra":true},{"t":0.75,"lat":48.6198,"lon":-6.0975,"largura_km":71.764,"eixo_na_terra":true},{"t":0.75556,"lat":48.5281,"lon":-5.9349,"largura_km":71.924,"eixo_na_terra":true},{"t":0.76111,"lat":48.436,"lon":-5.7723,"largura_km":72.085,"eixo_na_terra":true},{"t":0.76667,"lat":48.3436,"lon":-5.6099,"largura_km":72.247,"eixo_na_terra":true},{"t":0.77222,"lat":48.2509,"lon":-5.4475,"largura_km":72.411,"eixo_na_terra":true},{"t":0.77778,"lat":48.1579,"lon":-5.2852,"largura_km":72.576,"eixo_na_terra":true},{"t":0.78333,"lat":48.0645,"lon":-5.1229,"largura_km":72.743,"eixo_na_terra":true},{"t":0.78889,"lat":47.9708,"lon":-4.9607,"largura_km":72.912,"eixo_na_terra":true},{"t":0.79444,"lat":47.8768,"lon":-4.7986,"largura_km":73.081,"eixo_na_terra":true},{"t":0.8,"lat":47.7824,"lon":-4.6365,"largura_km":73.253,"eixo_na_terra":true},{"t":0.80556,"lat":47.6877,"lon":-4.4745,"largura_km":73.426,"eixo_na_terra":true},{"t":0.81111,"lat":47.5927,"lon":-4.3125,"largura_km":73.6,"eixo_na_terra":true},{"t":0.81667,"lat":47.4973,"lon":-4.1505,"largura_km":73.776,"eixo_na_terra":true},{"t":0.82222,"lat":47.4016,"lon":-3.9885,"largura_km":73.954,"eixo_na_terra":true},{"t":0.82778,"lat":47.3056,"lon":-3.8266,"largura_km":74.133,"eixo_na_terra":true},{"t":0.83333,"lat":47.2092,"lon":-3.6646,"largura_km":74.314,"eixo_na_terra":true},{"t":0.83889,"lat":47.1124,"lon":-3.5026,"largura_km":74.496,"eixo_na_terra":true},{"t":0.84444,"lat":47.0154,"lon":-3.3406,"largura_km":74.68,"eixo_na_terra":true},{"t":0.85,"lat":46.9179,"lon":-3.1786,"largura_km":74.866,"eixo_na_terra":true},{"t":0.85556,"lat":46.8201,"lon":-3.0166,"largura_km":75.053,"eixo_na_terra":true},{"t":0.86111,"lat":46.722,"lon":-2.8545,"largura_km":75.242,"eixo_na_terra":true},{"t":0.86667,"lat":46.6235,"lon":-2.6924,"largura_km":75.433,"eixo_na_terra":true},{"t":0.87222,"lat":46.5246,"lon":-2.5302,"largura_km":75.625,"eixo_na_terra":true},{"t":0.87778,"lat":46.4254,"lon":-2.368,"largura_km":75.819,"eixo_na_terra":true},{"t":0.88333,"lat":46.3258,"lon":-2.2057,"largura_km":76.014,"eixo_na_terra":true},{"t":0.88889,"lat":46.2259,"lon":-2.0433,"largura_km":76.211,"eixo_na_terra":true},{"t":0.89444,"lat":46.1255,"lon":-1.8808,"largura_km":76.41,"eixo_na_terra":true},{"t":0.9,"lat":46.0248,"lon":-1.7182,"largura_km":76.611,"eixo_na_terra":true},{"t":0.90556,"lat":45.9238,"lon":-1.5555,"largura_km":76.813,"eixo_na_terra":true},{"t":0.91111,"lat":45.8223,"lon":-1.3927,"largura_km":77.017,"eixo_na_terra":true},{"t":0.91667,"lat":45.7205,"lon":-1.2297,"largura_km":77.223,"eixo_na_terra":true},{"t":0.92222,"lat":45.6183,"lon":-1.0666,"largura_km":77.43,"eixo_na_terra":true},{"t":0.92778,"lat":45.5157,"lon":-0.9034,"largura_km":77.64,"eixo_na_terra":true},{"t":0.93333,"lat":45.4128,"lon":-0.74,"largura_km":77.851,"eixo_na_terra":true},{"t":0.93889,"lat":45.3094,"lon":-0.5765,"largura_km":78.063,"eixo_na_terra":true},{"t":0.94444,"lat":45.2057,"lon":-0.4127,"largura_km":78.278,"eixo_na_terra":true},{"t":0.95,"lat":45.1015,"lon":-0.2488,"largura_km":78.495,"eixo_na_terra":true},{"t":0.95556,"lat":44.9969,"lon":-0.0847,"largura_km":78.713,"eixo_na_terra":true},{"t":0.96111,"lat":44.892,"lon":0.0796,"largura_km":78.933,"eixo_na_terra":true},{"t":0.96667,"lat":44.7866,"lon":0.2441,"largura_km":79.155,"eixo_na_terra":true},{"t":0.97222,"lat":44.6808,"lon":0.4089,"largura_km":79.379,"eixo_na_terra":true},{"t":0.97778,"lat":44.5747,"lon":0.5739,"largura_km":79.605,"eixo_na_terra":true},{"t":0.98333,"lat":44.468,"lon":0.7392,"largura_km":79.833,"eixo_na_terra":true},{"t":0.98889,"lat":44.361,"lon":0.9047,"largura_km":80.062,"eixo_na_terra":true},{"t":0.99444,"lat":44.2536,"lon":1.0705,"largura_km":80.294,"eixo_na_terra":true},{"t":1.0,"lat":44.1457,"lon":1.2366,"largura_km":80.527,"eixo_na_terra":true},{"t":1.00556,"lat":44.0373,"lon":1.403,"largura_km":80.763,"eixo_na_terra":true},{"t":1.01111,"lat":43.9286,"lon":1.5697,"largura_km":81.0,"eixo_na_terra":true},{"t":1.01667,"lat":43.8194,"lon":1.7367,"largura_km":81.24,"eixo_na_terra":true},{"t":1.02222,"lat":43.7097,"lon":1.9041,"largura_km":81.482,"eixo_na_terra":true},{"t":1.02778,"lat":43.5996,"lon":2.0718,"largura_km":81.726,"eixo_na_terra":true},{"t":1.03333,"lat":43.4891,"lon":2.2399,"largura_km":81.971,"eixo_na_terra":true},{"t":1.03889,"lat":43.378,"lon":2.4084,"largura_km":82.219,"eixo_na_terra":true},{"t":1.04444,"lat":43.2665,"lon":2.5772,"largura_km":82.469,"eixo_na_terra":true},{"t":1.05,"lat":43.1546,"lon":2.7464,"largura_km":82.721,"eixo_na_terra":true},{"t":1.05556,"lat":43.0421,"lon":2.9161,"largura_km":82.975,"eixo_na_terra":true},{"t":1.06111,"lat":42.9292,"lon":3.0862,"largura_km":83.232,"eixo_na_terra":true},{"t":1.06667,"lat":42.8158,"lon":3.2568,"largura_km":83.49,"eixo_na_terra":true},{"t":1.07222,"lat":42.7019,"lon":3.4278,"largura_km":83.751,"eixo_na_terra":true},{"t":1.07778,"lat":42.5875,"lon":3.5993,"largura_km":84.014,"eixo_na_terra":true},{"t":1.08333,"lat":42.4726,"lon":3.7713,"largura_km":84.279,"eixo_na_terra":true},{"t":1.08889,"lat":42.3571,"lon":3.9438,"largura_km":84.546,"eixo_na_terra":true},{"t":1.09444,"lat":42.2412,"lon":4.1168,"largura_km":84.816,"eixo_na_terra":true},{"t":1.1,"lat":42.1247,"lon":4.2904,"largura_km":85.088,"eixo_na_terra":true},{"t":1.10556,"lat":42.0077,"lon":4.4646,"largura_km":85.362,"eixo_na_terra":true},{"t":1.11111,"lat":41.8902,"lon":4.6393,"largura_km":85.639,"eixo_na_terra":true},{"t":1.11667,"lat":41.7721,"lon":4.8146,"largura_km":85.918,"eixo_na_terra":true},{"t":1.12222,"lat":41.6534,"lon":4.9906,"largura_km":86.199,"eixo_na_terra":true}]},"features":[{"type":"Feature","properties":{},"geometry":{"type":"Polygon","coordinates":[[[4.46712594247694,42.52326486271263],[5.530434919563163,41.815114243365954],[4.470554023982345,41.48692561602384],[3.4393782602773797,42.18655625525838],[2.426053997856627,42.86784902976621],[1.427333114211308,43.53203876608616],[0.6041368849965068,44.07322897467063],[-0.37505898542022464,44.7086843909201],[-1.185457800483789,45.22712370937065],[-1.9921072047978328,45.735893273620356],[-2.796169293880695,46.23534377533756],[-3.5987295537790374,46.72578393355816],[-4.395492527317231,47.20435950079929],[-5.198076708739762,47.677619604258325],[-5.841096802210217,48.050244941470254],[-6.646793590258625,48.508701364149516],[-7.1315574127538355,48.779930033223046],[-7.455401995882028,48.95916612504756],[-7.942297958065751,49.22566632029554],[-8.267720033722384,49.401774813261056],[-8.920761218461251,49.750282465187134],[-8.177930192699591,50.16644590979956],[-7.845618142551871,49.99136007630979],[-7.348496718273282,49.72641144839689],[-7.017905899775599,49.54822197545197],[-6.523124951267562,49.27858248181986],[-5.865200542823061,48.91462063601763],[-5.2035756308850125,48.5424573487716],[-4.548451039912294,48.1680632691893],[-3.894033328781461,47.788331806136455],[-3.2398307491841933,47.40315179966991],[-2.5853293741879497,47.01239910687759],[-1.929990556127791,46.615935495280524],[-1.10877380295139,46.11208944258518],[-0.4494327911552318,45.70218894885823],[0.37875552561808945,45.180965710390765],[1.0453534799151214,44.75664387942075],[1.8848742375543566,44.216661716942994],[2.738596907784597,43.66171300879829],[3.5968243234975716,43.098723017267154],[4.46712594247694,42.52326486271263]]]}}]}