{"type":"FeatureCollection","features":[{"type":"Feature","properties":{"t_inicio":0.6666666666666501,"t_fim":1.122222222222204},"geometry":{"type":"LineString","coordinates":[[-8.553400122976342,49.95783575507198],[-8.388516967392945,49.870814363707176],[-8.223826430386964,49.78348526515544],[-8.059322431914268,49.69584767370106],[-7.894998846401506,49.60790077094935],[-7.730849501732564,49.51964370537078],[-7.5668681782014175,49.4310755918314],[-7.403048607430975,49.34219551110903],[-7.239384471257154,49.253002509394335],[-7.0758694005762095,49.16349559777679],[-6.91249697415526,49.0736737517149],[-6.749260717404155,48.98353591048976],[-6.586154101108207,48.893080976642054],[-6.423170540119685,48.80230781539142],[-6.260303392007813,48.7112152540378],[-6.09754595566497,48.61980208134401],[-5.934891469868603,48.52806704689919],[-5.772333111796627,48.43600886046207],[-5.609863995495402,48.343626191283626],[-5.4474771702985265,48.25091766740843],[-5.285165619194487,48.15788187495354],[-5.122922257142022,48.064517357364814],[-4.960739929331112,47.97082261464911],[-4.79861140938749,47.87679610258206],[-4.636529397519354,47.78243623189027],[-4.474486518603669,47.687741367406986],[-4.312475320210041,47.59270982720038],[-4.150488270560402,47.497339881673454],[-3.9885177564213166,47.401629752634356],[-3.826556080927446,47.305577612336016],[-3.6645954613328513,47.20918158248424],[-3.5026280266878302,47.112439733212526],[-3.340645815438563,47.01535008202287],[-3.178640772946295,46.91791059269089],[-3.0166047489233847,46.82011917413393],[-2.854529494782838,46.72197367924099],[-2.692406660897859,46.62347190366249],[-2.530227793768148,46.52461158455852],[-2.367984333088998,46.425390399304284],[-2.2056676087194376,46.325805964150085],[-2.043268837545469,46.22585583283488],[-1.880779120233825,46.12553749515126],[-1.7181894378721267,46.02484837545936],[-1.5554906484903483,45.92378583114844],[-1.3926734834590775,45.822347151043076],[-1.2297285437588243,45.72052955375218],[-1.0666462961156924,45.61833018595829],[-0.9034170689967596,45.51574612064433],[-0.7400310484596275,45.41277435525541],[-0.5764782738500571,45.30941180979272],[-0.4127486333401009,45.205655324836485],[-0.24883185930070795,45.10150165949478],[-0.08471752350041584,44.996947489275115],[0.07960496787708848,44.891989403875044],[0.24414637940498096,44.78662390488819],[0.4089176517836961,44.68084740342183],[0.5739299074189432,44.574656217621964],[0.7391944562171204,44.468046570101265],[0.9047228016077895,44.361014585265984],[1.0705266468054049,44.25355628653597],[1.2366179013204146,44.145667593453766],[1.4030086877325232,44.03734431867661],[1.5697113487392755,43.928582164845956],[1.7367384544929507,43.81937672132839],[1.904102810240488,43.70972346082162],[2.0718174642823044,43.59961773581847],[2.2398957162648685,43.48905477492211],[2.4083511258261012,43.37802967900444],[2.577197521610117,43.26653741719988],[2.746449010671995,43.1545728227257],[2.9161199882927917,43.042130588519846],[3.086225148226532,42.92920526268662],[3.2567794934029735,42.815791243739696],[3.4277983471109508,42.70188277563152],[3.599297364688624,42.58747394255744],[3.7712925457488495,42.472558663522115],[3.9438002469703406,42.35713068665451],[4.116837195486397,42.241183583257765],[4.290420502905448,42.12471074157834],[4.464567680000471,42.00770536027852],[4.63929665210685,41.8901604415946],[4.814625775269718,41.772068784162556],[4.990573853187101,41.653422975491026]]}}]}