{"type":"FeatureCollection","features":[{"type":"Feature","properties":{"magnitude":0.2,"de":0.2,"ate":0.5,"percentagem":20.0},"geometry":{"type":"Polygon","coordinates":[[[-34.5,30.0],[-14.45999999999924,30.0],[-14.42111340615144,29.999999999999996],[-17.279999999999347,31.82642665848749],[-19.917836603327313,33.41999999999993],[-22.439999999999543,34.84426355142201],[-24.839999999999634,36.098370437134434],[-27.239999999999725,37.247065970925625],[-29.639999999999816,38.286842814309836],[-32.03999999999991,39.21676969772874],[-34.5,40.05703807508351],[-34.5,30.0]]]}},{"type":"Feature","properties":{"magnitude":0.5,"de":0.5,"ate":0.8,"percentagem":50.0},"geometry":{"type":"Polygon","coordinates":[[[-17.33999999999935,31.863733484064888],[-14.42111340615144,29.999999999999996],[-3.5399999999988268,30.0],[-3.5399999999988268,36.994734925227746],[-7.379999999998972,39.47324976126413],[-10.7399999999991,41.51860335971136],[-13.925238571485634,43.319999999999716],[-17.051796697585175,44.939999999999685],[-34.5,44.939999999999685],[-34.5,40.05703807508351],[-32.09999999999991,39.238615186527895],[-29.699999999999818,38.31142943755326],[-27.299999999999724,37.27439656598199],[-24.88321920985276,36.11999999999986],[-22.46896150292897,34.8599999999999],[-19.97999999999945,33.45633199463199],[-17.33999999999935,31.863733484064888]]]}},{"type":"Feature","properties":{"magnitude":0.8,"de":0.8,"ate":0.95,"percentagem":80.0},"geometry":{"type":"Polygon","coordinates":[[[-7.379999999998972,39.47324976126413],[-3.5399999999988268,36.994734925227746],[-3.5399999999988268,44.84888558859412],[-3.689139630908736,44.939999999999685],[-17.051796697585175,44.939999999999685],[-13.925238571485634,43.319999999999716],[-10.7399999999991,41.51860335971136],[-7.379999999998972,39.47324976126413]]]}},{"type":"Feature","properties":{"magnitude":0.95,"de":0.95,"ate":0.99,"percentagem":95.0},"geometry":{"type":"Polygon","coordinates":[[[-3.689139630908736,44.939999999999685],[-3.5399999999988268,44.84888558859412],[-3.5399999999988268,44.939999999999685],[-3.689139630908736,44.939999999999685]]]}}]}