{"type":"FeatureCollection","properties":{"largura_maxima_km":169.479,"largura_sobre_pt_km":161.159,"linha_central_sobre_pt":true,"desenhavel_como_area":true,"perfil_largura":[{"t":-1.70556,"lat":49.9943,"lon":-30.6898,"largura_km":144.551,"eixo_na_terra":true},{"t":-1.7,"lat":49.9151,"lon":-30.3558,"largura_km":144.747,"eixo_na_terra":true},{"t":-1.69444,"lat":49.8355,"lon":-30.0255,"largura_km":144.941,"eixo_na_terra":true},{"t":-1.68889,"lat":49.7554,"lon":-29.6988,"largura_km":145.133,"eixo_na_terra":true},{"t":-1.68333,"lat":49.6751,"lon":-29.3757,"largura_km":145.325,"eixo_na_terra":true},{"t":-1.67778,"lat":49.5943,"lon":-29.056,"largura_km":145.515,"eixo_na_terra":true},{"t":-1.67222,"lat":49.5132,"lon":-28.7398,"largura_km":145.703,"eixo_na_terra":true},{"t":-1.66667,"lat":49.4317,"lon":-28.4269,"largura_km":145.89,"eixo_na_terra":true},{"t":-1.66111,"lat":49.3498,"lon":-28.1172,"largura_km":146.075,"eixo_na_terra":true},{"t":-1.65556,"lat":49.2677,"lon":-27.8108,"largura_km":146.259,"eixo_na_terra":true},{"t":-1.65,"lat":49.1852,"lon":-27.5076,"largura_km":146.442,"eixo_na_terra":true},{"t":-1.64444,"lat":49.1023,"lon":-27.2074,"largura_km":146.623,"eixo_na_terra":true},{"t":-1.63889,"lat":49.0192,"lon":-26.9103,"largura_km":146.802,"eixo_na_terra":true},{"t":-1.63333,"lat":48.9358,"lon":-26.6162,"largura_km":146.98,"eixo_na_terra":true},{"t":-1.62778,"lat":48.8521,"lon":-26.325,"largura_km":147.156,"eixo_na_terra":true},{"t":-1.62222,"lat":48.7681,"lon":-26.0367,"largura_km":147.331,"eixo_na_terra":true},{"t":-1.61667,"lat":48.6838,"lon":-25.7512,"largura_km":147.504,"eixo_na_terra":true},{"t":-1.61111,"lat":48.5993,"lon":-25.4685,"largura_km":147.677,"eixo_na_terra":true},{"t":-1.60556,"lat":48.5145,"lon":-25.1886,"largura_km":147.848,"eixo_na_terra":true},{"t":-1.6,"lat":48.4294,"lon":-24.9113,"largura_km":148.018,"eixo_na_terra":true},{"t":-1.59444,"lat":48.3441,"lon":-24.6367,"largura_km":148.186,"eixo_na_terra":true},{"t":-1.58889,"lat":48.2585,"lon":-24.3647,"largura_km":148.354,"eixo_na_terra":true},{"t":-1.58333,"lat":48.1727,"lon":-24.0952,"largura_km":148.522,"eixo_na_terra":true},{"t":-1.57778,"lat":48.0867,"lon":-23.8283,"largura_km":148.688,"eixo_na_terra":true},{"t":-1.57222,"lat":48.0005,"lon":-23.5638,"largura_km":148.852,"eixo_na_terra":true},{"t":-1.56667,"lat":47.914,"lon":-23.3017,"largura_km":149.015,"eixo_na_terra":true},{"t":-1.56111,"lat":47.8273,"lon":-23.0421,"largura_km":149.177,"eixo_na_terra":true},{"t":-1.55556,"lat":47.7404,"lon":-22.7848,"largura_km":149.337,"eixo_na_terra":true},{"t":-1.55,"lat":47.6533,"lon":-22.5298,"largura_km":149.497,"eixo_na_terra":true},{"t":-1.54444,"lat":47.5661,"lon":-22.2771,"largura_km":149.654,"eixo_na_terra":true},{"t":-1.53889,"lat":47.4786,"lon":-22.0266,"largura_km":149.812,"eixo_na_terra":true},{"t":-1.53333,"lat":47.3909,"lon":-21.7784,"largura_km":149.969,"eixo_na_terra":true},{"t":-1.52778,"lat":47.3031,"lon":-21.5323,"largura_km":150.124,"eixo_na_terra":true},{"t":-1.52222,"lat":47.215,"lon":-21.2884,"largura_km":150.279,"eixo_na_terra":true},{"t":-1.51667,"lat":47.1268,"lon":-21.0466,"largura_km":150.432,"eixo_na_terra":true},{"t":-1.51111,"lat":47.0385,"lon":-20.8068,"largura_km":150.585,"eixo_na_terra":true},{"t":-1.50556,"lat":46.9499,"lon":-20.5691,"largura_km":150.738,"eixo_na_terra":true},{"t":-1.5,"lat":46.8612,"lon":-20.3334,"largura_km":150.889,"eixo_na_terra":true},{"t":-1.49444,"lat":46.7724,"lon":-20.0997,"largura_km":151.04,"eixo_na_terra":true},{"t":-1.48889,"lat":46.6834,"lon":-19.868,"largura_km":151.189,"eixo_na_terra":true},{"t":-1.48333,"lat":46.5942,"lon":-19.6382,"largura_km":151.337,"eixo_na_terra":true},{"t":-1.47778,"lat":46.5049,"lon":-19.4103,"largura_km":151.483,"eixo_na_terra":true},{"t":-1.47222,"lat":46.4155,"lon":-19.1843,"largura_km":151.629,"eixo_na_terra":true},{"t":-1.46667,"lat":46.3259,"lon":-18.9601,"largura_km":151.774,"eixo_na_terra":true},{"t":-1.46111,"lat":46.2362,"lon":-18.7377,"largura_km":151.918,"eixo_na_terra":true},{"t":-1.45556,"lat":46.1463,"lon":-18.5172,"largura_km":152.062,"eixo_na_terra":true},{"t":-1.45,"lat":46.0563,"lon":-18.2984,"largura_km":152.205,"eixo_na_terra":true},{"t":-1.44444,"lat":45.9662,"lon":-18.0813,"largura_km":152.347,"eixo_na_terra":true},{"t":-1.43889,"lat":45.876,"lon":-17.866,"largura_km":152.488,"eixo_na_terra":true},{"t":-1.43333,"lat":45.7856,"lon":-17.6523,"largura_km":152.629,"eixo_na_terra":true},{"t":-1.42778,"lat":45.6952,"lon":-17.4404,"largura_km":152.769,"eixo_na_terra":true},{"t":-1.42222,"lat":45.6046,"lon":-17.2301,"largura_km":152.909,"eixo_na_terra":true},{"t":-1.41667,"lat":45.5139,"lon":-17.0214,"largura_km":153.048,"eixo_na_terra":true},{"t":-1.41111,"lat":45.4231,"lon":-16.8143,"largura_km":153.185,"eixo_na_terra":true},{"t":-1.40556,"lat":45.3322,"lon":-16.6088,"largura_km":153.322,"eixo_na_terra":true},{"t":-1.4,"lat":45.2412,"lon":-16.4048,"largura_km":153.458,"eixo_na_terra":true},{"t":-1.39444,"lat":45.15,"lon":-16.2024,"largura_km":153.593,"eixo_na_terra":true},{"t":-1.38889,"lat":45.0588,"lon":-16.0016,"largura_km":153.727,"eixo_na_terra":true},{"t":-1.38333,"lat":44.9675,"lon":-15.8022,"largura_km":153.86,"eixo_na_terra":true},{"t":-1.37778,"lat":44.8761,"lon":-15.6043,"largura_km":153.993,"eixo_na_terra":true},{"t":-1.37222,"lat":44.7846,"lon":-15.4078,"largura_km":154.125,"eixo_na_terra":true},{"t":-1.36667,"lat":44.693,"lon":-15.2128,"largura_km":154.257,"eixo_na_terra":true},{"t":-1.36111,"lat":44.6014,"lon":-15.0193,"largura_km":154.388,"eixo_na_terra":true},{"t":-1.35556,"lat":44.5096,"lon":-14.8271,"largura_km":154.518,"eixo_na_terra":true},{"t":-1.35,"lat":44.4177,"lon":-14.6363,"largura_km":154.648,"eixo_na_terra":true},{"t":-1.34444,"lat":44.3258,"lon":-14.4469,"largura_km":154.778,"eixo_na_terra":true},{"t":-1.33889,"lat":44.2338,"lon":-14.2588,"largura_km":154.907,"eixo_na_terra":true},{"t":-1.33333,"lat":44.1417,"lon":-14.0721,"largura_km":155.035,"eixo_na_terra":true},{"t":-1.32778,"lat":44.0496,"lon":-13.8867,"largura_km":155.163,"eixo_na_terra":true},{"t":-1.32222,"lat":43.9573,"lon":-13.7026,"largura_km":155.29,"eixo_na_terra":true},{"t":-1.31667,"lat":43.865,"lon":-13.5197,"largura_km":155.416,"eixo_na_terra":true},{"t":-1.31111,"lat":43.7726,"lon":-13.3382,"largura_km":155.541,"eixo_na_terra":true},{"t":-1.30556,"lat":43.6802,"lon":-13.1579,"largura_km":155.666,"eixo_na_terra":true},{"t":-1.3,"lat":43.5877,"lon":-12.9788,"largura_km":155.79,"eixo_na_terra":true},{"t":-1.29444,"lat":43.4951,"lon":-12.8009,"largura_km":155.913,"eixo_na_terra":true},{"t":-1.28889,"lat":43.4024,"lon":-12.6243,"largura_km":156.035,"eixo_na_terra":true},{"t":-1.28333,"lat":43.3097,"lon":-12.4488,"largura_km":156.157,"eixo_na_terra":true},{"t":-1.27778,"lat":43.2169,"lon":-12.2745,"largura_km":156.278,"eixo_na_terra":true},{"t":-1.27222,"lat":43.1241,"lon":-12.1014,"largura_km":156.4,"eixo_na_terra":true},{"t":-1.26667,"lat":43.0312,"lon":-11.9294,"largura_km":156.52,"eixo_na_terra":true},{"t":-1.26111,"lat":42.9383,"lon":-11.7586,"largura_km":156.64,"eixo_na_terra":true},{"t":-1.25556,"lat":42.8452,"lon":-11.5889,"largura_km":156.76,"eixo_na_terra":true},{"t":-1.25,"lat":42.7522,"lon":-11.4202,"largura_km":156.88,"eixo_na_terra":true},{"t":-1.24444,"lat":42.6591,"lon":-11.2527,"largura_km":157.0,"eixo_na_terra":true},{"t":-1.23889,"lat":42.5659,"lon":-11.0863,"largura_km":157.118,"eixo_na_terra":true},{"t":-1.23333,"lat":42.4727,"lon":-10.9209,"largura_km":157.236,"eixo_na_terra":true},{"t":-1.22778,"lat":42.3794,"lon":-10.7565,"largura_km":157.354,"eixo_na_terra":true},{"t":-1.22222,"lat":42.2861,"lon":-10.5933,"largura_km":157.47,"eixo_na_terra":true},{"t":-1.21667,"lat":42.1927,"lon":-10.431,"largura_km":157.586,"eixo_na_terra":true},{"t":-1.21111,"lat":42.0993,"lon":-10.2697,"largura_km":157.702,"eixo_na_terra":true},{"t":-1.20556,"lat":42.0058,"lon":-10.1095,"largura_km":157.816,"eixo_na_terra":true},{"t":-1.2,"lat":41.9123,"lon":-9.9502,"largura_km":157.931,"eixo_na_terra":true},{"t":-1.19444,"lat":41.8188,"lon":-9.792,"largura_km":158.044,"eixo_na_terra":true},{"t":-1.18889,"lat":41.7252,"lon":-9.6347,"largura_km":158.157,"eixo_na_terra":true},{"t":-1.18333,"lat":41.6315,"lon":-9.4783,"largura_km":158.269,"eixo_na_terra":true},{"t":-1.17778,"lat":41.5379,"lon":-9.3229,"largura_km":158.381,"eixo_na_terra":true},{"t":-1.17222,"lat":41.4441,"lon":-9.1685,"largura_km":158.493,"eixo_na_terra":true},{"t":-1.16667,"lat":41.3504,"lon":-9.0149,"largura_km":158.605,"eixo_na_terra":true},{"t":-1.16111,"lat":41.2566,"lon":-8.8623,"largura_km":158.716,"eixo_na_terra":true},{"t":-1.15556,"lat":41.1628,"lon":-8.7106,"largura_km":158.827,"eixo_na_terra":true},{"t":-1.15,"lat":41.0689,"lon":-8.5597,"largura_km":158.938,"eixo_na_terra":true},{"t":-1.14444,"lat":40.975,"lon":-8.4098,"largura_km":159.049,"eixo_na_terra":true},{"t":-1.13889,"lat":40.881,"lon":-8.2607,"largura_km":159.159,"eixo_na_terra":true},{"t":-1.13333,"lat":40.7871,"lon":-8.1125,"largura_km":159.268,"eixo_na_terra":true},{"t":-1.12778,"lat":40.693,"lon":-7.9651,"largura_km":159.377,"eixo_na_terra":true},{"t":-1.12222,"lat":40.599,"lon":-7.8186,"largura_km":159.486,"eixo_na_terra":true},{"t":-1.11667,"lat":40.5049,"lon":-7.6729,"largura_km":159.594,"eixo_na_terra":true},{"t":-1.11111,"lat":40.4108,"lon":-7.528,"largura_km":159.701,"eixo_na_terra":true},{"t":-1.10556,"lat":40.3167,"lon":-7.3839,"largura_km":159.808,"eixo_na_terra":true},{"t":-1.1,"lat":40.2225,"lon":-7.2407,"largura_km":159.914,"eixo_na_terra":true},{"t":-1.09444,"lat":40.1283,"lon":-7.0982,"largura_km":160.02,"eixo_na_terra":true},{"t":-1.08889,"lat":40.0341,"lon":-6.9565,"largura_km":160.125,"eixo_na_terra":true},{"t":-1.08333,"lat":39.9398,"lon":-6.8156,"largura_km":160.23,"eixo_na_terra":true},{"t":-1.07778,"lat":39.8455,"lon":-6.6755,"largura_km":160.334,"eixo_na_terra":true},{"t":-1.07222,"lat":39.7512,"lon":-6.5361,"largura_km":160.438,"eixo_na_terra":true},{"t":-1.06667,"lat":39.6569,"lon":-6.3975,"largura_km":160.541,"eixo_na_terra":true},{"t":-1.06111,"lat":39.5625,"lon":-6.2596,"largura_km":160.645,"eixo_na_terra":true},{"t":-1.05556,"lat":39.4681,"lon":-6.1224,"largura_km":160.748,"eixo_na_terra":true},{"t":-1.05,"lat":39.3737,"lon":-5.986,"largura_km":160.851,"eixo_na_terra":true},{"t":-1.04444,"lat":39.2793,"lon":-5.8503,"largura_km":160.954,"eixo_na_terra":true},{"t":-1.03889,"lat":39.1848,"lon":-5.7153,"largura_km":161.057,"eixo_na_terra":true},{"t":-1.03333,"lat":39.0903,"lon":-5.581,"largura_km":161.159,"eixo_na_terra":true},{"t":-1.02778,"lat":38.9958,"lon":-5.4473,"largura_km":161.261,"eixo_na_terra":true},{"t":-1.02222,"lat":38.9013,"lon":-5.3144,"largura_km":161.363,"eixo_na_terra":true},{"t":-1.01667,"lat":38.8067,"lon":-5.1821,"largura_km":161.464,"eixo_na_terra":true},{"t":-1.01111,"lat":38.7121,"lon":-5.0506,"largura_km":161.565,"eixo_na_terra":true},{"t":-1.00556,"lat":38.6175,"lon":-4.9196,"largura_km":161.665,"eixo_na_terra":true},{"t":-1.0,"lat":38.5229,"lon":-4.7894,"largura_km":161.765,"eixo_na_terra":true},{"t":-0.99444,"lat":38.4283,"lon":-4.6597,"largura_km":161.865,"eixo_na_terra":true},{"t":-0.98889,"lat":38.3336,"lon":-4.5307,"largura_km":161.964,"eixo_na_terra":true},{"t":-0.98333,"lat":38.2389,"lon":-4.4024,"largura_km":162.062,"eixo_na_terra":true},{"t":-0.97778,"lat":38.1442,"lon":-4.2746,"largura_km":162.16,"eixo_na_terra":true},{"t":-0.97222,"lat":38.0495,"lon":-4.1475,"largura_km":162.258,"eixo_na_terra":true},{"t":-0.96667,"lat":37.9547,"lon":-4.021,"largura_km":162.355,"eixo_na_terra":true},{"t":-0.96111,"lat":37.86,"lon":-3.8951,"largura_km":162.452,"eixo_na_terra":true},{"t":-0.95556,"lat":37.7652,"lon":-3.7698,"largura_km":162.548,"eixo_na_terra":true},{"t":-0.95,"lat":37.6704,"lon":-3.6451,"largura_km":162.644,"eixo_na_terra":true},{"t":-0.94444,"lat":37.5756,"lon":-3.521,"largura_km":162.74,"eixo_na_terra":true},{"t":-0.93889,"lat":37.4807,"lon":-3.3974,"largura_km":162.835,"eixo_na_terra":true},{"t":-0.93333,"lat":37.3859,"lon":-3.2744,"largura_km":162.931,"eixo_na_terra":true},{"t":-0.92778,"lat":37.291,"lon":-3.152,"largura_km":163.026,"eixo_na_terra":true},{"t":-0.92222,"lat":37.1961,"lon":-3.0301,"largura_km":163.121,"eixo_na_terra":true},{"t":-0.91667,"lat":37.1012,"lon":-2.9088,"largura_km":163.216,"eixo_na_terra":true},{"t":-0.91111,"lat":37.0063,"lon":-2.788,"largura_km":163.312,"eixo_na_terra":true},{"t":-0.90556,"lat":36.9113,"lon":-2.6678,"largura_km":163.406,"eixo_na_terra":true},{"t":-0.9,"lat":36.8164,"lon":-2.5481,"largura_km":163.501,"eixo_na_terra":true},{"t":-0.89444,"lat":36.7214,"lon":-2.4289,"largura_km":163.595,"eixo_na_terra":true},{"t":-0.88889,"lat":36.6264,"lon":-2.3102,"largura_km":163.689,"eixo_na_terra":true},{"t":-0.88333,"lat":36.5314,"lon":-2.1921,"largura_km":163.782,"eixo_na_terra":true},{"t":-0.87778,"lat":36.4364,"lon":-2.0744,"largura_km":163.875,"eixo_na_terra":true},{"t":-0.87222,"lat":36.3413,"lon":-1.9573,"largura_km":163.968,"eixo_na_terra":true},{"t":-0.86667,"lat":36.2463,"lon":-1.8407,"largura_km":164.06,"eixo_na_terra":true},{"t":-0.86111,"lat":36.1512,"lon":-1.7245,"largura_km":164.152,"eixo_na_terra":true},{"t":-0.85556,"lat":36.0561,"lon":-1.6088,"largura_km":164.243,"eixo_na_terra":true},{"t":-0.85,"lat":35.961,"lon":-1.4936,"largura_km":164.335,"eixo_na_terra":true},{"t":-0.84444,"lat":35.8659,"lon":-1.3789,"largura_km":164.426,"eixo_na_terra":true},{"t":-0.83889,"lat":35.7708,"lon":-1.2647,"largura_km":164.516,"eixo_na_terra":true},{"t":-0.83333,"lat":35.6757,"lon":-1.1509,"largura_km":164.606,"eixo_na_terra":true},{"t":-0.82778,"lat":35.5805,"lon":-1.0375,"largura_km":164.696,"eixo_na_terra":true},{"t":-0.82222,"lat":35.4853,"lon":-0.9246,"largura_km":164.785,"eixo_na_terra":true},{"t":-0.81667,"lat":35.3901,"lon":-0.8122,"largura_km":164.875,"eixo_na_terra":true},{"t":-0.81111,"lat":35.2949,"lon":-0.7002,"largura_km":164.963,"eixo_na_terra":true},{"t":-0.80556,"lat":35.1997,"lon":-0.5886,"largura_km":165.052,"eixo_na_terra":true},{"t":-0.8,"lat":35.1045,"lon":-0.4775,"largura_km":165.14,"eixo_na_terra":true},{"t":-0.79444,"lat":35.0092,"lon":-0.3668,"largura_km":165.228,"eixo_na_terra":true},{"t":-0.78889,"lat":34.914,"lon":-0.2565,"largura_km":165.315,"eixo_na_terra":true},{"t":-0.78333,"lat":34.8187,"lon":-0.1466,"largura_km":165.403,"eixo_na_terra":true},{"t":-0.77778,"lat":34.7234,"lon":-0.0371,"largura_km":165.491,"eixo_na_terra":true},{"t":-0.77222,"lat":34.6281,"lon":0.0719,"largura_km":165.578,"eixo_na_terra":true},{"t":-0.76667,"lat":34.5328,"lon":0.1806,"largura_km":165.665,"eixo_na_terra":true},{"t":-0.76111,"lat":34.4375,"lon":0.2889,"largura_km":165.753,"eixo_na_terra":true},{"t":-0.75556,"lat":34.3422,"lon":0.3968,"largura_km":165.84,"eixo_na_terra":true},{"t":-0.75,"lat":34.2468,"lon":0.5043,"largura_km":165.927,"eixo_na_terra":true},{"t":-0.74444,"lat":34.1514,"lon":0.6114,"largura_km":166.014,"eixo_na_terra":true},{"t":-0.73889,"lat":34.056,"lon":0.7181,"largura_km":166.1,"eixo_na_terra":true},{"t":-0.73333,"lat":33.9606,"lon":0.8245,"largura_km":166.186,"eixo_na_terra":true},{"t":-0.72778,"lat":33.8652,"lon":0.9305,"largura_km":166.272,"eixo_na_terra":true},{"t":-0.72222,"lat":33.7698,"lon":1.0362,"largura_km":166.357,"eixo_na_terra":true},{"t":-0.71667,"lat":33.6744,"lon":1.1415,"largura_km":166.442,"eixo_na_terra":true},{"t":-0.71111,"lat":33.5789,"lon":1.2464,"largura_km":166.527,"eixo_na_terra":true},{"t":-0.70556,"lat":33.4834,"lon":1.351,"largura_km":166.611,"eixo_na_terra":true},{"t":-0.7,"lat":33.388,"lon":1.4553,"largura_km":166.696,"eixo_na_terra":true},{"t":-0.69444,"lat":33.2925,"lon":1.5592,"largura_km":166.78,"eixo_na_terra":true},{"t":-0.68889,"lat":33.197,"lon":1.6628,"largura_km":166.863,"eixo_na_terra":true},{"t":-0.68333,"lat":33.1014,"lon":1.766,"largura_km":166.946,"eixo_na_terra":true},{"t":-0.67778,"lat":33.0059,"lon":1.869,"largura_km":167.03,"eixo_na_terra":true},{"t":-0.67222,"lat":32.9103,"lon":1.9716,"largura_km":167.112,"eixo_na_terra":true},{"t":-0.66667,"lat":32.8148,"lon":2.0739,"largura_km":167.195,"eixo_na_terra":true},{"t":-0.66111,"lat":32.7192,"lon":2.1759,"largura_km":167.277,"eixo_na_terra":true},{"t":-0.65556,"lat":32.6236,"lon":2.2775,"largura_km":167.359,"eixo_na_terra":true},{"t":-0.65,"lat":32.528,"lon":2.3789,"largura_km":167.44,"eixo_na_terra":true},{"t":-0.64444,"lat":32.4324,"lon":2.48,"largura_km":167.522,"eixo_na_terra":true},{"t":-0.63889,"lat":32.3367,"lon":2.5808,"largura_km":167.603,"eixo_na_terra":true},{"t":-0.63333,"lat":32.2411,"lon":2.6813,"largura_km":167.684,"eixo_na_terra":true},{"t":-0.62778,"lat":32.1454,"lon":2.7815,"largura_km":167.764,"eixo_na_terra":true},{"t":-0.62222,"lat":32.0497,"lon":2.8814,"largura_km":167.844,"eixo_na_terra":true},{"t":-0.61667,"lat":31.954,"lon":2.981,"largura_km":167.924,"eixo_na_terra":true},{"t":-0.61111,"lat":31.8583,"lon":3.0804,"largura_km":168.004,"eixo_na_terra":true},{"t":-0.60556,"lat":31.7625,"lon":3.1795,"largura_km":168.083,"eixo_na_terra":true},{"t":-0.6,"lat":31.6668,"lon":3.2784,"largura_km":168.162,"eixo_na_terra":true},{"t":-0.59444,"lat":31.571,"lon":3.3769,"largura_km":168.241,"eixo_na_terra":true},{"t":-0.58889,"lat":31.4753,"lon":3.4752,"largura_km":168.32,"eixo_na_terra":true},{"t":-0.58333,"lat":31.3795,"lon":3.5733,"largura_km":168.398,"eixo_na_terra":true},{"t":-0.57778,"lat":31.2836,"lon":3.6711,"largura_km":168.477,"eixo_na_terra":true},{"t":-0.57222,"lat":31.1878,"lon":3.7687,"largura_km":168.555,"eixo_na_terra":true},{"t":-0.56667,"lat":31.092,"lon":3.866,"largura_km":168.633,"eixo_na_terra":true},{"t":-0.56111,"lat":30.9961,"lon":3.9631,"largura_km":168.711,"eixo_na_terra":true},{"t":-0.55556,"lat":30.9002,"lon":4.06,"largura_km":168.789,"eixo_na_terra":true},{"t":-0.55,"lat":30.8043,"lon":4.1566,"largura_km":168.867,"eixo_na_terra":true},{"t":-0.54444,"lat":30.7084,"lon":4.253,"largura_km":168.945,"eixo_na_terra":true},{"t":-0.53889,"lat":30.6125,"lon":4.3492,"largura_km":169.022,"eixo_na_terra":true},{"t":-0.53333,"lat":30.5165,"lon":4.4451,"largura_km":169.099,"eixo_na_terra":true},{"t":-0.52778,"lat":30.4206,"lon":4.5409,"largura_km":169.175,"eixo_na_terra":true},{"t":-0.52222,"lat":30.3246,"lon":4.6364,"largura_km":169.252,"eixo_na_terra":true},{"t":-0.51667,"lat":30.2286,"lon":4.7317,"largura_km":169.328,"eixo_na_terra":true},{"t":-0.51111,"lat":30.1326,"lon":4.8268,"largura_km":169.404,"eixo_na_terra":true},{"t":-0.50556,"lat":30.0365,"lon":4.9217,"largura_km":169.479,"eixo_na_terra":true}]},"features":[{"type":"Feature","properties":{},"geometry":{"type":"Polygon","coordinates":[[[4.196711124868614,31.922835628025528],[4.500685775202982,31.624157863769305],[4.889865615119248,31.238224075870264],[5.562342241627022,30.562157871390102],[4.287955634014395,29.509663021949827],[3.813964402986386,29.98678005962551],[3.334687000888181,30.463462023138632],[2.8592706430039243,30.930373415820068],[2.466860317544729,31.311097713865514],[1.9703620477353638,31.7866592147261],[1.568061218597819,32.16684184427238],[1.1609386213112032,32.5467938428864],[0.7487223843695574,32.92651983533942],[0.2258626570763056,33.40086461749877],[-0.19884852374295292,33.78009274369914],[-0.6190125722990558,34.149899136190484],[-1.0559842647029711,34.52868797382406],[-1.4996105267827602,34.907254639408315],[-1.9502208409099069,35.2855952694842],[-2.4081565249115613,35.663704345063806],[-2.7566280141873563,35.94712988431451],[-3.1095731898553254,36.23041735968434],[-3.575824793025248,36.598902328529576],[-4.062130940796209,36.97613627097487],[-4.432760826469718,37.25887938714613],[-4.935138568991448,37.6356138888362],[-5.318314196217415,37.91796232008006],[-5.838102214065344,38.294140111025705],[-6.234866781788952,38.57604549891669],[-6.760749324758393,38.94281767758093],[-7.172090541889332,39.22422832399311],[-7.590104670498107,39.50540207941831],[-8.01502527290367,39.786324208806064],[-8.592749945228718,40.16046778026519],[-9.034745074285468,40.4407382107877],[-9.47061246250135,40.712178934837645],[-9.92821708984323,40.9918214716834],[-10.237885706307566,41.17805524808857],[-10.551335926725187,41.36412512919543],[-11.028800831446034,41.64290620562529],[-11.515296152322378,41.9212747689438],[-11.844806241423527,42.10661042964238],[-12.163522989609731,42.28350735170818],[-12.501526726984821,42.46843583202692],[-12.84400267901782,42.653139853564824],[-13.366346721587547,42.9297517356564],[-13.720498473516216,43.11384713667884],[-14.079528231780273,43.29767862996985],[-14.627492616384814,43.572903324348616],[-14.982931968960713,43.74810489375408],[-15.359881543823406,43.930927134394],[-15.935604099751458,44.20454589279701],[-16.52412429695545,44.47737897763432],[-17.12596153142016,44.74936830669947],[-17.74166404176654,45.02045118404182],[-18.35388438355156,45.28302651189774],[-18.99879300863529,45.552125487854006],[-19.65939783326982,45.82010013976813],[-20.336388089876607,46.08686489607037],[-21.030496536538863,46.352327018357094],[-21.72291177986034,46.60927164480513],[-22.207698669595004,46.78451097902141],[-22.951046692766084,47.04603593669524],[-23.714627657411,47.30584760587568],[-24.23541202723422,47.47803642140099],[-25.013677163269733,47.72801904037061],[-25.55917312562596,47.897998896803074],[-25.835871778381858,47.982622654454396],[-26.397401410560434,48.15110467185369],[-26.970096800775707,48.31851932512398],[-27.260757674244815,48.40180802425794],[-27.850970314706075,48.56750931065785],[-28.430273544655478,48.72582331334657],[-28.73605369135683,48.80760962628469],[-29.357370012595084,48.97017772830775],[-29.992123679959434,49.131341643380566],[-30.64085876578781,49.29101866572305],[-30.755130983235063,50.70053757607184],[-30.074450392610828,50.54264676961355],[-29.384296419538742,50.3770251664242],[-28.73338873656806,50.21576162471212],[-28.09631913923917,50.052982721765574],[-27.472566403983166,49.88877149019952],[-26.861639361246347,49.72320551100304],[-26.26307441082679,49.55635736676341],[-25.654038291229256,49.3817139789684],[-25.079213365984202,49.21245323018919],[-24.515494702355937,49.04210391358442],[-23.962509416816374,48.8707221825153],[-23.15238608459498,48.611828508164216],[-22.364494710385202,48.35089550927941],[-21.83069712512045,48.16878931337834],[-21.326642080941667,47.99294337979997],[-20.587042571218433,47.72776816228175],[-20.104580008369396,47.55010059722149],[-19.396166813911037,47.28235861279374],[-18.705382845707135,47.01322299965416],[-18.235735127225098,46.82553281250156],[-17.792130336466812,46.644810152176525],[-17.139935626467377,46.37275809235529],[-16.50301735825053,46.099617068516736],[-15.880757710251487,45.82546324414917],[-15.27257229006159,45.55036710429694],[-14.857754596961229,45.35854459560363],[-14.272068572308768,45.08199207181576],[-13.699034349930571,44.80466244228329],[-13.138170705257323,44.526608926165174],[-12.589019922475416,44.247880886563934],[-12.051146192069211,43.96852412110135],[-11.508777557522194,43.680297222655604],[-10.99244250035511,43.39978782217753],[-10.48618744375807,43.11876937468561],[-9.989651015743618,42.837275773338675],[-9.66385464123394,42.64936502010373],[-9.342124959501632,42.461265853216474],[-8.85278360227693,42.17020998091938],[-8.386405909738812,41.887333445598614],[-7.928344571944308,41.60410321151721],[-7.3300369909393055,41.22595141852811],[-6.89028095279167,40.941980637791566],[-6.315406925929267,40.56291267144342],[-5.892526691054059,40.27830361563433],[-5.326541951701245,39.88959563658299],[-4.919368732988971,39.60442552010832],[-4.386224199851426,39.223866563586654],[-3.993406221257146,38.93821296947008],[-3.4786494591974986,38.557048351496334],[-2.9737552072552376,38.175568226500154],[-2.589629156684225,37.88019259698367],[-2.101086975215253,37.49819959482331],[-1.621223965733435,37.115937055651756],[-1.14964419633165,36.7334168932616],[-0.6859669338258243,36.350648877269926],[-0.22982562767185755,35.96764077053976],[0.330290633147456,35.48855179865492],[0.7812735228378926,35.09576282403478],[1.3227023254365804,34.61603264105808],[1.7490288438137043,34.231993747092716],[2.273914821214163,33.751624468237964],[2.6877639045501667,33.36706897801979],[3.1979674375920695,32.88604236815587],[3.700775742252887,32.40463595993196],[4.196711124868614,31.922835628025528]]]}}]}