{"type":"FeatureCollection","features":[{"type":"Feature","properties":{"t_inicio":-1.7055555555555637,"t_fim":-0.505555555555568},"geometry":{"type":"LineString","coordinates":[[-30.68976462010221,49.99426752550318],[-30.355776229125496,49.91506690344372],[-30.02547965778055,49.83545684458893],[-29.698800624247497,49.755449072478584],[-29.375667199949675,49.67505489709917],[-29.056009701327042,49.594285233831],[-28.739760588124796,49.513150621282364],[-28.42685436771731,49.43166123809075],[-28.117227505029433,49.349826918764876],[-27.81081833765427,49.26765716863414],[-27.507566995800175,49.1851611779675],[-27.207415326730086,49.10234783531839],[-26.91030682338399,49.01922574014734],[-26.61618655690023,48.93580321477088],[-26.32500111277409,48.85208831568015],[-26.03669853041245,48.768088844270466],[-25.751228245862592,48.683812357019356],[-25.468541037509823,48.59926617514764],[-25.18858897455425,48.51445739379612],[-24.91132536809178,48.42939289074719],[-24.636704724636616,48.34407933471956],[-24.364682701935095,48.25852319326128],[-24.095216066931357,48.172730740265244],[-23.828262655755424,48.08670806312906],[-23.563781335613243,48.00046106958005],[-23.30173196846701,47.91399549418455],[-23.042075376401584,47.82731690455949],[-22.78477330858024,47.74043070730258],[-22.529788409699023,47.65334215365714],[-22.27708418985594,47.56605634492609],[-22.026624995755867,47.47857823764812],[-21.77837598317771,47.39091264854962],[-21.532303090635708,47.303064259283715],[-21.288373014169423,47.21503762096771],[-21.046553183203656,47.12683715852955],[-20.806811737420446,47.03846717487294],[-20.56911750459156,46.94993185487052],[-20.3334399793211,46.86123526919376],[-20.0997493026519,46.772381377987294],[-19.868016242492075,46.68337403439631],[-19.638212174820524,46.594216987953104],[-19.41030906563276,46.50491388783041],[-19.184279453590705,46.415468285967464],[-18.960096433342244,46.32588364007523],[-18.73773363947828,46.23616331652605],[-18.51716523109664,46.14631059313346],[-18.298365876944587,46.05632866182691],[-18.081310741112418,45.96622063122674],[-17.865975469253073,45.875989529123345],[-17.65233617530282,45.78563830486511],[-17.44036942868135,45.69516983165934],[-17.23005224194847,45.604586908789706],[-17.021362058897836,45.513892263754165],[-16.814276743068035,45.4230885543265],[-16.6087745666527,45.33217837054509],[-16.404834199792475,45.24116423663188],[-16.202434700232033,45.15004861284429],[-16.001555503327097,45.05883389726339],[-15.80217641238599,44.967522427520485],[-15.604277589332355,44.876116482464944],[-15.407839545674989,44.78461828377556],[-15.212843133772537,44.693029997517925],[-15.019269538381138,44.60135373564959],[-14.827100268472975,44.50959155747569],[-14.636317149315374,44.41774547105644],[-14.446902314799729,44.32581743456876],[-14.258838200010445,44.23380935762368],[-14.072107534024667,44.14172310254123],[-13.886693332933532,44.04956048558457],[-13.702578893076463,43.95732327815477],[-13.519747784480472,43.8650132079479],[-13.338183844496655,43.77263196007558],[-13.157871171626198,43.68018117815082],[-12.978794119529141,43.58766246533981],[-12.800937291208896,43.495077385381634],[-12.624285533366162,43.4024274635764],[-12.448823930915921,43.30971418774348],[-12.274537801661722,43.21693900915045],[-12.101412691121539,43.124103343414426],[-11.92943436749971,43.03120857137603],[-11.7585888168,42.938256039947525],[-11.588862238074427,42.84524706293579],[-11.420241038803653,42.75218292184099],[-11.252711830403797,42.65906486663191],[-11.086261423855575,42.56589411649877],[-10.920876825451955,42.472671860583944],[-10.756545232659363,42.37939925869199],[-10.593254030089724,42.28607744197898],[-10.430990785578672,42.19270751362237],[-10.269743246367,42.09929054947176],[-10.10949933538177,42.00582759868119],[-9.950247147613652,41.91231968432391],[-9.791974946587516,41.818767803989665],[-9.634671160923403,41.725172930365545],[-9.478324380984532,41.63153601180058],[-9.322923355609987,41.53785797285495],[-9.168456988929108,41.44413971483395],[-9.01491433725539,41.35038211630736],[-8.86228460605679,41.25658603361488],[-8.7105571470006,41.162752301357635],[-8.559721455070445,41.06888173287656],[-8.409767165752982,40.97497512071788],[-8.260684052292419,40.88103323708609],[-8.112462023010636,40.78705683428508],[-7.965091118690992,40.69304664514727],[-7.818561510024011,40.59900338345163],[-7.672863495112722,40.504927744330594],[-7.527987497036463,40.410820404666325],[-7.383924061470907,40.31668202347664],[-7.240663854362879,40.222513242290894],[-7.098197659658467,40.128314685516145],[-6.9565163770826075,40.03408696079376],[-6.815611019968941,39.93983065934704],[-6.675472713138362,39.84554635631968],[-6.536092690824802,39.751234611105836],[-6.3974622946470845,39.65689596767155],[-6.25957297162546,39.56253095486817],[-6.12241627224148,39.468140086737854],[-5.985983848540172,39.373723862811175],[-5.850267452273243,39.27928276839751],[-5.715258933082083,39.18481727486794],[-5.580950236719843,39.09032783993111],[-5.4473334033109495,38.99581490790238],[-5.31440056564756,38.90127890996603],[-5.182143947521638,38.80672026443119],[-5.050555862091869,38.71213937698124],[-4.919628710284314,38.617536640917315],[-4.789354979226147,38.522912437395526],[-4.659727240711192,38.42826713565859],[-4.530738149696987,38.333601093261635],[-4.402380442832026,38.23891465629268],[-4.274646937012477,38.14420815958743],[-4.147530527968087,38.04948192693922],[-4.021024188875828,37.954736271303545],[-3.8951209690009136,37.859971494997836],[-3.769813992364675,37.76518788989626],[-3.6450964564380968,37.67038573761998],[-3.5209616308607963,37.57556530972265],[-3.3974028561847263,37.48072686787159],[-3.2744135426416108,37.38587066402447],[-3.1519871689340846,37.2909969406019],[-3.0301172810494847,37.19610593065581],[-2.908797491095953,37.10119785803368],[-2.788021476160111,37.00627293753914],[-2.6677829771861354,36.91133137508836],[-2.5480757978751,36.81637336786304],[-2.4288938036047227,36.72139910445947],[-2.310230920368639,36.62640876503423],[-2.192081133734689,36.53140252144637],[-2.0744384878219932,36.43638053739609],[-1.9572970842962718,36.34134296856024],[-1.8406510813826458,36.24628996272453],[-1.7244946928961724,36.15122165991263],[-1.6088221872889221,36.05613819251215],[-1.4936278867137105,35.9610396853976],[-1.3789061661039739,35.86592625605043],[-1.2646514522691632,35.77079801467626],[-1.1508582230056277,35.675655064319216],[-1.0375210062224482,35.58049750097358],[-0.9246343790817662,35.48532541369272],[-0.8121929671534076,35.390138884695496],[-0.7001914435833783,35.29493798946996],[-0.5886245282760854,35.1997227968747],[-0.47748698708960546,35.10449336923772],[-0.3667736310439409,35.009249762452725],[-0.25647931554195225,34.91399202607342],[-0.14659893960262593,34.81872020340522],[-0.037127445106250434,34.72343433159482],[0.07194018394855561,34.628134441717656],[0.18060892217641822,34.5328205588631],[0.28888370352555626,34.43749270221761],[0.3967694219872442,34.342150885145806],[0.5042709322945882,34.2467951152696],[0.6113930506108716,34.151425394545186],[0.7181405552078957,34.05604171933834],[0.8245181871342027,33.960644080497616],[0.9305306508736919,33.86523246342578],[1.0361826149949422,33.76980684814945],[1.1414787127910984,33.674367209386865],[1.246423542910918,33.57891351661402],[1.351021669980895,33.48344573412896],[1.455277625219054,33.38796382111453],[1.5591959070402197,33.29246773169938],[1.662780981653043,33.19695741501733],[1.766037283649439,33.10143281526529],[1.868969216585782,33.005893871759476],[1.9715811535569685,32.910340518990104],[2.0738774377628886,32.814772686674715],[2.175862383067738,32.71919029980985],[2.277540274552308,32.62359327872145],[2.3789153690594844,32.5279815391136],[2.4799918957330647,32.432354992116146],[2.5807740565501547,32.33671354433073],[2.6812660268469983,32.241057097875526],[2.781471955839038,32.14538555042869],[2.8813959671346367,32.049698795270444],[2.98104215924306,31.953996721323897],[3.080414606076971,31.858279213194564],[3.1795173574490434,31.76254615120871],[3.278354439563543,31.66679741145034],[3.3769298555023397,31.571032865797115],[3.475247585706228,31.47525238195494],[3.5733115884508493,31.37945582349148],[3.671125800318265,31.28364304986844],[3.76869413666347,31.187813916472763],[3.8660204920766716,31.09196827464662],[3.9631087408410792,30.99610597171637],[4.0599627373862575,30.90022685102031],[4.15658631673773,30.804330751935474],[4.252983294962235,30.708417509903217],[4.349157469609224,30.612486956453846],[4.4451126201487625,30.516538919230157],[4.540852508405493,30.42057322200992],[4.636380878989513,30.324589684727325],[4.731701459723439,30.228588123493527],[4.8268179620665705,30.13256835061597],[4.921734081535703,30.03653017461699]]}}]}