{"type":"FeatureCollection","properties":{"largura_maxima_km":75.693,"largura_sobre_pt_km":75.693,"linha_central_sobre_pt":true,"desenhavel_como_area":true,"perfil_largura":[{"t":-1.46667,"lat":34.4874,"lon":-36.7048,"largura_km":null,"eixo_na_terra":false},{"t":-1.46111,"lat":35.0172,"lon":-35.6653,"largura_km":null,"eixo_na_terra":false},{"t":-1.45556,"lat":35.4125,"lon":-34.9715,"largura_km":null,"eixo_na_terra":false},{"t":-1.45,"lat":35.7323,"lon":-34.4703,"largura_km":null,"eixo_na_terra":false},{"t":-1.44444,"lat":36.4753,"lon":-32.6932,"largura_km":null,"eixo_na_terra":false},{"t":-1.43889,"lat":37.2042,"lon":-30.8447,"largura_km":74.501,"eixo_na_terra":true},{"t":-1.43333,"lat":37.643,"lon":-29.8436,"largura_km":75.693,"eixo_na_terra":true},{"t":-1.42778,"lat":38.0374,"lon":-28.9565,"largura_km":75.174,"eixo_na_terra":true},{"t":-1.42222,"lat":38.3994,"lon":-28.1524,"largura_km":74.332,"eixo_na_terra":true},{"t":-1.41667,"lat":38.7363,"lon":-27.4121,"largura_km":73.41,"eixo_na_terra":true},{"t":-1.41111,"lat":39.0531,"lon":-26.7229,"largura_km":72.477,"eixo_na_terra":true},{"t":-1.40556,"lat":39.3533,"lon":-26.0756,"largura_km":71.562,"eixo_na_terra":true},{"t":-1.4,"lat":39.6393,"lon":-25.4636,"largura_km":70.67,"eixo_na_terra":true},{"t":-1.39444,"lat":39.9134,"lon":-24.8818,"largura_km":69.803,"eixo_na_terra":true},{"t":-1.38889,"lat":40.1768,"lon":-24.3262,"largura_km":68.964,"eixo_na_terra":true},{"t":-1.38333,"lat":40.431,"lon":-23.7936,"largura_km":68.152,"eixo_na_terra":true},{"t":-1.37778,"lat":40.6769,"lon":-23.2813,"largura_km":67.364,"eixo_na_terra":true},{"t":-1.37222,"lat":40.9154,"lon":-22.7872,"largura_km":66.599,"eixo_na_terra":true},{"t":-1.36667,"lat":41.1471,"lon":-22.3096,"largura_km":65.857,"eixo_na_terra":true},{"t":-1.36111,"lat":41.3727,"lon":-21.8468,"largura_km":65.134,"eixo_na_terra":true},{"t":-1.35556,"lat":41.5927,"lon":-21.3975,"largura_km":64.43,"eixo_na_terra":true},{"t":-1.35,"lat":41.8074,"lon":-20.9606,"largura_km":63.745,"eixo_na_terra":true},{"t":-1.34444,"lat":42.0174,"lon":-20.5351,"largura_km":63.077,"eixo_na_terra":true},{"t":-1.33889,"lat":42.223,"lon":-20.12,"largura_km":62.424,"eixo_na_terra":true},{"t":-1.33333,"lat":42.4244,"lon":-19.7148,"largura_km":61.787,"eixo_na_terra":true},{"t":-1.32778,"lat":42.6219,"lon":-19.3185,"largura_km":61.164,"eixo_na_terra":true},{"t":-1.32222,"lat":42.8158,"lon":-18.9307,"largura_km":60.553,"eixo_na_terra":true},{"t":-1.31667,"lat":43.0063,"lon":-18.5508,"largura_km":59.956,"eixo_na_terra":true},{"t":-1.31111,"lat":43.1935,"lon":-18.1782,"largura_km":59.371,"eixo_na_terra":true},{"t":-1.30556,"lat":43.3777,"lon":-17.8126,"largura_km":58.797,"eixo_na_terra":true},{"t":-1.3,"lat":43.559,"lon":-17.4535,"largura_km":58.235,"eixo_na_terra":true},{"t":-1.29444,"lat":43.7375,"lon":-17.1005,"largura_km":57.683,"eixo_na_terra":true},{"t":-1.28889,"lat":43.9135,"lon":-16.7534,"largura_km":57.141,"eixo_na_terra":true},{"t":-1.28333,"lat":44.0869,"lon":-16.4117,"largura_km":56.609,"eixo_na_terra":true},{"t":-1.27778,"lat":44.258,"lon":-16.0752,"largura_km":56.086,"eixo_na_terra":true},{"t":-1.27222,"lat":44.4268,"lon":-15.7436,"largura_km":55.572,"eixo_na_terra":true},{"t":-1.26667,"lat":44.5935,"lon":-15.4167,"largura_km":55.067,"eixo_na_terra":true},{"t":-1.26111,"lat":44.758,"lon":-15.0942,"largura_km":54.57,"eixo_na_terra":true},{"t":-1.25556,"lat":44.9206,"lon":-14.7759,"largura_km":54.081,"eixo_na_terra":true},{"t":-1.25,"lat":45.0812,"lon":-14.4617,"largura_km":53.6,"eixo_na_terra":true},{"t":-1.24444,"lat":45.24,"lon":-14.1513,"largura_km":53.126,"eixo_na_terra":true},{"t":-1.23889,"lat":45.397,"lon":-13.8446,"largura_km":52.66,"eixo_na_terra":true},{"t":-1.23333,"lat":45.5523,"lon":-13.5414,"largura_km":52.201,"eixo_na_terra":true},{"t":-1.22778,"lat":45.7059,"lon":-13.2416,"largura_km":51.749,"eixo_na_terra":true},{"t":-1.22222,"lat":45.858,"lon":-12.9449,"largura_km":51.303,"eixo_na_terra":true},{"t":-1.21667,"lat":46.0084,"lon":-12.6514,"largura_km":50.864,"eixo_na_terra":true},{"t":-1.21111,"lat":46.1574,"lon":-12.3607,"largura_km":50.431,"eixo_na_terra":true},{"t":-1.20556,"lat":46.305,"lon":-12.0729,"largura_km":50.005,"eixo_na_terra":true},{"t":-1.2,"lat":46.4511,"lon":-11.7878,"largura_km":49.584,"eixo_na_terra":true},{"t":-1.19444,"lat":46.5958,"lon":-11.5053,"largura_km":49.169,"eixo_na_terra":true},{"t":-1.18889,"lat":46.7393,"lon":-11.2253,"largura_km":48.76,"eixo_na_terra":true},{"t":-1.18333,"lat":46.8814,"lon":-10.9477,"largura_km":48.356,"eixo_na_terra":true},{"t":-1.17778,"lat":47.0223,"lon":-10.6723,"largura_km":47.958,"eixo_na_terra":true},{"t":-1.17222,"lat":47.162,"lon":-10.3992,"largura_km":47.565,"eixo_na_terra":true},{"t":-1.16667,"lat":47.3005,"lon":-10.1283,"largura_km":47.177,"eixo_na_terra":true},{"t":-1.16111,"lat":47.4378,"lon":-9.8593,"largura_km":46.794,"eixo_na_terra":true},{"t":-1.15556,"lat":47.574,"lon":-9.5924,"largura_km":46.416,"eixo_na_terra":true},{"t":-1.15,"lat":47.7091,"lon":-9.3273,"largura_km":46.043,"eixo_na_terra":true},{"t":-1.14444,"lat":47.8432,"lon":-9.0641,"largura_km":45.675,"eixo_na_terra":true},{"t":-1.13889,"lat":47.9762,"lon":-8.8027,"largura_km":45.311,"eixo_na_terra":true},{"t":-1.13333,"lat":48.1081,"lon":-8.5429,"largura_km":44.952,"eixo_na_terra":true},{"t":-1.12778,"lat":48.2391,"lon":-8.2848,"largura_km":44.597,"eixo_na_terra":true},{"t":-1.12222,"lat":48.3691,"lon":-8.0283,"largura_km":44.247,"eixo_na_terra":true},{"t":-1.11667,"lat":48.4981,"lon":-7.7732,"largura_km":43.9,"eixo_na_terra":true},{"t":-1.11111,"lat":48.6262,"lon":-7.5197,"largura_km":43.558,"eixo_na_terra":true},{"t":-1.10556,"lat":48.7534,"lon":-7.2675,"largura_km":43.221,"eixo_na_terra":true},{"t":-1.1,"lat":48.8797,"lon":-7.0168,"largura_km":42.887,"eixo_na_terra":true},{"t":-1.09444,"lat":49.0051,"lon":-6.7673,"largura_km":42.557,"eixo_na_terra":true},{"t":-1.08889,"lat":49.1297,"lon":-6.5191,"largura_km":42.231,"eixo_na_terra":true},{"t":-1.08333,"lat":49.2534,"lon":-6.2721,"largura_km":41.908,"eixo_na_terra":true},{"t":-1.07778,"lat":49.3762,"lon":-6.0264,"largura_km":41.59,"eixo_na_terra":true},{"t":-1.07222,"lat":49.4983,"lon":-5.7817,"largura_km":41.275,"eixo_na_terra":true},{"t":-1.06667,"lat":49.6196,"lon":-5.5382,"largura_km":40.964,"eixo_na_terra":true},{"t":-1.06111,"lat":49.74,"lon":-5.2957,"largura_km":40.656,"eixo_na_terra":true},{"t":-1.05556,"lat":49.8597,"lon":-5.0542,"largura_km":40.352,"eixo_na_terra":true},{"t":-1.05,"lat":49.9787,"lon":-4.8137,"largura_km":40.051,"eixo_na_terra":true}]},"features":[{"type":"Feature","properties":{},"geometry":{"type":"Polygon","coordinates":[[[-35.93953635943768,34.6710452921021],[-36.15534730187295,34.575334288327134],[-36.28836921427546,34.5182689436521],[-36.6258512320008,34.37752618035227],[-37.137288684383634,34.17085604479999],[-37.61242414903887,33.98347570884966],[-37.516514476364364,34.36059226077549],[-37.38606564162064,34.406160688664414],[-37.39319031514168,34.503433244805194],[-37.838290276077544,34.34016736621688],[-37.94506834790701,34.72757330054298],[-36.6124427219994,35.230967227255555],[-35.72236378813314,35.56225121990632],[-35.60196404070558,35.619033303780924],[-35.440654081789205,35.69194216930251],[-35.263581849776074,35.769275966069706],[-35.074249798212804,35.84966380709414],[-34.6701496604544,36.01518288317669],[-34.45989799598743,36.09856758372522],[-34.13920123764899,36.22254352165907],[-33.8161497371259,36.34369649169956],[-33.387900551070345,36.498631662639845],[-32.96847836974598,36.644000230956415],[-32.64823493708479,36.75052889902659],[-33.09474683498365,36.65682943569341],[-31.722957963999875,37.23146186588937],[-30.582824355649336,37.719398223762035],[-29.59865867885935,38.14747083413543],[-28.73695920332932,38.5270065440169],[-27.93700582846992,38.88395191156356],[-27.2120645175454,39.21054312193242],[-26.534900279411033,39.51851015349583],[-25.897351759188382,39.81096042540595],[-24.718102952308755,40.358077896038175],[-24.157903123386973,40.62090632617503],[-23.12242907726568,41.11071738747525],[-21.697451677499203,41.79354465479977],[-20.81555162619742,42.22084069237439],[-19.978131126788867,42.629632993722154],[-18.412560659376084,43.40099620284176],[-16.96360496604467,44.121919869450025],[-15.606333592839746,44.80200205056754],[-14.012162478712241,45.60487524259141],[-10.519788144175948,47.36835707264584],[-8.64324922582091,48.31141966968498],[-7.609428754722728,48.82763899326923],[-6.84949163305572,49.205070397728704],[-5.854239642611276,49.696273264930475],[-5.119755086266707,50.05620157214959],[-4.514490999432724,49.901485617051385],[-5.469564578693735,49.42214613626354],[-6.441178984259238,48.930260941994234],[-7.431930996899325,48.42487696807667],[-8.444810790545034,47.90487888307681],[-10.281408072882073,46.955617548067615],[-13.994003344330338,45.026469559152126],[-15.565154791727934,44.2121616049744],[-16.90260416047289,43.522548144708686],[-18.33003634776145,42.79172951369768],[-19.87171951608616,42.01010328456862],[-21.13249221066542,41.37814203929199],[-22.492233793852165,40.704572934847526],[-23.47400134981649,40.22402672016183],[-24.003587425533567,39.96722006928957],[-25.10878146598401,39.435818166763305],[-26.340499153267785,38.85243448135089],[-27.020097711006485,38.53482551653225],[-27.748573627171083,38.197705619681685],[-28.537638721238807,37.836496266815104],[-29.47334436164425,37.416772160315304],[-29.785873579702184,37.35118864474547],[-29.78678502361828,37.339445853253224],[-29.790431219808966,37.33012707959345],[-29.804746685770795,37.309592880006875],[-29.828423660635337,37.286585579653796],[-29.843769000510235,37.27417541080209],[-29.881459510718514,37.247583704855266],[-29.95543085354842,37.20339205211572],[-30.016301354841573,37.17115755311333],[-30.086346719989706,37.136780391181595],[-30.165492593862552,37.10032505044393],[-30.30108009339159,37.041884928567654],[-30.456592081907218,36.97912529828844],[-30.631604828819718,36.91225657761387],[-30.832989994801764,36.83887104808683],[-30.887629582497368,36.801692392651454],[-30.97433110238785,36.752215493161344],[-31.085379670642453,36.69642385228009],[-31.2208354551081,36.63443144919681],[-31.38077594675525,36.56631767633184],[-31.565311456136158,36.49212042403719],[-31.77460702083988,36.41182688592525],[-32.00666446944074,36.326181549412794],[-32.04032992568165,36.304341875895226],[-32.10180948218101,36.268641720079074],[-32.21912165974305,36.207925513669714],[-32.31436186075513,36.16262122761238],[-32.42353534806108,36.113383978006425],[-32.61417260234441,36.03193721843239],[-32.83842131545492,35.94093706202067],[-33.007596439996746,35.874608484340385],[-33.485139177287635,35.69423739280617],[-33.52358657700802,35.67210234713527],[-33.60869745258424,35.62688631679418],[-33.77231024051133,35.54772190310861],[-33.982310527798404,35.453827409578274],[-34.15066357540189,35.38211360852421],[-34.45162043477745,35.25866321186977],[-34.82211683752797,35.11180626862714],[-35.28504332029223,34.932735505912355],[-35.7997520195954,34.73653382607935],[-35.93953635943768,34.6710452921021]]]}}]}