{"type":"FeatureCollection","features":[{"type":"Feature","properties":{"t_inicio":-1.4555555555555646,"t_fim":-1.0500000000000105},"geometry":{"type":"LineString","coordinates":[[-35.75383349468615,35.152996257799096],[-33.487735864049455,36.078818393561846],[-32.01655766830265,36.69926687183187],[-30.84470720821929,37.20421851157575],[-29.843612325753725,37.643002068752615],[-28.956514486003982,38.03742047010095],[-28.15239612574561,38.39940243857162],[-27.41211162195026,38.73631919320456],[-26.722860860344213,39.05310418375449],[-26.0755865281036,39.35325193101466],[-25.463601373098015,39.63934512232786],[-24.881801885695893,39.913356694718956],[-24.3261885406597,40.176834241231056],[-23.793558082085838,40.43101834942695],[-23.281297975923678,40.67692168963635],[-22.7872444036081,40.915383682424306],[-22.309581325609372,41.14710937530036],[-21.84676697109677,41.3726977702865],[-21.397479162899515,41.59266290381539],[-20.960573896478593,41.80744982456793],[-20.535053446576,42.017446902229544],[-20.120041453290412,42.2229954474294],[-19.714763207514295,42.42439732784176],[-19.31852986846212,42.621921068261365],[-18.930725695578474,42.8158067880235],[-18.550797619937782,43.006270235722596],[-18.178246651829056,43.193506115155266],[-17.812620744364324,43.37769084901408],[-17.453508822583103,43.55898489234514],[-17.10053575363264,43.737534682323364],[-16.75335808293852,43.91347429189335],[-16.411660398513845,44.08692684047661],[-16.075152213937997,44.25800570400464],[-15.743565282388658,44.42681555811301],[-15.416651271076205,44.59345328178856],[-15.09417973871598,44.758008743635685],[-14.775936369158956,44.92056548888302],[-14.46172142263606,45.081201342033836],[-14.15134837274013,45.23998893748944],[-13.844642702644023,45.39699618839908],[-13.541440838407993,45.55228670230772],[-13.24158920077781,45.705920150802335],[-12.944943359785555,45.85795259923192],[-12.65136727886005,46.008436801650966],[-12.360732637139733,46.157422465368434],[-12.07291822032704,46.30495648884623],[-11.787809371807327,46.45108317615794],[-11.505297496905655,46.59584443077101],[-11.225279614132546,46.7392799310385],[-10.947657948092228,46.881427289467695],[-10.672339559426405,47.02232219756257],[-10.399236007759384,47.16199855780544],[-10.12826304412306,47.300488604147375],[-9.859340329771669,47.43782301220702],[-9.592391178675427,47.57403100023229],[-9.327342321302467,47.709140421754434],[-9.064123687579297,47.84317785075456],[-8.80266820716389,47.976168660069554],[-8.542911625373165,48.10813709368185],[-8.284792333295115,48.23910633346584],[-8.028251210772225,48.36909856090233],[-7.77323148108718,48.498135014216366],[-7.519678576302681,48.626236041346786],[-7.267540012318875,48.7534211491128],[-7.01676527280506,48.87970904890637],[-6.767305701250336,49.00511769920507],[-6.519114400448871,49.129664345171946],[-6.272146138807273,49.2533655555825],[-6.0263572629158375,49.376237257295614],[-5.781705615881492,49.49829476746508],[-5.5381504609662215,49.61955282367018],[-5.29565241011727,49.740025612126644],[-5.0541733570109955,49.859726794125656],[-4.813676414270617,49.978669530834395]]}}]}