{"type":"FeatureCollection","properties":{"largura_maxima_km":205.088,"largura_sobre_pt_km":203.921,"linha_central_sobre_pt":false,"desenhavel_como_area":true,"perfil_largura":[{"t":0.61111,"lat":49.9405,"lon":-14.9751,"largura_km":200.149,"eixo_na_terra":true},{"t":0.61667,"lat":49.8542,"lon":-14.8096,"largura_km":200.212,"eixo_na_terra":true},{"t":0.62222,"lat":49.7678,"lon":-14.6447,"largura_km":200.275,"eixo_na_terra":true},{"t":0.62778,"lat":49.6811,"lon":-14.4802,"largura_km":200.338,"eixo_na_terra":true},{"t":0.63333,"lat":49.5941,"lon":-14.3162,"largura_km":200.4,"eixo_na_terra":true},{"t":0.63889,"lat":49.507,"lon":-14.1526,"largura_km":200.462,"eixo_na_terra":true},{"t":0.64444,"lat":49.4195,"lon":-13.9896,"largura_km":200.526,"eixo_na_terra":true},{"t":0.65,"lat":49.3319,"lon":-13.827,"largura_km":200.59,"eixo_na_terra":true},{"t":0.65556,"lat":49.244,"lon":-13.6649,"largura_km":200.654,"eixo_na_terra":true},{"t":0.66111,"lat":49.1559,"lon":-13.5032,"largura_km":200.717,"eixo_na_terra":true},{"t":0.66667,"lat":49.0676,"lon":-13.3419,"largura_km":200.78,"eixo_na_terra":true},{"t":0.67222,"lat":48.979,"lon":-13.1811,"largura_km":200.843,"eixo_na_terra":true},{"t":0.67778,"lat":48.8902,"lon":-13.0208,"largura_km":200.906,"eixo_na_terra":true},{"t":0.68333,"lat":48.8012,"lon":-12.8608,"largura_km":200.968,"eixo_na_terra":true},{"t":0.68889,"lat":48.7119,"lon":-12.7013,"largura_km":201.03,"eixo_na_terra":true},{"t":0.69444,"lat":48.6224,"lon":-12.5422,"largura_km":201.092,"eixo_na_terra":true},{"t":0.7,"lat":48.5327,"lon":-12.3835,"largura_km":201.154,"eixo_na_terra":true},{"t":0.70556,"lat":48.4428,"lon":-12.2252,"largura_km":201.216,"eixo_na_terra":true},{"t":0.71111,"lat":48.3526,"lon":-12.0673,"largura_km":201.277,"eixo_na_terra":true},{"t":0.71667,"lat":48.2622,"lon":-11.9098,"largura_km":201.338,"eixo_na_terra":true},{"t":0.72222,"lat":48.1715,"lon":-11.7527,"largura_km":201.399,"eixo_na_terra":true},{"t":0.72778,"lat":48.0806,"lon":-11.5959,"largura_km":201.459,"eixo_na_terra":true},{"t":0.73333,"lat":47.9895,"lon":-11.4396,"largura_km":201.519,"eixo_na_terra":true},{"t":0.73889,"lat":47.8982,"lon":-11.2836,"largura_km":201.579,"eixo_na_terra":true},{"t":0.74444,"lat":47.8066,"lon":-11.128,"largura_km":201.639,"eixo_na_terra":true},{"t":0.75,"lat":47.7149,"lon":-10.9727,"largura_km":201.699,"eixo_na_terra":true},{"t":0.75556,"lat":47.6228,"lon":-10.8178,"largura_km":201.758,"eixo_na_terra":true},{"t":0.76111,"lat":47.5306,"lon":-10.6632,"largura_km":201.817,"eixo_na_terra":true},{"t":0.76667,"lat":47.4381,"lon":-10.5089,"largura_km":201.875,"eixo_na_terra":true},{"t":0.77222,"lat":47.3454,"lon":-10.355,"largura_km":201.934,"eixo_na_terra":true},{"t":0.77778,"lat":47.2524,"lon":-10.2015,"largura_km":201.992,"eixo_na_terra":true},{"t":0.78333,"lat":47.1593,"lon":-10.0482,"largura_km":202.049,"eixo_na_terra":true},{"t":0.78889,"lat":47.0659,"lon":-9.8952,"largura_km":202.107,"eixo_na_terra":true},{"t":0.79444,"lat":46.9722,"lon":-9.7426,"largura_km":202.164,"eixo_na_terra":true},{"t":0.8,"lat":46.8784,"lon":-9.5903,"largura_km":202.221,"eixo_na_terra":true},{"t":0.80556,"lat":46.7843,"lon":-9.4382,"largura_km":202.277,"eixo_na_terra":true},{"t":0.81111,"lat":46.69,"lon":-9.2865,"largura_km":202.333,"eixo_na_terra":true},{"t":0.81667,"lat":46.5954,"lon":-9.135,"largura_km":202.389,"eixo_na_terra":true},{"t":0.82222,"lat":46.5006,"lon":-8.9839,"largura_km":202.445,"eixo_na_terra":true},{"t":0.82778,"lat":46.4056,"lon":-8.833,"largura_km":202.501,"eixo_na_terra":true},{"t":0.83333,"lat":46.3104,"lon":-8.6823,"largura_km":202.557,"eixo_na_terra":true},{"t":0.83889,"lat":46.2149,"lon":-8.5319,"largura_km":202.613,"eixo_na_terra":true},{"t":0.84444,"lat":46.1192,"lon":-8.3818,"largura_km":202.669,"eixo_na_terra":true},{"t":0.85,"lat":46.0232,"lon":-8.232,"largura_km":202.724,"eixo_na_terra":true},{"t":0.85556,"lat":45.927,"lon":-8.0823,"largura_km":202.779,"eixo_na_terra":true},{"t":0.86111,"lat":45.8306,"lon":-7.9329,"largura_km":202.834,"eixo_na_terra":true},{"t":0.86667,"lat":45.734,"lon":-7.7838,"largura_km":202.888,"eixo_na_terra":true},{"t":0.87222,"lat":45.6371,"lon":-7.6348,"largura_km":202.942,"eixo_na_terra":true},{"t":0.87778,"lat":45.54,"lon":-7.4861,"largura_km":202.995,"eixo_na_terra":true},{"t":0.88333,"lat":45.4426,"lon":-7.3376,"largura_km":203.048,"eixo_na_terra":true},{"t":0.88889,"lat":45.345,"lon":-7.1893,"largura_km":203.101,"eixo_na_terra":true},{"t":0.89444,"lat":45.2472,"lon":-7.0412,"largura_km":203.153,"eixo_na_terra":true},{"t":0.9,"lat":45.1491,"lon":-6.8933,"largura_km":203.205,"eixo_na_terra":true},{"t":0.90556,"lat":45.0508,"lon":-6.7456,"largura_km":203.256,"eixo_na_terra":true},{"t":0.91111,"lat":44.9523,"lon":-6.598,"largura_km":203.307,"eixo_na_terra":true},{"t":0.91667,"lat":44.8535,"lon":-6.4507,"largura_km":203.357,"eixo_na_terra":true},{"t":0.92222,"lat":44.7545,"lon":-6.3035,"largura_km":203.407,"eixo_na_terra":true},{"t":0.92778,"lat":44.6552,"lon":-6.1565,"largura_km":203.456,"eixo_na_terra":true},{"t":0.93333,"lat":44.5557,"lon":-6.0096,"largura_km":203.505,"eixo_na_terra":true},{"t":0.93889,"lat":44.4559,"lon":-5.8628,"largura_km":203.553,"eixo_na_terra":true},{"t":0.94444,"lat":44.3559,"lon":-5.7163,"largura_km":203.601,"eixo_na_terra":true},{"t":0.95,"lat":44.2557,"lon":-5.5698,"largura_km":203.648,"eixo_na_terra":true},{"t":0.95556,"lat":44.1552,"lon":-5.4235,"largura_km":203.695,"eixo_na_terra":true},{"t":0.96111,"lat":44.0545,"lon":-5.2773,"largura_km":203.741,"eixo_na_terra":true},{"t":0.96667,"lat":43.9535,"lon":-5.1312,"largura_km":203.787,"eixo_na_terra":true},{"t":0.97222,"lat":43.8523,"lon":-4.9853,"largura_km":203.832,"eixo_na_terra":true},{"t":0.97778,"lat":43.7508,"lon":-4.8394,"largura_km":203.877,"eixo_na_terra":true},{"t":0.98333,"lat":43.6491,"lon":-4.6936,"largura_km":203.921,"eixo_na_terra":true},{"t":0.98889,"lat":43.5471,"lon":-4.548,"largura_km":203.964,"eixo_na_terra":true},{"t":0.99444,"lat":43.4449,"lon":-4.4024,"largura_km":204.007,"eixo_na_terra":true},{"t":1.0,"lat":43.3424,"lon":-4.2568,"largura_km":204.049,"eixo_na_terra":true},{"t":1.00556,"lat":43.2397,"lon":-4.1114,"largura_km":204.091,"eixo_na_terra":true},{"t":1.01111,"lat":43.1367,"lon":-3.966,"largura_km":204.132,"eixo_na_terra":true},{"t":1.01667,"lat":43.0334,"lon":-3.8207,"largura_km":204.172,"eixo_na_terra":true},{"t":1.02222,"lat":42.9299,"lon":-3.6754,"largura_km":204.211,"eixo_na_terra":true},{"t":1.02778,"lat":42.8261,"lon":-3.5302,"largura_km":204.25,"eixo_na_terra":true},{"t":1.03333,"lat":42.7221,"lon":-3.385,"largura_km":204.289,"eixo_na_terra":true},{"t":1.03889,"lat":42.6178,"lon":-3.2398,"largura_km":204.326,"eixo_na_terra":true},{"t":1.04444,"lat":42.5132,"lon":-3.0946,"largura_km":204.363,"eixo_na_terra":true},{"t":1.05,"lat":42.4084,"lon":-2.9495,"largura_km":204.399,"eixo_na_terra":true},{"t":1.05556,"lat":42.3033,"lon":-2.8044,"largura_km":204.434,"eixo_na_terra":true},{"t":1.06111,"lat":42.198,"lon":-2.6592,"largura_km":204.469,"eixo_na_terra":true},{"t":1.06667,"lat":42.0923,"lon":-2.5141,"largura_km":204.503,"eixo_na_terra":true},{"t":1.07222,"lat":41.9864,"lon":-2.3689,"largura_km":204.536,"eixo_na_terra":true},{"t":1.07778,"lat":41.8803,"lon":-2.2237,"largura_km":204.568,"eixo_na_terra":true},{"t":1.08333,"lat":41.7738,"lon":-2.0785,"largura_km":204.599,"eixo_na_terra":true},{"t":1.08889,"lat":41.6671,"lon":-1.9333,"largura_km":204.63,"eixo_na_terra":true},{"t":1.09444,"lat":41.5601,"lon":-1.7879,"largura_km":204.661,"eixo_na_terra":true},{"t":1.1,"lat":41.4528,"lon":-1.6426,"largura_km":204.69,"eixo_na_terra":true},{"t":1.10556,"lat":41.3452,"lon":-1.4972,"largura_km":204.718,"eixo_na_terra":true},{"t":1.11111,"lat":41.2374,"lon":-1.3517,"largura_km":204.746,"eixo_na_terra":true},{"t":1.11667,"lat":41.1292,"lon":-1.2061,"largura_km":204.773,"eixo_na_terra":true},{"t":1.12222,"lat":41.0208,"lon":-1.0604,"largura_km":204.799,"eixo_na_terra":true},{"t":1.12778,"lat":40.9121,"lon":-0.9147,"largura_km":204.824,"eixo_na_terra":true},{"t":1.13333,"lat":40.8031,"lon":-0.7688,"largura_km":204.848,"eixo_na_terra":true},{"t":1.13889,"lat":40.6937,"lon":-0.6228,"largura_km":204.871,"eixo_na_terra":true},{"t":1.14444,"lat":40.5841,"lon":-0.4767,"largura_km":204.893,"eixo_na_terra":true},{"t":1.15,"lat":40.4742,"lon":-0.3305,"largura_km":204.914,"eixo_na_terra":true},{"t":1.15556,"lat":40.364,"lon":-0.1841,"largura_km":204.934,"eixo_na_terra":true},{"t":1.16111,"lat":40.2535,"lon":-0.0376,"largura_km":204.953,"eixo_na_terra":true},{"t":1.16667,"lat":40.1427,"lon":0.109,"largura_km":204.97,"eixo_na_terra":true},{"t":1.17222,"lat":40.0316,"lon":0.2559,"largura_km":204.987,"eixo_na_terra":true},{"t":1.17778,"lat":39.9201,"lon":0.4029,"largura_km":205.002,"eixo_na_terra":true},{"t":1.18333,"lat":39.8084,"lon":0.5501,"largura_km":205.017,"eixo_na_terra":true},{"t":1.18889,"lat":39.6963,"lon":0.6975,"largura_km":205.03,"eixo_na_terra":true},{"t":1.19444,"lat":39.5839,"lon":0.845,"largura_km":205.041,"eixo_na_terra":true},{"t":1.2,"lat":39.4712,"lon":0.9928,"largura_km":205.052,"eixo_na_terra":true},{"t":1.20556,"lat":39.3582,"lon":1.1409,"largura_km":205.061,"eixo_na_terra":true},{"t":1.21111,"lat":39.2448,"lon":1.2891,"largura_km":205.069,"eixo_na_terra":true},{"t":1.21667,"lat":39.1311,"lon":1.4376,"largura_km":205.076,"eixo_na_terra":true},{"t":1.22222,"lat":39.0171,"lon":1.5864,"largura_km":205.081,"eixo_na_terra":true},{"t":1.22778,"lat":38.9027,"lon":1.7354,"largura_km":205.085,"eixo_na_terra":true},{"t":1.23333,"lat":38.788,"lon":1.8847,"largura_km":205.087,"eixo_na_terra":true},{"t":1.23889,"lat":38.6729,"lon":2.0343,"largura_km":205.088,"eixo_na_terra":true},{"t":1.24444,"lat":38.5575,"lon":2.1841,"largura_km":205.088,"eixo_na_terra":true},{"t":1.25,"lat":38.4418,"lon":2.3343,"largura_km":205.086,"eixo_na_terra":true},{"t":1.25556,"lat":38.3257,"lon":2.4848,"largura_km":205.083,"eixo_na_terra":true},{"t":1.26111,"lat":38.2092,"lon":2.6356,"largura_km":205.078,"eixo_na_terra":true},{"t":1.26667,"lat":38.0924,"lon":2.7868,"largura_km":205.071,"eixo_na_terra":true},{"t":1.27222,"lat":37.9752,"lon":2.9383,"largura_km":205.063,"eixo_na_terra":true},{"t":1.27778,"lat":37.8576,"lon":3.0902,"largura_km":205.053,"eixo_na_terra":true},{"t":1.28333,"lat":37.7397,"lon":3.2425,"largura_km":205.042,"eixo_na_terra":true},{"t":1.28889,"lat":37.6214,"lon":3.3951,"largura_km":205.028,"eixo_na_terra":true},{"t":1.29444,"lat":37.5027,"lon":3.5482,"largura_km":205.013,"eixo_na_terra":true},{"t":1.3,"lat":37.3836,"lon":3.7016,"largura_km":204.997,"eixo_na_terra":true},{"t":1.30556,"lat":37.2641,"lon":3.8555,"largura_km":204.978,"eixo_na_terra":true},{"t":1.31111,"lat":37.1443,"lon":4.0099,"largura_km":204.958,"eixo_na_terra":true},{"t":1.31667,"lat":37.024,"lon":4.1647,"largura_km":204.935,"eixo_na_terra":true},{"t":1.32222,"lat":36.9033,"lon":4.32,"largura_km":204.911,"eixo_na_terra":true},{"t":1.32778,"lat":36.7822,"lon":4.4757,"largura_km":204.885,"eixo_na_terra":true},{"t":1.33333,"lat":36.6607,"lon":4.632,"largura_km":204.857,"eixo_na_terra":true},{"t":1.33889,"lat":36.5388,"lon":4.7887,"largura_km":204.827,"eixo_na_terra":true},{"t":1.34444,"lat":36.4165,"lon":4.946,"largura_km":204.794,"eixo_na_terra":true}]},"features":[{"type":"Feature","properties":{},"geometry":{"type":"Polygon","coordinates":[[[4.500935331967213,38.056580398843494],[6.066909096526473,36.82745059424426],[3.8510557054392507,35.992507976923825],[1.862436346925108,37.52111768532464],[1.1148551263614763,38.0924243500106],[0.37466346084733004,38.65520519769958],[-0.3594218320088771,39.209850027008564],[-1.0885939543467202,39.75670566003459],[-1.6691464395219384,40.18879060205199],[-2.3794259737315144,40.713020172532566],[-3.100532636665946,41.23964895482648],[-3.6766481709739196,41.65605573863572],[-4.25258701336665,42.06822146143802],[-4.828800714600504,42.4762383541969],[-5.405726757243855,42.88018955867443],[-5.983790181373507,43.28014968812911],[-6.563405049268084,43.676185320251605],[-6.999377940354549,43.97067234508867],[-7.582675813571569,44.35997765839053],[-8.16861756712754,44.745503479210974],[-8.757586920557458,45.127289696441586],[-9.20152839781312,45.41119562068252],[-9.796702750107187,45.78651437411222],[-10.381821485141387,46.149491261152214],[-10.985355637587617,46.5175412903614],[-11.441123276664484,46.79119390210293],[-12.053259553291326,47.15288930890722],[-12.51589322942894,47.42178067370719],[-13.137734602077813,47.777126361450286],[-13.608058798986377,48.04124921781282],[-14.24070210861828,48.390221078225316],[-14.71953835288926,48.64954660585165],[-15.3485762976878,48.98395428021488],[-15.83662103605323,49.23846803746879],[-14.084041638969978,50.63874358412277],[-13.41604250555065,50.28561985854668],[-13.069659820248717,50.099273225222746],[-12.576978985468145,49.83048444691646],[-12.088519450218655,49.55957871948505],[-11.604112917282748,49.28656486446757],[-11.123591357050174,49.01144982363612],[-10.646786902668538,48.73423865497091],[-10.17353173696867,48.45493452501261],[-9.703657970897467,48.1735386974186],[-9.236997513132508,47.890050517531996],[-8.619490862216338,47.50880674434224],[-8.159672234273472,47.22042293158522],[-7.688613475908198,46.92102562857024],[-7.234008080983415,46.62838738212033],[-6.6314206200135,46.23488887901298],[-6.181920208853484,45.93726141104552],[-5.734317022091403,45.637469978560205],[-5.288434215377805,45.33549591193147],[-4.696290453540485,44.92943197609071],[-4.25372220877918,44.62227926528425],[-3.6653328016832347,44.20921844007798],[-3.2250729196050543,43.89674125482685],[-2.63907046379299,43.476466757087394],[-2.200071612578455,43.1584849631207],[-1.615026738289231,42.730731915001364],[-1.0298579394394665,42.29856608949887],[-0.5779123246878441,41.96196919114871],[0.008683143137687921,41.52175982344209],[0.596860065812649,41.07679157613488],[1.1871887445101663,40.62691433002518],[1.7802673292445945,40.17196303607061],[2.9772289163605876,39.24609462056115],[4.500935331967213,38.056580398843494]]]}}]}