{"type":"FeatureCollection","features":[{"type":"Feature","properties":{"t_inicio":0.6111111111110947,"t_fim":1.3444444444444255},"geometry":{"type":"LineString","coordinates":[[-14.975081742292957,49.94045958327485],[-14.809622051024206,49.85422890954639],[-14.644654631964045,49.7677624379929],[-14.480173558336105,49.68106067955412],[-14.316172908260427,49.594124123188564],[-14.15264676445625,49.506953235899104],[-13.989589213935261,49.41954846275444],[-13.826994347685627,49.33191022690689],[-13.66485626034617,49.24403892960603],[-13.503169049871104,49.15593495020839],[-13.341926817184941,49.067598646183015],[-13.181123665827897,48.97903035311292],[-13.020753701591332,48.8902303846924],[-12.860811032143289,48.80119903272002],[-12.701289766644152,48.71193656708729],[-12.54218401535229,48.622443235763114],[-12.383487889219339,48.5327192647736],[-12.225195499475575,48.442764858177505],[-12.067300957204594,48.35258019803713],[-11.909798372907659,48.262165444384515],[-11.752681856057535,48.17152073518293],[-11.595945514641386,48.08064618628358],[-11.439583454692922,47.98954189137756],[-11.283589779813525,47.898207921942664],[-11.127958590682141,47.80664432718533],[-10.97268398455384,47.714851133977476],[-10.817760054746799,47.62282834678795],[-10.663180890117701,47.53057594760892],[-10.508940574525127,47.438093895876754],[-10.35503318628082,47.34538212838743],[-10.201452797588786,47.252440559206256],[-10.04819347397168,47.15926907957213],[-9.89524927368447,47.0658675577957],[-9.742614247115114,46.97223583915188],[-9.59028243617206,46.87837374576615],[-9.438247873657872,46.78428107649457],[-9.286504582629362,46.68995760679798],[-9.135046575743559,46.59540308860921],[-8.983867854589107,46.500617250194075],[-8.832962409003017,46.40559979600563],[-8.682324216372422,46.310350406531484],[-8.531947240920772,46.21486873813415],[-8.381825432978388,46.11915442288435],[-8.231952728236763,46.02320706838687],[-8.082323046986488,45.927026257598996],[-7.932930293337989,45.83061154864129],[-7.7837683544251774,45.733962474600546],[-7.63483109959094,45.63707854332467],[-7.486112379554896,45.539959237209345],[-7.337606025561769,45.44260401297638],[-7.189305848510969,45.34501230144337],[-7.041205638066401,45.247183507284376],[-6.893299161745716,45.149117008781744],[-6.7455801639887625,45.050812157568565],[-6.598042365205032,44.95226827836149],[-6.450679460798398,44.85348466868382],[-6.303485120169711,44.75446059857862],[-6.1564529856958075,44.65519531031131],[-6.009576671684528,44.55568801806186],[-5.862849763305178,44.45593790760592],[-5.716265815493415,44.3559441359849],[-5.569818351829838,44.25570583116435],[-5.423500863391723,44.15522209168066],[-5.277306807576821,44.0544919862755],[-5.1312296068985574,43.95351455351776],[-4.985262647751398,43.85228880141253],[-4.839399279145908,43.75081370699683],[-4.6936328114121295,43.64908821592176],[-4.547956514870549,43.5471112420203],[-4.402363618469423,43.44488166686091],[-4.256847308387307,43.34239833928593],[-4.111400726600067,43.23966007493462],[-3.9660169694105036,43.136665655750306],[-3.8206890859399607,43.03341382947111],[-3.675410076580306,42.929903309103736],[-3.530172891405016,42.82613277237971],[-3.3849704285379403,42.72210086119366],[-3.239795532478297,42.61780618102295],[-3.0946409923804765,42.51324730032793],[-2.94949954028678,42.408422749932434],[-2.8043638493117555,42.30333102238366],[-2.659226531776227,42.197970571290675],[-2.5140801372892554,42.092339810641136],[-2.3689171507759568,41.98643711409498],[-2.223729990449783,41.88026081425483],[-2.0785110057263694,41.77380920191189],[-1.9332524750775235,41.66708052526645],[-1.7879466038227463,41.56007298912266],[-1.6425855218560343,41.452784754055706],[-1.4971612813054662,41.34521393555129],[-1.351665854123297,41.23735860311587],[-1.2060911296031236,41.129216779356675],[-1.06042891182247,41.02078643903049],[-0.9146709170067595,40.91206550805993],[-0.7688087708123419,40.80305186251595],[-0.6228340055248225,40.69374332756541],[-0.4767380571700528,40.58413767638227],[-0.33051226253320465,40.474232629020975],[-0.18414785608339912,40.36402585125062],[-0.037635966799285825,40.25351495334826],[0.10903238510869073,40.142697488849834],[0.25586629158263463,40.031570953256875],[0.4028749602135804,39.920132782697394],[0.5500677178540627,39.808380352538734],[0.6974540143521608,39.69631097595092],[0.8450434264117348,39.5839219024178],[0.9928456615848233,39.47121031619448],[1.1408705624014033,39.35817333470811],[1.289128110642963,39.244808006900136],[1.4376284317660009,39.13111131150722],[1.5863817994818703,39.017080155278116],[1.735398640500648,38.90271137112402],[1.88468953944556,38.7880017161989],[2.034265243946436,38.672947869907354],[2.184136669920008,38.55754643183611],[2.3343149070458367,38.44179391960625],[2.4848112244469007,38.32568676664186],[2.635637076584487,38.209221319852084],[2.786804109377698,38.09239383722173],[2.9383241665579476,37.97520048530671],[3.0902092962703307,37.85763733662942],[3.242471757933288,37.73970036696947],[3.3951240293695832,37.62138545254473],[3.5481788142220694,37.502688367076935],[3.7016490496681342,37.38360477873689],[3.8555479144484366,37.26413024696253],[4.009888837225134,37.14426021914384],[4.164685505287423,37.023990027167976],[4.319951873621648,36.90331488381704],[4.475702174365409,36.78222987901124],[4.631950926665951,36.66072997588925],[4.78871294696404,36.538810006717114],[4.94600335972703,36.41646466861661]]}}]}