{"type":"FeatureCollection","features":[{"type":"Feature","properties":{"magnitude":0.8,"percentagem":80.0,"territorio":"continente"},"geometry":{"type":"LineString","coordinates":[[-10.5,36.78724840801952],[-10.461550286677223,36.759999999999984],[-10.46,36.75890103150177],[-10.420000000000002,36.73053278482038],[-10.405157652887969,36.719999999999985],[-10.380000000000003,36.7021419097252],[-10.34882722607388,36.679999999999986],[-10.340000000000003,36.67372826706768],[-10.300000000000004,36.64529297275506],[-10.292558244061782,36.639999999999986],[-10.260000000000005,36.61683629925935],[-10.236350135351884,36.59999999999999],[-10.220000000000006,36.58835709180035],[-10.18020284211117,36.55999999999999],[-10.180000000000007,36.559855426297666],[-10.140000000000008,36.531333633228186],[-10.124115041706533,36.51999999999999],[-10.100000000000009,36.50278957156623],[-10.068087068952853,36.47999999999999],[-10.06000000000001,36.47422328953418],[-10.02000000000001,36.44563599500749],[-10.012118013538572,36.43999999999999],[-9.980000000000011,36.41702779892066],[-9.95620736884474,36.39999999999999],[-9.940000000000012,36.388397623191835],[-9.900355137401485,36.35999999999999],[-9.900000000000013,36.35974554599778],[-9.860000000000014,36.33107389285838],[-9.844559869442378,36.31999999999999],[-9.820000000000014,36.30238055533169],[-9.788822036401204,36.279999999999994],[-9.780000000000015,36.273665561061556],[-9.740000000000016,36.2449299985531],[-9.733140737796493,36.239999999999995],[-9.700000000000017,36.216174240103065],[-9.67751535641106,36.199999999999996],[-9.660000000000018,36.187397072618836],[-9.621946037367278,36.16],[-9.620000000000019,36.158598576490334],[-9.58000000000002,36.129780857467594],[-9.566431321185611,36.12],[-9.54000000000002,36.1009422694803],[-9.51097158942309,36.08],[-9.500000000000021,36.07208260445918],[-9.460000000000022,36.04320261291239],[-9.4555661921268,36.04],[-9.420000000000023,36.01430336588167],[-9.400214144735465,36.0]]}},{"type":"Feature","properties":{"magnitude":0.9,"percentagem":90.0,"territorio":"continente"},"geometry":{"type":"LineString","coordinates":[[-10.5,41.44499677046671],[-10.492480609076638,41.439999999999884],[-10.46,41.418408824459235],[-10.432330327792096,41.399999999999885],[-10.420000000000002,41.391793807981365],[-10.380000000000003,41.365152876325894],[-10.372268460331451,41.359999999999886],[-10.340000000000003,41.33848673424384],[-10.312294495717126,41.31999999999989],[-10.300000000000004,41.31179367258558],[-10.260000000000005,41.285074836407965],[-10.252407694529321,41.27999999999989],[-10.220000000000006,41.258330951791535],[-10.19260753324214,41.23999999999989],[-10.180000000000007,41.23156030164882],[-10.140000000000008,41.204763970287],[-10.132893293097457,41.19999999999989],[-10.100000000000009,41.17794280636872],[-10.073264448093855,41.15999999999989],[-10.06000000000001,41.151095034143],[-10.02000000000001,41.1242216261397],[-10.01372029464751,41.11999999999989],[-9.980000000000011,41.09732365587078],[-9.954260304780576,41.07999999999989],[-9.940000000000012,41.070399237693806],[-9.900000000000013,41.043449180796145],[-9.894883794041643,41.03999999999989],[-9.860000000000014,41.016474886868934],[-9.83559022366304,40.99999999999989],[-9.820000000000014,40.9894743086241],[-9.780000000000015,40.962448039780256],[-9.776378941470528,40.9599999999999],[-9.740000000000016,40.93539791464699],[-9.71724938003807,40.919999999999895],[-9.700000000000017,40.908321671986556],[-9.660000000000018,40.881219637339626],[-9.658200941544441,40.879999999999896],[-9.620000000000019,40.854094183227375],[-9.599233003234161,40.8399999999999],[-9.58000000000002,40.82694278158607],[-9.540345049811762,40.7999999999999],[-9.54000000000002,40.799765488728816],[-9.500000000000021,40.77256516538669],[-9.481536375719505,40.759999999999906],[-9.460000000000022,40.745339119991286],[-9.422806551316231,40.7199999999999],[-9.420000000000023,40.71808735759489],[-9.380000000000024,40.69081236266039],[-9.364154832221853,40.67999999999991],[-9.340000000000025,40.66351219853546],[-9.305580810035602,40.6399999999999],[-9.300000000000026,40.63618649484614],[-9.260000000000026,40.60883730533683],[-9.247083758860462,40.5999999999999],[-9.220000000000027,40.581463557306314],[-9.188663235516099,40.5599999999999],[-9.180000000000028,40.554064450372664],[-9.140000000000029,40.52664155244022],[-9.130318592289393,40.519999999999904],[-9.10000000000003,40.499194765125246],[-9.072049287472566,40.479999999999905],[-9.06000000000003,40.4717228027944],[-9.02000000000003,40.444226691702724],[-9.013854818852739,40.439999999999905],[-8.980000000000032,40.41670741951524],[-8.955734474948144,40.399999999999906],[-8.940000000000033,40.38916315942514],[-8.900000000000034,40.36159433952549],[-8.897687973750802,40.35999999999991],[-8.860000000000035,40.33400314665775],[-8.839714355485619,40.31999999999991],[-8.820000000000036,40.306387156225234],[-8.781813575883456,40.27999999999991],[-8.780000000000037,40.27874643088637],[-8.740000000000038,40.25108360133866],[-8.723984534309203,40.23999999999991],[-8.700000000000038,40.22339645774342],[-8.666227200925803,40.19999999999991],[-8.66000000000004,40.195684773814826],[-8.62000000000004,40.16795046688266],[-8.608540663518172,40.15999999999991],[-8.580000000000041,40.14019275704724],[-8.550924594460398,40.11999999999991],[-8.540000000000042,40.112410704668086],[-8.500000000000043,40.084605455076705],[-8.493378441290844,40.07999999999991],[-8.460000000000043,40.056777775642104],[-8.435901475818651,40.039999999999914],[-8.420000000000044,40.028925954663606],[-8.380000000000045,40.00105030608201],[-8.378493611099488,39.999999999999915],[-8.340000000000046,39.97315326337931],[-8.321153609288757,39.959999999999916],[-8.300000000000047,39.945232283334704],[-8.263881750412333,39.919999999999916],[-8.260000000000048,39.91728743295314],[-8.220000000000049,39.889320998352474],[-8.206676803345538,39.87999999999992],[-8.18000000000005,39.86133147842293],[-8.149538764838605,39.83999999999992],[-8.14000000000005,39.83331829655986],[-8.100000000000051,39.80528278678265],[-8.092466909890819,39.79999999999992],[-8.060000000000052,39.77722535575893],[-8.03546060158283,39.75999999999992],[-8.020000000000053,39.749144474383925],[-7.980000000000054,39.721040462892184],[-7.978519823503693,39.71999999999992],[-7.940000000000055,39.692915759132056],[-7.921643174916498,39.67999999999992],[-7.900000000000055,39.664767819768606],[-7.864831149951557,39.63999999999992],[-7.860000000000056,39.63659671512055],[-7.820000000000057,39.60840456014859],[-7.808082440730678,39.59999999999992],[-7.780000000000058,39.58019021382581],[-7.751397031429319,39.559999999999924],[-7.740000000000059,39.5519529211157],[-7.70000000000006,39.52369365807842],[-7.694774395810764,39.519999999999925],[-7.6600000000000605,39.49541356527854],[-7.638213578778185,39.479999999999926],[-7.620000000000061,39.46711074811883],[-7.58171494275463,39.43999999999993],[-7.580000000000062,39.43878527920447],[-7.540000000000063,39.410439810292196],[-7.525276847579388,39.39999999999993],[-7.500000000000064,39.38207214167352],[-7.468899827086973,39.35999999999993],[-7.460000000000065,39.353682047427164],[-7.420000000000066,39.32527091229428],[-7.412582932582753,39.31999999999993],[-7.3800000000000665,39.29683907452303],[-7.356325549487384,39.27999999999993],[-7.340000000000067,39.26838504033726],[-7.300127955737179,39.23999999999993],[-7.300000000000068,39.23990888460312],[-7.260000000000069,39.211413546414626],[-7.243988261065063,39.19999999999993],[-7.22000000000007,39.182896266909296],[-7.187907392728221,39.15999999999993],[-7.180000000000071,39.15435709910675],[-7.140000000000072,39.12579758389256],[-7.131884150427309,39.11999999999993],[-7.1000000000000725,39.09721776284246],[-7.075918072863219,39.079999999999934],[-7.060000000000073,39.06861628977998],[-7.020009442086089,39.039999999999935],[-7.020000000000074,39.039993241799536],[-6.980000000000074,39.011351590338265],[-6.96415623874951,38.999999999999936],[-6.940000000000076,38.982688527877315],[-6.908359549026727,38.95999999999994],[-6.900000000000077,38.95400413074825],[-6.860000000000078,38.92529983786693],[-6.852618168875767,38.91999999999994],[-6.820000000000078,38.896575910839864],[-6.79693152734654,38.87999999999994],[-6.780000000000079,38.86783089236727],[-6.741300037361145,38.83999999999994],[-6.74000000000008,38.839064861732034],[-6.700000000000081,38.81028056204662],[-6.685721707249723,38.79999999999994],[-6.660000000000082,38.7814756588912],[-6.630197475590631,38.75999999999994],[-6.620000000000083,38.75264999067628],[-6.5800000000000844,38.72380463055465],[-6.574726453257099,38.71999999999994],[-6.540000000000084,38.69494058814098],[-6.51930762718176,38.67999999999994],[-6.500000000000085,38.66605603067436],[-6.4639417029838855,38.639999999999944],[-6.460000000000086,38.637151039579166],[-6.420000000000087,38.60822786324914],[-6.408626906158797,38.599999999999945],[-6.380000000000088,38.579285173494284],[-6.353363655186872,38.559999999999945],[-6.340000000000089,38.550322303902334],[-6.3000000000000895,38.521339692374475],[-6.2981517593481815,38.519999999999946],[-6.26000000000009,38.49233963582908],[-6.242989367366895,38.47999999999995],[-6.220000000000091,38.463319656063895],[-6.187877671484893,38.43999999999995],[-6.180000000000092,38.434279836590896],[-6.140000000000093,38.405221658996325],[-6.1328153337120455,38.39999999999995],[-6.100000000000094,38.37614534577454],[-6.077801819700991,38.35999999999995],[-6.060000000000095,38.34704945314031],[-6.022837706308466,38.31999999999995],[-6.0200000000000955,38.31793406576006],[-5.980000000000096,38.28880164694853],[-5.967920970316783,38.27999999999995],[-5.940000000000097,38.25965046889239],[-5.9130523934566455,38.23999999999995],[-5.900000000000098,38.23048005999828],[-5.860000000000099,38.20129085737871],[-5.858231694144846,38.19999999999995],[-5.8200000000001,38.17208518976874],[-5.803456897780746,38.159999999999954],[-5.780000000000101,38.142860557916904],[-5.748729362824972,38.119999999999955],[-5.7400000000001015,38.113617048479284],[-5.700000000000102,38.08435594511488],[-5.6940478341885745,38.079999999999956],[-5.660000000000103,38.05507789682934],[-5.639411486158972,38.03999999999996],[-5.620000000000104,38.02578124104299],[-5.584821142376289,37.99999999999996],[-5.580000000000105,37.99646606550659],[-5.540000000000106,37.96713443699918]]}},{"type":"Feature","properties":{"magnitude":0.95,"percentagem":95.0,"territorio":"continente"},"geometry":{"type":"LineString","coordinates":[[-9.182437274056886,42.95999999999985],[-9.180000000000028,42.9583876038177],[-9.140000000000029,42.93190904597623],[-9.122024503142846,42.91999999999986],[-9.10000000000003,42.90540369052595],[-9.061701239525423,42.87999999999985],[-9.06000000000003,42.878871197227674],[-9.020000000000032,42.852314593507046],[-9.001467027332879,42.83999999999986],[-8.980000000000032,42.82573122188998],[-8.941321092292391,42.799999999999855],[-8.940000000000033,42.799120858317245],[-8.900000000000034,42.772486586155885],[-8.881262921045856,42.759999999999856],[-8.860000000000035,42.74582563473233],[-8.821291816988639,42.71999999999986],[-8.820000000000036,42.719137840360844],[-8.780000000000037,42.69242628635944],[-8.761407199458262,42.67999999999986],[-8.740000000000038,42.66568820108663],[-8.701608454437888,42.63999999999986],[-8.700000000000038,42.638923425004364],[-8.66000000000004,42.61213498493551],[-8.641894933425418,42.59999999999986],[-8.62000000000004,42.58532022140102],[-8.582266100755133,42.55999999999986],[-8.580000000000041,42.558478922340385],[-8.540000000000042,42.5316140011554],[-8.522721248586716,42.51999999999986],[-8.500000000000043,42.504723024606875],[-8.46325990645706,42.47999999999986],[-8.460000000000043,42.47780567097314],[-8.420000000000044,42.45086468280623],[-8.403881324482901,42.43999999999986],[-8.380000000000045,42.42389796817753],[-8.344585075583842,42.399999999999864],[-8.340000000000046,42.39690503807361],[-8.300000000000047,42.36988840624329],[-8.285370393684564,42.359999999999864],[-8.260000000000048,42.34284643817685],[-8.226236864832554,42.319999999999865],[-8.220000000000049,42.315778419424404],[-8.18000000000005,42.28868657643197],[-8.167183740932398,42.279999999999866],[-8.14000000000005,42.2615698492975],[-8.108210582701833,42.23999999999987],[-8.100000000000051,42.23442723945428],[-8.060000000000052,42.20726062697958],[-8.049316702288177,42.19999999999987],[-8.020000000000053,42.1800696448889],[-7.990501588647829,42.15999999999987],[-7.980000000000054,42.15285295126212],[-7.940000000000055,42.125612020156495],[-7.931764664297425,42.11999999999986],[-7.9000000000000545,42.09834729697461],[-7.873105292251025,42.07999999999987],[-7.860000000000056,42.07105703663066],[-7.820000000000057,42.0437422469069],[-7.814523063162525,42.03999999999987],[-7.780000000000057,42.01640430625906],[-7.756017152394167,41.99999999999987],[-7.740000000000059,41.98904100602928],[-7.70000000000006,41.96165282684884],[-7.697587383926903,41.95999999999987],[-7.6600000000000605,41.93424220212381],[-7.639232676450712,41.919999999999874],[-7.620000000000061,41.90680639860624],[-7.580953118251116,41.879999999999875],[-7.580000000000062,41.87934547620012],[-7.540000000000062,41.85186254261272],[-7.522747419484139,41.839999999999876],[-7.500000000000064,41.82435478216995],[-7.464615750777026,41.799999999999876],[-7.460000000000065,41.796822087844575],[-7.420000000000066,41.76926691440656],[-7.406556983457434,41.75999999999988],[-7.3800000000000665,41.74168775315949],[-7.348570999646418,41.71999999999988],[-7.340000000000067,41.714083846248464],[-7.300000000000068,41.68645693278631],[-7.290657016453277,41.67999999999988],[-7.260000000000069,41.65880693660413],[-7.232814534103283,41.63999999999988],[-7.22000000000007,41.63113238618756],[-7.18000000000007,41.6034342415859],[-7.175043211904006,41.59999999999988],[-7.140000000000072,41.57571398607165],[-7.11734206841006,41.55999999999988],[-7.1000000000000725,41.547969370960445],[-7.060000000000072,41.52020051313332],[-7.059711307832236,41.51999999999988],[-7.020000000000074,41.492410583605704],[-7.002149361092014,41.47999999999988],[-6.980000000000075,41.46459649232178],[-6.944656779658031,41.439999999999884],[-6.940000000000076,41.43675830451458],[-6.900000000000077,41.408898439652056],[-6.887232214191546,41.39999999999989],[-6.860000000000078,41.38101547040434],[-6.8298756813098755,41.359999999999886],[-6.820000000000078,41.3531086066782],[-6.780000000000079,41.3251792929734],[-6.772586472532313,41.31999999999989],[-6.74000000000008,41.297228053629865],[-6.715363895143486,41.27999999999989],[-6.700000000000081,41.269253125040706],[-6.660000000000082,41.24125491055325],[-6.658208022992834,41.23999999999989],[-6.620000000000083,41.21323601860858],[-6.601117327448209,41.19999999999989],[-6.580000000000084,41.18519364582946],[-6.544092468062377,41.1599999999999],[-6.540000000000084,41.15712786075922],[-6.500000000000085,41.12904117002758],[-6.487131925541833,41.11999999999989],[-6.460000000000086,41.10093198331077],[-6.430235897708183,41.07999999999989],[-6.420000000000087,41.07279959688163],[-6.380000000000088,41.04464534052761],[-6.37340367706746,41.03999999999989],[-6.340000000000089,41.01646997966265],[-6.316634453581331,40.99999999999989],[-6.3000000000000895,40.98827163481526],[-6.26000000000009,40.960050390569],[-6.259928609298793,40.959999999999894],[-6.220000000000091,40.93180950483628],[-6.2032841813200505,40.919999999999895],[-6.180000000000092,40.90354585398745],[-6.146702163926346,40.879999999999896],[-6.140000000000093,40.87525950984955],[-6.100000000000094,40.84695245640616],[-6.090181165211628,40.8399999999999],[-6.060000000000095,40.81862416139698],[-6.033720985804249,40.7999999999999],[-6.0200000000000955,40.79027339607296],[-5.980000000000096,40.761900759408924],[-5.977321527519945,40.7599999999999],[-5.940000000000097,40.73350849144863],[-5.920981221212202,40.7199999999999],[-5.900000000000098,40.705093979244836],[-5.864700945330311,40.6799999999999],[-5.860000000000099,40.67665729688581],[-5.820000000000101,40.64820080577647],[-5.808479047088921,40.6399999999999],[-5.780000000000101,40.61972323028719],[-5.752315749740468,40.5999999999999],[-5.7400000000001015,40.59122371476677],[-5.700000000000102,40.562703093055944],[-5.696210676746972,40.5599999999999],[-5.660000000000103,40.53416314709747],[-5.640162435296723,40.51999999999991],[-5.620000000000104,40.5056014942813],[-5.584171891997673,40.479999999999905],[-5.580000000000105,40.47701821092774],[-5.540000000000106,40.44841575434498]]}},{"type":"Feature","properties":{"magnitude":0.99,"percentagem":99.0,"territorio":"continente"},"geometry":{"type":"LineString","coordinates":[[-6.253394241414632,42.95999999999985],[-6.220000000000091,42.937008670446204],[-6.195313927409924,42.91999999999985],[-6.180000000000092,42.90944580741527],[-6.140000000000093,42.88185868204884],[-6.137306432704488,42.879999999999846],[-6.100000000000094,42.85424982071061],[-6.0793704077794555,42.839999999999854],[-6.060000000000095,42.82661629713657],[-6.021506325142862,42.799999999999855],[-6.0200000000000955,42.79895817384376],[-5.9800000000000955,42.7712787316959],[-5.96371253748382,42.759999999999856],[-5.940000000000097,42.743575115932146],[-5.905989545235181,42.71999999999986],[-5.900000000000098,42.715847093167646],[-5.860000000000099,42.68809704933303],[-5.848336088795373,42.67999999999986],[-5.8200000000001,42.66032391946803],[-5.79075206038551,42.63999999999986],[-5.780000000000101,42.63252657852599],[-5.7400000000001015,42.60470644807531],[-5.733236876703302,42.59999999999985],[-5.700000000000102,42.57686439191441],[-5.675789705278046,42.55999999999986],[-5.660000000000103,42.548998323801186],[-5.620000000000104,42.521108630830774],[-5.618410758198623,42.519999999999854],[-5.580000000000105,42.49319824587389],[-5.561098356289601,42.47999999999986],[-5.540000000000106,42.46526405128416]]}},{"type":"Feature","properties":{"magnitude":0.6,"percentagem":60.0,"territorio":"acores"},"geometry":{"type":"LineString","coordinates":[[-31.296826945253592,40.479999999999905],[-31.280000000000015,40.47307572229602],[-31.240000000000016,40.456588496439366],[-31.200000000000017,40.44006967301372],[-31.199831534175008,40.4399999999999],[-31.160000000000018,40.423520800646585],[-31.12000000000002,40.40694029442948],[-31.10328421017236,40.399999999999906],[-31.08000000000002,40.39032903996805],[-31.04000000000002,40.373686758681174],[-31.00716350899782,40.35999999999991],[-31.00000000000002,40.3570130527476],[-30.960000000000022,40.34030890474915],[-30.920000000000023,40.32357301013629],[-30.911473349413427,40.31999999999991],[-30.880000000000024,40.30680657251309],[-30.840000000000025,40.290008678441346],[-30.816207440445332,40.27999999999991],[-30.800000000000026,40.27317960278402],[-30.76000000000003,40.256319619282166],[-30.72135440654374,40.23999999999991],[-30.720000000000027,40.23942783733625],[-30.680000000000028,40.222505675121354],[-30.64000000000003,40.20555162135384],[-30.626922501867828,40.19999999999991],[-30.60000000000003,40.18856668943269],[-30.56000000000003,40.17155032785751],[-30.5328957302619,40.15999999999991],[-30.52000000000003,40.154502506733834],[-30.480000000000036,40.13742374986528],[-30.440000000000033,40.12031300045082],[-30.43926932846478,40.11999999999991],[-30.400000000000034,40.103171733712934],[-30.360000000000035,40.085998462670844],[-30.34605017488346,40.07999999999991],[-30.320000000000036,40.06879412686236],[-30.280000000000037,40.051558248594816],[-30.25322202651644,40.039999999999914],[-30.240000000000038,40.03429077793518],[-30.20000000000004,40.01699220762352],[-30.16078089755093,39.999999999999915],[-30.16000000000004,39.99966153674681],[-30.12000000000004,39.982300190367305],[-30.08000000000004,39.96490667587472],[-30.068733130104803,39.959999999999916],[-30.040000000000042,39.94748204868059],[-30.000000000000043,39.93002563709778],[-29.977064774420633,39.919999999999916],[-29.960000000000043,39.91253763569644],[-29.920000000000044,39.89501824505611],[-29.88577128198757,39.87999999999992],[-29.880000000000045,39.87746680586149],[-29.840000000000046,39.85988435504595],[-29.800000000000047,39.84226960499717],[-29.794853449790033,39.83999999999992],[-29.760000000000048,39.82462382372847],[-29.720000000000052,39.80694589690828],[-29.704307663880556,39.79999999999992],[-29.68000000000005,39.78923650916528],[-29.64000000000005,39.771495326644725],[-29.614125069365347,39.75999999999992],[-29.60000000000005,39.75372227085418],[-29.560000000000052,39.73591775460923],[-29.524302026212254,39.71999999999992],[-29.520000000000053,39.718080969765246],[-29.480000000000054,39.700213042693115],[-29.440000000000055,39.68231265557462],[-29.434839388824898,39.67999999999992],[-29.400000000000055,39.664381054312585],[-29.360000000000056,39.64641714586204],[-29.34573246793039,39.63999999999992],[-29.320000000000057,39.62842165444535],[-29.280000000000058,39.61039414992213],[-29.256974028883576,39.59999999999992],[-29.24000000000006,39.59233470966734],[-29.20000000000006,39.57424353530827],[-29.168560612721123,39.559999999999924],[-29.16000000000006,39.55612008818975],[-29.12000000000006,39.537965171225714],[-29.080488801736898,39.519999999999925],[-29.080000000000062,39.51977765989625],[-29.040000000000063,39.501558928568826],[-29.000000000000064,39.483307553257546],[-28.99276121849978,39.47999999999992],[-28.960000000000065,39.465024679958645],[-28.920000000000066,39.446709387844635],[-28.90536856493547,39.43999999999993],[-28.880000000000067,39.42836229978052],[-28.840000000000067,39.4099830216832],[-28.818307145434922,39.39999999999993],[-28.800000000000068,39.391571664222],[-28.76000000000007,39.37312833202853],[-28.731573711195352,39.35999999999993],[-28.72000000000007,39.35465265131101],[-28.68000000000007,39.336145197993034],[-28.64516505194901,39.31999999999993],[-28.64000000000007,39.31760514095403],[-28.600000000000072,39.29903350058464],[-28.560000000000073,39.28042904698144],[-28.55907872859019,39.27999999999993],[-28.520000000000074,39.26179312274526],[-28.48000000000008,39.24312438839797],[-28.473314686989756,39.23999999999993],[-28.440000000000076,39.22442394938941],[-28.40000000000008,39.20569087116698],[-28.38786570012407,39.19999999999993],[-28.360000000000078,39.186925867443165],[-28.32000000000008,39.168128383373414],[-28.302728715361454,39.15999999999993],[-28.28000000000008,39.1492987658831],[-28.240000000000084,39.13043681516979],[-28.217900716080578,39.11999999999993],[-28.20000000000008,39.11154253577541],[-28.160000000000082,39.09261605881529],[-28.1333787212145,39.079999999999934],[-28.120000000000083,39.07365707031535],[-28.080000000000084,39.054666008715095],[-28.049159784801493,39.039999999999935],[-28.040000000000084,39.03564226486653],[-28.00000000000009,39.016586561459924],[-27.96524099554144,38.999999999999936],[-27.960000000000086,38.997498017000645],[-27.920000000000087,38.9783776158655],[-27.88161947635862,38.95999999999994],[-27.880000000000088,38.9592242265371],[-27.84000000000009,38.94003907301241],[-27.80000000000009,38.92082085274902],[-27.7982936465075,38.91999999999994],[-27.76000000000009,38.901570836285906],[-27.72000000000009,38.88228778673479],[-27.715260387781797,38.87999999999994],[-27.680000000000092,38.86297281141583],[-27.640000000000093,38.84362488109418],[-27.632515723685444,38.83999999999994],[-27.600000000000094,38.824244906516746],[-27.560000000000095,38.804832045260696],[-27.55005691693083,38.79999999999994],[-27.520000000000095,38.78538703212806],[-27.480000000000096,38.765909191109856],[-27.467881262235736,38.75999999999995],[-27.440000000000097,38.74639910125422],[-27.400000000000098,38.72685623299928],[-27.385986085922084,38.71999999999994],[-27.3600000000001,38.70728102940518],[-27.3200000000001,38.68767308780911],[-27.304368745519852,38.67999999999994],[-27.2800000000001,38.66803273463673],[-27.240000000000098,38.64835967498236],[-27.22302662937636,38.639999999999944],[-27.200000000000102,38.62865413759094],[-27.160000000000103,38.60891591656539],[-27.141957156270617,38.599999999999945],[-27.120000000000104,38.58914516153678],[-27.080000000000105,38.569341737248386],[-27.061157775032882,38.559999999999945],[-27.040000000000106,38.54950573241064],[-27.00000000000011,38.52963706440606],[-26.980625964169022,38.519999999999946],[-26.960000000000107,38.50973577885706],[-26.920000000000105,38.489801828138056],[-26.900359231490345,38.47999999999995],[-26.88000000000011,38.469835232269254],[-26.84000000000011,38.44983596130977],[-26.820355113747468,38.43999999999995],[-26.80000000000011,38.42980402682995],[-26.76000000000011,38.40973939959294],[-26.740611176269766,38.39999999999995],[-26.720000000000113,38.38964209955201],[-26.680000000000113,38.369512081506336],[-26.66112501260898,38.35999999999994],[-26.640000000000114,38.349349390319276],[-26.60000000000011,38.32915394845644],[-26.581894244187957,38.31999999999995],[-26.560000000000116,38.308925841927135],[-26.520000000000117,38.28866494477819],[-26.502916519953356,38.27999999999995],[-26.480000000000118,38.26837140012343],[-26.44000000000012,38.248045017775574],[-26.42418951603354,38.23999999999995],[-26.40000000000012,38.227686013649034],[-26.36000000000012,38.20729411776244],[-26.345710935400202,38.19999999999995],[-26.32000000000012,38.18686963427868],[-26.280000000000122,38.16641219810298],[-26.267478507535053,38.159999999999954],[-26.240000000000123,38.14592221686149],[-26.200000000000124,38.12539921525245],[-26.18948998810032,38.119999999999955],[-26.160000000000124,38.1048437193617],[-26.120000000000125,38.08425512879769],[-26.111743158613585,38.079999999999956],[-26.080000000000126,38.0636341028992],[-26.040000000000123,38.04297990149771],[-26.034235826126945,38.039999999999964],[-26.000000000000128,38.022293331790074],[-25.96000000000013,38.001573499324],[-25.956965822910234,37.99999999999995],[-25.92000000000013,37.980821373587055],[-25.88000000000013,37.96003589150116],[-25.879931006138026,37.959999999999965],[-25.84000000000013,37.93921819911992],[-25.803131135973043,37.91999999999996],[-25.800000000000132,37.91836714794281],[-25.760000000000133,37.89748378253575],[-25.72656238508393,37.87999999999996],[-25.720000000000134,37.87656715612781],[-25.680000000000135,37.85561810133923],[-25.650222636999715,37.83999999999996],[-25.640000000000136,37.83463589307708],[-25.600000000000136,37.813621136432694],[-25.57410984080999,37.79999999999996],[-25.560000000000137,37.79257334138414],[-25.520000000000138,37.77149287215614],[-25.4982219690854,37.75999999999996],[-25.48000000000014,37.750379487104254],[-25.44000000000014,37.7292332963271],[-25.422557017586854,37.719999999999956],[-25.40000000000014,37.70805431979416],[-25.36000000000014,37.68684240028047],[-25.347113004978155,37.679999999999964],[-25.320000000000142,37.66559783255186],[-25.280000000000143,37.64432017890806],[-25.271887972542494,37.63999999999997],[-25.240000000000144,37.62301002205622],[-25.200000000000145,37.60166663069809],[-25.19687998390257,37.599999999999966],[-25.160000000000146,37.58029088860626],[-25.122088283246146,37.55999999999997],[-25.120000000000147,37.55888182194622],[-25.080000000000148,37.53744043616055],[-25.047511630745213,37.51999999999997],[-25.04000000000015,37.51596579670143],[-25.00000000000015,37.4944586723763],[-24.973146403253438,37.47999999999997],[-24.96000000000015,37.47291846852198],[-24.92000000000015,37.45134560864817],[-24.89899074704192,37.43999999999997],[-24.88000000000015,37.429739850698425],[-24.840000000000153,37.408101260147106],[-24.825042829444165,37.39999999999997],[-24.800000000000153,37.386429960321],[-24.760000000000154,37.364725645858826],[-24.751300838595302,37.35999999999997],[-24.720000000000155,37.342988818318275],[-24.680000000000156,37.321218788622105],[-24.67776298317485,37.319999999999965],[-24.640000000000157,37.299416449495226],[-24.604429800183226,37.27999999999997],[-24.600000000000158,37.27758085095621],[-24.56000000000016,37.25571288257133],[-24.531298443969682,37.239999999999974],[-24.52000000000016,37.23381180277566],[-24.48000000000016,37.21187815021828],[-24.45836600220914,37.199999999999974],[-24.44000000000016,37.18991161021454],[-24.400000000000162,37.167912289097586],[-24.385630759735434,37.159999999999975],[-24.360000000000163,37.14588031198374],[-24.320000000000164,37.123815339897824],[-24.31309102075108,37.119999999999976],[-24.280000000000165,37.101717950844076],[-24.24074547983239,37.07999999999998],[-24.240000000000165,37.07958737025884],[-24.200000000000166,37.05742457364332],[-24.16859560309689,37.03999999999998],[-24.160000000000167,37.035228624701986],[-24.120000000000168,37.01300023135273],[-24.096636271141076,36.99999999999998],[-24.08000000000017,36.99073894441896],[-24.04000000000017,36.96844497910339]]}},{"type":"Feature","properties":{"magnitude":0.6,"percentagem":60.0,"territorio":"madeira"},"geometry":{"type":"LineString","coordinates":[[-18.0,33.23793739438403],[-17.97341468172028,33.21999999999992],[-17.96,33.21094545993186],[-17.92,33.18392577036445],[-17.914192225056947,33.17999999999992],[-17.880000000000003,33.1568788048681],[-17.85505993484517,33.13999999999992],[-17.840000000000003,33.12980388890401],[-17.800000000000004,33.10270130449099],[-17.796015804649986,33.09999999999992],[-17.760000000000005,33.0755717331731],[-17.737060674111895,33.059999999999924],[-17.720000000000006,33.048414396744526],[-17.680000000000007,33.02122945836104],[-17.678192086998195,33.019999999999925],[-17.640000000000008,32.99401784934423],[-17.619411376137222,32.979999999999926],[-17.60000000000001,32.96677866407421],[-17.560715678410567,32.93999999999993],[-17.56000000000001,32.939511963790075],[-17.52000000000001,32.91221885423931],[-17.502106591398405,32.89999999999993],[-17.48000000000001,32.884898402311336],[-17.443581327221377,32.85999999999993],[-17.440000000000012,32.85755062883185],[-17.400000000000013,32.83017647945181],[-17.38514094286645,32.81999999999993],[-17.360000000000014,32.802775353589894],[-17.32678345297978,32.77999999999993],[-17.320000000000014,32.775347103136475],[-17.280000000000015,32.74789248722102],[-17.26850912466181,32.73999999999993],[-17.240000000000016,32.72041129066517],[-17.21031678186759,32.69999999999993],[-17.200000000000017,32.692903169970116],[-17.160000000000018,32.665368670329414],[-17.152205900732714,32.65999999999993],[-17.12000000000002,32.637808016806204],[-17.094176109339408,32.61999999999993],[-17.08000000000002,32.61022064308155],[-17.04000000000002,32.58260685198698],[-17.036226103555304,32.579999999999934],[-17.00000000000002,32.554967365675445],[-16.97835629883144,32.539999999999935],[-16.960000000000022,32.52730136657717],[-16.92056468600219,32.499999999999936],[-16.920000000000023,32.49960892178936],[-16.880000000000024,32.47189120119555],[-16.862852280491886,32.45999999999994],[-16.840000000000025,32.444147214782966],[-16.80521691618854,32.41999999999994],[-16.800000000000026,32.41637699466617],[-16.760000000000026,32.38858141740315],[-16.747659049932672,32.37999999999994],[-16.720000000000027,32.36076009209354],[-16.690177442946318,32.33999999999994],[-16.680000000000028,32.33291274851719],[-16.64000000000003,32.30503993828994],[-16.63277166700183,32.29999999999994],[-16.60000000000003,32.277141932808426],[-16.57544135527931,32.25999999999994],[-16.56000000000003,32.24921812793551],[-16.52000000000003,32.22126871763065],[-16.51818525457656,32.21999999999994],[-16.480000000000032,32.19329470095538],[-16.461003804711133,32.17999999999994],[-16.440000000000033,32.16529510718574],[-16.403895269737266,32.139999999999944],[-16.400000000000034,32.13727000814412],[-16.360000000000035,32.1092203901011],[-16.346860004105885,32.099999999999945],[-16.320000000000036,32.08114569001016],[-16.289896778919385,32.059999999999945],[-16.280000000000037,32.05304571143769],[-16.240000000000038,32.02492102314904],[-16.233005226509334,32.019999999999946],[-16.20000000000004,31.99677190942171],[-16.17618494577648,31.979999999999947],[-16.16000000000004,31.968597747382475],[-16.12000000000004,31.940398652124653],[-16.119434804009007,31.939999999999948],[-16.08000000000004,31.912175827484585],[-16.06275512935921,31.89999999999995],[-16.040000000000042,31.883928188059528],[-16.006144444246104,31.85999999999995],[-16.000000000000043,31.855655809248244],[-15.960000000000043,31.82735953508214],[-15.949602746164285,31.81999999999995],[-15.920000000000044,31.799039134291924],[-15.893129249867243,31.77999999999995],[-15.880000000000045,31.770694232046598],[-15.840000000000046,31.74232515167236],[-15.836723269040187,31.73999999999995],[-15.800000000000047,31.71393271539558],[-15.780384687295019,31.699999999999953],[-15.760000000000048,31.685516018895896],[-15.724112386885007,31.659999999999954],[-15.720000000000049,31.657075140026883],[-15.68000000000005,31.62861108891764],[-15.667906310021653,31.619999999999955],[-15.64000000000005,31.60012333708723],[-15.611765597890166,31.579999999999956],[-15.600000000000051,31.571611648446524],[-15.560000000000052,31.543076440362814],[-15.555689725307124,31.539999999999957],[-15.520000000000053,31.514518381776565],[-15.499678388614022,31.499999999999957],[-15.480000000000054,31.485936635174546],[-15.44373069267641,31.459999999999958],[-15.440000000000055,31.457331280824857],[-15.400000000000055,31.42870337569422],[-15.387846443341013,31.41999999999996],[-15.360000000000056,31.400052332463787],[-15.332024883821814,31.37999999999996],[-15.320000000000057,31.371377934516943],[-15.280000000000056,31.342680568842443],[-15.276265497641708,31.33999999999996],[-15.240000000000059,31.313960999735826],[-15.220567920541349,31.29999999999996],[-15.20000000000006,31.28521833210455],[-15.164931408609066,31.259999999999962],[-15.16000000000006,31.25645264858317],[-15.120000000000061,31.227664923262136],[-15.109355611951443,31.219999999999963],[-15.080000000000062,31.198854769135323],[-15.053839927067003,31.179999999999964],[-15.040000000000063,31.1700218594442]]}}]}