{"type":"FeatureCollection","features":[{"type":"Feature","properties":{"t_inicio":-0.7833333333333448,"t_fim":-0.26666666666667993},"geometry":{"type":"LineString","coordinates":[[-39.29917867188499,38.981125867920326],[-38.490260595023756,39.177992080836816],[-37.7464961860785,39.364925217949775],[-37.05501509167493,39.54387124001097],[-36.406672779399,39.71621403633492],[-35.794696000332465,39.882979558965346],[-35.21390233643558,40.044953489841525],[-34.660221826650115,40.20275339452502],[-34.1303889974987,40.35687519300367],[-33.621736512589905,40.50772430972041],[-33.13205224184969,40.655637258873924],[-32.65947744264383,40.8008970273581],[-32.20243246417817,40.943744304044955],[-31.759561395242997,41.08438584932292],[-31.329690067551724,41.22300084778421],[-30.911793676080492,41.35974580816647],[-30.504971454937333,41.49475839714342],[-30.108426616446536,41.628160477544995],[-29.72145027551619,41.76006054398186],[-29.34340843258815,41.89055569585026],[-28.973731332817692,42.019733250810205],[-28.611904692031942,42.14767207572844],[-28.257462404253033,42.274443693316655],[-27.90998043612018,42.4001132090199],[-27.569071680385264,42.52474009261255],[-27.234381590591795,42.64837884141308],[-26.905584456770043,42.77107954632854],[-26.582380210759197,42.89288837758846],[-26.264491671942494,43.01384800367534],[-25.951662161409445,43.13399795435327],[-25.643653426063793,43.25337493665329],[-25.34024382485501,43.37201311106137],[-25.041226737793636,43.48994433387154],[-24.746409165200532,43.60719837063785],[-24.455610490114736,43.723803084831374],[-24.1686613812235,43.839784605135655],[-23.885402817295585,43.95516747426519],[-23.605685217068697,44.06997478174316],[-23.329367660988794,44.18422828270294],[-23.05631719322122,44.29794850447127],[-22.786408194043588,44.41115484243525],[-22.519521814135317,44.52386564648221],[-22.255545463463932,44.63609829912117],[-21.99437234846141,44.74786928624498],[-21.735901052028794,44.859194261362845],[-21.480035151622303,44.97008810402557],[-21.22668287128039,45.080564973072704],[-20.975756763978495,45.19063835525183],[-20.727173421136627,45.30032110969254],[-20.480853206497557,45.409625508659246],[-20.23672001191767,45.51856327495626],[-19.994701032904345,45.627145616315744],[-19.754726561980476,45.73538325706034],[-19.51672979817255,45.84328646730033],[-19.280646671109423,45.950865089895565],[-19.046415678382118,46.05812856538852],[-18.813977734961384,46.165085955090966],[-18.58327603359419,46.271745962489746],[-18.354255915215504,46.37811695311793],[-18.12686474850682,46.48420697302421],[-17.901051817823657,46.59002376595924],[-17.67676821878814,46.695574789386164],[-17.453966760912692,46.80086722941209],[-17.232601876684157,46.90590801472816],[-17.012629536586076,47.0107038296371],[-16.794007169592703,47.115261126240455],[-16.576693588704188,47.21958613585052],[-16.36064892113808,47.32368487968625],[-16.145834542821035,47.42756317890744],[-15.932213016859578,47.53122666403618],[-15.719748035696227,47.6346807838107],[-15.508404366680736,47.737930813512484],[-15.298147800811876,47.840981862804924],[-15.088945104422578,47.943838883117245],[-14.880763973603507,48.04650667460571],[-14.67357299117316,48.14898989272127],[-14.467341586021178,48.25129305441017],[-14.262039994663894,48.35342054397239],[-14.057639224862896,48.455376618600084],[-13.854111021172173,48.55716541361765],[-13.651427832284753,48.658790947441936],[-13.449562780065435,48.76025712628113],[-13.248489630159384,48.86156774858838],[-13.048182764077694,48.96272650928577],[-12.848617152667543,49.06373700377232],[-12.649768330880875,49.16460273172975],[-12.451612373761634,49.265327100737714],[-12.254125873578005,49.36591342971005],[-12.0572859180308,49.466364952162735],[-11.861070069473271,49.56668481932279],[-11.665456345083157,49.66687610308803],[-11.470423197931666,49.76694179884551],[-11.275949498896352,49.86688482815696],[-11.082014519370489,49.96670804131848]]}}]}