{"type":"FeatureCollection","features":[{"type":"Feature","properties":{"magnitude":0.8,"percentagem":80.0,"territorio":"continente"},"geometry":{"type":"LineString","coordinates":[[-10.5,37.324840457598754],[-10.46,37.34352862545317],[-10.424760932808972,37.359999999999964],[-10.420000000000002,37.36222659309212],[-10.380000000000003,37.380944816488764],[-10.340000000000003,37.39967112763104],[-10.339297942612102,37.39999999999997],[-10.300000000000004,37.41841903096672],[-10.260000000000005,37.437175189945826],[-10.253979194502211,37.43999999999997],[-10.220000000000006,37.45595104511807],[-10.180000000000007,37.47473691654669],[-10.168799695460915,37.47999999999997],[-10.140000000000008,37.493540632399984],[-10.100000000000009,37.512356079614804],[-10.08375820315382,37.51999999999997],[-10.06000000000001,37.5311875634948],[-10.02000000000001,37.550032448557914],[-9.998853481669657,37.55999999999997],[-9.980000000000011,37.56889160630917],[-9.940000000000012,37.58776579000941],[-9.91408430146481,37.599999999999966],[-9.900000000000013,37.60665252597366],[-9.860000000000014,37.62555586782817],[-9.829449439309013,37.639999999999965],[-9.820000000000014,37.64447008484246],[-9.780000000000015,37.66340244309849],[-9.744947678231203,37.679999999999964],[-9.740000000000018,37.682344042493646],[-9.700000000000017,37.70130527413025],[-9.66057780746517,37.71999999999996],[-9.660000000000018,37.720274155729385],[-9.620000000000019,37.739264116459495],[-9.58000000000002,37.758261448502864],[-9.576341420839515,37.75999999999996],[-9.54000000000002,37.777278722849246],[-9.500000000000021,37.796304559544055],[-9.492234847393933,37.79999999999996],[-9.460000000000022,37.815348843290735],[-9.420000000000023,37.834403037319866],[-9.40825645350761,37.83999999999996],[-9.380000000000024,37.85347422500486],[-9.340000000000025,37.87255662779329],[-9.324405054402888,37.87999999999996],[-9.300000000000026,37.89165461244381],[-9.260000000000026,37.91076507416126],[-9.240679471229427,37.91999999999996],[-9.220000000000027,37.929889747293416],[-9.180000000000028,37.94902811685702],[-9.157078531012287,37.95999999999996],[-9.140000000000029,37.96817936847523],[-9.10000000000003,37.98734549355251],[-9.073601066600641,37.99999999999996],[-9.06000000000003,38.006523212149546],[-9.020000000000032,38.025716939161185],[-8.990245916616303,38.03999999999996],[-8.980000000000032,38.04492101171827],[-8.940000000000033,38.06414218584149],[-8.907011925403337,38.079999999999956],[-8.900000000000034,38.08337249782826],[-8.860000000000035,38.10262096299988],[-8.823897942976924,38.119999999999955],[-8.820000000000034,38.121877398374956],[-8.780000000000037,38.14115299729502],[-8.740902824974004,38.159999999999954],[-8.740000000000038,38.16043543850664],[-8.700000000000038,38.17973801264188],[-8.66000000000004,38.19904703001401],[-8.658026893399539,38.19999999999995],[-8.62000000000004,38.21837573021597],[-8.580000000000041,38.23771147853754],[-8.575268125581282,38.23999999999995],[-8.540000000000042,38.25706586845831],[-8.500000000000043,38.27642818625818],[-8.492624725420065,38.27999999999995],[-8.460000000000043,38.295808143080585],[-8.420000000000044,38.315196867668085],[-8.410095572098301,38.31999999999995],[-8.380000000000045,38.33460226707043],[-8.340000000000046,38.354017234539626],[-8.327679550160653,38.35999999999995],[-8.300000000000047,38.373447950697354],[-8.260000000000048,38.39288899593135],[-8.245375549465834,38.39999999999995],[-8.220000000000049,38.41234490151874],[-8.18000000000005,38.43181185819426],[-8.163182465138382,38.43999999999995],[-8.14000000000005,38.45129282438639],[-8.100000000000051,38.47078552497835],[-8.081099197520816,38.47999999999995],[-8.060000000000052,38.490291421453165],[-8.020000000000053,38.50980969723945],[-7.9991246521259445,38.519999999999946],[-7.980000000000054,38.52934039218025],[-7.940000000000055,38.5488840732467],[-7.917257739589983,38.559999999999945],[-7.900000000000055,38.568439433344494],[-7.860000000000056,38.58800834858999],[-7.83549737562513,38.599999999999945],[-7.820000000000058,38.60758823904629],[-7.780000000000058,38.62718221618788],[-7.753842480972706,38.639999999999944],[-7.740000000000059,38.64678650071744],[-7.70000000000006,38.666405366295955],[-7.672291981357002,38.67999999999994],[-7.6600000000000605,38.68603390713006],[-7.620000000000061,38.70567748651529],[-7.590844807438613,38.71999999999994],[-7.580000000000062,38.72533014440496],[-7.540000000000063,38.744998261801626],[-7.509499894768568,38.75999999999994],[-7.500000000000064,38.76467489602096],[-7.460000000000065,38.78436737447443],[-7.428256183742544,38.79999999999994],[-7.420000000000066,38.80406784282443],[-7.3800000000000665,38.82378450422666],[-7.347112619555245,38.83999999999994],[-7.340000000000068,38.84350866303903],[-7.300000000000068,38.86324932813466],[-7.266068152154904,38.87999999999994],[-7.260000000000069,38.882997032275775],[-7.22000000000007,38.90276152066859],[-7.1851217361986155,38.91999999999994],[-7.180000000000071,38.92253262354381],[-7.140000000000072,38.94232075370288],[-7.104272331006958,38.95999999999994],[-7.100000000000072,38.96211510726098],[-7.060000000000073,38.98192669652741],[-7.0235189005196546,38.999999999999936],[-7.020000000000073,39.001744151265214],[-6.980000000000075,39.021579015858705],[-6.942860413250953,39.039999999999935],[-6.940000000000076,39.04141942082592],[-6.900000000000077,39.06127737585178],[-6.862295842245641,39.079999999999934],[-6.8600000000000785,39.08114057865599],[-6.820000000000078,39.101021438112],[-6.781824165034583,39.11999999999993],[-6.78000000000008,39.12090728492381],[-6.74000000000008,39.14081086170754],[-6.701444363591543,39.15999999999993],[-6.70000000000008,39.16071919726611],[-6.660000000000082,39.18064530318202],[-6.621155424288939,39.19999999999994],[-6.620000000000083,39.200575970800564],[-6.580000000000084,39.22052441656767],[-6.54095633785529,39.23999999999993],[-6.540000000000085,39.240477258139435],[-6.500000000000085,39.260447853398574],[-6.460846099330934,39.27999999999993],[-6.460000000000086,39.2804227094026],[-6.420000000000087,39.30041526272458],[-6.380823708026013,39.31999999999993],[-6.380000000000088,39.320411972232016],[-6.340000000000089,39.34042629112509],[-6.300888167477107,39.35999999999993],[-6.300000000000089,39.36044469180564],[-6.26000000000009,39.38048058272386],[-6.22103848540489,39.39999999999993],[-6.220000000000091,39.400520510852225],[-6.180000000000092,39.420577779203384],[-6.14127367367144,39.43999999999993],[-6.140000000000093,39.44063906966613],[-6.100000000000094,39.46071751982031],[-6.0615927482384295,39.479999999999926],[-6.0600000000000955,39.48080000612278],[-6.0200000000000955,39.50089944142051],[-5.981994729124653,39.519999999999925],[-5.980000000000096,39.521002955694094],[-5.940000000000097,39.54112317845524],[-5.902478640364356,39.559999999999924],[-5.900000000000099,39.56124755146462],[-5.860000000000099,39.58138836299692],[-5.823043509965375,39.59999999999992],[-5.8200000000001,39.60153342414763],[-5.780000000000101,39.6216946247558],[-5.743688369867903,39.63999999999993],[-5.7400000000001015,39.641860202102045],[-5.700000000000102,39.66204159109658],[-5.664412255902815,39.67999999999992],[-5.660000000000103,39.682227511349126],[-5.620000000000104,39.702428887055596],[-5.58521420775071,39.71999999999993],[-5.580000000000104,39.722634975589955],[-5.540000000000106,39.742856135358295]]}},{"type":"Feature","properties":{"magnitude":0.9,"percentagem":90.0,"territorio":"acores"},"geometry":{"type":"LineString","coordinates":[[-27.706183144891845,36.0],[-27.680000000000092,36.008251936621214],[-27.640000000000093,36.02087232396731],[-27.600000000000094,36.03350643160152],[-27.579463852197634,36.04],[-27.56000000000009,36.046159761364976],[-27.520000000000095,36.05883261863682],[-27.480000000000096,36.07151918605547],[-27.45328971943158,36.08],[-27.4400000000001,36.084223234634806],[-27.400000000000098,36.096948580089744],[-27.3600000000001,36.10968762497165],[-27.327654664375103,36.12],[-27.3200000000001,36.122442548280816],[-27.2800000000001,36.13522039830933],[-27.2400000000001,36.148011936460655],[-27.20255267990573,36.160000000000004],[-27.200000000000102,36.160817888810726],[-27.160000000000107,36.17364825791419],[-27.120000000000104,36.18649230324628],[-27.080000000000105,36.19935001922456],[-27.0779801604981,36.2],[-27.040000000000106,36.21223233807867],[-27.000000000000107,36.225128902585794],[-26.960000000000107,36.238039125085606],[-26.95393123569363,36.239999999999995],[-26.92000000000011,36.2509728124525],[-26.88000000000011,36.26392190618975],[-26.84000000000011,36.27688464466318],[-26.830397182199626,36.279999999999994],[-26.80000000000011,36.2898698490807],[-26.76000000000011,36.30287148014142],[-26.720000000000113,36.31588674207315],[-26.70737229436611,36.31999999999999],[-26.680000000000113,36.32892361032265],[-26.640000000000114,36.341977784816294],[-26.600000000000115,36.35504557570129],[-26.584850936118023,36.35999999999999],[-26.560000000000116,36.368134252771334],[-26.520000000000117,36.38124097480103],[-26.480000000000118,36.39436129812222],[-26.462827539950297,36.39999999999999],[-26.440000000000115,36.407501927172056],[-26.40000000000012,36.4206611988122],[-26.36000000000012,36.433834056018014],[-26.34129660594113,36.43999999999999],[-26.32000000000012,36.44702677834114],[-26.280000000000122,36.46023859961494],[-26.240000000000123,36.47346399009693],[-26.220252700783263,36.47999999999999],[-26.200000000000124,36.48670894508409],[-26.160000000000124,36.4999733139412],[-26.120000000000125,36.513251235011566],[-26.09969045683227,36.51999999999998],[-26.080000000000126,36.52654856011399],[-26.040000000000127,36.53986547240797],[-26.000000000000128,36.5531959192771],[-25.979604571171656,36.55999999999999],[-25.96000000000013,36.56654574996926],[-25.92000000000013,36.57991519943519],[-25.88000000000013,36.593298165189225],[-25.859989804694866,36.599999999999994],[-25.84000000000013,36.60670063493159],[-25.800000000000132,36.620122613163474],[-25.760000000000133,36.63355808874181],[-25.740840981202716,36.639999999999986],[-25.720000000000134,36.64701332894343],[-25.680000000000135,36.66048782537176],[-25.640000000000136,36.673975799544664],[-25.622152986517712,36.679999999999986],[-25.600000000000136,36.68748393952548],[-25.560000000000137,36.7010109413949],[-25.520000000000138,36.714551400740916],[-25.503920767613263,36.719999999999985],[-25.48000000000014,36.728112567694154],[-25.44000000000014,36.741692060040755],[-25.40000000000014,36.75528498892428],[-25.38613933175784,36.759999999999984],[-25.36000000000014,36.76889930787863],[-25.320000000000142,36.78253127350766],[-25.280000000000143,36.796176654056595],[-25.26880374567527,36.79999999999998],[-25.240000000000144,36.80984424783806],[-25.200000000000145,36.82352866730148],[-25.160000000000146,36.837226479384746],[-25.15190913471835,36.83999999999998],[-25.120000000000147,36.850947468578624],[-25.080000000000148,36.86468432015259],[-25.04000000000015,36.878434541357684],[-25.03545068205713,36.87999999999998],[-25.00000000000015,36.89220904427053],[-24.96000000000015,36.90599830393307],[-24.92000000000015,36.91980090954377],[-24.91942362788201,36.91999999999998],[-24.88000000000015,36.93362904216473],[-24.840000000000153,36.947470683573464],[-24.80382743140412,36.95999999999998],[-24.800000000000157,36.96132683363284],[-24.760000000000154,36.975207522510196],[-24.720000000000155,36.989101516979886],[-24.68865434072365,36.99999999999998],[-24.680000000000156,37.00301150197402],[-24.640000000000157,37.01694453847054],[-24.600000000000158,37.03089085495086],[-24.573899124047195,37.03999999999998],[-24.560000000000162,37.04485478464757],[-24.52000000000016,37.058840136040935],[-24.48000000000016,37.07283874109436],[-24.459557233115994,37.07999999999998],[-24.44000000000016,37.08685672280124],[-24.400000000000162,37.10089435396516],[-24.360000000000163,37.11494521174464],[-24.345624173038132,37.119999999999976],[-24.320000000000164,37.12901735027043],[-24.280000000000165,37.14310722365254],[-24.240000000000165,37.157210295879516],[-24.232095501567283,37.159999999999975],[-24.200000000000166,37.171336693495064],[-24.160000000000167,37.1854787690949],[-24.120000000000168,37.19963401503715],[-24.118966828393216,37.199999999999974],[-24.08000000000017,37.21381477143692],[-24.04000000000017,37.22800900678386]]}},{"type":"Feature","properties":{"magnitude":0.95,"percentagem":95.0,"territorio":"acores"},"geometry":{"type":"LineString","coordinates":[[-32.0,37.495049760546635],[-31.96,37.50649919900988],[-31.92,37.51796244790963],[-31.912898866729492,37.51999999999997],[-31.880000000000003,37.52944861880905],[-31.840000000000003,37.54095056934262],[-31.800000000000004,37.55246632850632],[-31.773863393978495,37.55999999999997],[-31.760000000000005,37.56399975300545],[-31.72000000000001,37.575554266140685],[-31.680000000000007,37.58712258560225],[-31.640000000000008,37.59870470815724],[-31.635532030464017,37.599999999999966],[-31.60000000000001,37.61031058125536],[-31.56000000000001,37.621931509516315],[-31.52000000000001,37.633566237923006],[-31.49790735221542,37.639999999999965],[-31.48000000000001,37.64521980250474],[-31.440000000000012,37.65689338651288],[-31.400000000000013,37.66858076720893],[-31.360963835497063,37.679999999999964],[-31.360000000000017,37.680282213598765],[-31.320000000000014,37.69200849872643],[-31.280000000000015,37.70374857656853],[-31.240000000000016,37.71550244342909],[-31.22471245982701,37.71999999999996],[-31.200000000000017,37.72727712408632],[-31.160000000000018,37.73906994232854],[-31.12000000000002,37.75087654494898],[-31.089126611975864,37.75999999999996],[-31.08000000000002,37.76269953624049],[-31.04000000000002,37.774545136512515],[-31.00000000000002,37.78640451599411],[-30.960000000000022,37.79827767066015],[-30.954204469828408,37.79999999999996],[-30.920000000000023,37.8101744267644],[-30.880000000000024,37.82208662255651],[-30.840000000000025,37.83401258768184],[-30.81994158588988,37.83999999999996],[-30.800000000000022,37.84595807627137],[-30.760000000000026,37.8579231261496],[-30.720000000000027,37.86990193896853],[-30.686319149011133,37.87999999999996],[-30.680000000000028,37.88189634368638],[-30.64000000000003,37.89391428373051],[-30.60000000000003,37.90594597977585],[-30.56000000000003,37.91799142730978],[-30.553337840216912,37.91999999999996],[-30.520000000000035,37.93006034762216],[-30.480000000000032,37.942144960703146],[-30.440000000000033,37.95424331762756],[-30.420989050922625,37.95999999999996],[-30.40000000000003,37.9663615654347],[-30.36000000000003,37.97849912761471],[-30.320000000000036,37.99065042543321],[-30.289257826121748,37.99999999999996],[-30.280000000000037,38.00281817998672],[-30.240000000000038,38.015008721561216],[-30.20000000000004,38.02721299000354],[-30.16000000000004,38.0394309802991],[-30.158139272757534,38.03999999999996],[-30.12000000000004,38.05167397870003],[-30.08000000000004,38.06393124569993],[-30.040000000000042,38.07620222505365],[-30.02763448616144,38.079999999999956],[-30.000000000000043,38.08849513021582],[-29.960000000000043,38.100805421888424],[-29.920000000000044,38.11312941583698],[-29.897725330639144,38.119999999999955],[-29.880000000000045,38.12547240224004],[-29.840000000000046,38.13783574285971],[-29.800000000000047,38.150212775093074],[-29.768404956759344,38.159999999999954],[-29.760000000000048,38.16260601577092],[-29.72000000000005,38.17502242774853],[-29.68000000000005,38.187452520087476],[-29.64000000000005,38.19989628709478],[-29.63966700005685,38.19999999999995],[-29.60000000000005,38.21236569045275],[-29.560000000000052,38.224848862826285],[-29.520000000000053,38.23734569785668],[-29.5115136729496,38.23999999999995],[-29.480000000000054,38.24986573955221],[-29.440000000000055,38.262402009974934],[-29.400000000000055,38.274951930440004],[-29.383928371324494,38.27999999999995],[-29.360000000000056,38.28752277822719],[-29.320000000000057,38.30011216277664],[-29.280000000000058,38.312715184145105],[-29.256904605261646,38.31999999999995],[-29.24000000000006,38.32533700417638],[-29.20000000000006,38.33797951697042],[-29.16000000000006,38.35063565274548],[-29.13043596760898,38.35999999999995],[-29.12000000000006,38.363308609534826],[-29.080000000000062,38.37600426270885],[-29.040000000000063,38.38871352440542],[-29.004516132718578,38.39999999999995],[-29.000000000000064,38.40143778079157],[-28.960000000000065,38.414186584475694],[-28.920000000000066,38.42694898159768],[-28.880000000000067,38.43972496542221],[-28.879139859902978,38.43999999999995],[-28.840000000000067,38.4525266610029],[-28.800000000000068,38.46534220102042],[-28.76000000000007,38.478171311852044],[-28.7543046007477,38.47999999999995],[-28.720000000000066,38.49102466518784],[-28.68000000000007,38.50389335351431],[-28.64000000000007,38.516775596127374],[-28.629998994523326,38.519999999999946],[-28.600000000000072,38.529680764009825],[-28.560000000000073,38.54260260397915],[-28.520000000000074,38.5555379810627],[-28.506217042255223,38.559999999999945],[-28.48000000000008,38.568495118446634],[-28.440000000000076,38.58147011129044],[-28.400000000000077,38.59445862342545],[-28.38295282028236,38.599999999999945],[-28.360000000000078,38.60746788339092],[-28.32000000000008,38.620496028215555],[-28.28000000000008,38.633537673851954],[-28.260200479131804,38.639999999999944],[-28.24000000000008,38.64659920756605],[-28.20000000000008,38.65968050132975],[-28.160000000000082,38.672775276763694],[-28.137954242415645,38.67999999999994],[-28.120000000000083,38.685889233442104],[-28.080000000000084,38.69902367093222],[-28.040000000000084,38.712171570283125],[-28.01620840574699,38.71999999999994],[-28.000000000000085,38.7253380971517],[-27.960000000000086,38.73852567096164],[-27.920000000000087,38.75172668614938],[-27.894957335676253,38.75999999999994],[-27.880000000000088,38.76494592840534],[-27.84000000000009,38.77818662891181],[-27.80000000000009,38.79144074963388],[-27.774195468646546,38.79999999999994],[-27.76000000000009,38.80471285040692],[-27.72000000000009,38.81800666574712],[-27.680000000000092,38.83131387945567],[-27.653917309968527,38.83999999999994],[-27.64000000000009,38.84463897976913],[-27.600000000000094,38.85798589581777],[-27.560000000000095,38.87134618769698],[-27.53411743281338,38.87999999999994],[-27.520000000000095,38.88472442642851],[-27.480000000000096,38.8981244267751],[-27.440000000000097,38.911537779718216],[-27.414790477224052,38.91999999999994],[-27.400000000000095,38.92496929356058],[-27.3600000000001,38.93842235948665],[-27.3200000000001,38.951888754073316],[-27.29593114914458,38.95999999999994],[-27.2800000000001,38.96537367749494],[-27.2400000000001,38.9788797879513],[-27.200000000000102,38.9923992024248],[-27.177534219466786,38.999999999999936],[-27.1600000000001,39.005937667630334],[-27.120000000000104,39.01949679921425],[-27.080000000000105,39.0330692094588],[-27.059594523093573,39.039999999999935],[-27.040000000000106,39.046661346349424],[-27.000000000000107,39.060273473282074],[-26.960000000000107,39.07389885280023],[-26.942106958019593,39.079999999999934],[-26.92000000000011,39.0875447889339],[-26.88000000000011,39.10120988303766],[-26.84000000000011,39.11488820292767],[-26.82506648442777,39.11999999999993],[-26.80000000000011,39.1285880634793],[-26.76000000000011,39.142306094155344],[-26.720000000000113,39.156037323088675],[-26.70846812380256,39.15999999999993],[-26.680000000000113,39.16979123081023],[-26.640000000000114,39.18356216501583],[-26.600000000000115,39.1973462692146],[-26.592306958057648,39.19999999999993],[-26.560000000000116,39.211154344395155],[-26.520000000000117,39.22497814662134],[-26.480000000000118,39.23881508983605],[-26.476578128680607,39.23999999999993],[-26.44000000000012,39.25267745026162],[-26.40000000000012,39.26655408251086],[-26.361278233764807,39.27999999999993],[-26.36000000000012,39.28044425670248],[-26.32000000000012,39.29436058691144],[-26.280000000000122,39.30829000867532],[-26.246405321131405,39.31999999999993],[-26.240000000000123,39.322234677495345],[-26.200000000000124,39.336203785235966],[-26.160000000000124,39.35018595347299],[-26.13195093897297,39.35999999999993],[-26.120000000000125,39.36418522799515],[-26.080000000000126,39.37820706843162],[-26.040000000000127,39.392241937545094],[-26.017910449730877,39.39999999999992],[-26.000000000000128,39.40629592619076],[-25.96000000000013,39.420370451915275],[-25.92000000000013,39.43445797373136],[-25.904279271501295,39.43999999999993],[-25.88000000000013,39.448566782229264],[-25.84000000000013,39.46269394324029],[-25.800000000000132,39.47683406698601],[-25.791052877262423,39.479999999999926],[-25.760000000000133,39.49099779833198],[-25.720000000000134,39.505177542012184],[-25.680000000000135,39.519370214293765],[-25.67822679411456,39.519999999999925],[-25.640000000000136,39.53358896871032],[-25.600000000000136,39.547821239805074],[-25.56580281844926,39.559999999999924],[-25.560000000000134,39.56206840906496],[-25.520000000000138,39.57634027948221],[-25.48000000000014,39.59062502007785],[-25.453772643295856,39.59999999999992],[-25.44000000000014,39.604927392978965],[-25.40000000000014,39.619251708588706],[-25.36000000000014,39.6335888580911],[-25.342130038062272,39.63999999999992],[-25.320000000000142,39.64794652740853],[-25.280000000000143,39.66232322571065],[-25.240000000000144,39.676712720823886],[-25.230870730850143,39.67999999999992],[-25.200000000000145,39.69112577640964],[-25.160000000000146,39.70555479218599],[-25.120000000000147,39.71999656689122],[-25.119990500400753,39.71999999999992],[-25.080000000000148,39.73446509563384],[-25.04000000000015,39.74894636092719],[-25.009495199335024,39.75999999999992],[-25.00000000000015,39.763443682087924],[-24.96000000000015,39.77796443224595],[-24.92000000000015,39.79249787633903],[-24.899371020345505,39.79999999999992],[-24.88000000000015,39.807050829281785],[-24.840000000000153,39.82162372484218],[-24.800000000000153,39.83620927423694],[-24.789613872267445,39.83999999999992],[-24.760000000000154,39.85081793788618],[-24.720000000000155,39.86544290336856],[-24.68021995233321,39.87999999999992],[-24.680000000000156,39.88008055977927],[-24.640000000000157,39.89474493193303],[-24.600000000000158,39.90942188903985],[-24.57119626847318,39.919999999999916],[-24.56000000000016,39.92411540166317],[-24.52000000000016,39.93883172666252],[-24.48000000000016,39.95356059425871],[-24.462527956876976,39.959999999999916],[-24.44000000000016,39.96831003375843],[-24.400000000000162,39.98307822844279],[-24.360000000000163,39.997858922535826],[-24.35421111768843,39.999999999999915],[-24.320000000000164,40.01266435635425],[-24.280000000000165,40.027484334690136],[-24.246248362549803,40.039999999999914],[-24.240000000000165,40.04231901278289],[-24.200000000000166,40.05717826072838],[-24.160000000000167,40.07204993378954],[-24.138635709276066,40.07999999999991],[-24.120000000000168,40.086940732743955],[-24.08000000000017,40.10185162906801],[-24.04000000000017,40.1167749050158]]}},{"type":"Feature","properties":{"magnitude":0.99,"percentagem":99.0,"territorio":"acores"},"geometry":{"type":"LineString","coordinates":[[-32.0,39.83346650087604],[-31.978300798452537,39.83999999999992],[-31.96,39.84551572258428],[-31.92,39.85758544525292],[-31.880000000000003,39.869668883213095],[-31.84583972936579,39.87999999999992],[-31.840000000000007,39.881767863282576],[-31.800000000000004,39.89389127732527],[-31.760000000000005,39.90602839542544],[-31.720000000000006,39.918179211622316],[-31.71401303039018,39.919999999999916],[-31.680000000000007,39.930354453319865],[-31.640000000000008,39.942545277220376],[-31.60000000000001,39.954749787213714],[-31.58281229873539,39.959999999999916],[-31.56000000000001,39.966975209622404],[-31.52000000000001,39.9792197630632],[-31.48000000000001,39.99147798998111],[-31.45222310199049,39.999999999999915],[-31.440000000000012,40.00375377731646],[-31.400000000000013,40.01605208209381],[-31.360000000000014,40.02836404711474],[-31.32223826290609,40.03999999999992],[-31.320000000000014,40.04069038209925],[-31.280000000000015,40.05304245804253],[-31.240000000000016,40.06540818037234],[-31.200000000000017,40.077787542416914],[-31.192859315447656,40.07999999999991],[-31.160000000000018,40.09019110914636],[-31.12000000000002,40.1026106059947],[-31.08000000000002,40.11504372790022],[-31.064072579484396,40.11999999999991],[-31.04000000000002,40.12749824806406],[-31.00000000000002,40.13997153462125],[-30.960000000000022,40.152458430941365],[-30.935868467867643,40.15999999999991],[-30.920000000000023,40.164964081791645],[-30.880000000000024,40.17749117120526],[-30.840000000000025,40.19003185444494],[-30.808240189949974,40.19999999999991],[-30.80000000000003,40.20258881157709],[-30.760000000000026,40.21516971492855],[-30.720000000000027,40.22776419552077],[-30.681181044001796,40.23999999999991],[-30.680000000000028,40.24037263283495],[-30.64000000000003,40.25300735911621],[-30.60000000000003,40.26565564539855],[-30.56000000000003,40.27831748409851],[-30.554690714654946,40.27999999999991],[-30.52000000000003,40.29100429115082],[-30.480000000000032,40.30370638934205],[-30.440000000000033,40.31642202187321],[-30.428757073213824,40.31999999999991],[-30.400000000000034,40.32916069238662],[-30.360000000000035,40.34191660656328],[-30.320000000000036,40.35468603633482],[-30.303372286589237,40.35999999999991],[-30.28000000000004,40.36747673806342],[-30.240000000000038,40.38028647013628],[-30.20000000000004,40.39310969838596],[-30.178530008911334,40.399999999999906],[-30.16000000000004,40.4059525972201],[-30.12000000000004,40.41881614691085],[-30.08000000000004,40.43169317268138],[-30.054223976257667,40.439999999999905],[-30.040000000000042,40.4445884326082],[-30.000000000000043,40.457505797425846],[-29.960000000000043,40.47043661754165],[-29.930448005389447,40.479999999999905]]}}]}