{"type":"FeatureCollection","properties":{"largura_maxima_km":190.473,"largura_sobre_pt_km":181.469,"linha_central_sobre_pt":false,"desenhavel_como_area":true,"perfil_largura":[{"t":0.23333,"lat":43.4641,"lon":-39.9843,"largura_km":190.473,"eixo_na_terra":true},{"t":0.23889,"lat":43.5336,"lon":-39.8097,"largura_km":190.072,"eixo_na_terra":true},{"t":0.24444,"lat":43.6039,"lon":-39.6343,"largura_km":189.668,"eixo_na_terra":true},{"t":0.25,"lat":43.675,"lon":-39.4581,"largura_km":189.261,"eixo_na_terra":true},{"t":0.25556,"lat":43.7468,"lon":-39.2811,"largura_km":188.851,"eixo_na_terra":true},{"t":0.26111,"lat":43.8195,"lon":-39.1032,"largura_km":188.439,"eixo_na_terra":true},{"t":0.26667,"lat":43.8931,"lon":-38.9244,"largura_km":188.023,"eixo_na_terra":true},{"t":0.27222,"lat":43.9674,"lon":-38.7447,"largura_km":187.605,"eixo_na_terra":true},{"t":0.27778,"lat":44.0426,"lon":-38.5641,"largura_km":187.183,"eixo_na_terra":true},{"t":0.28333,"lat":44.1186,"lon":-38.3826,"largura_km":186.759,"eixo_na_terra":true},{"t":0.28889,"lat":44.1955,"lon":-38.2,"largura_km":186.333,"eixo_na_terra":true},{"t":0.29444,"lat":44.2733,"lon":-38.0165,"largura_km":185.903,"eixo_na_terra":true},{"t":0.3,"lat":44.352,"lon":-37.8319,"largura_km":185.472,"eixo_na_terra":true},{"t":0.30556,"lat":44.4315,"lon":-37.6463,"largura_km":185.038,"eixo_na_terra":true},{"t":0.31111,"lat":44.512,"lon":-37.4596,"largura_km":184.601,"eixo_na_terra":true},{"t":0.31667,"lat":44.5934,"lon":-37.2718,"largura_km":184.161,"eixo_na_terra":true},{"t":0.32222,"lat":44.6757,"lon":-37.0828,"largura_km":183.719,"eixo_na_terra":true},{"t":0.32778,"lat":44.759,"lon":-36.8926,"largura_km":183.274,"eixo_na_terra":true},{"t":0.33333,"lat":44.8433,"lon":-36.7013,"largura_km":182.827,"eixo_na_terra":true},{"t":0.33889,"lat":44.9286,"lon":-36.5087,"largura_km":182.377,"eixo_na_terra":true},{"t":0.34444,"lat":45.0148,"lon":-36.3148,"largura_km":181.924,"eixo_na_terra":true},{"t":0.35,"lat":45.1021,"lon":-36.1196,"largura_km":181.469,"eixo_na_terra":true},{"t":0.35556,"lat":45.1904,"lon":-35.9231,"largura_km":181.011,"eixo_na_terra":true},{"t":0.36111,"lat":45.2798,"lon":-35.7252,"largura_km":180.551,"eixo_na_terra":true},{"t":0.36667,"lat":45.3702,"lon":-35.5259,"largura_km":180.088,"eixo_na_terra":true},{"t":0.37222,"lat":45.4617,"lon":-35.325,"largura_km":179.622,"eixo_na_terra":true},{"t":0.37778,"lat":45.5544,"lon":-35.1227,"largura_km":179.153,"eixo_na_terra":true},{"t":0.38333,"lat":45.6482,"lon":-34.9189,"largura_km":178.683,"eixo_na_terra":true},{"t":0.38889,"lat":45.7431,"lon":-34.7134,"largura_km":178.209,"eixo_na_terra":true},{"t":0.39444,"lat":45.8392,"lon":-34.5064,"largura_km":177.733,"eixo_na_terra":true},{"t":0.4,"lat":45.9365,"lon":-34.2976,"largura_km":177.254,"eixo_na_terra":true},{"t":0.40556,"lat":46.0351,"lon":-34.0871,"largura_km":176.772,"eixo_na_terra":true},{"t":0.41111,"lat":46.1349,"lon":-33.8748,"largura_km":176.288,"eixo_na_terra":true},{"t":0.41667,"lat":46.2359,"lon":-33.6606,"largura_km":175.801,"eixo_na_terra":true},{"t":0.42222,"lat":46.3383,"lon":-33.4446,"largura_km":175.312,"eixo_na_terra":true},{"t":0.42778,"lat":46.442,"lon":-33.2266,"largura_km":174.819,"eixo_na_terra":true},{"t":0.43333,"lat":46.5471,"lon":-33.0066,"largura_km":174.324,"eixo_na_terra":true},{"t":0.43889,"lat":46.6535,"lon":-32.7845,"largura_km":173.826,"eixo_na_terra":true},{"t":0.44444,"lat":46.7614,"lon":-32.5602,"largura_km":173.326,"eixo_na_terra":true},{"t":0.45,"lat":46.8708,"lon":-32.3338,"largura_km":172.822,"eixo_na_terra":true},{"t":0.45556,"lat":46.9816,"lon":-32.105,"largura_km":172.315,"eixo_na_terra":true},{"t":0.46111,"lat":47.094,"lon":-31.8739,"largura_km":171.806,"eixo_na_terra":true},{"t":0.46667,"lat":47.2079,"lon":-31.6403,"largura_km":171.293,"eixo_na_terra":true},{"t":0.47222,"lat":47.3235,"lon":-31.4042,"largura_km":170.777,"eixo_na_terra":true},{"t":0.47778,"lat":47.4407,"lon":-31.1655,"largura_km":170.258,"eixo_na_terra":true},{"t":0.48333,"lat":47.5596,"lon":-30.9241,"largura_km":169.736,"eixo_na_terra":true},{"t":0.48889,"lat":47.6803,"lon":-30.6799,"largura_km":169.212,"eixo_na_terra":true},{"t":0.49444,"lat":47.8028,"lon":-30.4328,"largura_km":168.684,"eixo_na_terra":true},{"t":0.5,"lat":47.9271,"lon":-30.1826,"largura_km":168.152,"eixo_na_terra":true},{"t":0.50556,"lat":48.0534,"lon":-29.9293,"largura_km":167.617,"eixo_na_terra":true},{"t":0.51111,"lat":48.1816,"lon":-29.6728,"largura_km":167.078,"eixo_na_terra":true},{"t":0.51667,"lat":48.3118,"lon":-29.4129,"largura_km":166.536,"eixo_na_terra":true},{"t":0.52222,"lat":48.4442,"lon":-29.1495,"largura_km":165.99,"eixo_na_terra":true},{"t":0.52778,"lat":48.5787,"lon":-28.8825,"largura_km":165.439,"eixo_na_terra":true},{"t":0.53333,"lat":48.7154,"lon":-28.6116,"largura_km":164.885,"eixo_na_terra":true},{"t":0.53889,"lat":48.8545,"lon":-28.3368,"largura_km":164.326,"eixo_na_terra":true},{"t":0.54444,"lat":48.9959,"lon":-28.0579,"largura_km":163.763,"eixo_na_terra":true},{"t":0.55,"lat":49.1399,"lon":-27.7746,"largura_km":163.195,"eixo_na_terra":true},{"t":0.55556,"lat":49.2864,"lon":-27.4868,"largura_km":162.623,"eixo_na_terra":true},{"t":0.56111,"lat":49.4357,"lon":-27.1944,"largura_km":162.046,"eixo_na_terra":true},{"t":0.56667,"lat":49.5877,"lon":-26.8969,"largura_km":161.463,"eixo_na_terra":true},{"t":0.57222,"lat":49.7426,"lon":-26.5943,"largura_km":160.875,"eixo_na_terra":true},{"t":0.57778,"lat":49.9006,"lon":-26.2863,"largura_km":160.282,"eixo_na_terra":true}]},"features":[{"type":"Feature","properties":{},"geometry":{"type":"Polygon","coordinates":[[[-40.03794632606835,44.42409768425301],[-39.133918270701656,44.786656176217505],[-38.3938761042038,45.09198692435274],[-37.63704716194684,45.411734048914],[-36.86151951920121,45.74677986333784],[-36.06513325616817,46.098136568482026],[-35.24542772780268,46.466971854561024],[-34.39957418350485,46.854641610547105],[-33.746068891847045,47.15869825725179],[-32.846215750051556,47.58331538082881],[-31.909718921651034,48.03186259291843],[-30.931319676595365,48.50690923923845],[-30.16622006270717,48.88244393728468],[-29.370728585959796,49.2762209839755],[-28.25601848570531,49.832945447525894],[-27.068901158615716,50.43106735964418],[-25.794327818930526,51.0778992208447],[-26.687601468538787,48.778865072418185],[-27.82596919759689,48.19158349256639],[-28.897634043346955,47.64318910136608],[-29.912704492034152,47.128678267277344],[-30.879154181014144,46.644095490765025],[-31.58913614626556,46.29173647561625],[-32.484901319519736,45.85244161157278],[-33.34712711038122,45.43558873030446],[-34.17965860191421,45.039275881036794],[-34.78655692419659,44.754541863591555],[-35.57471879995279,44.39043808537792],[-36.34113850176982,44.042977786227446],[-37.08802946336772,43.711093896027684],[-37.817343780884414,43.39385650294897],[-38.54193582319351,43.085707265175834],[-39.240987364960745,42.795551639678415],[-39.92716298360594,42.517872989224514],[-40.03794632606835,44.42409768425301]]]}}]}