{"type":"FeatureCollection","features":[{"type":"Feature","properties":{"t_inicio":0.2333333333333183,"t_fim":0.5777777777777615},"geometry":{"type":"LineString","coordinates":[[-39.98428382161299,43.46405101671131],[-39.80969019204059,43.53357075990017],[-39.634304294446935,43.60387036110927],[-39.45810494974202,43.67495911969318],[-39.28107045759003,43.746846625285485],[-39.10317857434117,43.819542768484894],[-38.9244064898603,43.89305775209175],[-38.74473080318282,43.96740210292995],[-38.5641274969212,44.04258668428944],[-38.38257191034171,44.11862270903015],[-38.20003871102347,44.195521753388434],[-38.016501865004926,44.27329577153288],[-37.831934605317116,44.3519571109177],[-37.64630939879254,44.431518528487686],[-37.45959791103175,44.51199320779167],[-37.27177096939883,44.59339477706671],[-37.08279852390672,44.675737328360285],[-36.89264960584177,44.75903543776334],[-36.70129228396377,44.8433041868327],[-36.50869361810419,44.92855918528938],[-36.314819609969334,45.014816595084895],[-36.119635150938166,45.102093155937816],[-35.92310396662651,45.190406212449986],[-35.725188557967215,45.27977374292345],[-35.525850138534054,45.37021439000892],[-35.325048567811024,45.46174749332881],[-35.12274228008084,45.554393124233016],[-34.918888208574856,45.64817212285757],[-34.713441704491515,45.74310613767636],[-34.50635645045233,45.839217667752145],[-34.29758436792005,45.93653010791442],[-34.087075518055855,46.03506779711598],[-33.87477799543805,46.1348560702439],[-33.66063781400325,46.23592131369126],[-33.444598784503796,46.338291025027566],[-33.22660238269691,46.44199387714276],[-33.00658760739532,46.547059787280965],[-32.784490827409996,46.653519991426315],[-32.56024561630616,46.76140712455647],[-32.333782573765745,46.870755307338435],[-32.10502913220799,46.981600239910044],[-31.873909347156143,47.09397930346674],[-31.640343669651287,47.20793167046216],[-31.40424869880252,47.32349842433159],[-31.165536912315815,47.44072268976351],[-30.92411637256498,47.55964977467664],[-30.67989040544046,47.680327325213696],[-30.432757248838243,47.80280549524131],[-30.18260966721408,47.927137132048834],[-29.929334528120933,48.05337798018003],[-29.67281233605661,48.18158690560937],[-29.412916718253825,48.31182614280059],[-29.14951385623192,48.44416156756904],[-28.88246185596816,48.57866299912015],[-28.611610048410512,48.71540453517042],[-28.336798210703876,48.85446492469065],[-28.057855696890215,48.99592798356721],[-27.77460046491592,49.139883059381276],[-27.486837984456372,49.286425552592576],[-27.194360007263327,49.43565750272979],[-26.896943178332037,49.587688249781706],[-26.594347462022228,49.7426351829322],[-26.28631435215749,49.90062459116719]]}}]}