{"type":"FeatureCollection","features":[{"type":"Feature","properties":{"magnitude":0.6,"percentagem":60.0,"territorio":"continente"},"geometry":{"type":"LineString","coordinates":[[-10.5,36.42439239525901],[-10.467608129336892,36.43999999999999],[-10.46,36.44366688566803],[-10.420000000000002,36.46293820767681],[-10.384564787798322,36.47999999999999],[-10.380000000000003,36.48219851594915],[-10.340000000000003,36.50145648975842],[-10.301459763467511,36.51999999999999],[-10.300000000000004,36.52070255388222],[-10.260000000000005,36.53994713473381],[-10.220000000000006,36.5591793736314],[-10.218292637449169,36.55999999999999],[-10.180000000000007,36.57841003682887],[-10.140000000000008,36.597628817459096],[-10.13506302601245,36.59999999999999],[-10.100000000000009,36.61684509125772],[-10.06000000000001,36.63605037021125],[-10.051770580485037,36.639999999999986],[-10.02000000000001,36.65525219421499],[-9.980000000000011,36.67444392861524],[-9.96841492158008,36.679999999999986],[-9.940000000000012,36.693631242868214],[-9.900000000000013,36.71280939036737],[-9.884995670264528,36.719999999999985],[-9.860000000000014,36.731982135350236],[-9.820000000000014,36.75114665412525],[-9.801512447747976,36.759999999999984],[-9.780000000000015,36.77030477075159],[-9.740000000000016,36.78945561950037],[-9.717964875471823,36.79999999999998],[-9.700000000000017,36.80859904911303],[-9.660000000000018,36.82773618705052],[-9.634352575098083,36.83999999999998],[-9.620000000000019,36.846864871417935],[-9.58000000000002,36.86598825827223],[-9.55067516849859,36.87999999999998],[-9.54000000000002,36.88510213958496],[-9.500000000000021,36.90421173559348],[-9.466932277744133,36.91999999999998],[-9.460000000000022,36.923310756460516],[-9.420000000000023,36.94240652236621],[-9.3831235250937,36.95999999999998],[-9.380000000000024,36.96149062581144],[-9.340000000000025,36.9805725228589],[-9.300000000000026,36.99964186302462],[-9.299248501353828,36.99999999999998],[-9.260000000000026,37.018709642249384],[-9.220000000000027,37.0377650571551],[-9.21530671892164,37.03999999999998],[-9.180000000000028,37.056817786617444],[-9.140000000000029,37.07585923874401],[-9.131297926722652,37.07999999999998],[-9.10000000000003,37.09489686293761],[-9.06000000000003,37.11392431525429],[-9.047221747410605,37.119999999999976],[-9.020000000000032,37.13294677907189],[-8.980000000000032,37.15196019503272],[-8.963077803774762,37.159999999999975],[-8.940000000000033,37.17096744376265],[-8.900000000000034,37.1899667873027],[-8.878865718729402,37.199999999999974],[-8.860000000000035,37.20895876662544],[-8.820000000000036,37.22794400215715],[-8.794585115303738,37.239999999999974],[-8.780000000000037,37.24692065814195],[-8.740000000000038,37.26589175055145],[-8.710235616631623,37.27999999999997],[-8.700000000000038,37.28485302965279],[-8.66000000000004,37.30380994429632],[-8.6258168459415,37.31999999999997],[-8.62000000000004,37.322755793350645],[-8.580000000000041,37.34169849605091],[-8.541328426546372,37.35999999999997],[-8.540000000000042,37.36062886227317],[-8.500000000000043,37.37955731931579],[-8.460000000000043,37.39847305273145],[-8.456769791873167,37.39999999999997],[-8.420000000000044,37.41738632842593],[-8.380000000000045,37.43628776725048],[-8.372140660995875,37.43999999999997],[-8.340000000000046,37.45518543854398],[-8.300000000000047,37.474072550202315],[-8.28744073324562,37.47999999999997],[-8.260000000000048,37.492954565653264],[-8.220000000000049,37.5118273180207],[-8.202669631921996,37.51999999999997],[-8.18000000000005,37.53069362655101],[-8.14000000000005,37.549551987949755],[-8.117826980359643,37.55999999999997],[-8.100000000000051,37.56840253884162],[-8.060000000000052,37.587246478037294],[-8.032912401918553,37.599999999999966],[-8.020000000000053,37.60608122092984],[-7.980000000000054,37.62491070712801],[-7.947925519974328,37.639999999999965],[-7.940000000000055,37.643729592014104],[-7.900000000000055,37.66254459485688],[-7.86286595790878,37.679999999999964],[-7.860000000000056,37.681347572079865],[-7.820000000000057,37.700148061642494],[-7.780000000000058,37.71893571315885],[-7.777733176312833,37.719999999999956],[-7.740000000000059,37.73772102868034],[-7.70000000000006,37.75649412358889],[-7.692526739185043,37.75999999999996],[-7.6600000000000605,37.77526341793641],[-7.620000000000061,37.79402192737736],[-7.607246471186974,37.79999999999996],[-7.580000000000062,37.8127751521405],[-7.540000000000063,37.831519047675364],[-7.5218919953781915,37.83999999999996],[-7.500000000000064,37.85025615477986],[-7.460000000000065,37.868985408388],[-7.436462934777028,37.87999999999996],[-7.4200000000000665,37.88770635009265],[-7.3800000000000665,37.906420934168004],[-7.350958912351232,37.91999999999996],[-7.340000000000068,37.92512566306145],[-7.300000000000068,37.943825550409336],[-7.265379551009054,37.95999999999996],[-7.260000000000069,37.96251401940709],[-7.22000000000007,37.98119918324082],[-7.180000000000071,37.99987142208642],[-7.179724450742769,37.99999999999996],[-7.140000000000072,38.01854175951978],[-7.1000000000000725,38.03719923615944],[-7.093992796175287,38.03999999999996],[-7.060000000000073,38.05585320682581],[-7.020000000000074,38.0744958954754],[-7.008184648075988,38.079999999999956],[-6.980000000000075,38.09313345345447],[-6.940000000000076,38.11176132872656],[-6.922299628771112,38.119999999999955],[-6.900000000000077,38.130382428411096],[-6.860000000000078,38.14899546531183],[-6.836337360481747,38.159999999999954],[-6.820000000000078,38.16760006140468],[-6.780000000000079,38.18619823533049],[-6.7502974653144765,38.19999999999996],[-6.74000000000008,38.204786282841596],[-6.700000000000081,38.22336956957622],[-6.664179565252704,38.23999999999995],[-6.660000000000082,38.241941023819585],[-6.620000000000083,38.26050939953089],[-6.580000000000084,38.279064774382675],[-6.577983093236047,38.27999999999995],[-6.540000000000084,38.297617657358586],[-6.500000000000085,38.31615808685425],[-6.491707449509767,38.31999999999995],[-6.460000000000086,38.334694275899544],[-6.420000000000087,38.353219737149885],[-6.405352641079752,38.35999999999995],[-6.380000000000089,38.37173918866432],[-6.340000000000089,38.39024965915338],[-6.318918289096329,38.39999999999995],[-6.3000000000000895,38.408752329827614],[-6.26000000000009,38.4272477874098],[-6.232404014542431,38.43999999999995],[-6.220000000000091,38.44573363422262],[-6.180000000000092,38.46421405711951],[-6.145809438224708,38.47999999999994],[-6.140000000000093,38.48268303733499],[-6.100000000000094,38.50114840413252],[-6.060000000000095,38.51960071429205],[-6.059134091809512,38.519999999999946],[-6.0200000000000955,38.53805076494248],[-5.980000000000096,38.55648798823278],[-5.972377069212729,38.559999999999945],[-5.940000000000097,38.57492107668105],[-5.900000000000098,38.593343192581564],[-5.8855385794182595,38.599999999999945],[-5.860000000000099,38.61175927711211],[-5.8200000000001,38.630166265456154],[-5.798618242190031,38.639999999999944],[-5.780000000000101,38.648565304626004],[-5.7400000000001015,38.66695714559797],[-5.71161567707273,38.67999999999994],[-5.700000000000102,38.68533909823404],[-5.660000000000103,38.703715772366394],[-5.624530503382947,38.71999999999994],[-5.620000000000104,38.72208059756268],[-5.580000000000105,38.74044208573319],[-5.540000000000106,38.758790468838]]}},{"type":"Feature","properties":{"magnitude":0.8,"percentagem":80.0,"territorio":"acores"},"geometry":{"type":"LineString","coordinates":[[-29.570757987917037,36.0],[-29.560000000000052,36.005250974216864],[-29.520000000000053,36.02478171211716],[-29.488836942100562,36.04],[-29.480000000000054,36.04431739046776],[-29.440000000000055,36.063866813686964],[-29.406994254928755,36.08],[-29.400000000000055,36.083420309494194],[-29.360000000000056,36.10298816023987],[-29.325228644879257,36.12],[-29.320000000000057,36.122559245254685],[-29.280000000000058,36.14214526680674],[-29.243538844938634,36.16],[-29.24000000000006,36.16173371348185],[-29.20000000000006,36.181337650198984],[-29.161923602369512,36.199999999999996],[-29.16000000000006,36.20094323169656],[-29.12000000000006,36.220564829022535],[-29.080381678481825,36.239999999999995],[-29.080000000000062,36.240187319221704],[-29.040000000000063,36.25982632369153],[-29.000000000000064,36.279465932642346],[-28.998912689392064,36.279999999999994],[-28.960000000000065,36.299121656441315],[-28.920000000000066,36.31877828498269],[-28.917514809721812,36.31999999999999],[-28.880000000000067,36.33845035134152],[-28.840000000000067,36.35812374885615],[-28.836186546737174,36.35999999999999],[-28.800000000000068,36.377811934308426],[-28.76000000000007,36.39750185128956],[-28.75492671786668,36.39999999999999],[-28.72000000000007,36.41720593311721],[-28.68000000000007,36.43691212117389],[-28.673734153453374,36.43999999999999],[-28.64000000000007,36.45663187741374],[-28.600000000000072,36.4763540892759],[-28.592607696550473,36.47999999999999],[-28.560000000000077,36.49608929872603],[-28.520000000000074,36.515827288249476],[-28.511546202720726,36.51999999999999],[-28.480000000000075,36.53557773047543],[-28.440000000000076,36.55533125264661],[-28.43054853983919,36.55999999999999],[-28.400000000000077,36.57509670798738],[-28.360000000000078,36.594865518927975],[-28.349613587899555,36.59999999999999],[-28.32000000000008,36.614645768501916],[-28.28000000000008,36.634429625473224],[-28.268740238823625,36.639999999999986],[-28.24000000000008,36.65422445118376],[-28.20000000000008,36.67402311259106],[-28.187927396274652,36.679999999999986],[-28.160000000000082,36.69383229713222],[-28.120000000000083,36.71364552252873],[-28.107173975473177,36.719999999999985],[-28.080000000000084,36.73346884939059],[-28.040000000000084,36.753296399481464],[-28.026478903016745,36.759999999999984],[-28.000000000000085,36.77313365295531],[-27.960000000000086,36.7929752896015],[-27.94584111670246,36.79999999999998],[-27.920000000000087,36.81282625478491],[-27.880000000000088,36.83268174100664],[-27.865259565352467,36.83999999999998],[-27.84000000000009,36.85254620380847],[-27.80000000000009,36.87241530378877],[-27.784733208642784,36.87999999999998],[-27.76000000000009,36.89229305093386],[-27.72000000000009,36.912175530021784],[-27.704261016934602,36.91999999999998],[-27.680000000000092,36.932066349055596],[-27.640000000000093,36.95196197376947],[-27.623841971109073,36.95999999999998],[-27.600000000000094,36.97186565306252],[-27.560000000000095,36.99177419109287],[-27.54347506240443,36.99999999999998],[-27.520000000000095,37.01169051984508],[-27.480000000000096,37.03161174005746],[-27.463159292256083,37.03999999999998],[-27.440000000000097,37.05154050830231],[-27.400000000000098,37.07147418074001],[-27.382893672139517,37.07999999999998],[-27.3600000000001,37.09141517934858],[-27.3200000000001,37.11136107523518],[-27.3026772234157,37.119999999999976],[-27.2800000000001,37.131314095919926],[-27.2400000000001,37.15127198766163],[-27.22250897717913,37.159999999999975],[-27.200000000000102,37.1712368229803],[-27.160000000000103,37.19120648416823],[-27.14238797410861,37.199999999999974],[-27.120000000000104,37.21118292752724],[-27.080000000000105,37.23116413293953],[-27.062313264320323,37.239999999999974],[-27.040000000000106,37.251151978597576],[-27.000000000000107,37.271144504201374],[-26.982283907223596,37.27999999999997],[-26.960000000000107,37.29114354727262],[-26.92000000000011,37.3111471702258],[-26.902298971378816,37.31999999999997],[-26.88000000000011,37.33115720668319],[-26.84000000000011,37.35117170533619],[-26.822357534358126,37.35999999999997],[-26.80000000000011,37.37119253201429],[-26.76000000000011,37.3912176859115],[-26.742458682607754,37.39999999999997],[-26.720000000000116,37.41124910050958],[-26.680000000000113,37.43128469039092],[-26.662601511313696,37.43999999999997],[-26.640000000000114,37.45132649147561],[-26.600000000000115,37.471372299277654],[-26.58278512426844,37.47999999999997],[-26.560000000000116,37.49142428628566],[-26.520000000000117,37.511480095142915],[-26.503008633740844,37.51999999999997],[-26.480000000000118,37.53154206838339],[-26.44000000000012,37.55160766262927],[-26.423271160347696,37.55999999999997],[-26.40000000000012,37.5716794232864],[-26.36000000000012,37.59175458845408],[-26.343571832927374,37.599999999999966],[-26.32000000000012,37.611835938589095],[-26.280000000000122,37.6319204614123],[-26.26390978841578,37.639999999999965],[-26.240000000000123,37.65201120396582],[-26.200000000000124,37.672104872379535],[-26.1842841717244,37.679999999999964],[-26.160000000000124,37.692204811173404],[-26.120000000000125,37.712307414314346],[-26.104694135619965,37.71999999999996],[-26.080000000000126,37.73241635405359],[-26.040000000000127,37.752527682260585],[-26.025138840606434,37.75999999999996],[-26.000000000000128,37.772645428535135],[-25.96000000000013,37.79276527334941],[-25.945617454808588,37.79999999999996],[-25.92000000000013,37.812891632635804],[-25.88000000000013,37.8330197868012],[-25.86612915385807,37.83999999999996],[-25.84000000000013,37.85315456646402],[-25.800000000000132,37.87329082392701],[-25.78667312078054,37.87999999999996],[-25.760000000000133,37.893433832220296],[-25.720000000000134,37.913577988129916],[-25.70724854588518,37.91999999999996],[-25.680000000000135,37.93372903419849],[-25.640000000000136,37.95388088490618],[-25.627854626655846,37.95999999999996],[-25.600000000000136,37.97403977878684],[-25.560000000000137,37.99419912184609],[-25.54849056764386,37.99999999999996],[-25.520000000000138,38.01436567446867],[-25.48000000000014,38.034532308634695],[-25.469155580362706,38.03999999999996],[-25.44000000000014,38.05470633182294],[-25.40000000000014,38.07488005705221],[-25.389848883184325,38.079999999999956],[-25.36000000000014,38.09506136352468],[-25.320000000000142,38.11524198097419],[-25.310569701236844,38.119999999999955],[-25.280000000000143,38.13543038434501],[-25.240000000000144,38.15561769637172],[-25.231317266304593,38.159999999999954],[-25.200000000000145,38.17581301115117],[-25.160000000000146,38.196006821310995],[-25.152090816728666,38.19999999999995],[-25.120000000000147,38.216208862906136],[-25.080000000000148,38.23640897595324],[-25.072889597310358,38.23999999999995],[-25.04000000000015,38.256617560668175],[-25.00000000000015,38.27682378255381],[-24.993712859214867,38.27999999999995],[-24.96000000000015,38.29703872759015],[-24.92000000000015,38.31725086546161],[-24.91455985987733,38.31999999999995],[-24.88000000000015,38.3374719889186],[-24.840000000000153,38.357689851117996],[-24.83542986291011,38.35999999999994],[-24.800000000000153,38.37791697199277],[-24.760000000000154,38.398140368055685],[-24.756322138011438,38.39999999999995],[-24.720000000000155,38.418373306243154],[-24.680000000000156,38.438602046897344],[-24.677235960875727,38.43999999999995],[-24.640000000000157,38.458840623190234],[-24.600000000000158,38.47907452035403],[-24.598170613104934,38.47999999999995],[-24.56000000000016,38.49931855644263],[-24.52000000000016,38.51955742322348],[-24.5191253821216,38.519999999999946],[-24.48000000000016,38.5398067416955],[-24.44009961207253,38.559999999999945],[-24.44000000000016,38.56005043425384],[-24.400000000000162,38.5803048167283],[-24.361093004052176,38.599999999999945],[-24.360000000000166,38.60055352646952],[-24.320000000000164,38.6208124214028],[-24.282104410596137,38.639999999999944],[-24.280000000000165,38.64106597307637],[-24.240000000000165,38.66132919766059],[-24.20313314107585,38.67999999999994],[-24.200000000000166,38.681587416911974],[-24.160000000000167,38.70185478952067],[-24.124178510282636,38.71999999999994],[-24.120000000000164,38.722117502890534],[-24.08000000000017,38.74238884307661],[-24.045239838348465,38.75999999999994],[-24.04000000000017,38.762655878000274]]}},{"type":"Feature","properties":{"magnitude":0.9,"percentagem":90.0,"territorio":"acores"},"geometry":{"type":"LineString","coordinates":[[-32.0,40.05948607711527],[-31.96,40.0785890631423],[-31.957047243200503,40.07999999999991],[-31.92,40.09771291815724],[-31.880000000000003,40.116841210341704],[-31.873397845651418,40.11999999999991],[-31.84,40.13598849313428],[-31.800000000000004,40.155141813522384],[-31.789858769911437,40.15999999999991],[-31.76,40.17431229356868],[-31.720000000000006,40.193490365068584],[-31.706428396634433,40.19999999999991],[-31.680000000000007,40.212683812262185],[-31.640000000000008,40.231886358654336],[-31.62310512672383,40.23999999999991],[-31.60000000000001,40.251102543317494],[-31.56000000000001,40.27032928926524],[-31.53988738099383,40.2799999999999],[-31.52000000000001,40.289567982159724],[-31.48000000000001,40.3088186532193],[-31.456773599835984,40.31999999999991],[-31.440000000000012,40.32807962555721],[-31.400000000000013,40.34735394818783],[-31.373762242893207,40.35999999999991],[-31.360000000000014,40.36663697164221],[-31.320000000000014,40.3859346732157],[-31.290851788738728,40.399999999999906],[-31.280000000000015,40.40523951993077],[-31.240000000000016,40.424560328741286],[-31.208040734562246,40.439999999999905],[-31.200000000000017,40.443886771342726],[-31.160000000000018,40.463230416615986],[-31.125327595861272,40.479999999999905]]}},{"type":"Feature","properties":{"magnitude":0.6,"percentagem":60.0,"territorio":"madeira"},"geometry":{"type":"LineString","coordinates":[[-18.0,32.70756114768348],[-17.96,32.72780481454477],[-17.935895784642323,32.73999999999994],[-17.92,32.74804429690836],[-17.880000000000003,32.76828190544395],[-17.85683193774865,32.77999999999993],[-17.840000000000003,32.78851553873354],[-17.800000000000004,32.80874697275729],[-17.777744733056956,32.81999999999993],[-17.760000000000005,32.82897463459763],[-17.720000000000006,32.84919977890565],[-17.698633696570756,32.85999999999993],[-17.680000000000007,32.86942134776381],[-17.640000000000008,32.88964008812969],[-17.619498356316047,32.89999999999992],[-17.60000000000001,32.90985544331104],[-17.56000000000001,32.930067666480895],[-17.540338242310703,32.93999999999993],[-17.52000000000001,32.95027668812515],[-17.48000000000001,32.97048228181294],[-17.46115288653459,32.979999999999926],[-17.440000000000012,32.99068485088988],[-17.400000000000013,33.0108837037725],[-17.381941822899655,33.019999999999925],[-17.360000000000014,33.03107970207796],[-17.320000000000014,33.05127170379039],[-17.30270458722069,33.059999999999924],[-17.280000000000015,33.07146101394209],[-17.240000000000016,33.09164605507254],[-17.223440717186286,33.09999999999992],[-17.200000000000017,33.111828560505906],[-17.160000000000018,33.13200653259101],[-17.144149752330616,33.13999999999992],[-17.12000000000002,33.15218211755506],[-17.08000000000002,33.172352913074846],[-17.06483123400467,33.17999999999992],[-17.04000000000002,33.19252146262799],[-17.00000000000002,33.21268497500111],[-16.98548470534883,33.21999999999992],[-16.960000000000022,33.232846375006915],[-16.920000000000023,33.253002498585744],[-16.906109711265266,33.25999999999992],[-16.880000000000024,33.27315663570875],[-16.840000000000025,33.29330526577439],[-16.826705798390694,33.29999999999992],[-16.800000000000026,33.313452027475904],[-16.760000000000026,33.33359306023337],[-16.747272515069636,33.33999999999992],[-16.720000000000027,33.35373233476713],[-16.680000000000028,33.37386566734039],[-16.667809411327976,33.37999999999992],[-16.64000000000003,33.393997343748445],[-16.60000000000003,33.414122874175476],[-16.588316038846738,33.419999999999916],[-16.56000000000003,33.4342468422838],[-16.52000000000003,33.454364469511724],[-16.508791950936356,33.459999999999916],[-16.480000000000032,33.47448061992605],[-16.440000000000033,33.494590243806094],[-16.429236702511083,33.499999999999915],[-16.400000000000034,33.51469846790753],[-16.360000000000035,33.53479998919022],[-16.349649850063884,33.539999999999914],[-16.320000000000036,33.55490017913103],[-16.280000000000037,33.574993499461144],[-16.27003095164153,33.57999999999991],[-16.240000000000038,33.595085548160384],[-16.20000000000004,33.61517057007211],[-16.190379566820056,33.61999999999991],[-16.16000000000004,33.63525437121139],[-16.12000000000004,33.65533099812325],[-16.110695256680398,33.65999999999991],[-16.08000000000004,33.675406446142354],[-16.040000000000042,33.69547458235242],[-16.03097758378464,33.69999999999991],[-16.000000000000043,33.71554157244499],[-15.960000000000043,33.73560112312577],[-15.95122611215193,33.73999999999991],[-15.920000000000044,33.755659551235055],[-15.880000000000045,33.775710422428745],[-15.87144040723567,33.77999999999991]]}}]}