{"type":"FeatureCollection","features":[{"type":"Feature","properties":{"magnitude":0.2,"de":0.2,"ate":0.5,"percentagem":20.0},"geometry":{"type":"Polygon","coordinates":[[[-34.5,30.0],[-3.5399999999988268,30.0],[-3.5399999999988268,37.291867472375195],[-5.339999999998895,37.6294795838577],[-7.139999999998963,37.91352175968261],[-8.939999999999031,38.14480957268382],[-10.799999999999102,38.329442407403334],[-12.659999999999172,38.460058209314376],[-14.519999999999243,38.538024721384346],[-16.379999999999313,38.56477973909226],[-18.299999999999386,38.54027586644927],[-20.21999999999946,38.46450006757099],[-22.199999999999534,38.33449538932684],[-24.17999999999961,38.15375035254288],[-26.159999999999684,37.92424249373249],[-28.19999999999976,37.6389147267025],[-30.23999999999984,37.30623027492057],[-32.33999999999992,36.91674816714522],[-34.5,36.46910055865518],[-34.5,30.0]]]}},{"type":"Feature","properties":{"magnitude":0.5,"de":0.5,"ate":0.8,"percentagem":50.0},"geometry":{"type":"Polygon","coordinates":[[[-34.5,36.47999999999986],[-30.119999999999834,37.32706885619925],[-28.079999999999757,37.65703221725071],[-26.099999999999678,37.931895165176826],[-24.119999999999607,38.15995314822358],[-22.13999999999953,38.339189647592804],[-20.219999999999455,38.46450006757099],[-18.299999999999386,38.54027586644927],[-16.379999999999313,38.56477973909226],[-14.519999999999243,38.538024721384346],[-12.659999999999172,38.460058209314376],[-10.799999999999102,38.329442407403334],[-8.939999999999031,38.14480957268382],[-7.139999999998963,37.91352175968261],[-5.339999999998895,37.6294795838577],[-3.5399999999988268,37.291867472375195],[-3.5399999999988268,44.939999999999685],[-34.5,44.939999999999685],[-34.5,36.47999999999986]]]}}]}