{"type":"FeatureCollection","properties":{"largura_maxima_km":230.927,"largura_sobre_pt_km":230.922,"linha_central_sobre_pt":false,"desenhavel_como_area":true,"perfil_largura":[{"t":-0.67778,"lat":25.1408,"lon":-39.7214,"largura_km":199.795,"eixo_na_terra":true},{"t":-0.67222,"lat":25.3108,"lon":-39.2214,"largura_km":201.06,"eixo_na_terra":true},{"t":-0.66667,"lat":25.4776,"lon":-38.7459,"largura_km":202.284,"eixo_na_terra":true},{"t":-0.66111,"lat":25.6414,"lon":-38.2921,"largura_km":203.46,"eixo_na_terra":true},{"t":-0.65556,"lat":25.8027,"lon":-37.8575,"largura_km":204.592,"eixo_na_terra":true},{"t":-0.65,"lat":25.9616,"lon":-37.4403,"largura_km":205.681,"eixo_na_terra":true},{"t":-0.64444,"lat":26.1185,"lon":-37.0386,"largura_km":206.726,"eixo_na_terra":true},{"t":-0.63889,"lat":26.2735,"lon":-36.6512,"largura_km":207.729,"eixo_na_terra":true},{"t":-0.63333,"lat":26.4267,"lon":-36.2767,"largura_km":208.696,"eixo_na_terra":true},{"t":-0.62778,"lat":26.5784,"lon":-35.9143,"largura_km":209.629,"eixo_na_terra":true},{"t":-0.62222,"lat":26.7286,"lon":-35.5628,"largura_km":210.527,"eixo_na_terra":true},{"t":-0.61667,"lat":26.8774,"lon":-35.2216,"largura_km":211.392,"eixo_na_terra":true},{"t":-0.61111,"lat":27.025,"lon":-34.8898,"largura_km":212.224,"eixo_na_terra":true},{"t":-0.60556,"lat":27.1714,"lon":-34.567,"largura_km":213.026,"eixo_na_terra":true},{"t":-0.6,"lat":27.3167,"lon":-34.2524,"largura_km":213.804,"eixo_na_terra":true},{"t":-0.59444,"lat":27.461,"lon":-33.9456,"largura_km":214.554,"eixo_na_terra":true},{"t":-0.58889,"lat":27.6043,"lon":-33.6461,"largura_km":215.277,"eixo_na_terra":true},{"t":-0.58333,"lat":27.7467,"lon":-33.3536,"largura_km":215.975,"eixo_na_terra":true},{"t":-0.57778,"lat":27.8883,"lon":-33.0675,"largura_km":216.648,"eixo_na_terra":true},{"t":-0.57222,"lat":28.0291,"lon":-32.7876,"largura_km":217.297,"eixo_na_terra":true},{"t":-0.56667,"lat":28.169,"lon":-32.5135,"largura_km":217.924,"eixo_na_terra":true},{"t":-0.56111,"lat":28.3083,"lon":-32.245,"largura_km":218.528,"eixo_na_terra":true},{"t":-0.55556,"lat":28.4469,"lon":-31.9818,"largura_km":219.115,"eixo_na_terra":true},{"t":-0.55,"lat":28.5848,"lon":-31.7236,"largura_km":219.681,"eixo_na_terra":true},{"t":-0.54444,"lat":28.7221,"lon":-31.4702,"largura_km":220.227,"eixo_na_terra":true},{"t":-0.53889,"lat":28.8589,"lon":-31.2214,"largura_km":220.754,"eixo_na_terra":true},{"t":-0.53333,"lat":28.995,"lon":-30.9769,"largura_km":221.262,"eixo_na_terra":true},{"t":-0.52778,"lat":29.1306,"lon":-30.7367,"largura_km":221.752,"eixo_na_terra":true},{"t":-0.52222,"lat":29.2658,"lon":-30.5004,"largura_km":222.224,"eixo_na_terra":true},{"t":-0.51667,"lat":29.4004,"lon":-30.268,"largura_km":222.679,"eixo_na_terra":true},{"t":-0.51111,"lat":29.5345,"lon":-30.0394,"largura_km":223.117,"eixo_na_terra":true},{"t":-0.50556,"lat":29.6682,"lon":-29.8143,"largura_km":223.539,"eixo_na_terra":true},{"t":-0.5,"lat":29.8015,"lon":-29.5926,"largura_km":223.945,"eixo_na_terra":true},{"t":-0.49444,"lat":29.9344,"lon":-29.3742,"largura_km":224.339,"eixo_na_terra":true},{"t":-0.48889,"lat":30.0669,"lon":-29.1589,"largura_km":224.717,"eixo_na_terra":true},{"t":-0.48333,"lat":30.1989,"lon":-28.9468,"largura_km":225.081,"eixo_na_terra":true},{"t":-0.47778,"lat":30.3307,"lon":-28.7375,"largura_km":225.43,"eixo_na_terra":true},{"t":-0.47222,"lat":30.4621,"lon":-28.5312,"largura_km":225.766,"eixo_na_terra":true},{"t":-0.46667,"lat":30.5931,"lon":-28.3276,"largura_km":226.088,"eixo_na_terra":true},{"t":-0.46111,"lat":30.7238,"lon":-28.1266,"largura_km":226.397,"eixo_na_terra":true},{"t":-0.45556,"lat":30.8542,"lon":-27.9283,"largura_km":226.693,"eixo_na_terra":true},{"t":-0.45,"lat":30.9843,"lon":-27.7324,"largura_km":226.976,"eixo_na_terra":true},{"t":-0.44444,"lat":31.1142,"lon":-27.539,"largura_km":227.247,"eixo_na_terra":true},{"t":-0.43889,"lat":31.2437,"lon":-27.3478,"largura_km":227.506,"eixo_na_terra":true},{"t":-0.43333,"lat":31.373,"lon":-27.159,"largura_km":227.754,"eixo_na_terra":true},{"t":-0.42778,"lat":31.502,"lon":-26.9724,"largura_km":227.989,"eixo_na_terra":true},{"t":-0.42222,"lat":31.6308,"lon":-26.7878,"largura_km":228.214,"eixo_na_terra":true},{"t":-0.41667,"lat":31.7593,"lon":-26.6054,"largura_km":228.428,"eixo_na_terra":true},{"t":-0.41111,"lat":31.8876,"lon":-26.425,"largura_km":228.633,"eixo_na_terra":true},{"t":-0.40556,"lat":32.0157,"lon":-26.2465,"largura_km":228.827,"eixo_na_terra":true},{"t":-0.4,"lat":32.1436,"lon":-26.0699,"largura_km":229.012,"eixo_na_terra":true},{"t":-0.39444,"lat":32.2713,"lon":-25.8952,"largura_km":229.188,"eixo_na_terra":true},{"t":-0.38889,"lat":32.3987,"lon":-25.7223,"largura_km":229.354,"eixo_na_terra":true},{"t":-0.38333,"lat":32.526,"lon":-25.5511,"largura_km":229.51,"eixo_na_terra":true},{"t":-0.37778,"lat":32.6531,"lon":-25.3816,"largura_km":229.657,"eixo_na_terra":true},{"t":-0.37222,"lat":32.78,"lon":-25.2137,"largura_km":229.794,"eixo_na_terra":true},{"t":-0.36667,"lat":32.9068,"lon":-25.0475,"largura_km":229.923,"eixo_na_terra":true},{"t":-0.36111,"lat":33.0333,"lon":-24.8829,"largura_km":230.043,"eixo_na_terra":true},{"t":-0.35556,"lat":33.1597,"lon":-24.7197,"largura_km":230.154,"eixo_na_terra":true},{"t":-0.35,"lat":33.286,"lon":-24.5581,"largura_km":230.258,"eixo_na_terra":true},{"t":-0.34444,"lat":33.4121,"lon":-24.3979,"largura_km":230.353,"eixo_na_terra":true},{"t":-0.33889,"lat":33.5381,"lon":-24.2391,"largura_km":230.44,"eixo_na_terra":true},{"t":-0.33333,"lat":33.6639,"lon":-24.0817,"largura_km":230.519,"eixo_na_terra":true},{"t":-0.32778,"lat":33.7896,"lon":-23.9257,"largura_km":230.59,"eixo_na_terra":true},{"t":-0.32222,"lat":33.9152,"lon":-23.7709,"largura_km":230.654,"eixo_na_terra":true},{"t":-0.31667,"lat":34.0407,"lon":-23.6175,"largura_km":230.711,"eixo_na_terra":true},{"t":-0.31111,"lat":34.166,"lon":-23.4653,"largura_km":230.761,"eixo_na_terra":true},{"t":-0.30556,"lat":34.2913,"lon":-23.3143,"largura_km":230.804,"eixo_na_terra":true},{"t":-0.3,"lat":34.4164,"lon":-23.1645,"largura_km":230.84,"eixo_na_terra":true},{"t":-0.29444,"lat":34.5414,"lon":-23.0158,"largura_km":230.869,"eixo_na_terra":true},{"t":-0.28889,"lat":34.6663,"lon":-22.8683,"largura_km":230.893,"eixo_na_terra":true},{"t":-0.28333,"lat":34.7911,"lon":-22.7219,"largura_km":230.911,"eixo_na_terra":true},{"t":-0.27778,"lat":34.9159,"lon":-22.5766,"largura_km":230.922,"eixo_na_terra":true},{"t":-0.27222,"lat":35.0405,"lon":-22.4323,"largura_km":230.927,"eixo_na_terra":true},{"t":-0.26667,"lat":35.1651,"lon":-22.2891,"largura_km":230.927,"eixo_na_terra":true},{"t":-0.26111,"lat":35.2895,"lon":-22.1469,"largura_km":230.92,"eixo_na_terra":true},{"t":-0.25556,"lat":35.4139,"lon":-22.0057,"largura_km":230.908,"eixo_na_terra":true},{"t":-0.25,"lat":35.5383,"lon":-21.8654,"largura_km":230.89,"eixo_na_terra":true},{"t":-0.24444,"lat":35.6625,"lon":-21.7261,"largura_km":230.867,"eixo_na_terra":true},{"t":-0.23889,"lat":35.7867,"lon":-21.5876,"largura_km":230.839,"eixo_na_terra":true},{"t":-0.23333,"lat":35.9108,"lon":-21.4501,"largura_km":230.805,"eixo_na_terra":true},{"t":-0.22778,"lat":36.0349,"lon":-21.3135,"largura_km":230.766,"eixo_na_terra":true},{"t":-0.22222,"lat":36.1589,"lon":-21.1777,"largura_km":230.723,"eixo_na_terra":true},{"t":-0.21667,"lat":36.2829,"lon":-21.0428,"largura_km":230.674,"eixo_na_terra":true},{"t":-0.21111,"lat":36.4068,"lon":-20.9087,"largura_km":230.621,"eixo_na_terra":true},{"t":-0.20556,"lat":36.5307,"lon":-20.7753,"largura_km":230.563,"eixo_na_terra":true},{"t":-0.2,"lat":36.6545,"lon":-20.6428,"largura_km":230.501,"eixo_na_terra":true},{"t":-0.19444,"lat":36.7783,"lon":-20.511,"largura_km":230.434,"eixo_na_terra":true},{"t":-0.18889,"lat":36.902,"lon":-20.38,"largura_km":230.363,"eixo_na_terra":true},{"t":-0.18333,"lat":37.0257,"lon":-20.2497,"largura_km":230.287,"eixo_na_terra":true},{"t":-0.17778,"lat":37.1494,"lon":-20.1202,"largura_km":230.208,"eixo_na_terra":true},{"t":-0.17222,"lat":37.2731,"lon":-19.9913,"largura_km":230.125,"eixo_na_terra":true},{"t":-0.16667,"lat":37.3967,"lon":-19.8631,"largura_km":230.037,"eixo_na_terra":true},{"t":-0.16111,"lat":37.5203,"lon":-19.7356,"largura_km":229.947,"eixo_na_terra":true},{"t":-0.15556,"lat":37.6438,"lon":-19.6087,"largura_km":229.853,"eixo_na_terra":true},{"t":-0.15,"lat":37.7674,"lon":-19.4825,"largura_km":229.755,"eixo_na_terra":true},{"t":-0.14444,"lat":37.8909,"lon":-19.3569,"largura_km":229.653,"eixo_na_terra":true},{"t":-0.13889,"lat":38.0144,"lon":-19.2319,"largura_km":229.549,"eixo_na_terra":true},{"t":-0.13333,"lat":38.138,"lon":-19.1075,"largura_km":229.44,"eixo_na_terra":true},{"t":-0.12778,"lat":38.2615,"lon":-18.9836,"largura_km":229.329,"eixo_na_terra":true},{"t":-0.12222,"lat":38.385,"lon":-18.8604,"largura_km":229.214,"eixo_na_terra":true},{"t":-0.11667,"lat":38.5084,"lon":-18.7377,"largura_km":229.097,"eixo_na_terra":true},{"t":-0.11111,"lat":38.6319,"lon":-18.6155,"largura_km":228.976,"eixo_na_terra":true},{"t":-0.10556,"lat":38.7554,"lon":-18.4939,"largura_km":228.852,"eixo_na_terra":true},{"t":-0.1,"lat":38.8789,"lon":-18.3728,"largura_km":228.725,"eixo_na_terra":true},{"t":-0.09444,"lat":39.0024,"lon":-18.2521,"largura_km":228.596,"eixo_na_terra":true},{"t":-0.08889,"lat":39.1259,"lon":-18.132,"largura_km":228.464,"eixo_na_terra":true},{"t":-0.08333,"lat":39.2494,"lon":-18.0124,"largura_km":228.329,"eixo_na_terra":true},{"t":-0.07778,"lat":39.3729,"lon":-17.8932,"largura_km":228.193,"eixo_na_terra":true},{"t":-0.07222,"lat":39.4965,"lon":-17.7745,"largura_km":228.053,"eixo_na_terra":true},{"t":-0.06667,"lat":39.62,"lon":-17.6562,"largura_km":227.911,"eixo_na_terra":true},{"t":-0.06111,"lat":39.7436,"lon":-17.5384,"largura_km":227.767,"eixo_na_terra":true},{"t":-0.05556,"lat":39.8672,"lon":-17.4209,"largura_km":227.621,"eixo_na_terra":true},{"t":-0.05,"lat":39.9908,"lon":-17.3039,"largura_km":227.472,"eixo_na_terra":true},{"t":-0.04444,"lat":40.1144,"lon":-17.1873,"largura_km":227.321,"eixo_na_terra":true},{"t":-0.03889,"lat":40.238,"lon":-17.0711,"largura_km":227.167,"eixo_na_terra":true},{"t":-0.03333,"lat":40.3617,"lon":-16.9552,"largura_km":227.012,"eixo_na_terra":true},{"t":-0.02778,"lat":40.4854,"lon":-16.8397,"largura_km":226.855,"eixo_na_terra":true},{"t":-0.02222,"lat":40.6092,"lon":-16.7246,"largura_km":226.695,"eixo_na_terra":true},{"t":-0.01667,"lat":40.7329,"lon":-16.6098,"largura_km":226.534,"eixo_na_terra":true},{"t":-0.01111,"lat":40.8568,"lon":-16.4954,"largura_km":226.371,"eixo_na_terra":true},{"t":-0.00556,"lat":40.9806,"lon":-16.3813,"largura_km":226.206,"eixo_na_terra":true},{"t":-0.0,"lat":41.1045,"lon":-16.2675,"largura_km":226.04,"eixo_na_terra":true},{"t":0.00556,"lat":41.2284,"lon":-16.154,"largura_km":225.871,"eixo_na_terra":true},{"t":0.01111,"lat":41.3524,"lon":-16.0408,"largura_km":225.701,"eixo_na_terra":true},{"t":0.01667,"lat":41.4764,"lon":-15.9279,"largura_km":225.53,"eixo_na_terra":true},{"t":0.02222,"lat":41.6005,"lon":-15.8153,"largura_km":225.356,"eixo_na_terra":true},{"t":0.02778,"lat":41.7246,"lon":-15.703,"largura_km":225.182,"eixo_na_terra":true},{"t":0.03333,"lat":41.8487,"lon":-15.5909,"largura_km":225.006,"eixo_na_terra":true},{"t":0.03889,"lat":41.9729,"lon":-15.479,"largura_km":224.828,"eixo_na_terra":true},{"t":0.04444,"lat":42.0972,"lon":-15.3674,"largura_km":224.649,"eixo_na_terra":true},{"t":0.05,"lat":42.2215,"lon":-15.2561,"largura_km":224.469,"eixo_na_terra":true},{"t":0.05556,"lat":42.3459,"lon":-15.1449,"largura_km":224.288,"eixo_na_terra":true},{"t":0.06111,"lat":42.4703,"lon":-15.034,"largura_km":224.105,"eixo_na_terra":true},{"t":0.06667,"lat":42.5948,"lon":-14.9233,"largura_km":223.921,"eixo_na_terra":true},{"t":0.07222,"lat":42.7194,"lon":-14.8127,"largura_km":223.736,"eixo_na_terra":true},{"t":0.07778,"lat":42.844,"lon":-14.7024,"largura_km":223.55,"eixo_na_terra":true},{"t":0.08333,"lat":42.9687,"lon":-14.5923,"largura_km":223.363,"eixo_na_terra":true},{"t":0.08889,"lat":43.0935,"lon":-14.4823,"largura_km":223.174,"eixo_na_terra":true},{"t":0.09444,"lat":43.2183,"lon":-14.3725,"largura_km":222.985,"eixo_na_terra":true},{"t":0.1,"lat":43.3432,"lon":-14.2628,"largura_km":222.795,"eixo_na_terra":true},{"t":0.10556,"lat":43.4682,"lon":-14.1533,"largura_km":222.604,"eixo_na_terra":true},{"t":0.11111,"lat":43.5933,"lon":-14.0439,"largura_km":222.412,"eixo_na_terra":true},{"t":0.11667,"lat":43.7184,"lon":-13.9346,"largura_km":222.219,"eixo_na_terra":true},{"t":0.12222,"lat":43.8436,"lon":-13.8255,"largura_km":222.025,"eixo_na_terra":true},{"t":0.12778,"lat":43.9689,"lon":-13.7165,"largura_km":221.83,"eixo_na_terra":true},{"t":0.13333,"lat":44.0942,"lon":-13.6076,"largura_km":221.635,"eixo_na_terra":true},{"t":0.13889,"lat":44.2197,"lon":-13.4988,"largura_km":221.439,"eixo_na_terra":true},{"t":0.14444,"lat":44.3452,"lon":-13.39,"largura_km":221.242,"eixo_na_terra":true},{"t":0.15,"lat":44.4709,"lon":-13.2814,"largura_km":221.045,"eixo_na_terra":true},{"t":0.15556,"lat":44.5966,"lon":-13.1728,"largura_km":220.847,"eixo_na_terra":true},{"t":0.16111,"lat":44.7224,"lon":-13.0643,"largura_km":220.648,"eixo_na_terra":true},{"t":0.16667,"lat":44.8483,"lon":-12.9559,"largura_km":220.449,"eixo_na_terra":true},{"t":0.17222,"lat":44.9743,"lon":-12.8474,"largura_km":220.249,"eixo_na_terra":true},{"t":0.17778,"lat":45.1004,"lon":-12.7391,"largura_km":220.049,"eixo_na_terra":true},{"t":0.18333,"lat":45.2266,"lon":-12.6307,"largura_km":219.848,"eixo_na_terra":true},{"t":0.18889,"lat":45.3529,"lon":-12.5224,"largura_km":219.647,"eixo_na_terra":true},{"t":0.19444,"lat":45.4792,"lon":-12.4141,"largura_km":219.445,"eixo_na_terra":true},{"t":0.2,"lat":45.6057,"lon":-12.3058,"largura_km":219.243,"eixo_na_terra":true},{"t":0.20556,"lat":45.7323,"lon":-12.1975,"largura_km":219.04,"eixo_na_terra":true},{"t":0.21111,"lat":45.859,"lon":-12.0892,"largura_km":218.837,"eixo_na_terra":true},{"t":0.21667,"lat":45.9859,"lon":-11.9809,"largura_km":218.633,"eixo_na_terra":true},{"t":0.22222,"lat":46.1128,"lon":-11.8726,"largura_km":218.43,"eixo_na_terra":true},{"t":0.22778,"lat":46.2398,"lon":-11.7642,"largura_km":218.226,"eixo_na_terra":true},{"t":0.23333,"lat":46.367,"lon":-11.6557,"largura_km":218.021,"eixo_na_terra":true},{"t":0.23889,"lat":46.4942,"lon":-11.5473,"largura_km":217.817,"eixo_na_terra":true},{"t":0.24444,"lat":46.6216,"lon":-11.4387,"largura_km":217.612,"eixo_na_terra":true},{"t":0.25,"lat":46.7491,"lon":-11.3301,"largura_km":217.406,"eixo_na_terra":true},{"t":0.25556,"lat":46.8767,"lon":-11.2215,"largura_km":217.201,"eixo_na_terra":true},{"t":0.26111,"lat":47.0045,"lon":-11.1127,"largura_km":216.995,"eixo_na_terra":true},{"t":0.26667,"lat":47.1323,"lon":-11.0039,"largura_km":216.79,"eixo_na_terra":true},{"t":0.27222,"lat":47.2603,"lon":-10.8949,"largura_km":216.584,"eixo_na_terra":true},{"t":0.27778,"lat":47.3884,"lon":-10.7859,"largura_km":216.377,"eixo_na_terra":true},{"t":0.28333,"lat":47.5167,"lon":-10.6767,"largura_km":216.171,"eixo_na_terra":true},{"t":0.28889,"lat":47.6451,"lon":-10.5674,"largura_km":215.965,"eixo_na_terra":true},{"t":0.29444,"lat":47.7736,"lon":-10.458,"largura_km":215.758,"eixo_na_terra":true},{"t":0.3,"lat":47.9022,"lon":-10.3484,"largura_km":215.552,"eixo_na_terra":true},{"t":0.30556,"lat":48.031,"lon":-10.2387,"largura_km":215.345,"eixo_na_terra":true},{"t":0.31111,"lat":48.16,"lon":-10.1288,"largura_km":215.138,"eixo_na_terra":true},{"t":0.31667,"lat":48.289,"lon":-10.0188,"largura_km":214.931,"eixo_na_terra":true},{"t":0.32222,"lat":48.4182,"lon":-9.9085,"largura_km":214.725,"eixo_na_terra":true},{"t":0.32778,"lat":48.5476,"lon":-9.7981,"largura_km":214.518,"eixo_na_terra":true},{"t":0.33333,"lat":48.6771,"lon":-9.6875,"largura_km":214.311,"eixo_na_terra":true},{"t":0.33889,"lat":48.8067,"lon":-9.5767,"largura_km":214.104,"eixo_na_terra":true},{"t":0.34444,"lat":48.9365,"lon":-9.4657,"largura_km":213.897,"eixo_na_terra":true},{"t":0.35,"lat":49.0665,"lon":-9.3545,"largura_km":213.69,"eixo_na_terra":true},{"t":0.35556,"lat":49.1966,"lon":-9.243,"largura_km":213.483,"eixo_na_terra":true},{"t":0.36111,"lat":49.3269,"lon":-9.1313,"largura_km":213.276,"eixo_na_terra":true},{"t":0.36667,"lat":49.4573,"lon":-9.0194,"largura_km":213.07,"eixo_na_terra":true},{"t":0.37222,"lat":49.5879,"lon":-8.9072,"largura_km":212.863,"eixo_na_terra":true},{"t":0.37778,"lat":49.7186,"lon":-8.7947,"largura_km":212.656,"eixo_na_terra":true},{"t":0.38333,"lat":49.8495,"lon":-8.682,"largura_km":212.45,"eixo_na_terra":true},{"t":0.38889,"lat":49.9806,"lon":-8.5689,"largura_km":212.243,"eixo_na_terra":true}]},"features":[{"type":"Feature","properties":{},"geometry":{"type":"Polygon","coordinates":[[[-41.15691514736466,25.620164253361764],[-40.618334494299745,25.798314954137968],[-40.109519905642685,25.972372398552068],[-39.62652249130389,26.142880149607016],[-39.16619131207648,26.310272328458286],[-38.72596440379334,26.474902238645893],[-38.30372529949966,26.63706202545638],[-37.89770158182597,26.796996580985297],[-37.50639133128999,26.95491362899615],[-37.12850863198349,27.110991199281763],[-36.76294242643456,27.26538327296355],[-36.40872492826378,27.418224117869137],[-36.06500701167084,27.569631667466005],[-35.731038782095766,27.71971018933046],[-35.406154054266324,27.868552417678963],[-35.08975781817031,28.01624127596902],[-34.781316018736845,28.162851281986534],[-34.48034714774474,28.308449704174308],[-34.18641527007344,28.45309752102143],[-33.899124196145124,28.596850223037062],[-33.61811257841123,28.73975848778479],[-33.343049758894665,28.881868751714975],[-32.80958061346331,29.163862671376883],[-32.29656287635987,29.443135517346573],[-31.80215313110972,29.719947852589883],[-31.324758969437426,29.99452547038752],[-30.862993407052898,30.267065687189262],[-30.415639411202562,30.53774224287957],[-29.98162192671947,30.806709167819626],[-29.559985549760142,31.074103871290706],[-29.35353992536858,31.20725065909342],[-28.948902073683485,31.472514334896676],[-28.554670115397755,31.736491850449923],[-28.36124816117956,31.868028668705957],[-27.981409929605093,32.13025443362477],[-27.439101651305407,32.51347957394936],[-27.08033220465512,32.77318675749655],[-26.729219564105165,33.03201299897136],[-26.215993214399646,33.41873743224583],[-25.882246632630086,33.67562776762896],[-25.393363947480395,34.05970631215531],[-25.074804033296687,34.31499153102669],[-24.607279455509627,34.69688086165242],[-24.15133666328569,35.07764801161391],[-23.70615453230471,35.457422063328735],[-23.27098365339134,35.836322132509984],[-22.84513713257155,36.2144586595955],[-22.427982812529137,36.591934503336795],[-22.0189366533927,36.9688458729063],[-21.617457065839858,37.34528312725909],[-21.223040031619973,37.7213314646527],[-20.84381997611581,38.08850808426475],[-20.33611800429452,38.589111636841366],[-19.961936886678757,38.96439686279337],[-19.471092500125167,39.46468487189355],[-19.108539915689164,39.83991686835553],[-18.631931651812522,40.34036730165891],[-18.279155232943822,40.7158895419262],[-17.814445771302303,41.21694310681738],[-17.46978039647064,41.593074834497436],[-17.014851739897438,42.09514430227568],[-16.56462761310098,42.59797145677972],[-16.118496966074815,43.10168137192747],[-15.675869700095973,43.60639679993687],[-15.236173022835374,44.112238699756695],[-14.798848092339085,44.61932672251885],[-14.363346892230709,45.12777966164361],[-13.49566021897897,46.149253678506106],[-12.737288169802355,47.048655962235614],[-10.770040970995126,49.390126407700144],[-9.756966166213658,50.58876961404472],[-7.410741992420185,49.37759447654381],[-7.974072758604336,48.732073882740195],[-8.64177194465691,47.96245181621615],[-10.933455106018698,45.3063912797734],[-11.907260575221244,44.18323557822286],[-12.449337376158724,43.5625132448895],[-12.884405654533907,43.06743156429826],[-13.32128010665133,42.57356609556429],[-13.760482086195736,42.080811245464886],[-14.313569490997168,41.466267064737195],[-14.759974778119215,40.97561951633194],[-15.323830877036869,40.363364156356766],[-15.780315173521444,39.874265721290065],[-16.24226769352191,39.38566924112834],[-16.71033710988496,38.89745518417451],[-17.193792850319028,38.4008858321153],[-17.676258307270643,37.91309671890151],[-18.1670238341203,37.42530260330481],[-18.666912264553957,36.93736240925103],[-19.17680790535553,36.44912724171181],[-19.697666155756053,35.96043909190857],[-20.230524836670554,35.471129316036645],[-20.63872207724654,35.10363063650155],[-20.915211306120284,34.85834071500153],[-21.195376131830983,34.61278860539196],[-21.622893575105422,34.24391038727228],[-21.92296798080963,33.98939493301464],[-22.217497669013767,33.74272066200347],[-22.667857189597157,33.37196329603913],[-23.129172531622373,33.000209798965244],[-23.60227382987199,32.62733767930739],[-24.088075450380813,32.25321335750096],[-24.587589395876137,31.87769039568155],[-25.101941528045188,31.500607358233246],[-25.644008430098324,31.113838682390934],[-26.007431282980406,30.860232594109632],[-26.379109040511537,30.605699269115778],[-26.759549496381226,30.350167961653824],[-27.14930807426407,30.093561661988172],[-27.548994486363654,29.8357962238145],[-27.9592806321765,29.57677932989452],[-28.1686278624382,29.446770204714706],[-28.609703807140193,29.177864734395357],[-29.05018195424367,28.915245047534256],[-29.275461104445014,28.783321167840388],[-29.736768146935844,28.518155053044385],[-29.973089120788018,28.384873346926973],[-30.457872515838005,28.1168042975984],[-30.721944748407793,27.974215593898638],[-31.233800448756995,27.702793649569045],[-31.497103160778522,27.56615592626977],[-32.03969544399882,27.290862436713645],[-32.31954195971423,27.152132755839563],[-32.605500409130286,27.012626576435018],[-32.9154255026985,26.864538619256276],[-33.21495433894535,26.72331850851728],[-33.52174480960042,26.581170397969803],[-33.836253511883854,26.438034155832042],[-34.15898560044775,26.29384333755013],[-34.49050235053562,26.148524205754647],[-34.85148852151053,25.994165789410477],[-35.20296141834797,25.846295488930238],[-35.56537601561945,25.697014678362425],[-35.93963746651502,25.546205027987938],[-36.349382207744156,25.385804346280974],[-36.751216237524034,25.231450470137432],[-37.168571819806004,25.075089115563124],[-37.62837756551181,24.908447529110244],[-42.372570668374635,25.239143471551913],[-41.75605091278618,25.42797655933871],[-41.15691514736466,25.620164253361764]]]}}]}