{"type":"FeatureCollection","properties":{"largura_maxima_km":63.484,"largura_sobre_pt_km":55.101,"linha_central_sobre_pt":false,"desenhavel_como_area":true,"perfil_largura":[{"t":-1.98333,"lat":27.5696,"lon":-13.0431,"largura_km":null,"eixo_na_terra":false},{"t":-1.97778,"lat":27.7854,"lon":-11.8759,"largura_km":null,"eixo_na_terra":false},{"t":-1.97222,"lat":28.0884,"lon":-10.1157,"largura_km":null,"eixo_na_terra":false},{"t":-1.96667,"lat":28.4434,"lon":-7.8367,"largura_km":null,"eixo_na_terra":false},{"t":-1.96111,"lat":28.6762,"lon":-6.2043,"largura_km":52.84,"eixo_na_terra":true},{"t":-1.95556,"lat":28.8381,"lon":-4.9592,"largura_km":54.048,"eixo_na_terra":true},{"t":-1.95,"lat":28.9712,"lon":-3.8604,"largura_km":55.101,"eixo_na_terra":true},{"t":-1.94444,"lat":29.0835,"lon":-2.8671,"largura_km":56.052,"eixo_na_terra":true},{"t":-1.93889,"lat":29.1797,"lon":-1.9548,"largura_km":56.926,"eixo_na_terra":true},{"t":-1.93333,"lat":29.2632,"lon":-1.1071,"largura_km":57.741,"eixo_na_terra":true},{"t":-1.92778,"lat":29.336,"lon":-0.3126,"largura_km":58.504,"eixo_na_terra":true},{"t":-1.92222,"lat":29.4,"lon":0.4371,"largura_km":59.226,"eixo_na_terra":true},{"t":-1.91667,"lat":29.4562,"lon":1.1486,"largura_km":59.911,"eixo_na_terra":true},{"t":-1.91111,"lat":29.5058,"lon":1.8266,"largura_km":60.567,"eixo_na_terra":true},{"t":-1.90556,"lat":29.5494,"lon":2.4754,"largura_km":61.195,"eixo_na_terra":true},{"t":-1.9,"lat":29.5879,"lon":3.098,"largura_km":61.799,"eixo_na_terra":true},{"t":-1.89444,"lat":29.6215,"lon":3.6972,"largura_km":62.38,"eixo_na_terra":true},{"t":-1.88889,"lat":29.6509,"lon":4.2753,"largura_km":62.941,"eixo_na_terra":true},{"t":-1.88333,"lat":29.6764,"lon":4.8341,"largura_km":63.484,"eixo_na_terra":true}]},"features":[{"type":"Feature","properties":{},"geometry":{"type":"Polygon","coordinates":[[[-10.453575712267869,27.834805541797344],[-10.869969747143102,27.757642482979005],[-11.267268208103303,27.68680544375939],[-13.471702738379463,27.305934172492805],[-14.441255873102307,27.131561350622885],[-14.357131966664895,27.553688708325872],[-13.847791274423344,27.65201954943665],[-12.937896147411038,27.822518591227364],[-12.297016285003508,27.936968788056486],[-11.77228831098256,28.02582724452803],[-11.191968099009381,28.11736695929984],[-10.635258250898119,28.225308690523516],[-10.094583757141947,28.32226434810523],[-9.782194479355837,28.374335174681956],[-9.383074254227893,28.43610934120509],[-9.098706694505267,28.476462665391185],[-8.7974818082598,28.515347514845626],[-8.5672504402134,28.55932056025398],[-8.333321869550389,28.60111137099967],[-7.940787861387889,28.664861502452332],[-7.707663829165938,28.698874449521117],[-7.479093249354548,28.729283527203588],[-7.257144863519613,28.755817753117547],[-7.043733596271352,28.778270654602352],[-6.840625393366793,28.796497875920274],[-6.649441281124609,28.810414323947626],[-6.471660497729033,28.81999091497329],[-6.278706274694424,28.825724617721125],[-6.338061333718372,28.89785054667599],[-5.081029177610787,29.067560409508534],[-3.9733127860976083,29.207237319335935],[-2.9730217070581375,29.325236357780422],[-2.05484176964427,29.426614111023607],[-1.202088214996195,29.514708453951375],[-0.4030746941925827,29.59186083891833],[0.35076170462212986,29.659789509904478],[1.0659177265250719,29.71980008668935],[1.7673592777165936,29.77431949190069],[2.4187984335098918,29.821210297522427],[3.0440144511803737,29.86269458690951],[3.6457142496946062,29.89931958010132],[4.2261655089830015,29.93154439690034],[4.787290474999224,29.959758808498236],[4.8934401597691135,29.393337338724198],[4.355147164901098,29.37147728871146],[3.7801705534380403,29.34507579647891],[3.184194301243508,29.314523716831587],[2.5649941034159838,29.27939089942209],[1.9199184669164424,29.23916533857907],[1.2457640582962313,29.193229382759665],[0.5595726871208058,29.142519572499026],[-0.18472941045700964,29.082887605576804],[-0.9730957565110998,29.014666529438596],[-1.8137239630319186,28.936285304914662],[-2.6926618323813045,28.84831496056915],[-3.674107488266884,28.7427122407491],[-4.757807785772513,28.617403545953763],[-5.981947674298283,28.465115259717088],[-6.038589471588657,28.533944139924134],[-6.1667560147784,28.50002774690148],[-6.263586385783071,28.476713841777354],[-6.478763803504194,28.42996302105524],[-6.7202685336683885,28.38353474933902],[-7.054214347360983,28.326796764616002],[-7.3424595844417695,28.283087692956496],[-7.644840910552091,28.241431346804315],[-7.956566626388906,28.202347778582446],[-8.302249011848719,28.16317907404147],[-8.516299273681739,28.124402039188304],[-8.768461113090666,28.08130905963768],[-9.22448861958162,28.00871422579246],[-9.823315164714188,27.920897846170064],[-10.453575712267869,27.834805541797344]]]}}]}