{"type":"FeatureCollection","features":[{"type":"Feature","properties":{"t_inicio":-1.977777777777785,"t_fim":-1.8833333333333409},"geometry":{"type":"LineString","coordinates":[[-12.67428754427084,27.657101217312736],[-9.543115977570551,28.18639840269485],[-7.671772922210664,28.470724708439942],[-6.204324369696735,28.676179961512087],[-4.95924666375214,28.83805352936841],[-3.86037215092648,28.971175980993735],[-2.8671182154031953,29.083461120314023],[-1.95481694109111,29.179726539225605],[-1.1071447762791422,29.263164971926205],[-0.31263532711278685,29.336022498657282],[0.4371316219232426,29.399950975516013],[1.148555612524433,29.456207731284405],[1.8266356906684678,29.505776410935926],[2.4753653996958747,29.549443989520157],[3.097995125677926,29.58785195511027],[3.6972124904262955,29.62153152511564],[4.27527006643254,29.65092859442735],[4.834078077892514,29.676421855231542]]}}]}