{"type":"FeatureCollection","properties":{"largura_maxima_km":214.177,"largura_sobre_pt_km":201.145,"linha_central_sobre_pt":false,"desenhavel_como_area":true,"perfil_largura":[{"t":1.08333,"lat":31.4675,"lon":-39.8901,"largura_km":196.619,"eixo_na_terra":true},{"t":1.08889,"lat":31.405,"lon":-39.7684,"largura_km":196.778,"eixo_na_terra":true},{"t":1.09444,"lat":31.3422,"lon":-39.6464,"largura_km":196.939,"eixo_na_terra":true},{"t":1.1,"lat":31.2791,"lon":-39.5243,"largura_km":197.101,"eixo_na_terra":true},{"t":1.10556,"lat":31.2157,"lon":-39.4019,"largura_km":197.264,"eixo_na_terra":true},{"t":1.11111,"lat":31.152,"lon":-39.2794,"largura_km":197.428,"eixo_na_terra":true},{"t":1.11667,"lat":31.088,"lon":-39.1567,"largura_km":197.594,"eixo_na_terra":true},{"t":1.12222,"lat":31.0236,"lon":-39.0338,"largura_km":197.761,"eixo_na_terra":true},{"t":1.12778,"lat":30.959,"lon":-38.9107,"largura_km":197.929,"eixo_na_terra":true},{"t":1.13333,"lat":30.8941,"lon":-38.7873,"largura_km":198.097,"eixo_na_terra":true},{"t":1.13889,"lat":30.8289,"lon":-38.6638,"largura_km":198.267,"eixo_na_terra":true},{"t":1.14444,"lat":30.7633,"lon":-38.54,"largura_km":198.439,"eixo_na_terra":true},{"t":1.15,"lat":30.6975,"lon":-38.416,"largura_km":198.611,"eixo_na_terra":true},{"t":1.15556,"lat":30.6313,"lon":-38.2918,"largura_km":198.784,"eixo_na_terra":true},{"t":1.16111,"lat":30.5648,"lon":-38.1673,"largura_km":198.959,"eixo_na_terra":true},{"t":1.16667,"lat":30.4981,"lon":-38.0426,"largura_km":199.134,"eixo_na_terra":true},{"t":1.17222,"lat":30.4309,"lon":-37.9177,"largura_km":199.311,"eixo_na_terra":true},{"t":1.17778,"lat":30.3635,"lon":-37.7925,"largura_km":199.489,"eixo_na_terra":true},{"t":1.18333,"lat":30.2957,"lon":-37.6671,"largura_km":199.668,"eixo_na_terra":true},{"t":1.18889,"lat":30.2277,"lon":-37.5414,"largura_km":199.849,"eixo_na_terra":true},{"t":1.19444,"lat":30.1592,"lon":-37.4155,"largura_km":200.03,"eixo_na_terra":true},{"t":1.2,"lat":30.0905,"lon":-37.2893,"largura_km":200.213,"eixo_na_terra":true},{"t":1.20556,"lat":30.0214,"lon":-37.1628,"largura_km":200.397,"eixo_na_terra":true},{"t":1.21111,"lat":29.952,"lon":-37.0361,"largura_km":200.582,"eixo_na_terra":true},{"t":1.21667,"lat":29.8823,"lon":-36.9091,"largura_km":200.768,"eixo_na_terra":true},{"t":1.22222,"lat":29.8122,"lon":-36.7818,"largura_km":200.956,"eixo_na_terra":true},{"t":1.22778,"lat":29.7418,"lon":-36.6542,"largura_km":201.145,"eixo_na_terra":true},{"t":1.23333,"lat":29.671,"lon":-36.5263,"largura_km":201.336,"eixo_na_terra":true},{"t":1.23889,"lat":29.5999,"lon":-36.3981,"largura_km":201.527,"eixo_na_terra":true},{"t":1.24444,"lat":29.5285,"lon":-36.2696,"largura_km":201.72,"eixo_na_terra":true},{"t":1.25,"lat":29.4567,"lon":-36.1408,"largura_km":201.915,"eixo_na_terra":true},{"t":1.25556,"lat":29.3845,"lon":-36.0117,"largura_km":202.11,"eixo_na_terra":true},{"t":1.26111,"lat":29.312,"lon":-35.8822,"largura_km":202.307,"eixo_na_terra":true},{"t":1.26667,"lat":29.2392,"lon":-35.7524,"largura_km":202.505,"eixo_na_terra":true},{"t":1.27222,"lat":29.166,"lon":-35.6223,"largura_km":202.705,"eixo_na_terra":true},{"t":1.27778,"lat":29.0924,"lon":-35.4919,"largura_km":202.905,"eixo_na_terra":true},{"t":1.28333,"lat":29.0185,"lon":-35.3611,"largura_km":203.107,"eixo_na_terra":true},{"t":1.28889,"lat":28.9441,"lon":-35.2299,"largura_km":203.31,"eixo_na_terra":true},{"t":1.29444,"lat":28.8695,"lon":-35.0984,"largura_km":203.514,"eixo_na_terra":true},{"t":1.3,"lat":28.7944,"lon":-34.9665,"largura_km":203.72,"eixo_na_terra":true},{"t":1.30556,"lat":28.719,"lon":-34.8342,"largura_km":203.927,"eixo_na_terra":true},{"t":1.31111,"lat":28.6432,"lon":-34.7016,"largura_km":204.135,"eixo_na_terra":true},{"t":1.31667,"lat":28.567,"lon":-34.5686,"largura_km":204.345,"eixo_na_terra":true},{"t":1.32222,"lat":28.4904,"lon":-34.4352,"largura_km":204.556,"eixo_na_terra":true},{"t":1.32778,"lat":28.4135,"lon":-34.3013,"largura_km":204.768,"eixo_na_terra":true},{"t":1.33333,"lat":28.3361,"lon":-34.1671,"largura_km":204.982,"eixo_na_terra":true},{"t":1.33889,"lat":28.2584,"lon":-34.0325,"largura_km":205.197,"eixo_na_terra":true},{"t":1.34444,"lat":28.1803,"lon":-33.8974,"largura_km":205.413,"eixo_na_terra":true},{"t":1.35,"lat":28.1017,"lon":-33.7619,"largura_km":205.631,"eixo_na_terra":true},{"t":1.35556,"lat":28.0228,"lon":-33.626,"largura_km":205.85,"eixo_na_terra":true},{"t":1.36111,"lat":27.9435,"lon":-33.4896,"largura_km":206.07,"eixo_na_terra":true},{"t":1.36667,"lat":27.8637,"lon":-33.3527,"largura_km":206.292,"eixo_na_terra":true},{"t":1.37222,"lat":27.7835,"lon":-33.2154,"largura_km":206.515,"eixo_na_terra":true},{"t":1.37778,"lat":27.7029,"lon":-33.0776,"largura_km":206.739,"eixo_na_terra":true},{"t":1.38333,"lat":27.6219,"lon":-32.9394,"largura_km":206.965,"eixo_na_terra":true},{"t":1.38889,"lat":27.5405,"lon":-32.8006,"largura_km":207.193,"eixo_na_terra":true},{"t":1.39444,"lat":27.4586,"lon":-32.6613,"largura_km":207.421,"eixo_na_terra":true},{"t":1.4,"lat":27.3763,"lon":-32.5216,"largura_km":207.652,"eixo_na_terra":true},{"t":1.40556,"lat":27.2936,"lon":-32.3813,"largura_km":207.883,"eixo_na_terra":true},{"t":1.41111,"lat":27.2104,"lon":-32.2405,"largura_km":208.116,"eixo_na_terra":true},{"t":1.41667,"lat":27.1267,"lon":-32.0991,"largura_km":208.351,"eixo_na_terra":true},{"t":1.42222,"lat":27.0426,"lon":-31.9572,"largura_km":208.587,"eixo_na_terra":true},{"t":1.42778,"lat":26.9581,"lon":-31.8147,"largura_km":208.825,"eixo_na_terra":true},{"t":1.43333,"lat":26.8731,"lon":-31.6717,"largura_km":209.064,"eixo_na_terra":true},{"t":1.43889,"lat":26.7876,"lon":-31.5281,"largura_km":209.305,"eixo_na_terra":true},{"t":1.44444,"lat":26.7017,"lon":-31.3839,"largura_km":209.547,"eixo_na_terra":true},{"t":1.45,"lat":26.6152,"lon":-31.2391,"largura_km":209.791,"eixo_na_terra":true},{"t":1.45556,"lat":26.5283,"lon":-31.0937,"largura_km":210.036,"eixo_na_terra":true},{"t":1.46111,"lat":26.441,"lon":-30.9476,"largura_km":210.283,"eixo_na_terra":true},{"t":1.46667,"lat":26.3531,"lon":-30.8009,"largura_km":210.531,"eixo_na_terra":true},{"t":1.47222,"lat":26.2647,"lon":-30.6536,"largura_km":210.781,"eixo_na_terra":true},{"t":1.47778,"lat":26.1758,"lon":-30.5056,"largura_km":211.033,"eixo_na_terra":true},{"t":1.48333,"lat":26.0864,"lon":-30.3569,"largura_km":211.286,"eixo_na_terra":true},{"t":1.48889,"lat":25.9965,"lon":-30.2075,"largura_km":211.54,"eixo_na_terra":true},{"t":1.49444,"lat":25.9061,"lon":-30.0574,"largura_km":211.796,"eixo_na_terra":true},{"t":1.5,"lat":25.8151,"lon":-29.9066,"largura_km":212.054,"eixo_na_terra":true},{"t":1.50556,"lat":25.7236,"lon":-29.7551,"largura_km":212.313,"eixo_na_terra":true},{"t":1.51111,"lat":25.6316,"lon":-29.6028,"largura_km":212.575,"eixo_na_terra":true},{"t":1.51667,"lat":25.539,"lon":-29.4497,"largura_km":212.837,"eixo_na_terra":true},{"t":1.52222,"lat":25.4458,"lon":-29.2959,"largura_km":213.102,"eixo_na_terra":true},{"t":1.52778,"lat":25.3521,"lon":-29.1413,"largura_km":213.368,"eixo_na_terra":true},{"t":1.53333,"lat":25.2578,"lon":-28.9859,"largura_km":213.636,"eixo_na_terra":true},{"t":1.53889,"lat":25.163,"lon":-28.8296,"largura_km":213.906,"eixo_na_terra":true},{"t":1.54444,"lat":25.0675,"lon":-28.6725,"largura_km":214.177,"eixo_na_terra":true}]},"features":[{"type":"Feature","properties":{},"geometry":{"type":"Polygon","coordinates":[[[-28.82552366748783,26.31820077664079],[-27.694987587180663,25.64006727220967],[-29.592737873806982,24.47666490941611],[-30.500318231666057,25.0326924506972],[-31.38196066394056,25.569540751387393],[-32.24052552207809,26.08851765017649],[-33.06089281952333,26.580435448844533],[-33.74529168274688,26.987096133547546],[-34.41799696346686,27.38330485878204],[-35.08002115225301,27.769512767599],[-35.60257047308454,28.071552807031534],[-36.247629158710765,28.4407560825569],[-36.88438062804738,28.800999544773717],[-37.51353915610213,29.152590229668704],[-38.13576161715835,29.495807153731366],[-38.751653864023126,29.83090432373693],[-39.36177621956688,30.158113332655017],[-39.966648226619526,30.477645609141494],[-40.550790015713204,30.781546376362037],[-39.19040362210606,32.144880839706346],[-38.693369353133136,31.890138405085438],[-38.06747774860091,31.564854452889968],[-37.435984516413924,31.231760275341774],[-36.79832343969258,30.890630619337802],[-36.153882431803424,30.541218149802816],[-35.48525700677018,30.17388403818908],[-34.82503956297052,29.806891898907505],[-34.155853663706836,29.430707024521013],[-33.476836964434796,29.04496291365548],[-32.78704235976414,28.649253096256874],[-32.08542557693386,28.243125459391223],[-31.370830328498784,27.82607547074],[-30.641970412828897,27.39753802591005],[-29.746472426944564,26.867229121685185],[-28.82552366748783,26.31820077664079]]]}}]}