{"type":"FeatureCollection","features":[{"type":"Feature","properties":{"t_inicio":1.0833333333333153,"t_fim":1.5444444444444247},"geometry":{"type":"LineString","coordinates":[[-39.890117505905096,31.467466812879525],[-39.76835322092228,31.404960119930575],[-39.646405719027314,31.342157027911984],[-39.52427128529433,31.279056097181353],[-39.40194615188577,31.215655861978114],[-39.27942649696345,31.15195482991144],[-39.15670844357035,31.08795148143446],[-39.03378805848183,31.023644269304498],[-38.91066135102591,30.959031618028693],[-38.78732427187063,30.89411192329472],[-38.66377271177859,30.828883551385783],[-38.54000250032627,30.763344838579798],[-38.41600940458784,30.697494090531862],[-38.29178912778207,30.631329581639633],[-38.16733730788064,30.564849554390975],[-38.042649516177136,30.498052218693196],[-37.917721255814826,30.43093575118361],[-37.79254796027206,30.36349829452004],[-37.66712499180386,30.295737956651376],[-37.541447639837656,30.227652810066978],[-37.41551111932236,30.159240891024275],[-37.28931056902823,30.090500198753958],[-37.16284104979627,30.021428694641685],[-37.036097542735206,29.952024301385627],[-36.90907494736399,29.88228490212904],[-36.781768079698054,29.81220833956674],[-36.65417167027701,29.741792415024708],[-36.52628036213159,29.67103488751168],[-36.39808870868788,29.599933472741828],[-36.26959117160581,29.528485842127292],[-36.14078211855025,29.456689621739567],[-36.011655820891235,29.384542391238433],[-35.882206451331285,29.312041682767255],[-35.75242808145646,29.239184979813313],[-35.62231467920864,29.165969716031903],[-35.49186010627531,29.0923932740325],[-35.36105811539426,29.01845298412599],[-35.22990234756912,28.944146123030826],[-35.098386329192465,28.869469912536974],[-34.96650346907299,28.794421518125592],[-34.83424705536211,28.71899804754278],[-34.70161025237647,28.64319654932566],[-34.56858609731174,28.567014011278474],[-34.43516749684309,28.490447358896912],[-34.30134722360785,28.41349345373843],[-34.16711791256489,28.33614909173618],[-34.03247205722593,28.25841100145426],[-33.897402005752696,28.180275842281706],[-33.76189995691459,28.101740202562606],[-33.625957955900304,28.022800597659526],[-33.489567889977366,27.943453467947325],[-33.35272148399227,27.863695176734275],[-33.215410295704544,27.78352200810725],[-33.07762571094685,27.702930164697523],[-32.93935893860342,27.621915765363667],[-32.800601005397965,27.540474842787557],[-32.66134275048324,27.458603340979717],[-32.52157481982141,27.376297112689585],[-32.38128766034677,27.293551916716364],[-32.24047151389959,27.210363415115598],[-32.09911641092023,27.126727170296682],[-31.95721216389228,27.042638642005837],[-31.814748360521463,26.95809318418921],[-31.671714356638603,26.873086041729895],[-31.528099268811587,26.787612347053017],[-31.38389196665247,26.701667116591945],[-31.239081064804196,26.6152452471088],[-31.093654914589735,26.52834151186183],[-30.947601595307418,26.440950556611696],[-30.80090890515291,26.35306689545841],[-30.65356435174857,26.264684906499962],[-30.50555514225951,26.175798827303304],[-30.356868173073565,26.08640275017749],[-30.207490019021918,25.99649061723863],[-30.057406922115405,25.906056215254825],[-29.906604779768827,25.815093170259498],[-29.755069132485602,25.723594941919902],[-29.602785150971727,25.631554817647082],[-29.44973762264644,25.538965906432875],[-29.295910937515202,25.445821132397906],[-29.141289073367233,25.352113228034224],[-28.985855580258402,25.25783472712441],[-28.82959356423646,25.162977957318105],[-28.672485670263228,25.06753503234556]]}}]}