{"type":"FeatureCollection","features":[{"type":"Feature","properties":{"magnitude":0.4,"percentagem":40.0,"territorio":"continente"},"geometry":{"type":"LineString","coordinates":[[-5.540000000000106,39.67145749733872],[-5.554129208666285,39.67999999999992],[-5.580000000000105,39.69564563527271],[-5.620000000000104,39.719832054710636],[-5.620277744102182,39.71999999999992],[-5.660000000000103,39.7440254835668],[-5.686415789073898,39.75999999999992],[-5.700000000000102,39.76821699885065],[-5.7400000000001015,39.79241085151298],[-5.752548121788671,39.79999999999992],[-5.780000000000101,39.816607341233016],[-5.8186747836544335,39.83999999999992],[-5.8200000000001,39.84080177335851],[-5.860000000000099,39.86500256750098],[-5.884792513504147,39.87999999999992],[-5.900000000000098,39.88920165575382],[-5.940000000000097,39.913402257457676],[-5.950905802340001,39.919999999999916],[-5.980000000000096,39.93760578323918],[-6.01701406971723,39.959999999999916],[-6.0200000000000955,39.961807004964456],[-6.060000000000095,39.98601373378647],[-6.083115161435542,39.999999999999915],[-6.100000000000094,40.01021907181354],[-6.140000000000093,40.034425084279434],[-6.1492129969453755,40.039999999999914],[-6.180000000000092,40.05863431818193],[-6.215306461482097,40.07999999999991],[-6.220000000000091,40.08284099898783],[-6.26000000000009,40.107052319196534],[-6.281394517770645,40.11999999999991],[-6.3000000000000895,40.13126257183327],[-6.340000000000089,40.155472648944546],[-6.347480507997107,40.15999999999991],[-6.380000000000088,40.179686251225775],[-6.413562783162119,40.19999999999991],[-6.420000000000087,40.203897048873934],[-6.460000000000087,40.22811160957224],[-6.479641424773224,40.23999999999991],[-6.500000000000085,40.25232543010581],[-6.540000000000084,40.276538218289296],[-6.54571919611048,40.27999999999991],[-6.580000000000084,40.30075483783165],[-6.6117939179461915,40.31999999999991],[-6.620000000000083,40.324968398793516],[-6.660000000000082,40.34918484186602],[-6.677866784556329,40.359999999999914],[-6.700000000000081,40.37340087246912],[-6.74000000000008,40.397615011084014],[-6.743939982630694,40.399999999999906],[-6.780000000000079,40.421833285832925],[-6.810010810520932,40.439999999999905],[-6.820000000000078,40.44604824573066],[-6.860000000000078,40.47026520623793],[-6.876081561623208,40.479999999999905],[-6.900000000000077,40.49448207841429],[-6.940000000000075,40.5186962001497],[-6.9421538521918995,40.519999999999904],[-6.980000000000075,40.542914757563594],[-7.008224469645519,40.5599999999999],[-7.020000000000074,40.56712974162264],[-7.060000000000073,40.59134584820375],[-7.074296785461083,40.5999999999999],[-7.1000000000000725,40.61556218324505],[-7.140000000000072,40.63977491452546],[-7.1403718553307485,40.6399999999999],[-7.180000000000071,40.6639923720372],[-7.20644597078119,40.6799999999999],[-7.22000000000007,40.68820599554999],[-7.260000000000069,40.712419870832946],[-7.2725235531904175,40.7199999999999],[-7.300000000000068,40.73663428028697],[-7.338604691829178,40.7599999999999],[-7.340000000000067,40.760844701010086],[-7.3800000000000665,40.785059207174875],[-7.404686458776492,40.7999999999999],[-7.420000000000066,40.80927007597559],[-7.460000000000065,40.83348033699544],[-7.470773032270559,40.8399999999999],[-7.500000000000064,40.857691423145],[-7.536863878496511,40.879999999999896],[-7.540000000000063,40.88189825669563],[-7.580000000000062,40.906108302081215],[-7.602957150610287,40.919999999999895],[-7.620000000000061,40.93031501303102],[-7.6600000000000605,40.95452027165561],[-7.669056463263168,40.959999999999894],[-7.70000000000006,40.978726628007735],[-7.735160796084482,40.99999999999989],[-7.740000000000059,41.00292846600295],[-7.780000000000058,41.02713265936603],[-7.8012693381937765,41.03999999999989],[-7.820000000000057,41.05133380084847],[-7.860000000000056,41.07553266421118],[-7.867385162656142,41.0799999999999],[-7.900000000000055,41.09973287599651],[-7.933506789063346,41.11999999999989],[-7.940000000000055,41.12392830187755],[-7.980000000000054,41.14812524751042],[-7.9996343912334265,41.15999999999989],[-8.020000000000053,41.17231939993668],[-8.060000000000052,41.19651047087607],[-8.065770525748334,41.19999999999989],[-8.100000000000051,41.2207031155577],[-8.131913281593757,41.23999999999989],[-8.14000000000005,41.24489070510081],[-8.18000000000005,41.269079003275294],[-8.1980637601564,41.27999999999989],[-8.220000000000049,41.293264739598555],[-8.260000000000048,41.31744661710479],[-8.264224029597584,41.31999999999989],[-8.300000000000047,41.341630264896324],[-8.330391780493358,41.359999999999886],[-8.340000000000046,41.365808586732626],[-8.380000000000045,41.38998683415031],[-8.396568979100097,41.399999999999885],[-8.420000000000044,41.4141627203892],[-8.460000000000043,41.43833400005657],[-8.462757236033655,41.43999999999989],[-8.500000000000043,41.462507214448735],[-8.528953878268506,41.47999999999988],[-8.540000000000042,41.486674830592804],[-8.580000000000041,41.51084162084136],[-8.595161668967718,41.51999999999988],[-8.62000000000004,41.53500621661165],[-8.66000000000004,41.55916549109708],[-8.661381794737828,41.55999999999988],[-8.700000000000038,41.583326829392725],[-8.727611256213386,41.59999999999988],[-8.740000000000038,41.60748229577907],[-8.780000000000037,41.63163621979454],[-8.793853540551467,41.63999999999988],[-8.820000000000036,41.65578807884869],[-8.860000000000035,41.679933938335985],[-8.860109446390522,41.67999999999988],[-8.900000000000034,41.70408195219261],[-8.926375687577607,41.71999999999988],[-8.940000000000033,41.72822381921995],[-8.980000000000032,41.752363465753994],[-8.99265639772563,41.75999999999988],[-9.020000000000032,41.776501136528296],[-9.058951743412061,41.79999999999988],[-9.06000000000003,41.80063249759883],[-9.10000000000003,41.82476540517714],[-9.125259040805137,41.839999999999876],[-9.140000000000029,41.84889221825946],[-9.180000000000028,41.87301617435216],[-9.191582140710853,41.87999999999988],[-9.220000000000027,41.89713820052049],[-9.257920913199621,41.919999999999874],[-9.260000000000026,41.92125364027647],[-9.300000000000026,41.945369993147864],[-9.324273282845478,41.95999999999987],[-9.340000000000025,41.96948029327232],[-9.380000000000024,41.99358714472932],[-9.390642769411883,41.99999999999987],[-9.420000000000023,42.01769206576337],[-9.457029020766525,42.03999999999987],[-9.460000000000022,42.04179012270775],[-9.500000000000021,42.065888506015874],[-9.52343048253966,42.07999999999987],[-9.54000000000002,42.08998083030637],[-9.58000000000002,42.11406916218051],[-9.589850386830749,42.11999999999987],[-9.620000000000019,42.13815551391569],[-9.656288205347959,42.15999999999987],[-9.660000000000018,42.162234723029165],[-9.700000000000017,42.18631372146395],[-9.722742814083105,42.19999999999987],[-9.740000000000016,42.21038660375031],[-9.780000000000015,42.234455000827154],[-9.789217202557348,42.23999999999987],[-9.820000000000014,42.258521316033594],[-9.855710713822798,42.279999999999866],[-9.860000000000014,42.28258020934667],[-9.900000000000013,42.30663840763221],[-9.922222560566578,42.319999999999865],[-9.940000000000012,42.33069037902407],[-9.980000000000011,42.354737426310834],[-9.988755536339365,42.359999999999864],[-10.02000000000001,42.378782235269156],[-10.055308904306253,42.399999999999864],[-10.06000000000001,42.402819342438725],[-10.100000000000009,42.42685532582412],[-10.121882117598709,42.43999999999986],[-10.140000000000008,42.450884915288995],[-10.180000000000007,42.474909198506815],[-10.188477821733843,42.47999999999986],[-10.220000000000006,42.49893102958761],[-10.255095249825597,42.51999999999986],[-10.260000000000005,42.52294487847715],[-10.300000000000004,42.54695723323067],[-10.321733997010693,42.55999999999986],[-10.340000000000003,42.57096296817564],[-10.38,42.59496307425432],[-10.3883966098425,42.59999999999986],[-10.420000000000002,42.61896045450118],[-10.4550823420791,42.63999999999986],[-10.46,42.64294957176431],[-10.5,42.666936885669585]]}},{"type":"Feature","properties":{"magnitude":0.6,"percentagem":60.0,"territorio":"acores"},"geometry":{"type":"LineString","coordinates":[[-24.04000000000017,39.767024374508075],[-24.08000000000017,39.78960531032105],[-24.098423269646545,39.79999999999992],[-24.120000000000168,39.81217243330295],[-24.160000000000167,39.83472519478049],[-24.16935977794625,39.83999999999992],[-24.200000000000166,39.857265490673825],[-24.240000000000165,39.879789893777534],[-24.240373255620078,39.87999999999992],[-24.280000000000165,39.90230315368075],[-24.311464112582613,39.919999999999916],[-24.320000000000164,39.924800361016906],[-24.360000000000166,39.947285031139295],[-24.38263343982026,39.959999999999916],[-24.400000000000162,39.9697548943233],[-24.44000000000016,39.99221073363978],[-24.453881994587007,39.999999999999915],[-24.48000000000016,40.01465304612013],[-24.52000000000016,40.0370798735665],[-24.525210524357004,40.03999999999992],[-24.56000000000016,40.05949442975623],[-24.596619684348937,40.07999999999991],[-24.600000000000158,40.0818925896175],[-24.640000000000157,40.10427866040311],[-24.668110211716375,40.11999999999991],[-24.680000000000156,40.12664876075358],[-24.720000000000155,40.149005355073605],[-24.739683032901226,40.15999999999991],[-24.760000000000154,40.171347192763534],[-24.800000000000153,40.19367413264002],[-24.8113389165776,40.19999999999991],[-24.840000000000153,40.21598750551865],[-24.88000000000015,40.23828461385229],[-24.883078636951844,40.23999999999991],[-24.92000000000015,40.26056932077738],[-24.95490288567856,40.27999999999991],[-24.96000000000015,40.282837196094626],[-25.00000000000015,40.3050922622029],[-25.02681251798945,40.31999999999991],[-25.04000000000015,40.327331174971995],[-25.080000000000148,40.34955595538067],[-25.098808385714165,40.35999999999991],[-25.120000000000147,40.37176570700197],[-25.160000000000146,40.39396002783556],[-25.17089128546916,40.399999999999906],[-25.200000000000145,40.41614042074996],[-25.240000000000144,40.43830410904883],[-25.24306201972883,40.43999999999991],[-25.280000000000143,40.46045494674671],[-25.315321371134498,40.479999999999905]]}}]}