{"type":"FeatureCollection","features":[{"type":"Feature","properties":{"magnitude":0.2,"percentagem":20.0,"territorio":"acores"},"geometry":{"type":"LineString","coordinates":[[-30.215287083556724,36.0],[-30.20000000000004,36.015259008197255],[-30.16000000000004,36.01525031170598],[-30.13525031170602,36.04],[-30.12000000000004,36.0552224084155],[-30.095222408415545,36.08],[-30.08000000000004,36.09519463629521],[-30.055194636295255,36.12],[-30.040000000000042,36.13516699447816],[-30.015166994478207,36.16],[-30.000000000000043,36.17513948210513],[-29.975139482105178,36.199999999999996],[-29.960000000000043,36.21511209832452],[-29.935112098324566,36.239999999999995],[-29.920000000000044,36.25508484229228],[-29.89508484229233,36.279999999999994],[-29.880000000000045,36.29505771317183],[-29.840000000000046,36.29504930479165],[-29.8150493047917,36.31999999999999],[-29.800000000000047,36.33502233960104],[-29.775022339601097,36.35999999999999],[-29.760000000000048,36.37499549942159],[-29.734995499421647,36.39999999999999],[-29.72000000000005,36.414968783440806],[-29.694968783440864,36.43999999999999],[-29.68000000000005,36.454942190853316],[-29.654942190853376,36.47999999999999],[-29.64000000000005,36.4949157208608],[-29.614915720860864,36.51999999999998],[-29.60000000000005,36.534889372671906],[-29.57488937267197,36.55999999999999],[-29.560000000000052,36.574863145502135],[-29.520000000000053,36.574855011562704],[-29.49485501156277,36.59999999999999],[-29.480000000000054,36.614828940693535],[-29.454828940693602,36.639999999999986],[-29.440000000000055,36.654802989060954],[-29.414802989061023,36.67999999999999],[-29.400000000000055,36.69477715590272],[-29.37477715590279,36.719999999999985],[-29.360000000000056,36.7347514404632],[-29.334751440463272,36.759999999999984],[-29.320000000000057,36.77472584199323],[-29.294725841993305,36.79999999999998],[-29.280000000000058,36.814700359750105],[-29.24000000000006,36.81469245282914],[-29.21469245282922,36.83999999999998],[-29.20000000000006,36.85466712067955],[-29.17466712067963,36.87999999999998],[-29.16000000000006,36.89464190306891],[-29.13464190306899,36.91999999999998],[-29.12000000000006,36.93461679927529],[-29.094616799275368,36.95999999999998],[-29.080000000000062,36.9745918085829],[-29.054591808582977,36.999999999999986],[-29.040000000000063,37.01456693028203],[-29.014566930282122,37.03999999999998],[-29.000000000000064,37.05454216366901],[-28.960000000000065,37.054534474701114],[-28.9345344747012,37.07999999999998],[-28.920000000000066,37.09450985230223],[-28.894509852302328,37.119999999999976],[-28.880000000000067,37.134485339991784],[-28.854485339991875,37.159999999999975],[-28.840000000000067,37.174460937085506],[-28.8144609370856,37.199999999999974],[-28.800000000000068,37.21443664290488],[-28.774436642904977,37.239999999999974],[-28.76000000000007,37.254412456777104],[-28.734412456777207,37.27999999999997],[-28.720000000000066,37.29438837803499],[-28.68000000000007,37.29438089843099],[-28.65438089843108,37.31999999999997],[-28.64000000000007,37.33435695833003],[-28.614356958330127,37.35999999999997],[-28.600000000000072,37.37433312409809],[-28.57433312409819,37.39999999999998],[-28.560000000000077,37.414309395086164],[-28.534309395086265,37.43999999999997],[-28.520000000000074,37.45428577065063],[-28.494285770650734,37.47999999999997],[-28.480000000000075,37.49426225015321],[-28.454262250153327,37.51999999999997],[-28.44000000000008,37.534238832960895],[-28.400000000000077,37.53423155457706],[-28.374231554577175,37.55999999999997],[-28.360000000000078,37.57420827073968],[-28.334208270739797,37.599999999999966],[-28.32000000000008,37.61418508876826],[-28.294185088768373,37.639999999999965],[-28.28000000000008,37.65416200804682],[-28.25416200804693,37.679999999999964],[-28.24000000000008,37.694139027964425],[-28.214139027964535,37.71999999999996],[-28.20000000000008,37.73411614791514],[-28.174116147915257,37.75999999999996],[-28.160000000000082,37.774093367297965],[-28.120000000000083,37.774086282407595],[-28.094086282407716,37.79999999999996],[-28.08000000000008,37.81406363012774],[-28.054063630127864,37.83999999999996],[-28.040000000000088,37.85404107591351],[-28.014041075913628,37.87999999999996],[-28.00000000000008,37.894018619179846],[-27.97401861917997,37.91999999999996],[-27.960000000000086,37.933996259346486],[-27.933996259346614,37.95999999999995],[-27.920000000000087,37.973973995837824],[-27.880000000000088,37.97396706854919],[-27.853967068549327,37.99999999999996],[-27.84000000000009,38.013944929349975],[-27.813944929350107,38.03999999999996],[-27.80000000000009,38.05392288516656],[-27.773922885166687,38.079999999999956],[-27.76000000000009,38.09390093543848],[-27.733900935438612,38.119999999999955],[-27.72000000000009,38.13387907960976],[-27.6938790796099,38.159999999999954],[-27.680000000000092,38.17385731712887],[-27.640000000000093,38.17385054244825],[-27.613850542448393,38.199999999999946],[-27.600000000000094,38.21382890041801],[-27.57382890041815,38.23999999999995],[-27.560000000000095,38.253807350481324],[-27.533807350481467,38.27999999999996],[-27.520000000000095,38.29378589210102],[-27.493785892101165,38.31999999999995],[-27.480000000000096,38.33376452474418],[-27.453764524744333,38.35999999999995],[-27.440000000000097,38.3737432478821],[-27.400000000000098,38.37373662102462],[-27.37373662102477,38.39999999999995],[-27.360000000000095,38.41371546091471],[-27.33371546091486,38.43999999999995],[-27.3200000000001,38.45369439009711],[-27.293694390097265,38.47999999999995],[-27.2800000000001,38.493673408056736],[-27.253673408056894,38.519999999999946],[-27.240000000000105,38.53365251428255],[-27.213652514282707,38.559999999999945],[-27.200000000000102,38.5736317082675],[-27.160000000000103,38.57362522464634],[-27.1336252246465,38.59999999999995],[-27.120000000000104,38.613604531837126],[-27.09360453183728,38.639999999999944],[-27.080000000000105,38.65358392563377],[-27.053583925633937,38.67999999999994],[-27.040000000000106,38.693563405542186],[-27.01356340554235,38.71999999999994],[-27.000000000000107,38.73354297107209],[-26.973542971072256,38.75999999999994],[-26.960000000000107,38.773522621737015],[-26.92000000000011,38.77351627695335],[-26.89351627695352,38.79999999999994],[-26.88000000000011,38.81349603742219],[-26.85349603742236,38.83999999999995],[-26.84000000000011,38.85347588191947],[-26.813475881919643,38.87999999999994],[-26.80000000000011,38.89345580997102],[-26.773455809971196,38.91999999999994],[-26.76000000000011,38.93343582110631],[-26.720000000000113,38.93342958641396],[-26.693429586414133,38.95999999999994],[-26.680000000000113,38.973409704691846],[-26.65340970469203,38.99999999999993],[-26.640000000000114,39.01338990498309],[-26.613389904983272,39.039999999999935],[-26.600000000000115,39.05337018682894],[-26.573370186829123,39.079999999999934],[-26.560000000000116,39.093350549774144],[-26.533350549774326,39.11999999999993],[-26.520000000000117,39.13333099336691],[-26.480000000000118,39.133324889981665],[-26.453324889981843,39.15999999999993],[-26.44000000000012,39.173305437558646],[-26.413305437558833,39.19999999999993],[-26.40000000000012,39.21328606475541],[-26.373286064755597,39.23999999999993],[-26.36000000000012,39.25326677113137],[-26.333266771131562,39.27999999999993],[-26.32000000000012,39.29324755624929],[-26.280000000000122,39.29324155704823],[-26.253241557048426,39.319999999999936],[-26.240000000000123,39.33322244367792],[-26.213222443678113,39.35999999999993],[-26.200000000000124,39.37320340805479],[-26.173203408054988,39.39999999999993],[-26.160000000000124,39.41318444975238],[-26.13318444975258,39.43999999999993],[-26.120000000000125,39.453165568347394],[-26.093165568347594,39.479999999999926],[-26.080000000000126,39.493146763419716],[-26.040000000000127,39.493140888530604],[-26.013140888530806,39.519999999999925],[-26.000000000000128,39.533122182178516],[-25.97312218217872,39.559999999999924],[-25.96000000000013,39.57310355134787],[-25.933103551348076,39.59999999999992],[-25.92000000000013,39.61308499562878],[-25.89308499562899,39.63999999999992],[-25.880000000000134,39.65306651461442],[-25.840000000000128,39.65306073841832],[-25.81306073841853,39.67999999999992],[-25.800000000000132,39.69304235367959],[-25.7730423536798,39.71999999999992],[-25.760000000000133,39.733024042719904],[-25.733024042720118,39.75999999999992],[-25.720000000000134,39.773005805142276],[-25.69300580514249,39.79999999999992],[-25.680000000000135,39.812987640552656],[-25.640000000000136,39.812981960710815],[-25.612981960711032,39.83999999999992],[-25.600000000000136,39.85296389016927],[-25.57296389016949,39.87999999999992],[-25.560000000000137,39.89294589171906],[-25.53294589171928,39.919999999999916],[-25.520000000000138,39.93292796497559],[-25.492927964975813,39.959999999999916],[-25.48000000000014,39.97291010955708],[-25.44000000000014,39.97290452380419],[-25.412904523804414,39.999999999999915],[-25.400000000000144,40.01288676027582],[-25.372886760276046,40.039999999999914],[-25.36000000000014,40.05286906720363],[-25.332869067203855,40.07999999999991],[-25.320000000000142,40.09285144421493],[-25.292851444215167,40.11999999999991],[-25.280000000000143,40.13283389093976],[-25.240000000000144,40.13282839708112],[-25.212828397081353,40.15999999999991],[-25.200000000000145,40.172810933605085],[-25.172810933605327,40.19999999999991],[-25.160000000000146,40.21279353900063],[-25.13279353900087,40.23999999999991],[-25.120000000000147,40.25277621290652],[-25.092776212906756,40.27999999999991],[-25.080000000000148,40.292758954964114],[-25.04000000000015,40.29275355087289],[-25.012753550873136,40.31999999999991],[-25.00000000000015,40.33273638070302],[-24.972736380703264,40.35999999999991],[-24.96000000000015,40.372719277868725],[-24.932719277868966,40.399999999999906],[-24.92000000000015,40.41270224201979],[-24.88000000000015,40.41269690601499],[-24.852696906015236,40.439999999999905],[-24.840000000000153,40.45267995642319],[-24.812679956423437,40.479999999999905]]}},{"type":"Feature","properties":{"magnitude":0.4,"percentagem":40.0,"territorio":"acores"},"geometry":{"type":"LineString","coordinates":[[-30.230574167113407,36.0],[-30.20000000000004,36.03051801639452],[-30.16000000000004,36.03050062341195],[-30.150500623411997,36.04],[-30.12000000000004,36.07044481683101],[-30.11044481683105,36.08],[-30.08000000000004,36.110389272590425],[-30.07038927259047,36.12],[-30.040000000000042,36.15033398895633],[-30.03033398895638,36.16],[-30.000000000000043,36.19027896421027],[-29.990278964210315,36.199999999999996],[-29.960000000000043,36.23022419664904],[-29.950224196649092,36.239999999999995],[-29.920000000000044,36.27016968458456],[-29.910169684584616,36.279999999999994],[-29.880000000000045,36.31011542634367],[-29.840000000000046,36.3100986095833],[-29.830098609583352,36.31999999999999],[-29.800000000000047,36.35004467920209],[-29.790044679202147,36.35999999999999],[-29.760000000000048,36.38999099884319],[-29.74999099884325,36.39999999999999],[-29.72000000000005,36.42993756688162],[-29.709937566881678,36.43999999999999],[-29.68000000000005,36.46988438170665],[-29.669884381706705,36.47999999999999],[-29.64000000000005,36.50983144172162],[-29.629831441721684,36.51999999999999],[-29.60000000000005,36.549778745343815],[-29.589778745343878,36.55999999999999],[-29.560000000000052,36.58972629100429],[-29.520000000000053,36.58971002312543],[-29.50971002312549,36.59999999999999],[-29.480000000000054,36.62965788138708],[-29.46965788138715,36.639999999999986],[-29.440000000000055,36.669605978121915],[-29.42960597812198,36.679999999999986],[-29.400000000000055,36.709554311805455],[-29.389554311805526,36.719999999999985],[-29.360000000000056,36.74950288092641],[-29.349502880926483,36.759999999999984],[-29.320000000000057,36.78945168398647],[-29.30945168398655,36.79999999999998],[-29.280000000000058,36.82940071950023],[-29.24000000000006,36.8293849056583],[-29.229384905658378,36.83999999999998],[-29.20000000000006,36.86933424135911],[-29.189334241359195,36.87999999999998],[-29.16000000000006,36.909283806137836],[-29.149283806137912,36.91999999999998],[-29.12000000000006,36.94923359855059],[-29.109233598550666,36.95999999999998],[-29.080000000000062,36.98918361716581],[-29.06918361716589,36.99999999999998],[-29.040000000000063,37.02913386056409],[-29.029133860564173,37.03999999999998],[-29.000000000000064,37.06908432733805],[-28.960000000000065,37.069068949402244],[-28.94906894940233,37.07999999999998],[-28.920000000000066,37.10901970460449],[-28.90901970460459,37.119999999999976],[-28.880000000000067,37.1489706799836],[-28.868970679983686,37.159999999999975],[-28.840000000000067,37.18892187417103],[-28.828921874171122,37.199999999999974],[-28.800000000000068,37.22887328580979],[-28.788873285809885,37.239999999999974],[-28.76000000000007,37.26882491355424],[-28.748824913554337,37.27999999999997],[-28.72000000000007,37.30877675607],[-28.68000000000007,37.308761796861994],[-28.668761796862093,37.31999999999997],[-28.64000000000007,37.34871391666008],[-28.628713916660182,37.35999999999997],[-28.600000000000072,37.388666248196195],[-28.588666248196297,37.39999999999997],[-28.560000000000073,37.428618790172344],[-28.548618790172448,37.43999999999997],[-28.520000000000074,37.468571541301294],[-28.5085715413014,37.47999999999997],[-28.480000000000075,37.508524500306464],[-28.46852450030657,37.51999999999997],[-28.440000000000076,37.54847766592182],[-28.400000000000077,37.54846310915416],[-28.388463109154273,37.55999999999997],[-28.360000000000078,37.588416541479404],[-28.348416541479512,37.599999999999966],[-28.32000000000008,37.62837017753655],[-28.308370177536666,37.639999999999965],[-28.28000000000008,37.66832401609366],[-28.26832401609378,37.679999999999964],[-28.24000000000008,37.70827805592888],[-28.228278055928993,37.71999999999996],[-28.20000000000008,37.74823229583031],[-28.18823229583043,37.75999999999996],[-28.160000000000082,37.78818673459597],[-28.120000000000083,37.78817256481523],[-28.108172564815348,37.79999999999996],[-28.080000000000084,37.82812726025553],[-28.068127260255647,37.83999999999996],[-28.040000000000084,37.86808215182704],[-28.028082151827167,37.87999999999996],[-28.000000000000085,37.90803723835973],[-27.98803723835986,37.91999999999996],[-27.960000000000086,37.94799251869302],[-27.947992518693148,37.95999999999996],[-27.920000000000087,37.98794799167569],[-27.880000000000088,37.987934137098435],[-27.867934137098565,37.99999999999996],[-27.84000000000009,38.02788985869999],[-27.82788985870012,38.03999999999996],[-27.80000000000009,38.06784577033315],[-27.787845770333288,38.079999999999956],[-27.76000000000009,38.107801870877],[-27.747801870877133,38.119999999999955],[-27.72000000000009,38.14775815921957],[-27.707758159219704,38.159999999999954],[-27.680000000000092,38.18771463425779],[-27.640000000000093,38.18770108489655],[-27.627701084896696,38.19999999999995],[-27.600000000000094,38.22765780083606],[-27.587657800836205,38.23999999999995],[-27.560000000000095,38.267614700962696],[-27.547614700962836,38.27999999999995],[-27.520000000000095,38.30757178420209],[-27.50757178420224,38.31999999999995],[-27.480000000000096,38.34752904948842],[-27.46752904948857,38.35999999999995],[-27.440000000000097,38.38748649576425],[-27.400000000000098,38.38747324204928],[-27.38747324204943,38.39999999999995],[-27.3600000000001,38.427430921829476],[-27.347430921829627,38.43999999999995],[-27.3200000000001,38.467388780194284],[-27.307388780194433,38.47999999999995],[-27.2800000000001,38.50734681611353],[-27.267346816113687,38.519999999999946],[-27.2400000000001,38.54730502856515],[-27.227305028565308,38.559999999999945],[-27.200000000000102,38.587263416535045],[-27.160000000000103,38.58725044929273],[-27.14725044929289,38.599999999999945],[-27.120000000000104,38.6272090636743],[-27.10720906367446,38.639999999999944],[-27.080000000000105,38.6671678512676],[-27.06716785126777,38.67999999999994],[-27.040000000000106,38.70712681108443],[-27.027126811084592,38.71999999999994],[-27.000000000000107,38.74708594214424],[-26.987085942144404,38.75999999999994],[-26.960000000000107,38.78704524347408],[-26.92000000000011,38.78703255390677],[-26.907032553906934,38.79999999999994],[-26.88000000000011,38.82699207484444],[-26.866992074844603,38.83999999999994],[-26.84000000000011,38.86695176383901],[-26.826951763839183,38.87999999999994],[-26.80000000000011,38.90691161994212],[-26.78691161994229,38.91999999999994],[-26.76000000000011,38.94687164221268],[-26.720000000000113,38.946859172827985],[-26.70685917282816,38.95999999999994],[-26.680000000000113,38.98681940938377],[-26.666819409383944,38.999999999999936],[-26.640000000000114,39.02677980996626],[-26.626779809966433,39.039999999999935],[-26.600000000000115,39.06674037365795],[-26.58674037365813,39.079999999999934],[-26.560000000000116,39.106701099548346],[-26.546701099548528,39.11999999999993],[-26.520000000000117,39.14666198673389],[-26.480000000000118,39.14664977996339],[-26.466649779963568,39.15999999999993],[-26.44000000000012,39.18661087511736],[-26.426610875117547,39.19999999999993],[-26.40000000000012,39.226572129510885],[-26.386572129511073,39.23999999999993],[-26.36000000000012,39.26653354226281],[-26.346533542263003,39.27999999999993],[-26.32000000000012,39.30649511249865],[-26.280000000000122,39.30648311409654],[-26.266483114096722,39.31999999999993],[-26.240000000000123,39.34644488735591],[-26.226444887356102,39.35999999999993],[-26.200000000000124,39.38640681610966],[-26.18640681610986,39.39999999999993],[-26.160000000000124,39.42636889950484],[-26.146368899505035,39.43999999999993],[-26.120000000000125,39.46633113669486],[-26.10633113669506,39.479999999999926],[-26.080000000000126,39.5062935268395],[-26.040000000000127,39.50628177706128],[-26.026281777061484,39.519999999999925],[-26.000000000000128,39.546244364357115],[-25.98624436435732,39.559999999999924],[-25.96000000000013,39.586207102695816],[-25.94620710269602,39.59999999999992],[-25.92000000000013,39.62616999125764],[-25.906169991257848,39.63999999999992],[-25.88000000000013,39.66613302922893],[-25.84000000000013,39.66612147683672],[-25.826121476836935,39.67999999999992],[-25.800000000000132,39.70608470735925],[-25.786084707359464,39.71999999999992],[-25.760000000000133,39.74604808543988],[-25.746048085440094,39.75999999999992],[-25.720000000000134,39.78601161028463],[-25.70601161028485,39.79999999999992],[-25.680000000000135,39.8259752811054],[-25.640000000000136,39.82596392142171],[-25.625963921421928,39.83999999999992],[-25.600000000000136,39.86592778033862],[-25.58592778033884,39.87999999999992],[-25.560000000000137,39.90589178343821],[-25.54589178343842,39.919999999999916],[-25.520000000000138,39.945855929951264],[-25.505855929951487,39.959999999999916],[-25.48000000000014,39.98582021911424],[-25.44000000000014,39.98580904760846],[-25.425809047608684,39.999999999999915],[-25.40000000000014,40.025773520551716],[-25.385773520551943,40.039999999999914],[-25.36000000000014,40.06573813440734],[-25.34573813440757,40.07999999999991],[-25.320000000000142,40.10570288842996],[-25.305702888430183,40.11999999999991],[-25.280000000000143,40.1456677818796],[-25.240000000000144,40.14565679416233],[-25.22565679416256,40.15999999999991],[-25.200000000000145,40.18562186721027],[-25.185621867210507,40.19999999999991],[-25.160000000000146,40.225587078001354],[-25.14558707800159,40.23999999999991],[-25.120000000000147,40.26555242581312],[-25.10555242581336,40.27999999999991],[-25.080000000000148,40.30551790992832],[-25.04000000000015,40.30550710174588],[-25.025507101746122,40.31999999999991],[-25.00000000000015,40.345472761406135],[-24.985472761406378,40.35999999999991],[-24.96000000000015,40.38543855573754],[-24.94543855573778,40.399999999999906],[-24.92000000000015,40.42540448403968],[-24.88000000000015,40.42539381203007],[-24.86539381203032,40.439999999999905],[-24.840000000000153,40.46535991284647],[-24.82535991284672,40.479999999999905]]}},{"type":"Feature","properties":{"magnitude":0.6,"percentagem":60.0,"territorio":"acores"},"geometry":{"type":"LineString","coordinates":[[-29.330101892824345,40.479999999999905],[-29.320000000000057,40.47506120227634],[-29.280000000000058,40.45551541968405],[-29.248233929283394,40.439999999999905],[-29.24000000000006,40.43598249976986],[-29.20000000000006,40.416475986858316],[-29.166199518293315,40.399999999999906],[-29.16000000000006,40.3969811944812],[-29.12000000000006,40.377513966361334],[-29.083997776185157,40.35999999999991],[-29.080000000000062,40.3580572263705],[-29.040000000000063,40.33862929739558],[-29.001627814787177,40.31999999999991],[-29.000000000000064,40.319210534104464],[-28.960000000000065,40.2998219178757],[-28.920000000000066,40.28044157384581],[-28.91908810461102,40.27999999999991],[-28.880000000000067,40.26109176444278],[-28.840000000000067,40.241750781242004],[-28.836377124876705,40.23999999999991],[-28.800000000000068,40.22243877247862],[-28.76000000000007,40.20313716189584],[-28.753495108233885,40.19999999999992],[-28.72000000000007,40.183862876119974],[-28.68000000000007,40.164600649209646],[-28.670441146977545,40.15999999999991],[-28.64000000000007,40.145364008272644],[-28.600000000000072,40.12614117536034],[-28.58721432873545,40.11999999999991],[-28.560000000000073,40.10694210062577],[-28.520000000000074,40.08775867131337],[-28.5038137364366,40.07999999999991],[-28.480000000000075,40.068597083665594],[-28.440000000000076,40.04945306683686],[-28.42023844827879,40.039999999999914],[-28.400000000000077,40.03032888668958],[-28.360000000000078,40.011224290515514],[-28.33648753769637,39.999999999999915],[-28.32000000000008,39.992137437820325],[-28.28000000000008,39.9730722697645],[-28.252560073327402,39.959999999999916],[-28.24000000000008,39.95402266401941],[-28.20000000000008,39.934996930843305],[-28.16845511898096,39.919999999999916],[-28.160000000000082,39.915984491101035],[-28.120000000000083,39.89699819886947],[-28.084171733603842,39.87999999999992],[-28.080000000000084,39.8780228437458],[-28.040000000000084,39.85907599783236],[-28.00000000000009,39.840137806554004],[-27.999708764196225,39.839999999999925],[-27.960000000000086,39.8212302506066],[-27.920000000000087,39.802331541995784],[-27.915062365170744,39.799999999999926],[-27.880000000000088,39.78346087896587],[-27.84000000000009,39.76460165672155],[-27.830234542678806,39.75999999999992],[-27.80000000000009,39.74576780359624],[-27.76000000000009,39.72694807074349],[-27.74522433456288,39.71999999999993],[-27.72000000000009,39.70815094410962],[-27.680000000000092,39.689370703004926],[-27.660030773623035,39.67999999999992],[-27.640000000000093,39.67061021905715],[-27.600000000000094,39.6518694713937],[-27.574652887581834,39.63999999999992],[-27.560000000000095,39.63314554594253],[-27.520000000000095,39.61444429275538],[-27.489089699049448,39.59999999999992],[-27.480000000000096,39.595756841235044],[-27.440000000000097,39.57709508290659],[-27.403340225487756,39.55999999999993],[-27.400000000000098,39.558444020382865],[-27.3600000000001,39.5398217566479],[-27.3200000000001,39.521208404170416],[-27.31740160734068,39.519999999999925],[-27.2800000000001,39.50262422777713],[-27.2400000000001,39.48405039814812],[-27.23127216994721,39.479999999999926],[-27.200000000000102,39.46550240910223],[-27.160000000000103,39.446968100481456],[-27.144953317917334,39.43999999999993],[-27.120000000000104,39.42845621245419],[-27.080000000000105,39.40996142237097],[-27.058444046357394,39.39999999999993],[-27.040000000000106,39.39148554869986],[-27.000000000000107,39.37303027405835],[-26.97174334503227,39.35999999999993],[-26.960000000000107,39.3545903277548],[-26.92000000000011,39.33617456483906],[-26.884850198328305,39.31999999999993],[-26.88000000000011,39.31777045859589],[-26.84000000000011,39.29939420307507],[-26.80000000000011,39.28102704076135],[-26.797761956673735,39.27999999999993],[-26.76000000000011,39.26268909620758],[-26.720000000000113,39.244361463682374],[-26.710475537749762,39.23999999999993],[-26.680000000000113,39.22605915076931],[-26.640000000000114,39.20777104220107],[-26.622993434471372,39.19999999999993],[-26.600000000000115,39.18950427239718],[-26.560000000000116,39.171255681356264],[-26.535314607859547,39.15999999999993],[-26.520000000000117,39.15999298010087],[-26.480000000000118,39.159974669945115],[-26.4799746699453,39.15999999999993],[-26.44000000000012,39.19991631267608],[-26.43991631267626,39.19999999999993],[-26.40000000000012,39.23985819426636],[-26.39985819426655,39.23999999999993],[-26.36000000000012,39.279800313394254],[-26.359800313394445,39.27999999999993],[-26.32000000000012,39.31974266874802],[-26.280000000000122,39.31972467114483],[-26.279724671145026,39.31999999999993],[-26.240000000000123,39.3596673310339],[-26.239667331034088,39.35999999999993],[-26.200000000000124,39.399610224164526],[-26.199610224164726,39.39999999999993],[-26.160000000000124,39.43955334925729],[-26.159553349257486,39.43999999999993],[-26.120000000000125,39.47949670504233],[-26.11949670504253,39.479999999999926],[-26.080000000000126,39.51944029025928],[-26.040000000000127,39.51942266559196],[-26.03942266559216,39.519999999999925],[-26.000000000000128,39.559366546535706],[-25.999366546535914,39.559999999999924],[-25.96000000000013,39.59931065404376],[-25.959310654043968,39.59999999999992],[-25.92000000000013,39.6392549868865],[-25.919254986886706,39.63999999999992],[-25.88000000000013,39.679199543843424],[-25.84000000000013,39.679182215255125],[-25.839182215255335,39.67999999999992],[-25.800000000000132,39.71912706103892],[-25.799127061039133,39.71999999999992],[-25.760000000000133,39.75907212815986],[-25.759072128160074,39.75999999999992],[-25.720000000000134,39.799017415426995],[-25.71901741542721,39.79999999999992],[-25.680000000000135,39.83896292165814],[-25.640000000000136,39.838945882132606],[-25.638945882132827,39.83999999999992],[-25.600000000000136,39.87889167050797],[-25.59889167050819,39.87999999999992],[-25.560000000000137,39.91883767515735],[-25.558837675157562,39.919999999999916],[-25.520000000000138,39.95878389492694],[-25.518783894927164,39.959999999999916],[-25.48000000000014,39.99873032867139],[-25.44000000000014,39.99871357141273],[-25.438713571412958,39.999999999999915],[-25.40000000000014,40.03866028082762],[-25.398660280827844,40.039999999999914],[-25.36000000000014,40.07860720161105],[-25.358607201611278,40.07999999999991],[-25.320000000000142,40.118554332644976],[-25.318554332645206,40.11999999999991],[-25.280000000000143,40.158501672819455],[-25.240000000000144,40.15848519124353],[-25.238485191243768,40.15999999999991],[-25.200000000000145,40.19843280081545],[-25.198432800815684,40.19999999999991],[-25.160000000000146,40.23838061700207],[-25.15838061700231,40.23999999999991],[-25.120000000000147,40.27832863871973],[-25.118328638719966,40.27999999999991],[-25.080000000000148,40.318276864892525],[-25.04000000000015,40.31826065261887],[-25.038260652619112,40.31999999999991],[-25.00000000000015,40.35820914210925],[-24.99820914210949,40.35999999999991],[-24.96000000000015,40.398157833606355],[-24.958157833606595,40.399999999999906],[-24.92000000000015,40.438106726059566],[-24.88000000000015,40.43809071804516],[-24.878090718045407,40.439999999999905],[-24.840000000000153,40.47803986926976],[-24.838039869270006,40.479999999999905]]}}]}