{"type":"FeatureCollection","properties":{"largura_maxima_km":237.163,"largura_sobre_pt_km":218.676,"linha_central_sobre_pt":false,"desenhavel_como_area":true,"perfil_largura":[{"t":1.02222,"lat":25.0739,"lon":-18.5657,"largura_km":215.877,"eixo_na_terra":true},{"t":1.02778,"lat":25.1555,"lon":-18.4826,"largura_km":215.919,"eixo_na_terra":true},{"t":1.03333,"lat":25.2371,"lon":-18.3993,"largura_km":215.962,"eixo_na_terra":true},{"t":1.03889,"lat":25.3187,"lon":-18.3156,"largura_km":216.006,"eixo_na_terra":true},{"t":1.04444,"lat":25.4003,"lon":-18.2315,"largura_km":216.052,"eixo_na_terra":true},{"t":1.05,"lat":25.482,"lon":-18.1472,"largura_km":216.098,"eixo_na_terra":true},{"t":1.05556,"lat":25.5636,"lon":-18.0625,"largura_km":216.145,"eixo_na_terra":true},{"t":1.06111,"lat":25.6452,"lon":-17.9775,"largura_km":216.193,"eixo_na_terra":true},{"t":1.06667,"lat":25.7269,"lon":-17.8921,"largura_km":216.241,"eixo_na_terra":true},{"t":1.07222,"lat":25.8085,"lon":-17.8063,"largura_km":216.29,"eixo_na_terra":true},{"t":1.07778,"lat":25.8901,"lon":-17.7202,"largura_km":216.34,"eixo_na_terra":true},{"t":1.08333,"lat":25.9718,"lon":-17.6338,"largura_km":216.391,"eixo_na_terra":true},{"t":1.08889,"lat":26.0534,"lon":-17.547,"largura_km":216.442,"eixo_na_terra":true},{"t":1.09444,"lat":26.135,"lon":-17.4598,"largura_km":216.494,"eixo_na_terra":true},{"t":1.1,"lat":26.2167,"lon":-17.3723,"largura_km":216.546,"eixo_na_terra":true},{"t":1.10556,"lat":26.2983,"lon":-17.2844,"largura_km":216.6,"eixo_na_terra":true},{"t":1.11111,"lat":26.38,"lon":-17.1961,"largura_km":216.654,"eixo_na_terra":true},{"t":1.11667,"lat":26.4616,"lon":-17.1074,"largura_km":216.708,"eixo_na_terra":true},{"t":1.12222,"lat":26.5432,"lon":-17.0184,"largura_km":216.763,"eixo_na_terra":true},{"t":1.12778,"lat":26.6249,"lon":-16.9289,"largura_km":216.819,"eixo_na_terra":true},{"t":1.13333,"lat":26.7065,"lon":-16.8391,"largura_km":216.877,"eixo_na_terra":true},{"t":1.13889,"lat":26.7882,"lon":-16.7489,"largura_km":216.936,"eixo_na_terra":true},{"t":1.14444,"lat":26.8698,"lon":-16.6582,"largura_km":216.995,"eixo_na_terra":true},{"t":1.15,"lat":26.9515,"lon":-16.5672,"largura_km":217.056,"eixo_na_terra":true},{"t":1.15556,"lat":27.0332,"lon":-16.4758,"largura_km":217.117,"eixo_na_terra":true},{"t":1.16111,"lat":27.1148,"lon":-16.3839,"largura_km":217.179,"eixo_na_terra":true},{"t":1.16667,"lat":27.1965,"lon":-16.2917,"largura_km":217.243,"eixo_na_terra":true},{"t":1.17222,"lat":27.2781,"lon":-16.199,"largura_km":217.307,"eixo_na_terra":true},{"t":1.17778,"lat":27.3598,"lon":-16.1059,"largura_km":217.372,"eixo_na_terra":true},{"t":1.18333,"lat":27.4414,"lon":-16.0123,"largura_km":217.438,"eixo_na_terra":true},{"t":1.18889,"lat":27.5231,"lon":-15.9183,"largura_km":217.505,"eixo_na_terra":true},{"t":1.19444,"lat":27.6048,"lon":-15.8239,"largura_km":217.572,"eixo_na_terra":true},{"t":1.2,"lat":27.6864,"lon":-15.7291,"largura_km":217.64,"eixo_na_terra":true},{"t":1.20556,"lat":27.7681,"lon":-15.6338,"largura_km":217.709,"eixo_na_terra":true},{"t":1.21111,"lat":27.8497,"lon":-15.538,"largura_km":217.778,"eixo_na_terra":true},{"t":1.21667,"lat":27.9314,"lon":-15.4418,"largura_km":217.848,"eixo_na_terra":true},{"t":1.22222,"lat":28.0131,"lon":-15.3451,"largura_km":217.918,"eixo_na_terra":true},{"t":1.22778,"lat":28.0947,"lon":-15.248,"largura_km":217.989,"eixo_na_terra":true},{"t":1.23333,"lat":28.1764,"lon":-15.1504,"largura_km":218.061,"eixo_na_terra":true},{"t":1.23889,"lat":28.2581,"lon":-15.0523,"largura_km":218.134,"eixo_na_terra":true},{"t":1.24444,"lat":28.3397,"lon":-14.9537,"largura_km":218.209,"eixo_na_terra":true},{"t":1.25,"lat":28.4214,"lon":-14.8547,"largura_km":218.285,"eixo_na_terra":true},{"t":1.25556,"lat":28.5031,"lon":-14.7551,"largura_km":218.361,"eixo_na_terra":true},{"t":1.26111,"lat":28.5847,"lon":-14.6551,"largura_km":218.438,"eixo_na_terra":true},{"t":1.26667,"lat":28.6664,"lon":-14.5546,"largura_km":218.516,"eixo_na_terra":true},{"t":1.27222,"lat":28.7481,"lon":-14.4535,"largura_km":218.596,"eixo_na_terra":true},{"t":1.27778,"lat":28.8297,"lon":-14.352,"largura_km":218.676,"eixo_na_terra":true},{"t":1.28333,"lat":28.9114,"lon":-14.2499,"largura_km":218.758,"eixo_na_terra":true},{"t":1.28889,"lat":28.993,"lon":-14.1473,"largura_km":218.84,"eixo_na_terra":true},{"t":1.29444,"lat":29.0747,"lon":-14.0442,"largura_km":218.923,"eixo_na_terra":true},{"t":1.3,"lat":29.1563,"lon":-13.9405,"largura_km":219.006,"eixo_na_terra":true},{"t":1.30556,"lat":29.238,"lon":-13.8363,"largura_km":219.09,"eixo_na_terra":true},{"t":1.31111,"lat":29.3197,"lon":-13.7316,"largura_km":219.175,"eixo_na_terra":true},{"t":1.31667,"lat":29.4013,"lon":-13.6263,"largura_km":219.26,"eixo_na_terra":true},{"t":1.32222,"lat":29.483,"lon":-13.5205,"largura_km":219.346,"eixo_na_terra":true},{"t":1.32778,"lat":29.5646,"lon":-13.4141,"largura_km":219.433,"eixo_na_terra":true},{"t":1.33333,"lat":29.6463,"lon":-13.3071,"largura_km":219.52,"eixo_na_terra":true},{"t":1.33889,"lat":29.7279,"lon":-13.1996,"largura_km":219.61,"eixo_na_terra":true},{"t":1.34444,"lat":29.8095,"lon":-13.0914,"largura_km":219.7,"eixo_na_terra":true},{"t":1.35,"lat":29.8912,"lon":-12.9827,"largura_km":219.792,"eixo_na_terra":true},{"t":1.35556,"lat":29.9728,"lon":-12.8734,"largura_km":219.884,"eixo_na_terra":true},{"t":1.36111,"lat":30.0544,"lon":-12.7635,"largura_km":219.976,"eixo_na_terra":true},{"t":1.36667,"lat":30.1361,"lon":-12.653,"largura_km":220.07,"eixo_na_terra":true},{"t":1.37222,"lat":30.2177,"lon":-12.5419,"largura_km":220.166,"eixo_na_terra":true},{"t":1.37778,"lat":30.2993,"lon":-12.4302,"largura_km":220.263,"eixo_na_terra":true},{"t":1.38333,"lat":30.3809,"lon":-12.3178,"largura_km":220.36,"eixo_na_terra":true},{"t":1.38889,"lat":30.4625,"lon":-12.2048,"largura_km":220.458,"eixo_na_terra":true},{"t":1.39444,"lat":30.5441,"lon":-12.0912,"largura_km":220.557,"eixo_na_terra":true},{"t":1.4,"lat":30.6257,"lon":-11.9769,"largura_km":220.656,"eixo_na_terra":true},{"t":1.40556,"lat":30.7073,"lon":-11.862,"largura_km":220.756,"eixo_na_terra":true},{"t":1.41111,"lat":30.7889,"lon":-11.7464,"largura_km":220.857,"eixo_na_terra":true},{"t":1.41667,"lat":30.8705,"lon":-11.6301,"largura_km":220.958,"eixo_na_terra":true},{"t":1.42222,"lat":30.952,"lon":-11.5132,"largura_km":221.06,"eixo_na_terra":true},{"t":1.42778,"lat":31.0336,"lon":-11.3956,"largura_km":221.165,"eixo_na_terra":true},{"t":1.43333,"lat":31.1152,"lon":-11.2773,"largura_km":221.27,"eixo_na_terra":true},{"t":1.43889,"lat":31.1967,"lon":-11.1583,"largura_km":221.376,"eixo_na_terra":true},{"t":1.44444,"lat":31.2783,"lon":-11.0386,"largura_km":221.483,"eixo_na_terra":true},{"t":1.45,"lat":31.3598,"lon":-10.9182,"largura_km":221.591,"eixo_na_terra":true},{"t":1.45556,"lat":31.4413,"lon":-10.7971,"largura_km":221.7,"eixo_na_terra":true},{"t":1.46111,"lat":31.5228,"lon":-10.6752,"largura_km":221.811,"eixo_na_terra":true},{"t":1.46667,"lat":31.6044,"lon":-10.5526,"largura_km":221.923,"eixo_na_terra":true},{"t":1.47222,"lat":31.6859,"lon":-10.4293,"largura_km":222.035,"eixo_na_terra":true},{"t":1.47778,"lat":31.7673,"lon":-10.3052,"largura_km":222.149,"eixo_na_terra":true},{"t":1.48333,"lat":31.8488,"lon":-10.1804,"largura_km":222.263,"eixo_na_terra":true},{"t":1.48889,"lat":31.9303,"lon":-10.0547,"largura_km":222.377,"eixo_na_terra":true},{"t":1.49444,"lat":32.0118,"lon":-9.9283,"largura_km":222.493,"eixo_na_terra":true},{"t":1.5,"lat":32.0932,"lon":-9.8011,"largura_km":222.609,"eixo_na_terra":true},{"t":1.50556,"lat":32.1746,"lon":-9.6731,"largura_km":222.726,"eixo_na_terra":true},{"t":1.51111,"lat":32.256,"lon":-9.5444,"largura_km":222.846,"eixo_na_terra":true},{"t":1.51667,"lat":32.3375,"lon":-9.4147,"largura_km":222.967,"eixo_na_terra":true},{"t":1.52222,"lat":32.4188,"lon":-9.2843,"largura_km":223.088,"eixo_na_terra":true},{"t":1.52778,"lat":32.5002,"lon":-9.153,"largura_km":223.21,"eixo_na_terra":true},{"t":1.53333,"lat":32.5816,"lon":-9.0209,"largura_km":223.333,"eixo_na_terra":true},{"t":1.53889,"lat":32.6629,"lon":-8.8879,"largura_km":223.457,"eixo_na_terra":true},{"t":1.54444,"lat":32.7443,"lon":-8.7541,"largura_km":223.584,"eixo_na_terra":true},{"t":1.55,"lat":32.8256,"lon":-8.6194,"largura_km":223.711,"eixo_na_terra":true},{"t":1.55556,"lat":32.9069,"lon":-8.4838,"largura_km":223.84,"eixo_na_terra":true},{"t":1.56111,"lat":32.9882,"lon":-8.3473,"largura_km":223.969,"eixo_na_terra":true},{"t":1.56667,"lat":33.0694,"lon":-8.2099,"largura_km":224.099,"eixo_na_terra":true},{"t":1.57222,"lat":33.1507,"lon":-8.0716,"largura_km":224.229,"eixo_na_terra":true},{"t":1.57778,"lat":33.2319,"lon":-7.9323,"largura_km":224.361,"eixo_na_terra":true},{"t":1.58333,"lat":33.3131,"lon":-7.7921,"largura_km":224.493,"eixo_na_terra":true},{"t":1.58889,"lat":33.3943,"lon":-7.651,"largura_km":224.629,"eixo_na_terra":true},{"t":1.59444,"lat":33.4755,"lon":-7.5089,"largura_km":224.765,"eixo_na_terra":true},{"t":1.6,"lat":33.5566,"lon":-7.3658,"largura_km":224.902,"eixo_na_terra":true},{"t":1.60556,"lat":33.6377,"lon":-7.2217,"largura_km":225.04,"eixo_na_terra":true},{"t":1.61111,"lat":33.7188,"lon":-7.0766,"largura_km":225.179,"eixo_na_terra":true},{"t":1.61667,"lat":33.7999,"lon":-6.9305,"largura_km":225.319,"eixo_na_terra":true},{"t":1.62222,"lat":33.8809,"lon":-6.7834,"largura_km":225.462,"eixo_na_terra":true},{"t":1.62778,"lat":33.962,"lon":-6.6352,"largura_km":225.606,"eixo_na_terra":true},{"t":1.63333,"lat":34.0429,"lon":-6.486,"largura_km":225.75,"eixo_na_terra":true},{"t":1.63889,"lat":34.1239,"lon":-6.3357,"largura_km":225.896,"eixo_na_terra":true},{"t":1.64444,"lat":34.2048,"lon":-6.1844,"largura_km":226.042,"eixo_na_terra":true},{"t":1.65,"lat":34.2858,"lon":-6.0319,"largura_km":226.19,"eixo_na_terra":true},{"t":1.65556,"lat":34.3666,"lon":-5.8783,"largura_km":226.338,"eixo_na_terra":true},{"t":1.66111,"lat":34.4475,"lon":-5.7236,"largura_km":226.49,"eixo_na_terra":true},{"t":1.66667,"lat":34.5283,"lon":-5.5678,"largura_km":226.643,"eixo_na_terra":true},{"t":1.67222,"lat":34.6091,"lon":-5.4108,"largura_km":226.797,"eixo_na_terra":true},{"t":1.67778,"lat":34.6898,"lon":-5.2527,"largura_km":226.952,"eixo_na_terra":true},{"t":1.68333,"lat":34.7705,"lon":-5.0933,"largura_km":227.107,"eixo_na_terra":true},{"t":1.68889,"lat":34.8512,"lon":-4.9328,"largura_km":227.264,"eixo_na_terra":true},{"t":1.69444,"lat":34.9318,"lon":-4.771,"largura_km":227.423,"eixo_na_terra":true},{"t":1.7,"lat":35.0124,"lon":-4.608,"largura_km":227.585,"eixo_na_terra":true},{"t":1.70556,"lat":35.093,"lon":-4.4437,"largura_km":227.747,"eixo_na_terra":true},{"t":1.71111,"lat":35.1735,"lon":-4.2782,"largura_km":227.91,"eixo_na_terra":true},{"t":1.71667,"lat":35.254,"lon":-4.1114,"largura_km":228.075,"eixo_na_terra":true},{"t":1.72222,"lat":35.3344,"lon":-3.9433,"largura_km":228.24,"eixo_na_terra":true},{"t":1.72778,"lat":35.4148,"lon":-3.7738,"largura_km":228.408,"eixo_na_terra":true},{"t":1.73333,"lat":35.4951,"lon":-3.603,"largura_km":228.579,"eixo_na_terra":true},{"t":1.73889,"lat":35.5754,"lon":-3.4308,"largura_km":228.75,"eixo_na_terra":true},{"t":1.74444,"lat":35.6557,"lon":-3.2573,"largura_km":228.923,"eixo_na_terra":true},{"t":1.75,"lat":35.7359,"lon":-3.0824,"largura_km":229.097,"eixo_na_terra":true},{"t":1.75556,"lat":35.816,"lon":-2.906,"largura_km":229.271,"eixo_na_terra":true},{"t":1.76111,"lat":35.8961,"lon":-2.7282,"largura_km":229.448,"eixo_na_terra":true},{"t":1.76667,"lat":35.9761,"lon":-2.5489,"largura_km":229.627,"eixo_na_terra":true},{"t":1.77222,"lat":36.0561,"lon":-2.3681,"largura_km":229.809,"eixo_na_terra":true},{"t":1.77778,"lat":36.136,"lon":-2.1858,"largura_km":229.991,"eixo_na_terra":true},{"t":1.78333,"lat":36.2159,"lon":-2.002,"largura_km":230.175,"eixo_na_terra":true},{"t":1.78889,"lat":36.2957,"lon":-1.8166,"largura_km":230.36,"eixo_na_terra":true},{"t":1.79444,"lat":36.3754,"lon":-1.6296,"largura_km":230.549,"eixo_na_terra":true},{"t":1.8,"lat":36.4551,"lon":-1.441,"largura_km":230.739,"eixo_na_terra":true},{"t":1.80556,"lat":36.5346,"lon":-1.2508,"largura_km":230.931,"eixo_na_terra":true},{"t":1.81111,"lat":36.6142,"lon":-1.0589,"largura_km":231.124,"eixo_na_terra":true},{"t":1.81667,"lat":36.6936,"lon":-0.8653,"largura_km":231.319,"eixo_na_terra":true},{"t":1.82222,"lat":36.773,"lon":-0.67,"largura_km":231.515,"eixo_na_terra":true},{"t":1.82778,"lat":36.8523,"lon":-0.473,"largura_km":231.712,"eixo_na_terra":true},{"t":1.83333,"lat":36.9316,"lon":-0.2742,"largura_km":231.913,"eixo_na_terra":true},{"t":1.83889,"lat":37.0107,"lon":-0.0736,"largura_km":232.117,"eixo_na_terra":true},{"t":1.84444,"lat":37.0898,"lon":0.1289,"largura_km":232.321,"eixo_na_terra":true},{"t":1.85,"lat":37.1688,"lon":0.3332,"largura_km":232.528,"eixo_na_terra":true},{"t":1.85556,"lat":37.2476,"lon":0.5394,"largura_km":232.738,"eixo_na_terra":true},{"t":1.86111,"lat":37.3265,"lon":0.7476,"largura_km":232.951,"eixo_na_terra":true},{"t":1.86667,"lat":37.4052,"lon":0.9577,"largura_km":233.165,"eixo_na_terra":true},{"t":1.87222,"lat":37.4838,"lon":1.1698,"largura_km":233.381,"eixo_na_terra":true},{"t":1.87778,"lat":37.5623,"lon":1.384,"largura_km":233.598,"eixo_na_terra":true},{"t":1.88333,"lat":37.6407,"lon":1.6002,"largura_km":233.818,"eixo_na_terra":true},{"t":1.88889,"lat":37.719,"lon":1.8185,"largura_km":234.039,"eixo_na_terra":true},{"t":1.89444,"lat":37.7972,"lon":2.039,"largura_km":234.262,"eixo_na_terra":true},{"t":1.9,"lat":37.8753,"lon":2.2617,"largura_km":234.49,"eixo_na_terra":true},{"t":1.90556,"lat":37.9533,"lon":2.4867,"largura_km":234.72,"eixo_na_terra":true},{"t":1.91111,"lat":38.0311,"lon":2.7139,"largura_km":234.952,"eixo_na_terra":true},{"t":1.91667,"lat":38.1089,"lon":2.9434,"largura_km":235.189,"eixo_na_terra":true},{"t":1.92222,"lat":38.1865,"lon":3.1753,"largura_km":235.428,"eixo_na_terra":true},{"t":1.92778,"lat":38.264,"lon":3.4096,"largura_km":235.669,"eixo_na_terra":true},{"t":1.93333,"lat":38.3413,"lon":3.6463,"largura_km":235.912,"eixo_na_terra":true},{"t":1.93889,"lat":38.4185,"lon":3.8856,"largura_km":236.157,"eixo_na_terra":true},{"t":1.94444,"lat":38.4956,"lon":4.1275,"largura_km":236.404,"eixo_na_terra":true},{"t":1.95,"lat":38.5725,"lon":4.3719,"largura_km":236.653,"eixo_na_terra":true},{"t":1.95556,"lat":38.6493,"lon":4.6191,"largura_km":236.906,"eixo_na_terra":true},{"t":1.96111,"lat":38.7259,"lon":4.8689,"largura_km":237.163,"eixo_na_terra":true}]},"features":[{"type":"Feature","properties":{},"geometry":{"type":"Polygon","coordinates":[[[-19.31295011164056,25.77484190203079],[-18.809143327208176,26.26907011962846],[-18.552660026152353,26.516267045506368],[-18.205713697027363,26.8459498800029],[-17.941646383632047,27.093277475550163],[-17.67415668419983,27.34066117015505],[-17.29722837511997,27.68395240623859],[-16.928312177089992,28.014017618413106],[-16.64716191567075,28.261630212404942],[-16.266114885219167,28.59186303165596],[-15.975532394779151,28.839597724988256],[-15.664727904892231,29.100671755335387],[-15.36530859435021,29.348531557472523],[-14.959002554987478,29.679081151763757],[-14.648774759010763,29.92704192372233],[-14.333666652296046,30.17504059129438],[-14.013521435650432,30.4230733369156],[-13.670666358640574,30.68437656898964],[-13.33971784960309,30.932494289643603],[-13.003216894299072,31.180632230755315],[-12.660980510659755,31.428784605983353],[-12.312818234865716,31.676945054331195],[-11.939544983843888,31.938256177109025],[-11.578648885513786,32.1864419827431],[-11.21119582779599,32.43461321097819],[-10.836959923671998,32.68276075528574],[-10.45570504066572,32.93087469888785],[-10.176926744316717,33.10930126110806],[-9.783089941156135,33.35736560059605],[-9.381536510274174,33.605365626782124],[-9.109409127092107,33.770656640169456],[-8.694363794749734,34.01851897276156],[-8.39065485496576,34.19661650664084],[-7.960883237541793,34.444328295771285],[-7.66935853118278,34.609397577900836],[-7.224298356353813,34.85687960534122],[-6.922252286782225,35.02177760455628],[-6.615803731051528,35.18659614482438],[-6.123012485512362,35.446447429738576],[-5.804721817100557,35.611055600125034],[-5.481589277686396,35.7755587392562],[-4.98751611383409,36.02209837756228],[-4.6516779963789645,36.18630188769922],[-4.283869133955136,36.362974314491986],[-3.936832610950546,36.52691267064117],[-3.4055994172244937,36.77252265444464],[-3.044074097287478,36.93604764483199],[-2.6764417250055317,37.099386439471864],[-2.3025116927391593,37.262526047284055],[-1.8926727015384586,37.4378657764499],[-1.5050875731613473,37.60057799349593],[-1.1105597655365784,37.76304652624081],[-0.7088569536701925,37.92525481208413],[-0.29973456611915594,38.08718523264401],[0.14905274869963137,38.26098721697739],[0.5743372899363521,38.42231297454782],[1.0078786936040842,38.58329990220931],[1.4499822257837707,38.743925154598095],[1.9009713551234029,38.90416431111655],[2.396213997750664,39.07587765859002],[2.866673773441704,39.23526619131503],[3.3471429236581685,39.39418301286332],[3.8380375592105906,39.55259570297493],[4.594908498829653,39.78919242820209],[5.166679504754654,37.67626015991297],[4.715004147524411,37.53825748271776],[4.236842451421893,37.38828130055453],[3.5381678070985743,37.162175372125965],[3.0841966369529814,37.01072661795652],[2.639253134493515,36.858745407607415],[2.235720569785343,36.71793212922887],[1.8072979577907233,36.56497161280457],[1.3869686100406682,36.41155953690534],[0.9744486852363252,36.25771996179059],[0.5694697723384365,36.10347548052232],[0.17177771327322944,35.94884733092045],[-0.18923887163481368,35.805810596690286],[-0.5735095545194326,35.65046747839987],[-0.951166115084078,35.49479657528558],[-1.5057007042933606,35.260712097350634],[-1.8677084170676608,35.10429316098181],[-2.1965483052014463,34.959803056528045],[-2.5472449733295264,34.80284147355474],[-3.0628459529363,34.56694065807873],[-3.3998496346710283,34.40938563572656],[-3.731646100301276,34.25161377835583],[-4.058379983847686,34.09363591445065],[-4.514591255706392,33.86870565608014],[-4.829568675913663,33.71024299041307],[-5.29343086412706,33.472228298277926],[-5.5971110152998165,33.31335041289441],[-6.044574717763311,33.07475135227777],[-6.460003985587264,32.84841499822393],[-6.747324514095624,32.688958475901586],[-7.030739949335413,32.529378203982354],[-7.448748881905999,32.2897892677241],[-7.7228119634478105,32.12992613855105],[-8.12721126968168,31.88993940989246],[-8.503092968424795,31.662460234776344],[-8.892514837617625,31.422034933457628],[-9.14807672728108,31.2616484115102],[-9.525524321269188,31.02092463527207],[-9.89610907216516,30.780039827118813],[-10.2409099602379,30.551865913082647],[-10.480147746725407,30.391083187420914],[-10.833786228830547,30.149801886714457],[-11.181343258460288,29.90840088229254],[-11.52301414056285,29.66688956408538],[-11.858986324040444,29.425276624175655],[-12.171912077096351,29.19653114652456],[-12.497244989957466,28.954713544618293],[-12.817391616443558,28.71281692065812],[-13.132512567088781,28.470847590139584],[-13.442762585687916,28.228811356982746],[-13.832907075884577,27.919066020291478],[-14.132552443255008,27.676869469440582],[-14.427798336717473,27.434622389660195],[-14.718777738549079,27.19232869168489],[-15.005619240583485,26.949991909836513],[-15.381852329179594,26.62681462543379],[-15.736403105941406,26.316707109284966],[-16.0092613338974,26.074214617126636],[-16.27852521771885,25.831691522675914],[-16.63213829286167,25.50828277791511],[-16.893428982222332,25.265694623991674],[-17.236782503358967,24.942203813546595],[-17.49064840886396,24.699556887623046],[-17.810945343615032,24.38917050020754],[-19.31295011164056,25.77484190203079]]]}}]}