{"type":"FeatureCollection","features":[{"type":"Feature","properties":{"t_inicio":1.0222222222222044,"t_fim":1.96111111111109},"geometry":{"type":"LineString","coordinates":[[-18.565656390909083,25.07385823042165],[-18.48262027117309,25.155476735328868],[-18.399258814628638,25.237096902045693],[-18.315568619048577,25.31871873883889],[-18.23154625220434,25.40034225163402],[-18.147188251381664,25.48196744397877],[-18.06249112288731,25.56359431700548],[-17.977451341547436,25.645222869392796],[-17.89206535019656,25.726853097326543],[-17.80632955915766,25.808484994459683],[-17.72024034571271,25.89011855187135],[-17.633794053563406,25.971753758025006],[-17.54698699228237,26.053390598725674],[-17.459815436753814,26.135029057076142],[-17.372275626604107,26.216669113432232],[-17.284363765621663,26.2983107453571],[-17.196076021165766,26.379953927574398],[-17.10740852356443,26.46159863192049],[-17.018357365500805,26.543244827295535],[-16.928918601387664,26.624892479613358],[-16.839088246730114,26.70654155175046],[-16.748862277475837,26.78819200349357],[-16.65823662935273,26.86984379148615],[-16.567207197193653,26.951496869173685],[-16.475769834247785,27.033151186747606],[-16.38392035147848,27.114806691088127],[-16.29165451684713,27.19646332570553],[-16.198968054582622,27.27812103068028],[-16.10585664443616,27.35977974260164],[-16.012315920921054,27.44143939450495],[-15.918341472536895,27.52309991580738],[-15.823928840978084,27.604761232242197],[-15.729073520325812,27.686423265791547],[-15.633770956223401,27.768085934617584],[-15.538016545034651,27.84974915299206],[-15.441805632984313,27.931412831224137],[-15.345133515280594,28.01307687558669],[-15.247995435218968,28.094741188240643],[-15.150386583267107,28.17640566715757],[-15.052302096129893,28.258070206040653],[-14.953737055794647,28.33973469424335],[-14.85468648855533,28.4213990166865],[-14.755145364015618,28.503063053773182],[-14.655108594070214,28.584726681301625],[-14.554571031863418,28.66638977037594],[-14.453527470724993,28.748052187314734],[-14.351972643081808,28.82971379355745],[-14.249901219345446,28.91137444556848],[-14.147307806774592,28.993033994738735],[-14.044186948311392,29.07469228728504],[-13.940533121391553,29.15634916414679],[-13.836340736726811,29.23800446088022],[-13.731604137059435,29.319658007549908],[-13.626317595887741,29.401309628617575],[-13.520475316161708,29.482959142828143],[-13.414071428948063,29.564606363092878],[-13.307099992063456,29.64625109636945],[-13.199554988675487,29.727893143539134],[-13.091430325869936,29.809532299280725],[-12.982719833183523,29.89116835194122],[-12.873417261101082,29.97280108340321],[-12.763516279516068,30.054430268948725],[-12.65301047615327,30.136055677119717],[-12.541893354952549,30.217677069574613],[-12.430158334412454,30.29929420094135],[-12.317798745892219,30.380906818666354],[-12.204807831871335,30.462514662859608],[-12.091178744164722,30.544117466135482],[-11.97690454209257,30.625714953449407],[-11.86197819060331,30.707306841930016],[-11.74639255834802,30.788892840706886],[-11.630140415704744,30.870472650733458],[-11.513214432751312,30.95204596460515],[-11.395607177184786,31.033612466372524],[-11.277311112185686,31.11517183134919],[-11.158318594225449,31.19672372591448],[-11.038621870814922,31.278267807310513],[-10.918213078192025,31.359803723433586],[-10.79708423894678,31.441331112619757],[-10.675227259580907,31.522849603424163],[-10.552633928000716,31.604358814394267],[-10.429295910939942,31.685858353836366],[-10.305204751310924,31.767347819575555],[-10.180351865481214,31.848826798708593],[-10.054728540473064,31.930294867349613],[-9.928325931083066,32.01175159036834],[-9.801135056919122,32.09319652112061],[-9.673146799351912,32.17462920117087],[-9.544351898377329,32.25604916000634],[-9.414740949387209,32.33745591474266],[-9.284304399844643,32.418848969820594],[-9.153032545860356,32.500227816693496],[-9.020915528666677,32.5815919335052],[-8.887943330985053,32.66294078475805],[-8.754105773283356,32.74427382097057],[-8.619392509918384,32.82559047832445],[-8.483793025159656,32.90689017830055],[-8.34729662908964,32.98817232730322],[-8.209892453375602,33.069436316272814],[-8.0715694469082,33.15068152028579],[-7.932316371301624,33.23190729814181],[-7.792121796249518,33.31311299193752],[-7.650974094731168,33.394297926626415],[-7.508861438062041,33.47546140956421],[-7.365771790781793,33.556602730038975],[-7.221692905373828,33.63772115878595],[-7.076612316809104,33.71881594748573],[-6.930517336906746,33.79988632824555],[-6.78339504850419,33.88093151306299],[-6.635232299428395,33.96195069327116],[-6.486015696260182,34.042943038964665],[-6.335731597882358,34.12390769840568],[-6.184366108802379,34.20484379740901],[-6.031905072240193,34.28575043870556],[-5.878334062970225,34.3666267012829],[-5.723638379907186,34.44747163970227],[-5.567803038424046,34.52828428339093],[-5.410812762390179,34.60906363590831],[-5.252651975916791,34.689808674185656],[-5.09330479479658,34.77051834773692],[-4.93275501762318,34.85119157784066],[-4.770986116575614,34.93182725669057],[-4.607981227852093,35.01242424651414],[-4.4437231417362,35.09298137865722],[-4.278194292278414,35.17349745263324],[-4.111376746573882,35.25397123513538],[-3.9432521936169564,35.3344014590098],[-3.773801932711905,35.41478682218811],[-3.603006861417583,35.49512598657707],[-3.430847463002351,35.575417576903384],[-3.2573037933855176,35.65566017951134],[-3.0823554675376954,35.73585234111101],[-2.9059816453136307,35.81599256747443],[-2.728161016686812,35.896079322076965],[-2.5488717863550505,35.97611102468125],[-2.368091657683607,36.05608604986048],[-2.1857978159500817,36.136002725458155],[-2.0019669108535822,36.21585933098035],[-1.8165750382477768,36.29565409591746],[-1.6295977210550632,36.37538519799114],[-1.4410098893160352,36.45505076132257],[-1.25078585932539,36.534648854517464],[-1.0588993118026906,36.61417748866336],[-0.865323269041653,36.69363461523397],[-0.6700300709790952,36.773018123895405],[-0.4729913501196563,36.85232584020849],[-0.2741780052482454,36.93155552322121],[-0.07356017385728819,37.01070486294436],[0.12889279678955745,37.08977147770393],[0.3332123800409761,37.16875291136222],[0.5394309017790704,37.24764663040003],[0.7475815739747134,37.326450020850864],[0.957698529981684,37.40516038507823],[1.1698168616810563,37.483774938385764],[1.3839726585971448,37.56229080544938],[1.600203049115379,37.64070501656003],[1.8185462439420235,37.719014503664404],[2.039041581958344,37.79721609619005],[2.2617295786328384,37.875306516640286],[2.4866519771696574,37.95328237594306],[2.7138518025854523,38.03114016853685],[2.943373418923528,38.108876267174665],[3.1752625898319877,38.1864869174264],[3.4095665427519464,38.26396823185747],[3.6463340369841433,38.34131618385985],[3.8856154359252457,38.41852660111006],[4.127462783792424,38.49559515862534],[4.371929887183455,38.57251737138774],[4.6190724018515255,38.64928858650223],[4.8689479251110015,38.725903974852166]]}}]}