{"type":"FeatureCollection","features":[{"type":"Feature","properties":{"magnitude":0.8,"percentagem":80.0,"territorio":"continente"},"geometry":{"type":"LineString","coordinates":[[-5.540000000000106,41.22304046636578],[-5.580000000000105,41.20538948509819],[-5.59219393318698,41.19999999999989],[-5.620000000000104,41.18770616313583],[-5.660000000000103,41.16998989548374],[-5.682516890137916,41.15999999999989],[-5.700000000000102,41.15224080241166],[-5.7400000000001015,41.13445899941431],[-5.7724666721236195,41.11999999999989],[-5.780000000000101,41.116643906166004],[-5.8200000000001,41.09879631763509],[-5.860000000000099,41.080915062798475],[-5.862043932000856,41.07999999999989],[-5.900000000000098,41.06300136804829],[-5.940000000000097,41.045053957577046],[-5.951246109290168,41.03999999999989],[-5.980000000000096,41.0270736657045],[-6.0200000000000955,41.00905984642194],[-6.040083890692896,40.99999999999989],[-6.060000000000095,40.991012722793855],[-6.100000000000094,40.97293224028823],[-6.128560001538245,40.959999999999894],[-6.140000000000093,40.95481804863776],[-6.180000000000092,40.936670647260044],[-6.216677144272823,40.919999999999895],[-6.22000000000009,40.91848914968049],[-6.26000000000009,40.90027457254234],[-6.3000000000000895,40.88202567093268],[-6.3044334211503,40.879999999999896],[-6.340000000000089,40.86374351845294],[-6.380000000000088,40.845427061407136],[-6.391833044802919,40.8399999999999],[-6.420000000000087,40.82707698441464],[-6.460000000000086,40.80869271203195],[-6.478882082482301,40.7999999999999],[-6.500000000000085,40.7902744669476],[-6.540000000000084,40.771822118082135],[-6.565583140715839,40.759999999999906],[-6.580000000000084,40.75333545966185],[-6.620000000000083,40.73481477192093],[-6.651938804138062,40.7199999999999],[-6.660000000000082,40.716259453250025],[-6.700000000000081,40.69767016299272],[-6.737951635669784,40.6799999999999],[-6.74000000000008,40.67904593548041],[-6.780000000000079,40.660387777816005],[-6.820000000000078,40.64169449750458],[-6.823620519361613,40.6399999999999],[-6.860000000000078,40.622967099976734],[-6.900000000000077,40.60420456117019],[-6.908949936881444,40.5999999999999],[-6.940000000000076,40.58540761012179],[-6.980000000000075,40.566575544897425],[-6.993944455192064,40.5599999999999],[-7.020000000000074,40.547708785952636],[-7.060000000000073,40.528806925134475],[-7.078606546204447,40.519999999999904],[-7.1000000000000725,40.50987010221934],[-7.140000000000072,40.49089817537719],[-7.162938661037776,40.479999999999905],[-7.180000000000071,40.471891030714644],[-7.22000000000007,40.452848766163356],[-7.246943230186258,40.439999999999905],[-7.260000000000069,40.43377104026851],[-7.300000000000068,40.414658165067195],[-7.330622663684282,40.399999999999906],[-7.340000000000067,40.39550959674266],[-7.3800000000000665,40.376325836694214],[-7.413979351269795,40.35999999999991],[-7.420000000000066,40.35710616302558],[-7.460000000000065,40.3378512426762],[-7.497015662546019,40.31999999999991],[-7.500000000000064,40.31856019902771],[-7.540000000000063,40.29923384166658],[-7.579733947141239,40.27999999999991],[-7.580000000000063,40.27987116167686],[-7.620000000000061,40.260473089335925],[-7.6600000000000605,40.241038557733766],[-7.662134455471299,40.23999999999991],[-7.70000000000006,40.2215684383679],[-7.740000000000059,40.20206178210711],[-7.744221637558206,40.19999999999991],[-7.780000000000058,40.18251933845535],[-7.820000000000057,40.16294027652779],[-7.825998038474387,40.15999999999991],[-7.860000000000056,40.143325236296725],[-7.900000000000055,40.123673486437966],[-7.907465924144977,40.11999999999991],[-7.940000000000055,40.10398557559286],[-7.980000000000054,40.08426085428252],[-7.98862754134316,40.07999999999991],[-8.020000000000053,40.06449979704392],[-8.060000000000052,40.0447018195063],[-8.069485117839726,40.039999999999914],[-8.100000000000051,40.024867338346844],[-8.14000000000005,40.00499581855161],[-8.150040862550659,39.999999999999915],[-8.18000000000005,39.98508763419292],[-8.220000000000049,39.965142284856],[-8.230296965683465,39.959999999999916],[-8.260000000000048,39.94516011626588],[-8.300000000000047,39.92514064885042],[-8.310255598881737,39.919999999999916],[-8.340000000000046,39.90508421324009],[-8.380000000000045,39.88499033795761],[-8.389918915368199,39.87999999999992],[-8.420000000000044,39.86485935077925],[-8.460000000000043,39.844690776591094],[-8.469289050086726,39.83999999999992],[-8.500000000000043,39.82448495153546],[-8.540000000000042,39.804241386154175],[-8.548368119842175,39.79999999999992],[-8.580000000000041,39.78396043514855],[-8.62000000000004,39.763641585039544],[-8.62715822343922,39.75999999999992],[-8.66000000000004,39.74328521824574],[-8.700000000000038,39.72289078862918],[-8.705661441819752,39.71999999999992],[-8.740000000000038,39.70245871444183],[-8.780000000000037,39.68198840929455],[-8.783879838198619,39.67999999999992],[-8.820000000000036,39.6614803343396],[-8.860000000000035,39.640933856397325],[-8.861815458198167,39.63999999999992],[-8.900000000000034,39.620349485530724],[-8.939469842948217,39.59999999999992],[-8.940000000000033,39.599726544972555],[-8.980000000000032,39.57906557259694],[-9.016843575493585,39.559999999999924],[-9.020000000000032,39.55836590223391],[-9.06000000000003,39.5376279971118],[-9.09394032969254,39.519999999999925],[-9.10000000000003,39.51685129720849],[-9.140000000000029,39.49603615764266],[-9.17076208676096,39.479999999999926],[-9.180000000000028,39.47518212668935],[-9.220000000000027,39.45428944975322],[-9.247310810933449,39.43999999999993],[-9.260000000000026,39.433357784465606],[-9.300000000000026,39.41238726600636],[-9.323588449590112,39.39999999999993],[-9.340000000000025,39.39137766132549],[-9.380000000000024,39.370328995967554],[-9.399596933382384,39.35999999999993],[-9.420000000000023,39.349241145060084],[-9.460000000000022,39.328114026208596],[-9.475338176357278,39.31999999999993],[-9.500000000000021,39.3069476204672],[-9.54000000000002,39.285741740311906],[-9.550814076080616,39.27999999999993],[-9.58000000000002,39.26449646935598],[-9.620000000000019,39.24321151887517],[-9.626026513758958,39.23999999999993],[-9.660000000000018,39.22188707055186],[-9.700000000000017,39.20052273951656],[-9.700977354360287,39.19999999999993],[-9.740000000000016,39.17911879990195],[-9.77566461954864,39.15999999999993],[-9.780000000000015,39.157674820128534],[-9.820000000000014,39.136191030281],[-9.850092911907195,39.11999999999993],[-9.860000000000014,39.11466709537176],[-9.900000000000013,39.09310313159779],[-9.924264919571016,39.079999999999934],[-9.940000000000012,39.07149892303099],[-9.980000000000011,39.04985447080211],[-9.99818244796531,39.039999999999935],[-10.02000000000001,39.02816966829009],[-10.06000000000001,39.00644441189212],[-10.071847286826271,38.999999999999936],[-10.100000000000009,38.9846786933839],[-10.140000000000008,38.96287231592232],[-10.145261210315141,38.95999999999994],[-10.180000000000007,38.941025357606414],[-10.218424616084304,38.91999999999994],[-10.220000000000008,38.919137550898],[-10.260000000000005,38.897209017319604],[-10.291335875042252,38.87999999999994],[-10.300000000000004,38.87523949114379],[-10.340000000000003,38.85322902596278],[-10.364001286785964,38.83999999999994],[-10.380000000000003,38.83117745193583],[-10.420000000000002,38.80908473406244],[-10.43642256831994,38.79999999999994],[-10.46,38.78695078205115],[-10.5,38.76477548924275]]}},{"type":"Feature","properties":{"magnitude":0.9,"percentagem":90.0,"territorio":"continente"},"geometry":{"type":"LineString","coordinates":[[-5.540000000000106,37.28451433138989],[-5.5493920555343434,37.27999999999997],[-5.580000000000105,37.26528179410487],[-5.620000000000104,37.24601197445364],[-5.632459110191164,37.239999999999974],[-5.660000000000103,37.22670472816839],[-5.700000000000102,37.20736004742514],[-5.715193386652599,37.199999999999974],[-5.7400000000001015,37.1879778017731],[-5.780000000000101,37.168557966793365],[-5.797597462384342,37.159999999999975],[-5.8200000000001,37.14910042955541],[-5.860000000000099,37.12960514589218],[-5.879673891934191,37.119999999999976],[-5.900000000000098,37.110072022993194],[-5.940000000000097,37.09050099489822],[-5.961425207125276,37.07999999999997],[-5.980000000000097,37.07089199040389],[-6.0200000000000955,37.05124492082908],[-6.042853917247076,37.03999999999998],[-6.060000000000095,37.031559736942924],[-6.100000000000094,37.01183632754184],[-6.123962509244095,36.99999999999998],[-6.140000000000093,36.99207466460239],[-6.180000000000092,36.9722746157321],[-6.204753447902608,36.95999999999998],[-6.22000000000009,36.95243617221027],[-6.26000000000009,36.93255918293324],[-6.285229176035312,36.91999999999998],[-6.3000000000000895,36.912643655430024],[-6.340000000000089,36.89268942351618],[-6.365392114663575,36.87999999999998],[-6.380000000000088,36.87269650676044],[-6.420000000000087,36.85266472868965],[-6.44524466319834,36.83999999999999],[-6.460000000000086,36.83259411553624],[-6.500000000000085,36.81248448650064],[-6.52478919961815,36.79999999999998],[-6.540000000000084,36.792335867928614],[-6.580000000000084,36.77214808183542],[-6.604028080645909,36.759999999999984],[-6.620000000000083,36.75192114694673],[-6.660000000000082,36.731654896421055],[-6.682963641923268,36.719999999999985],[-6.700000000000081,36.711349332439184],[-6.74000000000008,36.69100430882727],[-6.761598198183383,36.679999999999986],[-6.780000000000079,36.67061980109634],[-6.820000000000078,36.65019569446877],[-6.839934043421484,36.639999999999986],[-6.860000000000078,36.62973192645281],[-6.900000000000077,36.609228425608094],[-6.917973451063858,36.59999999999999],[-6.940000000000076,36.58868507889059],[-6.980000000000075,36.56810187135881],[-6.995718674134651,36.55999999999999],[-7.020000000000074,36.54747862564257],[-7.060000000000073,36.526815397689475],[-7.073171945421389,36.51999999999999],[-7.1000000000000725,36.50611193079658],[-7.140000000000072,36.485368367427654],[-7.15033547763793,36.47999999999999],[-7.180000000000072,36.464584355299976],[-7.22000000000007,36.44376014026492],[-7.227211463586629,36.43999999999999],[-7.260000000000069,36.42289525696467],[-7.300000000000068,36.40199007276197],[-7.303802076317711,36.39999999999999],[-7.340000000000067,36.38104399047265],[-7.3800000000000665,36.36005751835452],[-7.38010946928787,36.35999999999999],[-7.420000000000066,36.33902990738219],[-7.45613193095676,36.31999999999999],[-7.460000000000065,36.3179617523664],[-7.500000000000064,36.296852356134416],[-7.5318750656088636,36.279999999999994],[-7.540000000000063,36.27570218347839],[-7.580000000000062,36.25451068206051],[-7.607341083428896,36.239999999999995],[-7.620000000000061,36.23327815719145],[-7.6600000000000605,36.21200422738948],[-7.682532066222296,36.199999999999996],[-7.70000000000006,36.19068901386227],[-7.740000000000059,36.16933233125648],[-7.757450076918298,36.16],[-7.780000000000058,36.14793409075635],[-7.820000000000057,36.12649432971169],[-7.832097159718778,36.12],[-7.860000000000056,36.1050127220572],[-7.900000000000055,36.08348955572989],[-7.906475340245913,36.08],[-7.940000000000055,36.061924238876266],[-7.980000000000054,36.04031733922047],[-7.980586625687785,36.04],[-8.020000000000053,36.01866796926326],[-8.05442762192525,36.0]]}},{"type":"Feature","properties":{"magnitude":0.6,"percentagem":60.0,"territorio":"acores"},"geometry":{"type":"LineString","coordinates":[[-24.04000000000017,38.66044670110006],[-24.064490678246713,38.639999999999944],[-24.08000000000017,38.62704213900891],[-24.11232868623292,38.599999999999945],[-24.120000000000168,38.59357842900154],[-24.160000000000167,38.56005548231942],[-24.16006613365447,38.559999999999945],[-24.200000000000166,38.52647315874884],[-24.207701155133297,38.519999999999946],[-24.240000000000165,38.49283141382105],[-24.25523655062218,38.47999999999995],[-24.280000000000165,38.459130159883316],[-24.302672745749398,38.43999999999995],[-24.320000000000164,38.425369309455434],[-24.35001016466568,38.39999999999995],[-24.360000000000163,38.39154877523758],[-24.397249230049653,38.35999999999994],[-24.40000000000016,38.35766847011827],[-24.44000000000016,38.323728263652924],[-24.44438906595285,38.31999999999995],[-24.48000000000016,38.289728079257074],[-24.491430625679694,38.27999999999995],[-24.52000000000016,38.25566785620623],[-24.538375144537955,38.23999999999995],[-24.56000000000016,38.22154750843467],[-24.585223038772213,38.19999999999995],[-24.600000000000158,38.18736695010509],[-24.63197472318309,38.159999999999954],[-24.640000000000157,38.15312609561687],[-24.678630611132558,38.11999999999995],[-24.680000000000156,38.11882485961463],[-24.720000000000155,38.08446308709749],[-24.725189643973614,38.079999999999956],[-24.760000000000154,38.05004073887949],[-24.771653362609324,38.03999999999996],[-24.800000000000153,38.015557748202866],[-24.81802256590771,37.99999999999996],[-24.840000000000153,37.98101403098503],[-24.864297660943713,37.95999999999996],[-24.88000000000015,37.94640950343127],[-24.910479053381398,37.91999999999996],[-24.920000000000154,37.911744082043775],[-24.956567147479056,37.87999999999996],[-24.96000000000015,37.877017683630505],[-25.00000000000015,37.842230181957774],[-25.002561651584827,37.83999999999996],[-25.04000000000015,37.807381476289564],[-25.048462771529856,37.79999999999996],[-25.080000000000148,37.772471540648795],[-25.094271843444794,37.75999999999996],[-25.120000000000147,37.73750029335714],[-25.139989265445806,37.71999999999996],[-25.160000000000146,37.70246765308749],[-25.18561543427086,37.679999999999964],[-25.200000000000145,37.667373538873555],[-25.231150745284744,37.639999999999965],[-25.240000000000144,37.63221787011932],[-25.276595592484043,37.599999999999966],[-25.280000000000143,37.59700056660878],[-25.320000000000142,37.5617215078658],[-25.32194986742045,37.55999999999997],[-25.36000000000014,37.52638058189445],[-25.36721362393698,37.51999999999997],[-25.40000000000014,37.49097777886321],[-25.412388132218993,37.47999999999997],[-25.44000000000014,37.45551302036301],[-25.457473780285973,37.43999999999997],[-25.48000000000014,37.41998622841327],[-25.50247095481634,37.39999999999997],[-25.520000000000138,37.38439732547205],[-25.547380041152447,37.35999999999997],[-25.560000000000134,37.348746234446295],[-25.592201423305426,37.31999999999997],[-25.600000000000136,37.31303287870213],[-25.63693548396029,37.27999999999997],[-25.640000000000136,37.27725718207535],[-25.680000000000135,37.241419029086266],[-25.681582223289645,37.239999999999974],[-25.720000000000134,37.20551830609868],[-25.72614169649531,37.199999999999974],[-25.760000000000133,37.16955501397281],[-25.770615025505876,37.159999999999975],[-25.800000000000132,37.13352907870434],[-25.81500258721359,37.119999999999976],[-25.84000000000013,37.09744042681064],[-25.85930475721127,37.07999999999998],[-25.88000000000013,37.06128898534149],[-25.903521909796964,37.03999999999998],[-25.92000000000013,37.02507468189014],[-25.947654417979045,36.99999999999998],[-25.96000000000013,36.98879744460446],[-25.991702653480942,36.95999999999998],[-26.000000000000124,36.95245720219791],[-26.03566698674609,36.91999999999998],[-26.040000000000127,36.91605388396103],[-26.079547786942744,36.87999999999998],[-26.080000000000126,36.879587419772534],[-26.120000000000125,36.84305763899019],[-26.12334468265458,36.83999999999998],[-26.160000000000124,36.80646455907423],[-26.167058711245783,36.79999999999998],[-26.200000000000124,36.76980812533347],[-26.210690338341344,36.759999999999984],[-26.240000000000123,36.733088270271935],[-26.254239927541253,36.719999999999985],[-26.280000000000122,36.69630492703813],[-26.297707841196534,36.679999999999986],[-26.32000000000012,36.659458029436834],[-26.341094440414032,36.639999999999986],[-26.36000000000012,36.62254751194099],[-26.384400085061237,36.59999999999999],[-26.40000000000012,36.58557330970374],[-26.427625133771045,36.55999999999999],[-26.44000000000012,36.548535358570426],[-26.470769943946635,36.51999999999998],[-26.480000000000118,36.51143359509076],[-26.5138348717661,36.47999999999999],[-26.520000000000117,36.474267956530994],[-26.556820272187416,36.44],[-26.560000000000116,36.43703838088637],[-26.599726498953,36.39999999999999],[-26.600000000000115,36.399744806893345],[-26.640000000000114,36.36238708266639],[-26.64255340097442,36.35999999999999],[-26.680000000000113,36.32496523045981],[-26.685301804661396,36.31999999999999],[-26.720000000000113,36.287479201102784],[-26.72797211408988,36.279999999999994],[-26.76000000000011,36.24992893655347],[-26.770564677696566,36.239999999999995],[-26.80000000000011,36.212314379572476],[-26.813079842728495,36.199999999999996],[-26.84000000000011,36.17463547373555],[-26.855517955247624,36.16],[-26.88000000000011,36.136892163446525],[-26.897879360135576,36.12],[-26.92000000000011,36.09908439395038],[-26.94016440109843,36.08],[-26.960000000000107,36.06121211134629],[-26.982373420671323,36.04],[-27.000000000000107,36.023275262600734],[-27.02450676022319,36.0]]}},{"type":"Feature","properties":{"magnitude":0.9,"percentagem":90.0,"territorio":"madeira"},"geometry":{"type":"LineString","coordinates":[[-15.040000000000063,31.482244212274125],[-15.069101276328103,31.459999999999958],[-15.080000000000062,31.45166287102217],[-15.120000000000061,31.42102166289723],[-15.121332049078497,31.41999999999996],[-15.16000000000006,31.390319221018387],[-15.173424907425147,31.37999999999996],[-15.20000000000006,31.359556852965795],[-15.225387262967134,31.33999999999996],[-15.240000000000059,31.328734444372305],[-15.277219710562662,31.29999999999996],[-15.280000000000058,31.297851880765784],[-15.320000000000057,31.266907839563675],[-15.328917374359914,31.259999999999962],[-15.360000000000056,31.23590303572545],[-15.380484731703085,31.219999999999963],[-15.400000000000057,31.204837728554505],[-15.431924079503304,31.179999999999964],[-15.440000000000055,31.17371180349915],[-15.480000000000054,31.142524698023557],[-15.483234045885862,31.139999999999965],[-15.520000000000053,31.1112756314256],[-15.53441239431157,31.099999999999966],[-15.560000000000052,31.07996559941354],[-15.58546460469848,31.059999999999967],[-15.600000000000051,31.04859448745911],[-15.636391254258836,31.019999999999968],[-15.64000000000005,31.01716218098712],[-15.68000000000005,30.9856675412086],[-15.68718864292266,30.97999999999997],[-15.720000000000049,30.954110964631656],[-15.737859585926833,30.93999999999997],[-15.760000000000048,30.922492847282875],[-15.788406805470652,30.89999999999997],[-15.800000000000047,30.89081307474604],[-15.838830869047532,30.85999999999997],[-15.840000000000046,30.859071532593138],[-15.880000000000045,30.82726676989435],[-15.889127008804387,30.819999999999972],[-15.920000000000044,30.79539983725889],[-15.939300551053922,30.779999999999973],[-15.960000000000043,30.763470790539557],[-15.989352741099205,30.739999999999974],[-16.000000000000043,30.731479515610584],[-16.039284136861237,30.699999999999974],[-16.040000000000042,30.699425898371526],[-16.08000000000004,30.667308457788486],[-16.089090077044258,30.659999999999975],[-16.12000000000004,30.635128339538852],[-16.138776030891872,30.619999999999976],[-16.16000000000004,30.602885536835387],[-16.1883429611441,30.579999999999977],[-16.20000000000004,30.570579936031077],[-16.237791416294467,30.53999999999998],[-16.240000000000038,30.538211423543515],[-16.280000000000037,30.505778787519],[-16.287117931730727,30.49999999999998],[-16.320000000000036,30.473282675084814],[-16.336325920317368,30.45999999999998],[-16.360000000000035,30.440723311712112],[-16.385417171938283,30.41999999999998],[-16.400000000000034,30.408100584431043],[-16.434392225803183,30.37999999999998],[-16.440000000000033,30.375414380377897],[-16.480000000000032,30.34266407265713],[-16.483249821725373,30.339999999999982],[-16.52000000000003,30.30984918313401],[-16.531989282049402,30.299999999999983],[-16.56000000000003,30.27697048106371],[-16.58061425071987,30.259999999999984],[-16.60000000000003,30.244027854362223],[-16.62912525780483,30.219999999999985],[-16.64000000000003,30.211021191095412],[-16.677522831354878,30.179999999999986],[-16.680000000000028,30.177950379488227],[-16.720000000000027,30.144814361816714],[-16.72580436065914,30.139999999999986],[-16.760000000000026,30.11161357462813],[-16.77397225961076,30.099999999999987],[-16.800000000000026,30.078348308219397],[-16.822028392626123,30.059999999999988],[-16.840000000000025,30.04501845180735],[-16.869973278785547,30.01999999999999],[-16.880000000000024,30.01162389481435],[-16.91780743518854,29.979999999999993],[-16.920000000000027,29.978164526877862],[-16.960000000000022,29.944639310517402],[-16.96552845944782,29.93999999999999],[-17.00000000000002,29.91104870199574],[-17.013138712304848,29.89999999999999],[-17.04000000000002,29.877392957496337],[-17.060639865251325,29.859999999999992],[-17.08000000000002,29.84367196787306],[-17.108032426586135,29.819999999999993],[-17.12000000000002,29.80988562424418],[-17.15531690266389,29.779999999999994],[-17.160000000000018,29.77603381800266],[-17.200000000000017,29.74211601108423],[-17.202492514251,29.739999999999995],[-17.240000000000016,29.708131728044517],[-17.249558712972533,29.699999999999996],[-17.280000000000015,29.674081664203698],[-17.29651841927336,29.659999999999997],[-17.320000000000014,29.63996571240785],[-17.343372130875473,29.619999999999997],[-17.360000000000014,29.605783765829678],[-17.39012034359277,29.58],[-17.400000000000013,29.571535717979536],[-17.436763551337442,29.54],[-17.440000000000012,29.53722146271632],[-17.48000000000001,29.502840307099685],[-17.48330059568535,29.5]]}}]}