{"type":"FeatureCollection","properties":{"largura_maxima_km":413.271,"largura_sobre_pt_km":409.021,"linha_central_sobre_pt":false,"desenhavel_como_area":true,"perfil_largura":[{"t":1.59444,"lat":25.0623,"lon":-10.167,"largura_km":409.021,"eixo_na_terra":true},{"t":1.6,"lat":25.2446,"lon":-9.7763,"largura_km":410.109,"eixo_na_terra":true},{"t":1.60556,"lat":25.4338,"lon":-9.3712,"largura_km":411.465,"eixo_na_terra":true},{"t":1.61111,"lat":25.6304,"lon":-8.9505,"largura_km":413.271,"eixo_na_terra":true},{"t":1.61667,"lat":27.1801,"lon":-6.1578,"largura_km":null,"eixo_na_terra":false},{"t":1.62222,"lat":27.552,"lon":-5.3754,"largura_km":null,"eixo_na_terra":false},{"t":1.62778,"lat":27.6536,"lon":-5.0812,"largura_km":null,"eixo_na_terra":false},{"t":1.63333,"lat":27.8499,"lon":-4.6329,"largura_km":null,"eixo_na_terra":false},{"t":1.63889,"lat":28.0793,"lon":-4.0987,"largura_km":null,"eixo_na_terra":false},{"t":1.64444,"lat":28.0766,"lon":-3.9812,"largura_km":null,"eixo_na_terra":false},{"t":1.65,"lat":27.991,"lon":-4.0198,"largura_km":null,"eixo_na_terra":false},{"t":1.65556,"lat":28.1328,"lon":-3.6999,"largura_km":null,"eixo_na_terra":false},{"t":1.66111,"lat":28.0685,"lon":-3.6269,"largura_km":null,"eixo_na_terra":false},{"t":1.66667,"lat":28.2756,"lon":-3.0981,"largura_km":null,"eixo_na_terra":false},{"t":1.67222,"lat":28.2421,"lon":-3.1272,"largura_km":null,"eixo_na_terra":false},{"t":1.67778,"lat":28.4021,"lon":-2.706,"largura_km":null,"eixo_na_terra":false},{"t":1.68333,"lat":28.585,"lon":-2.2398,"largura_km":null,"eixo_na_terra":false},{"t":1.68889,"lat":28.388,"lon":-2.3509,"largura_km":null,"eixo_na_terra":false},{"t":1.69444,"lat":28.3027,"lon":-2.4955,"largura_km":null,"eixo_na_terra":false},{"t":1.7,"lat":28.4216,"lon":-2.1365,"largura_km":null,"eixo_na_terra":false},{"t":1.70556,"lat":28.5602,"lon":-1.7338,"largura_km":null,"eixo_na_terra":false},{"t":1.71111,"lat":28.735,"lon":-1.2499,"largura_km":null,"eixo_na_terra":false},{"t":1.71667,"lat":28.7735,"lon":-1.178,"largura_km":null,"eixo_na_terra":false},{"t":1.72222,"lat":28.7028,"lon":-1.0471,"largura_km":null,"eixo_na_terra":false},{"t":1.72778,"lat":28.9962,"lon":-0.2976,"largura_km":null,"eixo_na_terra":false},{"t":1.73333,"lat":29.198,"lon":0.0623,"largura_km":null,"eixo_na_terra":false},{"t":1.73889,"lat":29.1444,"lon":0.1184,"largura_km":null,"eixo_na_terra":false},{"t":1.74444,"lat":29.2668,"lon":0.5104,"largura_km":null,"eixo_na_terra":false},{"t":1.75,"lat":29.5754,"lon":1.2837,"largura_km":null,"eixo_na_terra":false},{"t":1.75556,"lat":29.7715,"lon":1.8436,"largura_km":null,"eixo_na_terra":false},{"t":1.76111,"lat":29.9729,"lon":2.4166,"largura_km":null,"eixo_na_terra":false}]},"features":[{"type":"Feature","properties":{},"geometry":{"type":"Polygon","coordinates":[[[-6.1506486428275196,29.04051619235551],[-5.865995339383517,29.178442212094986],[-5.38067887850582,29.407363148196975],[-4.87935844776311,29.647095986381018],[-4.66051371649586,29.74922656329505],[-4.109055855618578,30.012515150445147],[-3.858969375922837,30.129279295841116],[-3.6319843391443385,30.238463777922103],[-3.240258945558594,30.424044782898783],[-2.9444835021932905,30.56215346094086],[-2.228007536553207,30.90250249375088],[-1.8575470753702263,31.075405257357254],[-1.5521618662835124,31.221019423977683],[-0.9773974382596009,31.49177680062605],[-0.45370893700465703,31.735849499597208],[-0.0575810941039947,31.923371269667115],[0.8076156372904961,32.32858995937105],[2.026167975128262,32.893635593862456],[2.9756297237122453,33.336413104557884],[2.977652227116674,33.27192184612293],[3.6473973405189213,33.57629141007916],[3.888914796012881,32.79171347137894],[4.393296522812648,32.93716516436228],[4.253575110345537,32.740253562102815],[4.021498841216243,32.581778042402746],[4.796424866826101,32.268177883826795],[4.151324903313364,31.93926501932466],[4.224734204620043,31.700792325155117],[4.288150155707143,31.662001638029498],[4.2437518699112085,31.639012771364623],[4.381717246488137,31.19082739881944],[4.150174969303985,31.07430474948912],[4.2395093602162035,30.917037705578327],[4.072448901406615,30.8332504065901],[4.518935923069392,30.425781394442975],[4.105330366489429,30.22650431472509],[4.4565250097611795,29.99190664244516],[4.317741261410334,29.926797715361005],[4.529060988794868,29.76225437819265],[3.4905389366483432,29.300624424397874],[3.493442731079,29.297486745659874],[1.6812401778350123,28.48406266526362],[0.488723302230909,27.94258755772535],[0.12250374353685953,27.777932264776897],[-0.2784152744924313,27.59387773872602],[-1.0455725160253913,27.246006268922006],[-1.3790476271269085,27.09202250906463],[-2.014851114593639,26.80305061225925],[-2.306508240632951,26.66778596803931],[-2.857917413099477,26.416776508293992],[-3.120004177829088,26.29480437823566],[-3.6116873464396,26.070742314892698],[-4.1475711718931905,25.82295431640131],[-4.297996265102492,25.75521151837134],[-4.519427409038741,25.651629014500006],[-4.931032429120986,25.46385017324219],[-5.13743688664178,25.367109764342672],[-5.5206317666690214,25.192262310147058],[-5.7142272544435,25.10137827572408],[-6.073944743856483,24.93724858326637],[-6.256400368049384,24.85147808125396],[-6.5963624341876805,24.69639417877022],[-6.768974230681437,24.61515954537756],[-7.092068445247537,24.467823085784907],[-7.255868360111037,24.390663599522878],[-7.564386393637343,24.25004331387372],[-7.720213235727158,24.17658379195719],[-8.01600852019755,24.041845004427188],[-8.16455598576431,23.971774547114236],[-8.449151657107494,23.842230884294562],[-8.777923085400744,23.68947122821287],[-8.865666914929216,23.650367331098327],[-9.0013146932408,23.586329313895583],[-9.26711884187214,23.4655490400838],[-9.396989235012029,23.404224028732454],[-9.654843837882353,23.287172937573622],[-9.779305592978801,23.228394072596274],[-10.029994104071086,23.114718544209186],[-10.14936981614062,23.05833944423083],[-10.314878629128827,22.982570579436608],[-10.518409226606927,22.893120433155985],[-11.294573282483782,22.53742088167833],[-11.24311447267971,22.609977518283696],[-11.370985051462299,22.566872349291792],[-11.506626935316262,22.523951527041497],[-11.638310001648847,22.485149503552435],[-11.765983192571639,22.450461335825022],[-11.889595288752446,22.419879785058495],[-12.00909495702075,22.393395334619328],[-12.124430798579226,22.37099620941893],[-12.235551397750726,22.35266839668853],[-12.342405371190978,22.338395668139135],[-12.444941417499905,22.328159603491763],[-12.54310836716644,22.321939615362957],[-12.63685523278491,22.319712975488144],[-12.726131259482543,22.321454842265293],[-12.810885975501321,22.32713828959896],[-12.891069242879354,22.33673433702458],[-12.966631308179103,22.350211981091334],[-13.037522853214597,22.367538227980944],[-13.10369504572975,22.388678127338967],[-13.165099589985061,22.413594807294118],[-13.221688777210943,22.442249510640618],[-13.273415535890138,22.474601632157484],[-13.320233481833327,22.510608757038444],[-13.36209696801501,22.550226700405492],[-13.398961134139853,22.59340954787835],[-13.430781955911357,22.640109697172193],[-13.457516293977903,22.69027790069543],[-13.479121942533027,22.74386330911899],[-13.495557677549755,22.800813515888443],[-13.506783304630034,22.861074602650625],[-13.512759706452698,22.924591185565394],[-13.513448889805744,22.9913064624744],[-13.50881403218932,23.06116226089754],[-13.49881952797827,23.134099086828954],[-13.483431034133758,23.21005617430388],[-13.462615515455298,23.288971535707734],[-13.436341289364606,23.370782012799985],[-13.404578070214143,23.455423328423993],[-13.36729701311367,23.542830138875747],[-13.324470757268188,23.632936086903264],[-13.276073468820698,23.725673855310134],[-13.222080883193883,23.820975221134898],[-13.16247034692367,23.91877111038008],[-13.097220858977266,24.018991653263463],[-13.026313111548603,24.121566239964608],[-12.949729530321207,24.226423576840084],[-12.867454314189814,24.33349174307997],[-12.779473474428585,24.442698247778953],[-12.68577487329398,24.55397008739441],[-12.586348262047835,24.667233803564283],[-12.481185318384547,24.782415541256437],[-12.37027968324449,24.899441107221453],[-12.253626996993887,25.018236028719826],[-12.131224934948989,25.13872561249384],[-12.003073242219898,25.260835003954043],[-11.869173767848025,25.38448924654865],[-11.729530498207708,25.50961334128413],[-11.584149589641072,25.636132306362924],[-11.433039400292188,25.763971236903995],[-11.2762105211049,25.893055364710126],[-11.113675805945775,26.023310118043913],[-10.94545040081232,26.154661181373555],[-10.77155177208391,26.287034555046805],[-10.591999733771331,26.42035661485031],[-10.40681647372,26.554554171408586],[-10.216026578718868,26.689554529375346],[-10.019657058468681,26.82528554636677],[-9.8177373683599,26.961675691584052],[-9.61029943101363,27.0986541040696],[-9.397377656536548,27.236150650537986],[-9.179008961444595,27.374095982719606],[-8.955232786210132,27.512421594151558],[-8.726091111392577,27.651059876345865],[-8.491628472314659,27.789944174261112],[-8.25189197225302,27.929008840998936],[-8.006931294119454,28.06818929164125],[-7.75679871061746,28.20742205613786],[-7.501549092870931,28.34664483114751],[-7.241239917536916,28.485796530727292],[-6.97750681748775,28.624460669317298],[-6.705685860728892,28.763648741959535],[-6.4305690037975864,28.902233606416605],[-6.1506486428275196,29.04051619235551]]]}}]}