{"type":"FeatureCollection","features":[{"type":"Feature","properties":{"t_inicio":1.5944444444444246,"t_fim":1.6888888888888687},"geometry":{"type":"LineString","coordinates":[[-10.167048304839682,25.062307791867546],[-9.776290993108432,25.244634435242894],[-9.371245812479458,25.43378504928479],[-8.950472741957924,25.63042182483571],[-8.512276613262742,25.835323481908354],[-8.054639129989653,26.04941621598233],[-7.575125686300595,26.27381609474923],[-7.070754536558923,26.50988855481908],[-6.537807875606887,26.759334271711502],[-5.971549820696282,27.0243172806852],[-5.365788238197098,27.307663936918882],[-4.712159671583862,27.613187438910746],[-3.9988878560659202,27.946250962700184],[-3.2084471253634206,28.314826976441058],[-2.312652196441661,28.73172213844835],[-1.260530604827352,29.22006947580335],[0.060812870238038386,29.831041357560668],[2.0556752499406343,30.747642958176602]]}}]}