{"type":"FeatureCollection","features":[{"type":"Feature","properties":{"magnitude":0.2,"de":0.2,"ate":0.5,"percentagem":20.0},"geometry":{"type":"Polygon","coordinates":[[[-34.5,44.939999999999685],[-34.5,41.10231109440474],[-34.139999999999986,41.15801551338626],[-32.15999999999991,41.5328433527788],[-30.53999999999985,41.919872737324646],[-28.859999999999786,42.39005819769892],[-27.239999999999725,42.90302437289035],[-25.532453307976766,43.499999999999716],[-23.759999999999593,44.17340838189438],[-21.879082347586476,44.939999999999685],[-34.5,44.939999999999685]]]}},{"type":"Feature","properties":{"magnitude":0.5,"de":0.5,"ate":0.8,"percentagem":50.0},"geometry":{"type":"Polygon","coordinates":[[[-34.5,30.0],[-15.002411708375448,29.999999999999996],[-3.5399999999988268,35.3150117453029],[-3.5399999999988268,44.939999999999685],[-21.879082347586476,44.939999999999685],[-23.641990698208858,44.2199999999997],[-25.379999999999654,43.55586720338592],[-27.059999999999718,42.96335051886879],[-28.619999999999777,42.46252207911505],[-30.179999999999836,42.01496937599394],[-31.679999999999893,41.64031210827255],[-33.11999999999995,41.33697114869351],[-34.5,41.10231109440474],[-34.5,30.0]]]}},{"type":"Feature","properties":{"magnitude":0.8,"de":0.8,"ate":0.95,"percentagem":80.0},"geometry":{"type":"Polygon","coordinates":[[[-15.002411708375448,29.999999999999996],[-3.5399999999988268,30.0],[-3.5399999999988268,35.3150117453029],[-10.817470053191903,31.91999999999996],[-15.002411708375448,29.999999999999996]]]}}]}