{"type":"FeatureCollection","properties":{"largura_maxima_km":29.527,"largura_sobre_pt_km":4.719,"linha_central_sobre_pt":false,"desenhavel_como_area":true,"perfil_largura":[{"t":-0.56111,"lat":47.1393,"lon":-10.765,"largura_km":null,"eixo_na_terra":false},{"t":-0.55556,"lat":46.6241,"lon":-8.8794,"largura_km":null,"eixo_na_terra":false},{"t":-0.55,"lat":46.348,"lon":-7.7246,"largura_km":null,"eixo_na_terra":false},{"t":-0.54444,"lat":46.1478,"lon":-6.8035,"largura_km":0.393,"eixo_na_terra":true},{"t":-0.53889,"lat":45.9922,"lon":-6.0183,"largura_km":1.411,"eixo_na_terra":true},{"t":-0.53333,"lat":45.8654,"lon":-5.3212,"largura_km":3.124,"eixo_na_terra":true},{"t":-0.52778,"lat":45.7599,"lon":-4.6888,"largura_km":4.719,"eixo_na_terra":true},{"t":-0.52222,"lat":45.671,"lon":-4.1066,"largura_km":6.208,"eixo_na_terra":true},{"t":-0.51667,"lat":45.5955,"lon":-3.5648,"largura_km":7.607,"eixo_na_terra":true},{"t":-0.51111,"lat":45.5311,"lon":-3.0563,"largura_km":8.929,"eixo_na_terra":true},{"t":-0.50556,"lat":45.4763,"lon":-2.576,"largura_km":10.185,"eixo_na_terra":true},{"t":-0.5,"lat":45.4297,"lon":-2.1199,"largura_km":11.383,"eixo_na_terra":true},{"t":-0.49444,"lat":45.3902,"lon":-1.6849,"largura_km":12.528,"eixo_na_terra":true},{"t":-0.48889,"lat":45.3572,"lon":-1.2685,"largura_km":13.628,"eixo_na_terra":true},{"t":-0.48333,"lat":45.33,"lon":-0.8686,"largura_km":14.685,"eixo_na_terra":true},{"t":-0.47778,"lat":45.3079,"lon":-0.4835,"largura_km":15.705,"eixo_na_terra":true},{"t":-0.47222,"lat":45.2906,"lon":-0.1118,"largura_km":16.689,"eixo_na_terra":true},{"t":-0.46667,"lat":45.2776,"lon":0.2477,"largura_km":17.64,"eixo_na_terra":true},{"t":-0.46111,"lat":45.2686,"lon":0.5961,"largura_km":18.561,"eixo_na_terra":true},{"t":-0.45556,"lat":45.2634,"lon":0.9342,"largura_km":19.452,"eixo_na_terra":true},{"t":-0.45,"lat":45.2616,"lon":1.2629,"largura_km":20.317,"eixo_na_terra":true},{"t":-0.44444,"lat":45.263,"lon":1.5829,"largura_km":21.156,"eixo_na_terra":true},{"t":-0.43889,"lat":45.2675,"lon":1.8947,"largura_km":21.97,"eixo_na_terra":true},{"t":-0.43333,"lat":45.2749,"lon":2.199,"largura_km":22.76,"eixo_na_terra":true},{"t":-0.42778,"lat":45.285,"lon":2.4961,"largura_km":23.528,"eixo_na_terra":true},{"t":-0.42222,"lat":45.2977,"lon":2.7866,"largura_km":24.274,"eixo_na_terra":true},{"t":-0.41667,"lat":45.3128,"lon":3.0709,"largura_km":24.999,"eixo_na_terra":true},{"t":-0.41111,"lat":45.3303,"lon":3.3493,"largura_km":25.703,"eixo_na_terra":true},{"t":-0.40556,"lat":45.35,"lon":3.6221,"largura_km":26.388,"eixo_na_terra":true},{"t":-0.4,"lat":45.3718,"lon":3.8896,"largura_km":27.053,"eixo_na_terra":true},{"t":-0.39444,"lat":45.3957,"lon":4.1522,"largura_km":27.699,"eixo_na_terra":true},{"t":-0.38889,"lat":45.4215,"lon":4.41,"largura_km":28.327,"eixo_na_terra":true},{"t":-0.38333,"lat":45.4493,"lon":4.6633,"largura_km":28.936,"eixo_na_terra":true},{"t":-0.37778,"lat":45.4789,"lon":4.9124,"largura_km":29.527,"eixo_na_terra":true}]},"features":[{"type":"Feature","properties":{},"geometry":{"type":"Polygon","coordinates":[[[-5.371758430109082,45.88862003875997],[-4.7581921634814535,45.792450250489004],[-4.190325936259967,45.7112095080668],[-3.659945666268584,45.642250383399926],[-3.1615689717455098,45.58369931951184],[-2.689139759549448,45.53389651286829],[-2.2396976477650696,45.49178667408755],[-1.8103757852235276,45.4564623779731],[-1.3988543173631456,45.42718952925733],[-1.003224500750548,45.40336435152259],[-0.6228456930723496,45.38453424332512],[-0.25449572522984454,45.37016532835693],[0.10205341339974439,45.3599519731097],[0.447792200529193,45.35358170620345],[0.7835817014156419,45.35078317359134],[1.1101760975986394,45.35131899868965],[1.4282404112007612,45.354980164194465],[1.7383646207262018,45.361581536988226],[2.041075027620707,45.37095826408588],[2.3368435010311828,45.382962840940934],[2.6260950656813407,45.39746270487744],[2.9081022960717746,45.4142759313923],[3.18542702507051,45.433410255343546],[3.4572874067217185,45.45471350808152],[3.723974379457104,45.47809597767382],[3.9857548440533037,45.50347565998783],[4.242874368706964,45.530777400346224],[4.495559515123659,45.55993215547063],[4.744019848569508,45.59087635575586],[5.084667804578771,45.3634234552135],[4.835123198290546,45.335167519970895],[4.5812319474325705,45.30879292210452],[4.322773635780607,45.284369098521665],[4.059509486067213,45.261971599077185],[3.791180128974929,45.241682819285515],[3.517503011292945,45.22359285159701],[3.238169369223783,45.207800479529375],[2.9528406741900994,45.194414345056664],[2.661144434214748,45.18355432762236],[2.3626692020202427,45.17535318361081],[2.0569585985694516,45.16995850902474],[1.7423993647731777,45.16752683925998],[1.4206480826015309,45.16826854293792],[1.089943872381184,45.172374827068005],[0.7495608271967171,45.18008216030001],[0.39867137247915707,45.191660479990816],[0.03632510026415048,45.20742013863775],[-0.33857842294440843,45.227720826688355],[-0.72732511494047,45.25298320601068],[-1.1314333997039512,45.28370433439],[-1.552717765228067,45.32047851060433],[-1.9933765744698917,45.36402606863191],[-2.456116502696432,45.415234174622526],[-2.945101306541801,45.47531224958129],[-3.4630885299882266,45.545497759292815],[-4.016660643117518,45.627772687438394],[-4.613693461190962,45.72471947114647],[-5.265468262318564,45.84003664537204],[-5.989383039758877,45.9794013390855],[-6.794806588851884,46.14405982215525],[-6.813440259074639,46.15209259680888],[-6.04412884991342,46.003765887870685],[-5.371758430109082,45.88862003875997]]]}},{"type":"Feature","properties":{},"geometry":{"type":"Polygon","coordinates":[[[-7.669635958160939,46.32967971037734],[-7.6510357753226685,46.319372143680994],[-7.673384901285715,46.32490567697398],[-7.725452333304759,46.34384416271063],[-7.77772386388483,46.36544709541364],[-7.798616663379164,46.37669578856989],[-7.7848619000567965,46.37388727611624],[-7.750944846621337,46.36235954546192],[-7.669635958160939,46.32967971037734]]]}},{"type":"Feature","properties":{},"geometry":{"type":"Polygon","coordinates":[[[-8.729305221519837,46.57424550638406],[-8.694274027964696,46.55838401704177],[-8.681643186212796,46.5502421309047],[-8.698842528608566,46.55302797286112],[-8.74187838997392,46.56628075237222],[-8.880107235201137,46.615397398020164],[-9.023717123816937,46.671580872217035],[-9.065559099237873,46.689936388924835],[-9.080139667843525,46.698717116973675],[-9.069700669730082,46.69759382402873],[-9.040974921368559,46.68942457673616],[-8.945445400707627,46.657248051126686],[-8.8276944737716,46.61376526036183],[-8.729305221519837,46.57424550638406]]]}},{"type":"Feature","properties":{},"geometry":{"type":"Polygon","coordinates":[[[-10.18169727921753,46.94549219382745],[-10.09148002997614,46.90877944787838],[-10.066730800841867,46.897173096848164],[-10.058982259144614,46.89154687082012],[-10.068124931133525,46.89194890277416],[-10.09415582815177,46.89845367302299],[-10.19728288308653,46.93016522301673],[-10.564412260889185,47.054484362773074],[-11.29473074214718,47.31252265170017],[-11.49779590566203,47.386582156670826],[-11.56150502032375,47.41280459569546],[-11.551416320321493,47.41146690746265],[-11.504066248805145,47.39815045364549],[-11.354374388503345,47.351595344212065],[-11.135500300521358,47.28056828752457],[-10.883350720475221,47.19627452637007],[-10.497426718707459,47.06222214172744],[-10.31502874952298,46.99600311021004],[-10.18169727921753,46.94549219382745]]]}}]}