{"type":"FeatureCollection","features":[{"type":"Feature","properties":{"magnitude":0.2,"de":0.2,"ate":0.5,"percentagem":20.0},"geometry":{"type":"Polygon","coordinates":[[[-17.219999999999345,30.49733978716902],[-14.330400156226611,30.0],[-3.5399999999988268,30.0],[-3.5399999999988268,38.13938387601054],[-5.579999999998904,38.6691573009704],[-7.559999999998979,39.140061737397076],[-9.539999999999054,39.567118569481025],[-11.459999999999127,39.93841667806861],[-13.439999999999202,40.27635649612831],[-15.359999999999273,40.55981301784755],[-17.279999999999347,40.79918133817364],[-19.19999999999942,40.99401410250353],[-21.119999999999493,41.14391603692138],[-23.039999999999566,41.24853282086343],[-24.95999999999964,41.30752735750267],[-26.87999999999971,41.320571970365016],[-28.799999999999784,41.28733843187349],[-30.719999999999853,41.2074987889217],[-32.63999999999993,41.08071875743977],[-34.5,40.91282684033218],[-34.5,30.69589190971621],[-32.09999999999991,30.96525853158898],[-29.639999999999816,31.140208029227438],[-27.179999999999723,31.213325604716978],[-24.71999999999963,31.18566864539717],[-22.259999999999536,31.05874004727891],[-19.73999999999944,30.82781160674367],[-17.219999999999345,30.49733978716902]]]}},{"type":"Feature","properties":{"magnitude":0.5,"de":0.5,"ate":0.8,"percentagem":50.0},"geometry":{"type":"Polygon","coordinates":[[[-34.5,30.0],[-34.44,30.0],[-14.330400156226611,30.0],[-17.459999999999354,30.53301956501174],[-20.579999999999472,30.915987435776543],[-23.63999999999959,31.142063238614423],[-26.639999999999702,31.21584166704066],[-28.619999999999777,31.182833558430975],[-30.599999999999852,31.084094000511115],[-32.57999999999993,30.91919131907109],[-34.5,30.69589190971621],[-34.5,30.0]]]}}]}