{"type":"FeatureCollection","properties":{"largura_maxima_km":26.533,"largura_sobre_pt_km":26.533,"linha_central_sobre_pt":false,"desenhavel_como_area":true,"perfil_largura":[{"t":-0.75556,"lat":29.5443,"lon":-16.0368,"largura_km":null,"eixo_na_terra":false},{"t":-0.75,"lat":29.1841,"lon":-15.0094,"largura_km":null,"eixo_na_terra":false},{"t":-0.74444,"lat":28.2702,"lon":-12.823,"largura_km":null,"eixo_na_terra":false},{"t":-0.73889,"lat":27.7566,"lon":-11.5549,"largura_km":null,"eixo_na_terra":false},{"t":-0.73333,"lat":27.326,"lon":-10.4869,"largura_km":26.533,"eixo_na_terra":true},{"t":-0.72778,"lat":26.9927,"lon":-9.6338,"largura_km":25.773,"eixo_na_terra":true},{"t":-0.72222,"lat":26.698,"lon":-8.8703,"largura_km":24.903,"eixo_na_terra":true},{"t":-0.71667,"lat":26.4323,"lon":-8.1743,"largura_km":24.039,"eixo_na_terra":true},{"t":-0.71111,"lat":26.1898,"lon":-7.5315,"largura_km":23.206,"eixo_na_terra":true},{"t":-0.70556,"lat":25.9661,"lon":-6.932,"largura_km":22.409,"eixo_na_terra":true},{"t":-0.7,"lat":25.7581,"lon":-6.3687,"largura_km":21.646,"eixo_na_terra":true},{"t":-0.69444,"lat":25.5637,"lon":-5.8361,"largura_km":20.917,"eixo_na_terra":true},{"t":-0.68889,"lat":25.3809,"lon":-5.3302,"largura_km":20.218,"eixo_na_terra":true},{"t":-0.68333,"lat":25.2084,"lon":-4.8475,"largura_km":19.546,"eixo_na_terra":true},{"t":-0.67778,"lat":25.045,"lon":-4.3855,"largura_km":18.898,"eixo_na_terra":true}]},"features":[{"type":"Feature","properties":{},"geometry":{"type":"Polygon","coordinates":[[[-9.194040596230082,26.948349119684412],[-8.456411688975493,26.660232577135442],[-7.780895139327868,26.399358624619225],[-7.1549087430565805,26.160283531640207],[-6.57484317177682,25.941098442986057],[-6.023276845859698,25.734957125892223],[-5.501005428151188,25.541843930110456],[-4.5296243944818,25.1883064683069],[-4.258392388928883,24.910393662928655],[-5.18024238692027,25.230531520768647],[-5.672293231836591,25.40417834055221],[-6.738690695579692,25.78683252686692],[-7.31633032235618,25.997481394710377],[-7.939234973214639,26.227279568707978],[-8.602984718830214,26.47483335446291],[-9.333324704088113,26.750527366104073],[-10.15122826301473,27.063263579624035],[-10.943694531053666,27.644357127265526],[-10.012759923948636,27.271910951385962],[-9.194040596230082,26.948349119684412]]]}},{"type":"Feature","properties":{},"geometry":{"type":"Polygon","coordinates":[[[-10.740713689012466,27.402840128191684],[-10.703454977637534,27.369729866273143],[-10.680125046635396,27.342973373347743],[-10.673739231754837,27.332092542262735],[-10.670885167432289,27.322928961068133],[-10.67156154667316,27.315516284346153],[-10.675758809530691,27.30988366667082],[-10.688615390171833,27.304824899397563],[-10.709258212101986,27.3038889282864],[-10.737552129392611,27.30711495692552],[-10.773320229869057,27.314517031731107],[-10.866355143999499,27.341772404948664],[-10.96437520440071,27.376882946906345],[-11.103965650011787,27.433116960265448],[-11.263854875392326,27.50338174360333],[-11.439198003200147,27.585642226854706],[-11.650121529308095,27.690467416681233],[-11.663398234619478,27.686613368278753],[-11.687805795100246,27.686795106056042],[-11.721624868359413,27.691927115042052],[-11.749322876508074,27.698111930124],[-11.83617904420231,27.723249193487707],[-11.947290378554214,27.762094613595526],[-12.140820893483749,27.838834109518373],[-12.3383570094241,27.924149181089884],[-12.560470783589835,28.02562508603593],[-12.8252459794157,28.152331152259197],[-12.842970447432776,28.151442702798406],[-12.877789905838085,28.155784512329845],[-12.925038284011407,28.16643270191328],[-12.984652566930833,28.183452676436946],[-13.056570004591038,28.20690170508361],[-13.140729203826538,28.236828723733638],[-13.308041452272732,28.30120909165758],[-13.553163577172711,28.402553642355393],[-13.794221748246173,28.507177453054968],[-14.068764453496954,28.630199854903733],[-14.389355395393823,28.77737113430609],[-14.430711234993396,28.784426757110015],[-14.495217956106387,28.801287162332027],[-14.580057446622902,28.827902664634454],[-14.648333005642542,28.85128578800132],[-14.862835406994748,28.930832489889465],[-15.147771813057659,29.044052285605787],[-15.437904920578205,29.163860324826665],[-15.802501231268081,29.31780599844212],[-17.37741600359101,29.991321619171305],[-17.32484238579107,30.149725597039165],[-17.3576055538839,30.164304728883273],[-17.412539727688227,30.327144008849753],[-17.06740148493526,30.18163170188866],[-15.936841215375011,29.711151235392048],[-15.260589097662773,29.42354317129392],[-14.924807845178407,29.276833345274877],[-14.617887315606765,29.13971323128164],[-14.33724718003782,29.011266721349543],[-14.052925388550277,28.877460789593723],[-14.009609658077125,28.869758344779328],[-13.96968028370128,28.85950028409783],[-13.838127814057316,28.817696284063995],[-13.669267754839893,28.755898299424345],[-13.432585586104324,28.66148633303292],[-13.21916697092496,28.571060885580007],[-12.957217380389977,28.454404280365004],[-12.700952442563448,28.33442529281536],[-12.462300331105505,28.217006215425315],[-12.452173753987722,28.218245962894372],[-12.433526870968137,28.21737624421232],[-12.380466182121552,28.207441062530457],[-12.327817656289426,28.19308983717371],[-12.242420883128204,28.165408188407184],[-12.168518248770965,28.138807405939747],[-12.05930799038424,28.09652182053198],[-11.847789839296524,28.007495735219326],[-11.688593301909634,27.935605841242722],[-11.529001787653385,27.85974485306881],[-11.373946169599037,27.782338883578607],[-11.199779164603342,27.690518177424558],[-11.068632638110842,27.61719906996835],[-10.932185996838768,27.535628239536276],[-10.82200293904259,27.463458661533867],[-10.740713689012466,27.402840128191684]]]}}]}