{"type":"FeatureCollection","features":[{"type":"Feature","properties":{"magnitude":0.2,"de":0.2,"ate":0.5,"percentagem":20.0},"geometry":{"type":"Polygon","coordinates":[[[-29.73432345540312,30.0],[-25.30913898611705,30.0],[-24.90421670494299,31.979999999999958],[-24.4102939390487,33.959999999999916],[-23.824656113968068,35.93999999999987],[-23.16445913956614,37.85999999999983],[-22.431874325657216,39.71999999999979],[-21.628025004326112,41.519999999999754],[-20.753272828685024,43.25999999999972],[-19.80730853217907,44.939999999999685],[-24.87209438284693,44.939999999999685],[-25.649319667035847,43.319999999999716],[-26.400962509894924,41.57999999999976],[-27.09756879318564,39.77999999999979],[-27.73968114254701,37.91999999999983],[-28.327394101910663,35.99999999999987],[-28.859999999999786,34.02109482869132],[-29.324211622629356,32.03999999999996],[-29.73432345540312,30.0]]]}},{"type":"Feature","properties":{"magnitude":0.5,"de":0.5,"ate":0.8,"percentagem":50.0},"geometry":{"type":"Polygon","coordinates":[[[-25.30913898611705,30.0],[-20.88149471637262,30.0],[-20.55311632277069,31.559999999999967],[-20.099999999999454,33.1339387839535],[-19.55072861665932,34.619999999999905],[-18.89999999999941,36.02512799977228],[-18.17999999999938,37.25974321005254],[-17.819999999999368,37.76957309254446],[-17.459999999999354,38.210499749916046],[-17.09999999999934,38.580504704445865],[-16.739999999999327,38.873791551770246],[-16.439999999999316,39.05188205592171],[-16.139999999999304,39.15865949373188],[-15.899999999999295,39.181689523750386],[-15.659999999999286,39.13468957319228],[-12.358973904095604,37.73999999999984],[-9.238461512169035,36.47999999999986],[-6.299999999998931,35.35859685914534],[-3.5399999999988268,34.37465326193969],[-3.5399999999988268,44.939999999999685],[-19.80730853217907,44.939999999999685],[-20.753272828685024,43.25999999999972],[-21.628025004326112,41.519999999999754],[-22.431874325657216,39.71999999999979],[-23.16445913956614,37.85999999999983],[-23.824656113968068,35.93999999999987],[-24.4102939390487,33.959999999999916],[-24.90421670494299,31.979999999999958],[-25.30913898611705,30.0]]]}},{"type":"Feature","properties":{"magnitude":0.8,"de":0.8,"ate":0.95,"percentagem":80.0},"geometry":{"type":"Polygon","coordinates":[[[-20.88149471637262,30.0],[-18.65790884949302,30.0],[-18.490309395330883,30.839999999999982],[-18.195120367469396,31.61999999999997],[-17.999999999999375,31.9533111791143],[-17.819999999999368,32.164303289159896],[-17.63999999999936,32.28145917895588],[-17.519999999999357,32.29745398909828],[-11.879732133609094,30.0],[-3.5399999999988268,30.0],[-3.5399999999988268,34.37465326193969],[-6.299999999998931,35.35859685914534],[-9.238461512169035,36.47999999999986],[-12.358973904095604,37.73999999999984],[-15.659999999999286,39.13468957319228],[-15.899999999999295,39.18168952375038],[-16.199999999999307,39.143697867252015],[-16.499999999999318,39.0215523583086],[-16.85999999999933,38.78509382590279],[-17.159999999999343,38.52395335873221],[-17.519999999999357,38.14183990926184],[-17.87999999999937,37.68938110959711],[-18.239999999999384,37.16803084377415],[-18.94374018222129,35.93999999999987],[-19.559999999999434,34.597592604185806],[-20.10457282355546,33.11999999999993],[-20.55311632277069,31.559999999999967],[-20.88149471637262,30.0]]]}},{"type":"Feature","properties":{"magnitude":0.95,"de":0.95,"ate":0.99,"percentagem":95.0},"geometry":{"type":"Polygon","coordinates":[[[-18.65790884949302,30.0],[-17.667192620953898,30.0],[-17.945947733514874,30.12],[-18.009595058463717,30.18],[-17.99982422334924,30.41999999999999],[-17.939999999999372,30.56568257842664],[-17.87999999999937,30.616379616096193],[-16.385165917869667,30.0],[-11.879732133609094,30.0],[-17.519999999999357,32.29745398909828],[-17.63999999999936,32.28145917895588],[-17.819999999999368,32.164303289159896],[-17.999999999999375,31.9533111791143],[-18.195120367469393,31.619999999999965],[-18.490309395330883,30.839999999999982],[-18.65790884949302,30.0]]]}},{"type":"Feature","properties":{"magnitude":0.99,"de":0.99,"ate":2.0,"percentagem":99.0},"geometry":{"type":"Polygon","coordinates":[[[-17.999999999999375,30.154092950700136],[-17.667192620953898,30.0],[-16.385165917869667,30.0],[-17.87999999999937,30.616379616096193],[-17.979802899983397,30.47999999999999],[-18.019600431979136,30.239999999999995],[-17.999999999999375,30.154092950700136]]]}}]}