{"type":"FeatureCollection","features":[{"type":"Feature","properties":{"magnitude":0.2,"percentagem":20.0,"territorio":"continente"},"geometry":{"type":"LineString","coordinates":[[-6.998696173899681,36.0],[-6.980000000000075,36.018729290273626],[-6.958729290273706,36.04],[-6.940000000000076,36.058762477496145],[-6.918762477496223,36.08],[-6.900000000000077,36.098795735689265],[-6.878795735689341,36.12],[-6.860000000000078,36.13882906497486],[-6.838829064974943,36.16],[-6.820000000000078,36.178862465474595],[-6.798862465474675,36.199999999999996],[-6.780000000000079,36.21889593730987],[-6.7588959373099495,36.239999999999995],[-6.74000000000008,36.25892948060185],[-6.718929480601931,36.279999999999994],[-6.700000000000081,36.29896309547145],[-6.6789630954715395,36.31999999999999],[-6.678988490235083,36.36],[-6.660000000000082,36.379022231573344],[-6.639022231573437,36.39999999999999],[-6.620000000000083,36.4190560448164],[-6.599056044816496,36.43999999999999],[-6.580000000000084,36.45908993008403],[-6.559089930084124,36.47999999999999],[-6.540000000000084,36.49912388749582],[-6.519123887495914,36.51999999999999],[-6.500000000000085,36.539157917171075],[-6.4791579171711735,36.55999999999999],[-6.460000000000086,36.57919201922883],[-6.43919201922893,36.59999999999999],[-6.420000000000087,36.61922619378781],[-6.3992261937879125,36.639999999999986],[-6.380000000000088,36.65926044096645],[-6.359260440966553,36.67999999999998],[-6.340000000000089,36.69929476088288],[-6.319294760882985,36.719999999999985],[-6.3000000000000895,36.73932915365492],[-6.279329153655026,36.759999999999984],[-6.26000000000009,36.77936361940007],[-6.23936361940018,36.79999999999998],[-6.220000000000091,36.819398158235515],[-6.19939815823563,36.83999999999998],[-6.199424247864425,36.87999999999998],[-6.180000000000092,36.89945891571577],[-6.159458915715877,36.91999999999998],[-6.140000000000093,36.93949365697288],[-6.11949365697299,36.95999999999998],[-6.100000000000094,36.97952847175149],[-6.079528471751605,36.99999999999998],[-6.060000000000095,37.0195633601671],[-6.039563360167215,37.03999999999998],[-6.0200000000000955,37.059598322334836],[-5.999598322334954,37.07999999999998],[-5.980000000000096,37.09963335836947],[-5.959633358369593,37.119999999999976],[-5.940000000000097,37.13966846838541],[-5.919668468385533,37.159999999999975],[-5.900000000000098,37.17970365249667],[-5.879703652496795,37.199999999999974],[-5.860000000000099,37.2197389108169],[-5.839738910817024,37.239999999999974],[-5.8200000000001,37.25977424345934],[-5.799774243459467,37.27999999999997],[-5.780000000000101,37.29980965053685],[-5.75980965053698,37.31999999999997],[-5.7400000000001015,37.339845132161884],[-5.719845132162015,37.35999999999997],[-5.700000000000102,37.37988068844648],[-5.679880688446613,37.39999999999997],[-5.660000000000103,37.41991631950226],[-5.639916319502401,37.43999999999997],[-5.639943230068356,37.47999999999997],[-5.620000000000104,37.49997899294877],[-5.59997899294891,37.51999999999997],[-5.580000000000105,37.54001483089874],[-5.560014830898884,37.55999999999997],[-5.540000000000106,37.58005074402805]]}},{"type":"Feature","properties":{"magnitude":0.4,"percentagem":40.0,"territorio":"continente"},"geometry":{"type":"LineString","coordinates":[[-7.017392347799287,36.0],[-6.980000000000075,36.03745858054726],[-6.977458580547336,36.04],[-6.940000000000076,36.07752495499229],[-6.9375249549923685,36.08],[-6.900000000000077,36.117591471378525],[-6.897591471378605,36.12],[-6.860000000000078,36.15765812994972],[-6.857658129949807,36.16],[-6.820000000000078,36.19772493094919],[-6.817724930949272,36.199999999999996],[-6.780000000000079,36.23779187461973],[-6.777791874619818,36.239999999999995],[-6.74000000000008,36.2778589612037],[-6.737858961203782,36.279999999999994],[-6.700000000000081,36.317926190942906],[-6.697926190942997,36.31999999999999],[-6.6979769804700835,36.35999999999999],[-6.660000000000082,36.398044463146704],[-6.658044463146792,36.39999999999999],[-6.620000000000083,36.43811208963282],[-6.618112089632908,36.43999999999999],[-6.580000000000084,36.47817986016807],[-6.578179860168163,36.47999999999999],[-6.540000000000084,36.51824777499165],[-6.538247774991741,36.51999999999999],[-6.500000000000085,36.55831583434216],[-6.498315834342261,36.55999999999999],[-6.460000000000086,36.598384038457674],[-6.458384038457772,36.59999999999999],[-6.420000000000087,36.63845238757563],[-6.418452387575735,36.639999999999986],[-6.380000000000088,36.67852088193291],[-6.378520881933019,36.679999999999986],[-6.340000000000089,36.71858952176578],[-6.338589521765882,36.719999999999985],[-6.3000000000000895,36.75865830730986],[-6.298658307309962,36.759999999999984],[-6.26000000000009,36.79872723880016],[-6.25872723880027,36.79999999999998],[-6.220000000000091,36.838796316471054],[-6.218796316471169,36.83999999999998],[-6.218848495728757,36.87999999999998],[-6.180000000000092,36.91891783143155],[-6.1789178314316615,36.91999999999998],[-6.140000000000093,36.95898731394578],[-6.138987313945886,36.95999999999998],[-6.100000000000094,36.999056943503],[-6.099056943503116,36.99999999999998],[-6.060000000000095,37.039126720334224],[-6.059126720334334,37.03999999999998],[-6.0200000000000955,37.07919664466969],[-6.019196644669812,37.07999999999998],[-5.980000000000096,37.11926671673897],[-5.9792667167390885,37.119999999999976],[-5.940000000000097,37.15933693677084],[-5.9393369367709665,37.159999999999975],[-5.900000000000098,37.199407304993365],[-5.899407304993492,37.199999999999974],[-5.860000000000099,37.23947782163383],[-5.859477821633948,37.239999999999974],[-5.8200000000001,37.279548486918706],[-5.8195484869188325,37.27999999999997],[-5.780000000000101,37.31961930107373],[-5.779619301073859,37.31999999999997],[-5.7400000000001015,37.359690264323795],[-5.739690264323927,37.35999999999997],[-5.700000000000102,37.39976137689299],[-5.6997613768931235,37.39999999999997],[-5.660000000000103,37.439832639004564],[-5.659832639004697,37.43999999999997],[-5.659886460136607,37.47999999999997],[-5.620000000000104,37.51995798589758],[-5.619957985897715,37.51999999999997],[-5.620000000000104,37.55113115183938],[-5.647097667793729,37.55999999999997],[-5.660000000000103,37.56422934527868],[-5.700000000000102,37.577363246873745],[-5.7400000000001015,37.590519471270014],[-5.7687759046894085,37.599999999999966],[-5.780000000000101,37.60370360855832],[-5.8200000000001,37.61692442948275],[-5.860000000000099,37.63016760626268],[-5.88964818701709,37.639999999999965],[-5.900000000000098,37.64343833538217],[-5.940000000000097,37.65674633230909],[-5.980000000000096,37.67007671765943],[-6.009726742598081,37.679999999999964],[-6.0200000000000955,37.68343468905643],[-6.060000000000095,37.696830117790654],[-6.100000000000094,37.71024796702041],[-6.129023567710491,37.71999999999996],[-6.140000000000093,37.72369383357171],[-6.180000000000092,37.73717694901567],[-6.220000000000091,37.750682516521806],[-6.2475504324771425,37.75999999999996],[-6.26000000000009,37.76421693350011],[-6.3000000000000895,37.77778798961897],[-6.340000000000088,37.791381528851566],[-6.365318886104756,37.79999999999996],[-6.380000000000088,37.80500515388972],[-6.420000000000087,37.818664403676294],[-6.460000000000086,37.83234616710334],[-6.482340261975326,37.83999999999996],[-6.500000000000085,37.84605966015785],[-6.540000000000084,37.8598073555968],[-6.580000000000084,37.873577594668205],[-6.598625682598566,37.87999999999996],[-6.620000000000083,37.88738161798155],[-6.660000000000082,37.90121801001326],[-6.700000000000081,37.91507697512472],[-6.714186064426024,37.91999999999996],[-6.74000000000008,37.92897219318668],[-6.780000000000079,37.942897531670624],[-6.8200000000000776,37.9568454721268],[-6.829032122533742,37.95999999999996],[-6.860000000000078,37.97083255163477],[-6.900000000000077,37.98484708531228],[-6.940000000000076,37.998884249289596],[-6.9431743751771,37.99999999999996],[-6.980000000000075,38.01296385910781],[-7.020000000000074,38.02706783556454],[-7.056617897164003,38.03999999999996],[-7.060000000000073,38.041196301224495],[-7.1000000000000725,38.05536728119122],[-7.140000000000072,38.069560946818854],[-7.169372147534344,38.079999999999956],[-7.180000000000071,38.0837830956073],[-7.22000000000007,38.0980439831542],[-7.260000000000069,38.11232758311197],[-7.281452064703801,38.119999999999955],[-7.300000000000068,38.12664409020997],[-7.340000000000067,38.14099512982889],[-7.3800000000000665,38.15536890800436],[-7.392867449531343,38.159999999999954],[-7.420000000000066,38.1697804506044],[-7.460000000000064,38.18422188548653],[-7.500000000000064,38.19868608445594],[-7.5036279263358825,38.19999999999995],[-7.540000000000063,38.21319334171617],[-7.580000000000062,38.22772541371205],[-7.6137334053522245,38.23999999999995],[-7.620000000000061,38.242283792696554],[-7.6600000000000605,38.25688392769743],[-7.70000000000006,38.27150687727638],[-7.723196313370842,38.27999999999995],[-7.740000000000059,38.286162143978345],[-7.780000000000058,38.30085337179747],[-7.820000000000057,38.31556743800655],[-7.832031347245835,38.31999999999995],[-7.860000000000056,38.330320277354474],[-7.900000000000055,38.34510283623127],[-7.940000000000055,38.359908256653725],[-7.940247486474388,38.35999999999995],[-7.980000000000054,38.37475935536677],[-8.020000000000053,38.38963348204581],[-8.047835307744208,38.39999999999995],[-8.060000000000052,38.404537517499236],[-8.100000000000051,38.41948053929546],[-8.14000000000005,38.434446468984156],[-8.154820598153307,38.43999999999995],[-8.18000000000005,38.44944995190922],[-8.220000000000049,38.46448498902186],[-8.260000000000048,38.47954295534737],[-8.261212266208124,38.47999999999995],[-8.300000000000047,38.494646577757166],[-8.340000000000046,38.50977386288845],[-8.36699941126696,38.519999999999946],[-8.380000000000045,38.524931761519255],[-8.420000000000044,38.54012855336097],[-8.460000000000043,38.555348317556856],[-8.472207066302374,38.559999999999945],[-8.500000000000043,38.57060755440287],[-8.540000000000042,38.58589703525781],[-8.57684050126338,38.599999999999945],[-8.580000000000041,38.601211395053284],[-8.62000000000004,38.616570779859146],[-8.66000000000004,38.631953178058],[-8.68089361792887,38.639999999999944],[-8.700000000000038,38.64737008163608],[-8.740000000000038,38.66282259220263],[-8.780000000000037,38.67829813429679],[-8.784392359746365,38.67999999999994],[-8.820000000000036,38.69381828176242],[-8.860000000000035,38.70936414356801],[-8.887325973736399,38.71999999999994],[-8.900000000000034,38.72494077952889],[-8.940000000000033,38.74055714709435],[-8.980000000000032,38.75619658375766],[-8.989713500549453,38.75999999999994],[-9.020000000000032,38.77187767877961],[-9.06000000000003,38.78758782685377],[-9.091556630270023,38.79999999999994],[-9.10000000000003,38.80332627380542],[-9.140000000000029,38.819107318538784],[-9.180000000000028,38.834911467665755],[-9.192860247098857,38.83999999999995],[-9.220000000000027,38.85075559502594],[-9.260000000000026,38.866630844665444],[-9.293636582600877,38.87999999999994],[-9.300000000000026,38.88253319375542],[-9.340000000000025,38.89847972827979],[-9.380000000000024,38.91444940014987],[-9.393882795289038,38.91999999999993],[-9.420000000000023,38.93045865689663],[-9.460000000000022,38.94649981559985],[-9.49361537664926,38.95999999999994],[-9.500000000000021,38.96256817007737],[-9.54000000000002,38.978680999032235],[-9.58000000000002,38.994816995870856],[-9.59282991997424,38.999999999999936],[-9.620000000000019,39.0109934908689],[-9.660000000000018,39.027201357892466],[-9.691541159313424,39.039999999999935],[-9.700000000000017,39.04343783264967],[-9.740000000000016,39.05971775224282],[-9.780000000000015,39.076020867772414],[-9.789749023912968,39.079999999999934],[-9.820000000000014,39.092366721231755],[-9.860000000000014,39.108742087136726],[-9.88746072651152,39.11999999999993],[-9.900000000000013,39.12514880822873],[-9.940000000000012,39.141596605778034],[-9.98000000000001,39.1580676247584],[-9.984686184683053,39.15999999999994],[-10.02000000000001,39.17458496774189],[-10.06000000000001,39.19112861392982],[-10.081419569236107,39.19999999999993],[-10.100000000000009,39.207707718072825],[-10.140000000000008,39.224324171537596],[-10.177682961481178,39.23999999999993],[-10.180000000000007,39.24096540279045],[-10.220000000000006,39.257654843205],[-10.260000000000007,39.27436754144359],[-10.273461917716418,39.27999999999993],[-10.300000000000004,39.291121175491],[-10.340000000000003,39.307907052992995],[-10.368777045136605,39.31999999999993],[-10.380000000000003,39.324723715865325],[-10.420000000000002,39.34158295098139],[-10.46,39.358465462919504],[-10.463630783778859,39.35999999999993],[-10.5,39.37539578331554]]}},{"type":"Feature","properties":{"magnitude":0.6,"percentagem":60.0,"territorio":"acores"},"geometry":{"type":"LineString","coordinates":[[-31.428826097702704,36.0],[-31.440000000000012,36.00734933846194],[-31.48000000000001,36.033677936424056],[-31.48959765821687,36.04],[-31.52000000000001,36.06004732079937],[-31.550237155365004,36.08],[-31.56000000000001,36.086448997927626],[-31.60000000000001,36.112891313950485],[-31.610745532028886,36.12],[-31.640000000000008,36.139373522814275],[-31.671124336338625,36.16],[-31.680000000000007,36.16588817377444],[-31.720000000000006,36.192444138119754],[-31.731372693451316,36.199999999999996],[-31.760000000000005,36.21903949333431],[-31.791493485738783,36.239999999999995],[-31.800000000000004,36.245667437380355],[-31.840000000000003,36.27233697011677],[-31.85148495223681,36.279999999999994],[-31.880000000000003,36.29904578457288],[-31.91135038771084,36.31999999999999],[-31.92,36.32578733190293],[-31.96,36.352570342762704],[-31.971088057622676,36.35999999999999],[-32.0,36.37939292015149]]}}]}