{"type":"FeatureCollection","features":[{"type":"Feature","properties":{"magnitude":0.4,"percentagem":40.0,"territorio":"continente"},"geometry":{"type":"LineString","coordinates":[[-10.5,37.00134850948666],[-10.491097777257957,36.99999999999998],[-10.46,36.995289360427876],[-10.420000000000002,36.98921631310463],[-10.380000000000003,36.98312925326452],[-10.340000000000003,36.97702816799502],[-10.300000000000004,36.97091304435909],[-10.260000000000005,36.96478386939495],[-10.22885071206388,36.95999999999998],[-10.220000000000006,36.958640731481],[-10.180000000000007,36.95248387397404],[-10.140000000000008,36.94631292709527],[-10.100000000000009,36.94012787778624],[-10.06000000000001,36.9339287129636],[-10.02000000000001,36.92771541951912],[-9.980000000000011,36.92148798431956],[-9.97046358454551,36.91999999999998],[-9.940000000000012,36.91524674582099],[-9.900000000000013,36.90899145028491],[-9.860000000000014,36.90272197443488],[-9.820000000000014,36.89643830503952],[-9.780000000000015,36.89014042884214],[-9.740000000000016,36.88382833256087],[-9.715793638485547,36.87999999999998],[-9.700000000000017,36.8775021861756],[-9.660000000000018,36.87116207497091],[-9.620000000000019,36.86480770467477],[-9.58000000000002,36.85843906190584],[-9.54000000000002,36.85205613325725],[-9.50000000000002,36.8456589052965],[-9.464695215878077,36.83999999999998],[-9.460000000000022,36.839247419341916],[-9.420000000000023,36.832822019997906],[-9.380000000000024,36.82638228187995],[-9.340000000000025,36.819928191454906],[-9.300000000000026,36.813459735163754],[-9.260000000000026,36.80697689942153],[-9.220000000000027,36.80047967061733],[-9.21705326067719,36.79999999999998],[-9.180000000000028,36.793968470510926],[-9.140000000000029,36.78744288565713],[-9.10000000000003,36.78090286774373],[-9.06000000000003,36.77434840305766],[-9.020000000000032,36.767779477859605],[-8.980000000000034,36.76119607838398],[-8.972748286946995,36.759999999999984],[-8.940000000000033,36.75459857754329],[-8.900000000000034,36.7479866614327],[-8.860000000000035,36.74136023058033],[-8.820000000000036,36.73471927111718],[-8.780000000000037,36.72806376914758],[-8.740000000000038,36.72139371074933],[-8.731659715087668,36.719999999999985],[-8.700000000000038,36.714709457599135],[-8.66000000000004,36.7080107200345],[-8.62000000000004,36.70129738510465],[-8.580000000000041,36.69456943878263],[-8.540000000000042,36.68782686701458],[-8.500000000000043,36.68106965571969],[-8.493681362464555,36.679999999999986],[-8.460000000000043,36.674298192230786],[-8.420000000000044,36.66751213726823],[-8.380000000000045,36.66071140136402],[-8.340000000000046,36.65389597033128],[-8.300000000000047,36.64706582995595],[-8.260000000000048,36.64022096599666],[-8.258711397319358,36.639999999999986],[-8.220000000000049,36.633361827610585],[-8.18000000000005,36.62648795348851],[-8.14000000000005,36.61959931388343],[-8.100000000000051,36.612695894446624],[-8.060000000000052,36.60577768080178],[-8.026665293974705,36.59999999999999],[-8.020000000000053,36.59884473851409],[-7.980000000000054,36.59189737409754],[-7.940000000000055,36.584935173164595],[-7.900000000000055,36.5779581212304],[-7.860000000000056,36.570966203782355],[-7.820000000000057,36.56395940627991],[-7.797443929047862,36.55999999999999],[-7.780000000000058,36.556937924298076],[-7.740000000000059,36.54990180579843],[-7.70000000000006,36.54285076444067],[-7.6600000000000605,36.53578478557442],[-7.620000000000061,36.528703854521126],[-7.580000000000061,36.52160795657392],[-7.57095437803246,36.51999999999999],[-7.540000000000063,36.51449745135733],[-7.500000000000064,36.50737206012361],[-7.460000000000065,36.50023165869085],[-7.420000000000066,36.49307623224101],[-7.3800000000000665,36.485905765927505],[-7.347123591121129,36.47999999999999],[-7.340000000000067,36.47872033117897],[-7.300000000000068,36.47152022605454],[-7.260000000000069,36.46430503733739],[-7.22000000000007,36.45707475006861],[-7.180000000000071,36.44982934926038],[-7.140000000000072,36.442568819896074],[-7.125876438297002,36.43999999999999],[-7.1000000000000725,36.43529346155235],[-7.060000000000073,36.428003117226766],[-7.020000000000074,36.42069760010311],[-6.980000000000075,36.41337689505098],[-6.940000000000076,36.40604098691078],[-6.907128415374155,36.39999999999999],[-6.900000000000077,36.39868994729188],[-6.860000000000078,36.39132407539059],[-6.820000000000078,36.38394295572568],[-6.780000000000079,36.37654657302259],[-6.74000000000008,36.36913491197729],[-6.700000000000081,36.361707957256236],[-6.690819608637111,36.35999999999999],[-6.660000000000082,36.35426606998973],[-6.620000000000083,36.346808971409175],[-6.580000000000084,36.33933653395269],[-6.540000000000084,36.331848742170386],[-6.500000000000085,36.32434558058243],[-6.476879876018033,36.31999999999999],[-6.460000000000086,36.316827240122365],[-6.420000000000087,36.309293782526126],[-6.380000000000088,36.30174490948063],[-6.340000000000089,36.2941806053886],[-6.3000000000000895,36.28660085462255],[-6.265236353867216,36.279999999999994],[-6.26000000000009,36.279005705630524],[-6.220000000000091,36.27139550515463],[-6.180000000000092,36.26376981191309],[-6.140000000000093,36.256128610159685],[-6.100000000000094,36.24847188411772],[-6.060000000000095,36.24079961797999],[-6.055839218374281,36.239999999999995],[-6.0200000000000955,36.2331122358824],[-5.980000000000096,36.2254093340278],[-5.940000000000097,36.217690845443755],[-5.900000000000098,36.20995675420285],[-5.8600000000001,36.20220704434681],[-5.8486305548266335,36.199999999999996],[-5.8200000000001,36.19444205160895],[-5.780000000000101,36.18666154887538],[-5.7400000000001015,36.17886538043483],[-5.700000000000102,36.1710535302076],[-5.660000000000103,36.16322598208285],[-5.643546838253538,36.16],[-5.620000000000104,36.15538300934568],[-5.580000000000105,36.14752450957905],[-5.540000000000106,36.139650264360185]]}},{"type":"Feature","properties":{"magnitude":0.6,"percentagem":60.0,"territorio":"continente"},"geometry":{"type":"LineString","coordinates":[[-8.962394166277214,42.95999999999985],[-8.940000000000033,42.95649678128546],[-8.900000000000034,42.95022644185135],[-8.860000000000035,42.94394292117996],[-8.820000000000036,42.937646207150614],[-8.780000000000037,42.931336287618294],[-8.740000000000038,42.92501315041365],[-8.708352649347265,42.91999999999985],[-8.700000000000038,42.91867699847593],[-8.66000000000004,42.912328421939094],[-8.62000000000004,42.90596659369166],[-8.580000000000041,42.899591501471775],[-8.540000000000042,42.89320313299304],[-8.500000000000043,42.886801475944324],[-8.460000000000043,42.88038651798986],[-8.457594709249134,42.87999999999986],[-8.420000000000044,42.87395922687988],[-8.380000000000045,42.86751867543915],[-8.340000000000046,42.861064788574986],[-8.300000000000047,42.85459755385776],[-8.260000000000048,42.84811695883287],[-8.220000000000049,42.841622991020735],[-8.210023048631946,42.83999999999985],[-8.18000000000005,42.835116428339155],[-8.14000000000005,42.828596733069716],[-8.100000000000051,42.82206363007891],[-8.060000000000052,42.81551710679208],[-8.020000000000053,42.80895715060937],[-7.980000000000055,42.802383748905555],[-7.96552346200339,42.799999999999855],[-7.940000000000055,42.79579756754769],[-7.900000000000055,42.78919830273399],[-7.860000000000056,42.78258555704342],[-7.820000000000057,42.77595931775453],[-7.780000000000058,42.76931957212037],[-7.740000000000059,42.762666307368235],[-7.7240016682510015,42.75999999999986],[-7.70000000000006,42.75600015493113],[-7.6600000000000605,42.74932088971451],[-7.620000000000061,42.74262806959726],[-7.580000000000062,42.735921681709314],[-7.540000000000063,42.72920171315475],[-7.500000000000064,42.72246815101164],[-7.48536699472625,42.71999999999986],[-7.460000000000065,42.71572166973384],[-7.420000000000066,42.70896196804885],[-7.3800000000000665,42.7021886365604],[-7.340000000000067,42.69540166224792],[-7.300000000000068,42.688601032064675],[-7.260000000000069,42.68178673293764],[-7.24953220882185,42.67999999999986],[-7.22000000000007,42.674959559638104],[-7.180000000000071,42.66811898014798],[-7.140000000000072,42.661264695061476],[-7.1000000000000725,42.65439669120567],[-7.060000000000073,42.6475149553811],[-7.020000000000074,42.64061947436171],[-7.016413358964111,42.63999999999986],[-6.980000000000075,42.63371124037775],[-6.940000000000076,42.62678933640901],[-6.900000000000077,42.619853650149786],[-6.860000000000078,42.61290416827287],[-6.8200000000000776,42.605940877424196],[-6.78594031845752,42.59999999999986],[-6.780000000000079,42.59896392942979],[-6.74000000000008,42.59197409534683],[-6.700000000000081,42.58497041482303],[-6.660000000000082,42.577952874402186],[-6.620000000000083,42.570921460600864],[-6.580000000000084,42.56387615990847],[-6.558035366708592,42.55999999999986],[-6.540000000000084,42.556817465014724],[-6.500000000000085,42.549745475202826],[-6.460000000000086,42.542659560577476],[-6.420000000000087,42.53555970752464],[-6.380000000000088,42.52844590240272],[-6.340000000000089,42.521318131542664],[-6.332616761101889,42.51999999999986],[-6.3000000000000895,42.51417730515654],[-6.26000000000009,42.50702269746463],[-6.220000000000091,42.49985408565321],[-6.180000000000092,42.49267145594846],[-6.140000000000093,42.485474794548644],[-6.109628949667691,42.47999999999986],[-6.100000000000094,42.47826436227844],[-6.060000000000095,42.47104073942338],[-6.0200000000000955,42.463803046105184],[-5.980000000000096,42.456551268416334],[-5.940000000000097,42.44928539242119],[-5.900000000000098,42.44200540415589],[-5.8890018540009645,42.43999999999986],[-5.860000000000099,42.43471212434202],[-5.8200000000001,42.427405023494266],[-5.780000000000101,42.42008377113876],[-5.7400000000001015,42.41274835320455],[-5.700000000000102,42.405398755592145],[-5.67067328359383,42.399999999999864],[-5.660000000000103,42.39803527347],[-5.620000000000104,42.39065843576164],[-5.580000000000105,42.38326737874182],[-5.540000000000106,42.375862088202815]]}},{"type":"Feature","properties":{"magnitude":0.2,"percentagem":20.0,"territorio":"madeira"},"geometry":{"type":"LineString","coordinates":[[-18.0,31.83139365519992],[-17.96,31.827618571262928],[-17.92,31.82383047600266],[-17.880000000000003,31.82002935868342],[-17.879692098767357,31.81999999999995],[-17.840000000000003,31.81621524856072],[-17.800000000000004,31.812388094964252],[-17.760000000000005,31.808547886790024],[-17.720000000000006,31.80469461322704],[-17.680000000000007,31.800828263445585],[-17.640000000000008,31.79694882659725],[-17.60000000000001,31.793056291814803],[-17.56000000000001,31.789150648212228],[-17.52000000000001,31.785231884884624],[-17.48000000000001,31.781299990908195],[-17.466818693818585,31.77999999999995],[-17.440000000000012,31.777354980781936],[-17.400000000000013,31.77339683044463],[-17.360000000000014,31.769425516353664],[-17.320000000000014,31.765441027508402],[-17.280000000000015,31.761443352889053],[-17.240000000000016,31.757432481456753],[-17.200000000000017,31.75340840215341],[-17.160000000000018,31.749371103901726],[-17.12000000000002,31.74532057560517],[-17.08000000000002,31.741256806147863],[-17.067669089154258,31.739999999999952],[-17.04000000000002,31.737179808842694],[-17.00000000000002,31.733089558798284],[-16.960000000000022,31.728986033890244],[-16.920000000000023,31.724869222924234],[-16.880000000000024,31.72073911468639],[-16.840000000000025,31.716595697943315],[-16.800000000000026,31.71243896144204],[-16.760000000000026,31.708268893909953],[-16.720000000000027,31.704085484054744],[-16.681060585723774,31.699999999999953],[-16.680000000000028,31.699888721428465],[-16.64000000000003,31.695678625476518],[-16.60000000000003,31.6914551529485],[-16.56000000000003,31.68721829247216],[-16.52000000000003,31.68296803265536],[-16.480000000000032,31.678704362086037],[-16.440000000000033,31.67442726933219],[-16.400000000000034,31.670136742941775],[-16.360000000000035,31.665832771442695],[-16.320000000000036,31.66151534334281],[-16.30600401205236,31.659999999999954],[-16.280000000000037,31.657184466331625],[-16.240000000000038,31.652840119797503],[-16.20000000000004,31.64848228178799],[-16.16000000000004,31.6441109407293],[-16.12000000000004,31.63972608502725],[-16.08000000000004,31.635327703067404],[-16.040000000000042,31.630915783214895],[-16.000000000000043,31.62649031381442],[-15.960000000000043,31.622051283190185],[-15.941571901350311,31.619999999999955],[-15.920000000000044,31.617598693861133],[-15.880000000000045,31.61313253182984],[-15.840000000000046,31.608652773128497],[-15.800000000000047,31.60415940599814],[-15.760000000000048,31.5996524186591],[-15.720000000000049,31.59513179931099],[-15.680000000000051,31.590597536132613],[-15.64000000000005,31.586049617281958],[-15.600000000000051,31.581488030896146],[-15.58699029926446,31.579999999999956],[-15.560000000000052,31.576912780593304],[-15.520000000000053,31.572323846187267],[-15.480000000000054,31.567721208217428],[-15.440000000000055,31.563104854736164],[-15.400000000000055,31.55847477377474],[-15.360000000000056,31.553830953343272],[-15.320000000000057,31.54917338143071],[-15.280000000000058,31.544502046004787],[-15.24156288884499,31.539999999999957],[-15.240000000000059,31.539816935774567],[-15.20000000000006,31.535118056512843],[-15.16000000000006,31.530405377180912],[-15.120000000000061,31.5256788856603],[-15.080000000000062,31.520938569811094],[-15.040000000000063,31.516184417471877]]}}]}