{"type":"FeatureCollection","properties":{"largura_maxima_km":366.992,"largura_sobre_pt_km":360.257,"linha_central_sobre_pt":false,"desenhavel_como_area":true,"perfil_largura":[{"t":0.08889,"lat":41.7476,"lon":-39.9913,"largura_km":362.064,"eixo_na_terra":true},{"t":0.09444,"lat":41.8204,"lon":-39.8632,"largura_km":361.965,"eixo_na_terra":true},{"t":0.1,"lat":41.8934,"lon":-39.7344,"largura_km":361.87,"eixo_na_terra":true},{"t":0.10556,"lat":41.9666,"lon":-39.6052,"largura_km":361.777,"eixo_na_terra":true},{"t":0.11111,"lat":42.04,"lon":-39.4754,"largura_km":361.686,"eixo_na_terra":true},{"t":0.11667,"lat":42.1137,"lon":-39.345,"largura_km":361.598,"eixo_na_terra":true},{"t":0.12222,"lat":42.1876,"lon":-39.214,"largura_km":361.513,"eixo_na_terra":true},{"t":0.12778,"lat":42.2617,"lon":-39.0824,"largura_km":361.43,"eixo_na_terra":true},{"t":0.13333,"lat":42.3361,"lon":-38.9503,"largura_km":361.349,"eixo_na_terra":true},{"t":0.13889,"lat":42.4106,"lon":-38.8175,"largura_km":361.272,"eixo_na_terra":true},{"t":0.14444,"lat":42.4855,"lon":-38.6842,"largura_km":361.197,"eixo_na_terra":true},{"t":0.15,"lat":42.5605,"lon":-38.5502,"largura_km":361.124,"eixo_na_terra":true},{"t":0.15556,"lat":42.6358,"lon":-38.4156,"largura_km":361.054,"eixo_na_terra":true},{"t":0.16111,"lat":42.7114,"lon":-38.2803,"largura_km":360.987,"eixo_na_terra":true},{"t":0.16667,"lat":42.7871,"lon":-38.1444,"largura_km":360.923,"eixo_na_terra":true},{"t":0.17222,"lat":42.8632,"lon":-38.0078,"largura_km":360.861,"eixo_na_terra":true},{"t":0.17778,"lat":42.9394,"lon":-37.8705,"largura_km":360.802,"eixo_na_terra":true},{"t":0.18333,"lat":43.016,"lon":-37.7326,"largura_km":360.746,"eixo_na_terra":true},{"t":0.18889,"lat":43.0927,"lon":-37.594,"largura_km":360.693,"eixo_na_terra":true},{"t":0.19444,"lat":43.1698,"lon":-37.4546,"largura_km":360.642,"eixo_na_terra":true},{"t":0.2,"lat":43.2471,"lon":-37.3146,"largura_km":360.594,"eixo_na_terra":true},{"t":0.20556,"lat":43.3246,"lon":-37.1738,"largura_km":360.549,"eixo_na_terra":true},{"t":0.21111,"lat":43.4024,"lon":-37.0323,"largura_km":360.507,"eixo_na_terra":true},{"t":0.21667,"lat":43.4805,"lon":-36.89,"largura_km":360.467,"eixo_na_terra":true},{"t":0.22222,"lat":43.5588,"lon":-36.747,"largura_km":360.431,"eixo_na_terra":true},{"t":0.22778,"lat":43.6374,"lon":-36.6032,"largura_km":360.397,"eixo_na_terra":true},{"t":0.23333,"lat":43.7162,"lon":-36.4586,"largura_km":360.366,"eixo_na_terra":true},{"t":0.23889,"lat":43.7954,"lon":-36.3132,"largura_km":360.339,"eixo_na_terra":true},{"t":0.24444,"lat":43.8748,"lon":-36.167,"largura_km":360.314,"eixo_na_terra":true},{"t":0.25,"lat":43.9545,"lon":-36.02,"largura_km":360.292,"eixo_na_terra":true},{"t":0.25556,"lat":44.0344,"lon":-35.8722,"largura_km":360.273,"eixo_na_terra":true},{"t":0.26111,"lat":44.1147,"lon":-35.7235,"largura_km":360.257,"eixo_na_terra":true},{"t":0.26667,"lat":44.1952,"lon":-35.5739,"largura_km":360.244,"eixo_na_terra":true},{"t":0.27222,"lat":44.276,"lon":-35.4234,"largura_km":360.236,"eixo_na_terra":true},{"t":0.27778,"lat":44.3571,"lon":-35.2721,"largura_km":360.23,"eixo_na_terra":true},{"t":0.28333,"lat":44.4385,"lon":-35.1199,"largura_km":360.228,"eixo_na_terra":true},{"t":0.28889,"lat":44.5202,"lon":-34.9667,"largura_km":360.229,"eixo_na_terra":true},{"t":0.29444,"lat":44.6022,"lon":-34.8126,"largura_km":360.233,"eixo_na_terra":true},{"t":0.3,"lat":44.6845,"lon":-34.6575,"largura_km":360.24,"eixo_na_terra":true},{"t":0.30556,"lat":44.7671,"lon":-34.5015,"largura_km":360.251,"eixo_na_terra":true},{"t":0.31111,"lat":44.85,"lon":-34.3445,"largura_km":360.265,"eixo_na_terra":true},{"t":0.31667,"lat":44.9332,"lon":-34.1864,"largura_km":360.281,"eixo_na_terra":true},{"t":0.32222,"lat":45.0167,"lon":-34.0274,"largura_km":360.302,"eixo_na_terra":true},{"t":0.32778,"lat":45.1006,"lon":-33.8673,"largura_km":360.325,"eixo_na_terra":true},{"t":0.33333,"lat":45.1847,"lon":-33.7062,"largura_km":360.352,"eixo_na_terra":true},{"t":0.33889,"lat":45.2692,"lon":-33.544,"largura_km":360.383,"eixo_na_terra":true},{"t":0.34444,"lat":45.354,"lon":-33.3807,"largura_km":360.416,"eixo_na_terra":true},{"t":0.35,"lat":45.4392,"lon":-33.2163,"largura_km":360.453,"eixo_na_terra":true},{"t":0.35556,"lat":45.5246,"lon":-33.0508,"largura_km":360.494,"eixo_na_terra":true},{"t":0.36111,"lat":45.6105,"lon":-32.8841,"largura_km":360.538,"eixo_na_terra":true},{"t":0.36667,"lat":45.6966,"lon":-32.7163,"largura_km":360.586,"eixo_na_terra":true},{"t":0.37222,"lat":45.7831,"lon":-32.5473,"largura_km":360.637,"eixo_na_terra":true},{"t":0.37778,"lat":45.87,"lon":-32.3771,"largura_km":360.692,"eixo_na_terra":true},{"t":0.38333,"lat":45.9572,"lon":-32.2056,"largura_km":360.75,"eixo_na_terra":true},{"t":0.38889,"lat":46.0447,"lon":-32.0329,"largura_km":360.812,"eixo_na_terra":true},{"t":0.39444,"lat":46.1327,"lon":-31.8589,"largura_km":360.878,"eixo_na_terra":true},{"t":0.4,"lat":46.221,"lon":-31.6836,"largura_km":360.947,"eixo_na_terra":true},{"t":0.40556,"lat":46.3096,"lon":-31.507,"largura_km":361.02,"eixo_na_terra":true},{"t":0.41111,"lat":46.3987,"lon":-31.329,"largura_km":361.097,"eixo_na_terra":true},{"t":0.41667,"lat":46.4881,"lon":-31.1497,"largura_km":361.178,"eixo_na_terra":true},{"t":0.42222,"lat":46.5779,"lon":-30.9689,"largura_km":361.263,"eixo_na_terra":true},{"t":0.42778,"lat":46.6681,"lon":-30.7868,"largura_km":361.352,"eixo_na_terra":true},{"t":0.43333,"lat":46.7587,"lon":-30.6032,"largura_km":361.444,"eixo_na_terra":true},{"t":0.43889,"lat":46.8496,"lon":-30.4181,"largura_km":361.541,"eixo_na_terra":true},{"t":0.44444,"lat":46.941,"lon":-30.2315,"largura_km":361.644,"eixo_na_terra":true},{"t":0.45,"lat":47.0328,"lon":-30.0434,"largura_km":361.751,"eixo_na_terra":true},{"t":0.45556,"lat":47.125,"lon":-29.8537,"largura_km":361.862,"eixo_na_terra":true},{"t":0.46111,"lat":47.2177,"lon":-29.6624,"largura_km":361.978,"eixo_na_terra":true},{"t":0.46667,"lat":47.3108,"lon":-29.4694,"largura_km":362.098,"eixo_na_terra":true},{"t":0.47222,"lat":47.4043,"lon":-29.2748,"largura_km":362.222,"eixo_na_terra":true},{"t":0.47778,"lat":47.4982,"lon":-29.0785,"largura_km":362.351,"eixo_na_terra":true},{"t":0.48333,"lat":47.5926,"lon":-28.8805,"largura_km":362.484,"eixo_na_terra":true},{"t":0.48889,"lat":47.6874,"lon":-28.6807,"largura_km":362.622,"eixo_na_terra":true},{"t":0.49444,"lat":47.7827,"lon":-28.4792,"largura_km":362.764,"eixo_na_terra":true},{"t":0.5,"lat":47.8785,"lon":-28.2757,"largura_km":362.911,"eixo_na_terra":true},{"t":0.50556,"lat":47.9747,"lon":-28.0704,"largura_km":363.062,"eixo_na_terra":true},{"t":0.51111,"lat":48.0714,"lon":-27.8632,"largura_km":363.219,"eixo_na_terra":true},{"t":0.51667,"lat":48.1686,"lon":-27.654,"largura_km":363.38,"eixo_na_terra":true},{"t":0.52222,"lat":48.2663,"lon":-27.4428,"largura_km":363.546,"eixo_na_terra":true},{"t":0.52778,"lat":48.3645,"lon":-27.2295,"largura_km":363.717,"eixo_na_terra":true},{"t":0.53333,"lat":48.4632,"lon":-27.0142,"largura_km":363.894,"eixo_na_terra":true},{"t":0.53889,"lat":48.5624,"lon":-26.7967,"largura_km":364.075,"eixo_na_terra":true},{"t":0.54444,"lat":48.6622,"lon":-26.5771,"largura_km":364.262,"eixo_na_terra":true},{"t":0.55,"lat":48.7625,"lon":-26.3551,"largura_km":364.454,"eixo_na_terra":true},{"t":0.55556,"lat":48.8633,"lon":-26.1309,"largura_km":364.653,"eixo_na_terra":true},{"t":0.56111,"lat":48.9647,"lon":-25.9044,"largura_km":364.859,"eixo_na_terra":true},{"t":0.56667,"lat":49.0666,"lon":-25.6754,"largura_km":365.071,"eixo_na_terra":true},{"t":0.57222,"lat":49.1692,"lon":-25.444,"largura_km":365.29,"eixo_na_terra":true},{"t":0.57778,"lat":49.2723,"lon":-25.2101,"largura_km":365.514,"eixo_na_terra":true},{"t":0.58333,"lat":49.376,"lon":-24.9736,"largura_km":365.745,"eixo_na_terra":true},{"t":0.58889,"lat":49.4803,"lon":-24.7344,"largura_km":365.982,"eixo_na_terra":true},{"t":0.59444,"lat":49.5852,"lon":-24.4926,"largura_km":366.225,"eixo_na_terra":true},{"t":0.6,"lat":49.6908,"lon":-24.2479,"largura_km":366.474,"eixo_na_terra":true},{"t":0.60556,"lat":49.797,"lon":-24.0004,"largura_km":366.73,"eixo_na_terra":true},{"t":0.61111,"lat":49.9039,"lon":-23.75,"largura_km":366.992,"eixo_na_terra":true}]},"features":[{"type":"Feature","properties":{},"geometry":{"type":"Polygon","coordinates":[[[-40.646509658022126,43.466088860230464],[-39.28643647235529,44.232372521210735],[-38.149457296963305,44.864623151456286],[-37.11382970772388,45.43289989875865],[-36.035294160259156,46.016219590055535],[-35.365560870688,46.37352756761144],[-34.875808417498035,46.63267771099223],[-34.207120064038776,46.98320320261155],[-33.69312085990785,47.249985245816895],[-33.16775636170317,47.52023238616595],[-32.63037807828036,47.79407310983214],[-32.080286485495776,48.07164527006292],[-31.516725178473337,48.35309707183671],[-30.54526441934334,48.831244274949675],[-29.489786352385067,49.340128839375645],[-28.85637471462337,49.64070526566295],[-28.42369854485986,49.843804952896754],[-27.75811036888487,50.152709768802154],[-27.302719747337846,50.36159789743867],[-26.361850522734926,50.78684450366777],[-25.3300091628484,51.24272705079567],[-24.81892294623424,51.465152869268124],[-24.29502244375061,51.690574472477785],[-23.757573219961557,51.91912271965853],[-23.205775262824773,52.15093920604858],[-23.989902165810918,47.87308437795009],[-24.89875630219285,47.4773247026245],[-25.72999496832287,47.10876630489438],[-26.57039482864937,46.72845289042527],[-26.97891355675614,46.5410244049098],[-27.577977725865452,46.26314224946088],[-27.968634913752425,46.07998925574403],[-28.542217916609815,45.808297054253046],[-29.467172307756783,45.363222386358835],[-30.35637824589128,44.92730574822105],[-30.874050587441957,44.66992306018162],[-31.380585402547666,44.41553364548798],[-31.876547383970575,44.1640374796844],[-32.36246324865385,43.915340815079254],[-33.30609438611651,43.42599921182404],[-34.21505747045444,42.94686535623567],[-35.23589273059352,42.400017724213356],[-36.218246891242984,41.86548337751105],[-37.16600327144096,41.3425527595293],[-38.21118187983433,40.75832272807199],[-39.34398358608652,40.11717127469334],[-40.646509658022126,43.466088860230464]]]}}]}