{"type":"FeatureCollection","features":[{"type":"Feature","properties":{"t_inicio":0.08888888888887436,"t_fim":0.6111111111110947},"geometry":{"type":"LineString","coordinates":[[-39.99133126050944,41.74764467958399],[-39.863160695192505,41.82040786342279],[-39.73444727783243,41.89339312665987],[-39.60518265530422,41.96660206748771],[-39.47535834763522,42.040036310122126],[-39.344965744861696,42.113697505336745],[-39.213996103793505,42.18758733101279],[-39.082440544683465,42.26170749270494],[-38.95029004779764,42.33605972422348],[-38.81753544988328,42.4106457882337],[-38.68416744053002,42.48546747687282],[-38.55017655842073,42.56052661238544],[-38.41555318746748,42.63582504777774],[-38.28028755282867,42.71136466749155],[-38.14436971680206,42.78714738809859],[-38.00778957458968,42.86317515901612],[-37.870536849928754,42.9394499632443],[-37.73260109058418,43.01597381812642],[-37.59397166369655,43.09274877613264],[-37.45463775097994,43.16977692566827],[-37.31458834376403,43.247060391907716],[-37.17381223787322,43.3246013376544],[-37.03229802833738,43.40240196422857],[-36.890034103925984,43.48046451238339],[-36.74700864149966,43.558791263250846],[-36.60320960017032,43.63738453931835],[-36.45862471526286,43.71624670543746],[-36.313241492069466,43.79538016986625],[-36.167047199387866,43.87478738534585],[-36.02002886283438,43.95447085021372],[-35.872173257921816,44.03443310955429],[-35.72346690289237,44.11467675638895],[-35.57389605129424,44.19520443290682],[-35.42344668429129,44.27601883173828],[-35.27210450269337,44.35712269727286],[-35.11985491869498,44.438518827023614],[-34.96668304730912,44.52021007303968],[-34.812573697482435,44.60219934336961],[-34.657511362876875,44.68448960357731],[-34.501480212302624,44.76708387831303],[-34.34446407978601,44.84998525294205],[-34.18644645425488,44.93319687523364],[-34.027410468824,45.01672195711278],[-33.86733888966043,45.10056377647789],[-33.706214104409355,45.18472567908752],[-33.54401811015862,45.269211080519185],[-33.380732500919436,45.35402346820387],[-33.21633845459911,45.4391664035397],[-33.050816719440576,45.52464352408892],[-32.884147599902036,45.61045854586159],[-32.716310941947654,45.69661526569129],[-32.547286117719665,45.783117563706256],[-32.37705200955946,45.86996940590171],[-32.20558699334396,45.95717484681806],[-32.03286892110046,46.044738032330166],[-31.85887510286244,46.13266320255404],[-31.683582287724732,46.22095469487664],[-31.5069666440549,46.309616947115394],[-31.329003738814407,46.398654500814324],[-31.149668515940363,46.488072004684255],[-30.968935273735383,46.577874218194744],[-30.786777641209085,46.66806601532621],[-30.60316855331186,46.758652388491264],[-30.418080224996743,46.849638452634245],[-30.231484124041145,46.941029449519924],[-30.04335094255532,47.03283075222125],[-29.853650567099635,47.12504786981843],[-29.662352047326664,47.21768645232143],[-29.4694235630584,47.31075229582897],[-29.274832389702652,47.40425134793873],[-29.078544861904845,47.49818971342331],[-28.880526335324873,47.59257366018873],[-28.68074114641911,47.68740962553294],[-28.479152570099586,47.78270422272303],[-28.275722775132493,47.878464247911346],[-28.070412777126137,47.97469668741274],[-27.863182388948758,48.07140872536571],[-27.653990168402203,48.16860775180368],[-27.44279336296418,48.266301371162825],[-27.22954785139649,48.36449741125674],[-27.014208081999982,48.463203932749536],[-26.796727007278065,48.56242923916182],[-26.577056014751292,48.66218188744744],[-26.355144853642713,48.762470699181065],[-26.130941557129574,48.86330477240152],[-25.904392359830325,48.96469349415782],[-25.675441610165905,49.06664655381085],[-25.44403167720145,49.1691739571474],[-25.21010285153926,49.2722860413682],[-24.973593239792848,49.375993491018],[-24.73443865212775,49.48030735493182],[-24.492572482305718,49.58523906427781],[-24.24792557961385,49.6908004517862],[-24.000426111998934,49.797003772261476],[-23.749999419658934,49.90386172448498]]}}]}