{"type":"FeatureCollection","features":[{"type":"Feature","properties":{"magnitude":0.2,"de":0.2,"ate":0.5,"percentagem":20.0},"geometry":{"type":"Polygon","coordinates":[[[-21.408806159347183,30.0],[-3.5399999999988268,30.0],[-3.5399999999988268,37.09251388182275],[-5.939999999998918,36.33958682220944],[-8.279999999999006,35.552080252054736],[-10.559999999999093,34.73091458905914],[-12.779999999999177,33.87727869178815],[-14.999999999999261,32.9673277440571],[-17.159999999999343,32.025219040258065],[-19.319999999999425,31.02475293198235],[-21.408806159347183,30.0]]]}},{"type":"Feature","properties":{"magnitude":0.5,"de":0.5,"ate":0.8,"percentagem":50.0},"geometry":{"type":"Polygon","coordinates":[[[-34.5,30.0],[-21.408806159347183,30.0],[-19.319999999999425,31.02475293198235],[-17.159999999999343,32.025219040258065],[-14.999999999999261,32.9673277440571],[-12.779999999999177,33.87727869178815],[-10.559999999999093,34.73091458905914],[-8.279999999999006,35.552080252054736],[-5.939999999998918,36.33958682220944],[-3.5399999999988268,37.09251388182275],[-3.5399999999988268,44.939999999999685],[-16.646265195626114,44.939999999999685],[-18.839999999999407,44.05830053874523],[-21.05999999999949,43.11590582513907],[-23.219999999999573,42.148971495228565],[-25.379999999999654,41.13153899315553],[-27.59999999999974,40.03266330578738],[-29.879999999999825,38.848458994034544],[-32.15999999999991,37.609988373456794],[-34.5,36.287134007660626],[-34.5,30.0]]]}},{"type":"Feature","properties":{"magnitude":0.8,"de":0.8,"ate":0.95,"percentagem":80.0},"geometry":{"type":"Polygon","coordinates":[[[-34.5,36.29999999999987],[-29.75999999999982,38.912165470819275],[-27.59999999999974,40.03266330578738],[-25.49999999999966,41.073519717145174],[-23.339999999999577,42.0937804139352],[-21.119999999999493,43.08971681983446],[-18.89999999999941,44.03349900066893],[-16.646265195626114,44.939999999999685],[-32.791667207667096,44.939999999999685],[-34.5,44.03605149317758],[-34.5,36.29999999999987]]]}},{"type":"Feature","properties":{"magnitude":0.95,"de":0.95,"ate":0.99,"percentagem":95.0},"geometry":{"type":"Polygon","coordinates":[[[-34.5,44.939999999999685],[-34.5,44.03605149317758],[-32.791667207667096,44.939999999999685],[-34.5,44.939999999999685]]]}}]}