{"type":"FeatureCollection","features":[{"type":"Feature","properties":{"magnitude":0.2,"de":0.2,"ate":0.5,"percentagem":20.0},"geometry":{"type":"Polygon","coordinates":[[[-34.5,30.0],[-26.654466012737064,30.0],[-10.919999999999106,36.76125489213724],[-7.019999999998959,38.39096972064281],[-3.5399999999988268,39.795192587227575],[-3.5399999999988268,44.939999999999685],[-27.322157070863867,44.939999999999685],[-34.5,41.803889617547895],[-34.5,30.0]]]}},{"type":"Feature","properties":{"magnitude":0.5,"de":0.5,"ate":0.8,"percentagem":50.0},"geometry":{"type":"Polygon","coordinates":[[[-26.654466012737064,30.0],[-3.5399999999988268,30.0],[-3.5399999999988268,39.795192587227575],[-7.019999999998959,38.39096972064281],[-10.919999999999106,36.761254892137245],[-26.654466012737064,30.0]]]}}]}