{"type":"FeatureCollection","properties":{"largura_maxima_km":null,"largura_sobre_pt_km":null,"linha_central_sobre_pt":false,"desenhavel_como_area":true,"perfil_largura":[{"t":1.51667,"lat":48.3262,"lon":10.378,"largura_km":null,"eixo_na_terra":false},{"t":1.52222,"lat":47.8042,"lon":11.3753,"largura_km":null,"eixo_na_terra":false},{"t":1.52778,"lat":47.5827,"lon":11.5831,"largura_km":null,"eixo_na_terra":false}]},"features":[{"type":"Feature","properties":{},"geometry":{"type":"Polygon","coordinates":[[[17.145481713877473,44.70426949498788],[16.20221609396893,45.11112801420265],[15.523869670931816,45.392526393607085],[14.956352461144832,45.62153002517916],[14.454051268393044,45.819824854154],[13.99611168205692,45.997362245770674],[13.171582656650742,46.310201072256774],[12.793123603479586,46.45125024153669],[12.086703772124963,46.711009965549316],[11.125152454837604,47.05898330387999],[8.970668167587775,47.83077154420037],[8.072696236125154,48.15794975568473],[7.469912973166572,48.38340302138215],[7.100930631978798,48.52508863514647],[6.596353962366948,48.72544832577749],[6.292520618098337,48.85120315949468],[6.014781697235691,48.97085386265767],[5.763233078492959,49.08446841414831],[5.537995997863021,49.192068365572624],[5.425009141915598,49.2489588642935],[5.1831004855484935,49.349892843411666],[4.935295838266654,49.458171209156326],[4.711685181392653,49.561466806901265],[4.508006846309825,49.662083506004905],[4.282594460584761,49.75502925874721],[4.16255196075366,49.806342386208186],[3.939347043673763,49.905857125983864],[3.739008670226667,50.00111520144773],[3.5619333951628107,50.091972862164],[3.4822317554399547,50.13570229009434],[3.4084751356868423,50.178270597279656],[3.3407006928367764,50.219655479456634],[3.278942607831709,50.259833727914206],[3.2232320149135774,50.29878125475153],[3.17359693373956,50.336473120206676],[3.130062204417726,50.37288356209085],[3.092649425580305,50.407986027351136],[3.061376895626239,50.44175320577458],[3.036259557281994,50.474157065834405],[3.017308945640366,50.505168892670184],[3.004533139852043,50.53475932818162],[2.9979367186537615,50.56289841320663],[2.997520719926996,50.58955563174323],[3.0032826044898115,50.61469995716511],[3.0152162243293787,50.6382999003708],[3.033311795491329,50.66032355979494],[3.0575558758409613,50.68073867320256],[3.087931347919323,50.69951267117478],[3.124417407113242,50.71661273218643],[3.166989555360516,50.732005839164934],[3.21561960060896,50.74565883741109],[3.2702756622432503,50.75753849375191],[3.3309221826903013,50.7676115567866],[3.397519945406259,50.77584481807713],[3.470026099441043,50.78220517412561],[3.548394190767169,50.78665968897134],[3.6325742005504082,50.78917565723125],[3.818152355648749,50.788262665205224],[3.9194330841166334,50.784770016846764],[4.138659163297405,50.77155672539875],[4.25646730323794,50.76177547978979],[4.508107452544721,50.73571719755179],[4.641784022484217,50.71938373873132],[4.924440616511987,50.679973346203916],[5.073248967227386,50.656845188520734],[5.385378568332982,50.60362226963012],[5.548514346046574,50.573482379455555],[5.888449623363471,50.5060412592876],[6.06505273686642,50.46870172078039],[6.431028452394997,50.38669795546749],[6.620197112549846,50.34200273575638],[7.0103803686554045,50.245157520707046],[7.41566594706444,50.13829638472317],[7.623712503064127,50.08108587551186],[8.050097752675555,49.95906739943215],[8.489530060536737,49.82688171880587],[8.713891110821208,49.75696591653586],[9.171426013991635,49.60947518024204],[9.640109101448303,49.451761660584225],[10.119271207987282,49.283816510459694],[10.608322465280764,49.10562827453416],[11.106777788057286,48.91717217939779],[11.614290892235744,48.71839494540586],[12.130701538851355,48.509192843152206],[12.656103925228251,48.28937916062095],[13.190950150938335,48.05863434487892],[13.73621450572287,47.81642636510955],[14.293669219852717,47.56187679657465],[14.866379360512695,47.293520511262486],[15.159986633545117,47.15343978643043],[15.459670253862896,47.008836322920686],[16.083251533242674,46.703217399350834],[17.002934293496192,46.24330173786157],[17.781027071843113,45.87180896115551],[18.96513984157042,45.301114740136335],[18.153804638700365,44.552074653254934],[17.31204207479286,44.92257276321074],[17.145481713877473,44.70426949498788]]]}}]}