{"type":"FeatureCollection","features":[{"type":"Feature","properties":{"magnitude":0.2,"de":0.2,"ate":0.5,"percentagem":20.0},"geometry":{"type":"Polygon","coordinates":[[[-31.61999999999989,31.232517973951577],[-28.386709570434842,30.0],[-3.5399999999988268,30.0],[-3.5399999999988268,30.659810455460864],[-9.17999999999904,33.154541597519966],[-13.619999999999209,35.076666659889476],[-17.57999999999936,36.7371434956461],[-21.179999999999495,38.18624360614272],[-24.71999999999963,39.54137743333067],[-28.079999999999757,40.75248686076657],[-31.31999999999988,41.842170679717725],[-34.5,42.829945133958155],[-34.5,32.27072169602204],[-31.61999999999989,31.232517973951577]]]}},{"type":"Feature","properties":{"magnitude":0.5,"de":0.5,"ate":0.8,"percentagem":50.0},"geometry":{"type":"Polygon","coordinates":[[[-3.540426046959475,30.659999999999986],[-3.5399999999988268,43.3937178620837],[-7.1350185210536425,44.93999999999968],[-34.5,44.939999999999685],[-34.5,42.829945133958155],[-31.31999999999988,41.842170679717725],[-28.07999999999976,40.752486860766574],[-24.719999999999626,39.54137743333067],[-21.179999999999495,38.186243606142725],[-17.57999999999936,36.7371434956461],[-13.619999999999209,35.076666659889476],[-9.17999999999904,33.154541597519966],[-3.540426046959475,30.659999999999986]]]}},{"type":"Feature","properties":{"magnitude":0.8,"de":0.8,"ate":0.95,"percentagem":80.0},"geometry":{"type":"Polygon","coordinates":[[[-7.1350185210536425,44.93999999999968],[-3.5399999999988268,43.3937178620837],[-3.5399999999988268,44.939999999999685],[-7.1350185210536425,44.93999999999968]]]}}]}