{"type":"FeatureCollection","features":[{"type":"Feature","properties":{"magnitude":0.2,"de":0.2,"ate":0.5,"percentagem":20.0},"geometry":{"type":"Polygon","coordinates":[[[-8.939999999999031,30.61750505013748],[-4.357560365556326,30.0],[-3.5399999999988268,30.0],[-3.5399999999988268,40.366611799639784],[-7.4399999999989745,40.88688670945608],[-8.099999999999,41.06609550151371],[-8.759999999999025,41.36679154798915],[-9.17999999999904,41.62757702455995],[-9.599999999999056,41.94803916377256],[-10.019999999999072,42.33456611811897],[-10.426878823243133,42.77999999999973],[-10.799999999999102,43.258565177083966],[-11.159999999999117,43.79449528627492],[-11.78392706140955,44.939999999999685],[-18.363861704133797,44.939999999999685],[-17.999999999999375,43.08349436167045],[-17.56364339360171,41.33999999999976],[-17.042212210142413,39.6599999999998],[-16.45052634618527,38.099999999999824],[-15.788302069719132,36.659999999999854],[-15.088585170796428,35.399999999999885],[-14.322265984743304,34.259999999999906],[-13.499999999999204,33.26171070348609],[-12.719999999999175,32.49401076690492],[-11.939999999999145,31.875934060081743],[-11.099999999999113,31.357160650526165],[-10.19999999999908,30.951784925003864],[-9.599999999999056,30.760362252177465],[-8.939999999999031,30.61750505013748]]]}},{"type":"Feature","properties":{"magnitude":0.5,"de":0.5,"ate":0.8,"percentagem":50.0},"geometry":{"type":"Polygon","coordinates":[[[-7.4399999999989745,40.88688670945608],[-3.5399999999988268,40.366611799639784],[-3.5399999999988268,44.939999999999685],[-11.78392706140955,44.939999999999685],[-11.159999999999116,43.794495286274916],[-10.799999999999102,43.258565177083966],[-10.426878823243133,42.77999999999973],[-10.019999999999072,42.33456611811897],[-9.599999999999056,41.94803916377256],[-9.17999999999904,41.627577024559955],[-8.759999999999025,41.36679154798915],[-8.099999999999,41.06609550151371],[-7.4399999999989745,40.88688670945608]]]}}]}