{"type":"FeatureCollection","properties":{"largura_maxima_km":225.328,"largura_sobre_pt_km":210.331,"linha_central_sobre_pt":true,"desenhavel_como_area":true,"perfil_largura":[{"t":0.33889,"lat":25.0107,"lon":-37.1418,"largura_km":225.328,"eixo_na_terra":true},{"t":0.34444,"lat":25.0915,"lon":-37.041,"largura_km":225.291,"eixo_na_terra":true},{"t":0.35,"lat":25.1722,"lon":-36.9399,"largura_km":225.254,"eixo_na_terra":true},{"t":0.35556,"lat":25.2527,"lon":-36.8386,"largura_km":225.216,"eixo_na_terra":true},{"t":0.36111,"lat":25.3332,"lon":-36.7371,"largura_km":225.178,"eixo_na_terra":true},{"t":0.36667,"lat":25.4135,"lon":-36.6354,"largura_km":225.139,"eixo_na_terra":true},{"t":0.37222,"lat":25.4938,"lon":-36.5334,"largura_km":225.1,"eixo_na_terra":true},{"t":0.37778,"lat":25.5739,"lon":-36.4312,"largura_km":225.061,"eixo_na_terra":true},{"t":0.38333,"lat":25.6539,"lon":-36.3288,"largura_km":225.021,"eixo_na_terra":true},{"t":0.38889,"lat":25.7338,"lon":-36.2261,"largura_km":224.981,"eixo_na_terra":true},{"t":0.39444,"lat":25.8135,"lon":-36.1231,"largura_km":224.94,"eixo_na_terra":true},{"t":0.4,"lat":25.8932,"lon":-36.02,"largura_km":224.9,"eixo_na_terra":true},{"t":0.40556,"lat":25.9728,"lon":-35.9165,"largura_km":224.858,"eixo_na_terra":true},{"t":0.41111,"lat":26.0522,"lon":-35.8129,"largura_km":224.816,"eixo_na_terra":true},{"t":0.41667,"lat":26.1315,"lon":-35.7089,"largura_km":224.774,"eixo_na_terra":true},{"t":0.42222,"lat":26.2107,"lon":-35.6047,"largura_km":224.732,"eixo_na_terra":true},{"t":0.42778,"lat":26.2898,"lon":-35.5002,"largura_km":224.689,"eixo_na_terra":true},{"t":0.43333,"lat":26.3688,"lon":-35.3955,"largura_km":224.645,"eixo_na_terra":true},{"t":0.43889,"lat":26.4477,"lon":-35.2905,"largura_km":224.601,"eixo_na_terra":true},{"t":0.44444,"lat":26.5264,"lon":-35.1852,"largura_km":224.558,"eixo_na_terra":true},{"t":0.45,"lat":26.6051,"lon":-35.0797,"largura_km":224.514,"eixo_na_terra":true},{"t":0.45556,"lat":26.6836,"lon":-34.9739,"largura_km":224.471,"eixo_na_terra":true},{"t":0.46111,"lat":26.762,"lon":-34.8678,"largura_km":224.428,"eixo_na_terra":true},{"t":0.46667,"lat":26.8403,"lon":-34.7614,"largura_km":224.385,"eixo_na_terra":true},{"t":0.47222,"lat":26.9184,"lon":-34.6547,"largura_km":224.341,"eixo_na_terra":true},{"t":0.47778,"lat":26.9965,"lon":-34.5477,"largura_km":224.297,"eixo_na_terra":true},{"t":0.48333,"lat":27.0744,"lon":-34.4404,"largura_km":224.252,"eixo_na_terra":true},{"t":0.48889,"lat":27.1523,"lon":-34.3329,"largura_km":224.207,"eixo_na_terra":true},{"t":0.49444,"lat":27.23,"lon":-34.225,"largura_km":224.161,"eixo_na_terra":true},{"t":0.5,"lat":27.3075,"lon":-34.1168,"largura_km":224.115,"eixo_na_terra":true},{"t":0.50556,"lat":27.385,"lon":-34.0084,"largura_km":224.068,"eixo_na_terra":true},{"t":0.51111,"lat":27.4624,"lon":-33.8996,"largura_km":224.021,"eixo_na_terra":true},{"t":0.51667,"lat":27.5396,"lon":-33.7905,"largura_km":223.974,"eixo_na_terra":true},{"t":0.52222,"lat":27.6167,"lon":-33.681,"largura_km":223.926,"eixo_na_terra":true},{"t":0.52778,"lat":27.6937,"lon":-33.5713,"largura_km":223.877,"eixo_na_terra":true},{"t":0.53333,"lat":27.7706,"lon":-33.4612,"largura_km":223.828,"eixo_na_terra":true},{"t":0.53889,"lat":27.8473,"lon":-33.3508,"largura_km":223.779,"eixo_na_terra":true},{"t":0.54444,"lat":27.9239,"lon":-33.2401,"largura_km":223.729,"eixo_na_terra":true},{"t":0.55,"lat":28.0004,"lon":-33.129,"largura_km":223.678,"eixo_na_terra":true},{"t":0.55556,"lat":28.0768,"lon":-33.0176,"largura_km":223.628,"eixo_na_terra":true},{"t":0.56111,"lat":28.1531,"lon":-32.9059,"largura_km":223.576,"eixo_na_terra":true},{"t":0.56667,"lat":28.2292,"lon":-32.7938,"largura_km":223.524,"eixo_na_terra":true},{"t":0.57222,"lat":28.3052,"lon":-32.6814,"largura_km":223.472,"eixo_na_terra":true},{"t":0.57778,"lat":28.3811,"lon":-32.5686,"largura_km":223.42,"eixo_na_terra":true},{"t":0.58333,"lat":28.4569,"lon":-32.4555,"largura_km":223.368,"eixo_na_terra":true},{"t":0.58889,"lat":28.5325,"lon":-32.342,"largura_km":223.316,"eixo_na_terra":true},{"t":0.59444,"lat":28.608,"lon":-32.2281,"largura_km":223.265,"eixo_na_terra":true},{"t":0.6,"lat":28.6834,"lon":-32.1139,"largura_km":223.213,"eixo_na_terra":true},{"t":0.60556,"lat":28.7587,"lon":-31.9993,"largura_km":223.16,"eixo_na_terra":true},{"t":0.61111,"lat":28.8338,"lon":-31.8843,"largura_km":223.107,"eixo_na_terra":true},{"t":0.61667,"lat":28.9088,"lon":-31.7689,"largura_km":223.053,"eixo_na_terra":true},{"t":0.62222,"lat":28.9837,"lon":-31.6532,"largura_km":222.999,"eixo_na_terra":true},{"t":0.62778,"lat":29.0584,"lon":-31.5371,"largura_km":222.944,"eixo_na_terra":true},{"t":0.63333,"lat":29.1331,"lon":-31.4206,"largura_km":222.889,"eixo_na_terra":true},{"t":0.63889,"lat":29.2076,"lon":-31.3037,"largura_km":222.833,"eixo_na_terra":true},{"t":0.64444,"lat":29.2819,"lon":-31.1864,"largura_km":222.776,"eixo_na_terra":true},{"t":0.65,"lat":29.3562,"lon":-31.0687,"largura_km":222.719,"eixo_na_terra":true},{"t":0.65556,"lat":29.4303,"lon":-30.9506,"largura_km":222.662,"eixo_na_terra":true},{"t":0.66111,"lat":29.5042,"lon":-30.8321,"largura_km":222.603,"eixo_na_terra":true},{"t":0.66667,"lat":29.5781,"lon":-30.7132,"largura_km":222.544,"eixo_na_terra":true},{"t":0.67222,"lat":29.6518,"lon":-30.5939,"largura_km":222.485,"eixo_na_terra":true},{"t":0.67778,"lat":29.7253,"lon":-30.4741,"largura_km":222.425,"eixo_na_terra":true},{"t":0.68333,"lat":29.7988,"lon":-30.3539,"largura_km":222.364,"eixo_na_terra":true},{"t":0.68889,"lat":29.872,"lon":-30.2333,"largura_km":222.304,"eixo_na_terra":true},{"t":0.69444,"lat":29.9452,"lon":-30.1123,"largura_km":222.243,"eixo_na_terra":true},{"t":0.7,"lat":30.0182,"lon":-29.9908,"largura_km":222.183,"eixo_na_terra":true},{"t":0.70556,"lat":30.0911,"lon":-29.8689,"largura_km":222.122,"eixo_na_terra":true},{"t":0.71111,"lat":30.1639,"lon":-29.7466,"largura_km":222.061,"eixo_na_terra":true},{"t":0.71667,"lat":30.2365,"lon":-29.6238,"largura_km":222.0,"eixo_na_terra":true},{"t":0.72222,"lat":30.3089,"lon":-29.5005,"largura_km":221.939,"eixo_na_terra":true},{"t":0.72778,"lat":30.3813,"lon":-29.3768,"largura_km":221.877,"eixo_na_terra":true},{"t":0.73333,"lat":30.4535,"lon":-29.2526,"largura_km":221.814,"eixo_na_terra":true},{"t":0.73889,"lat":30.5255,"lon":-29.128,"largura_km":221.75,"eixo_na_terra":true},{"t":0.74444,"lat":30.5974,"lon":-29.0029,"largura_km":221.686,"eixo_na_terra":true},{"t":0.75,"lat":30.6692,"lon":-28.8773,"largura_km":221.621,"eixo_na_terra":true},{"t":0.75556,"lat":30.7408,"lon":-28.7513,"largura_km":221.555,"eixo_na_terra":true},{"t":0.76111,"lat":30.8122,"lon":-28.6247,"largura_km":221.489,"eixo_na_terra":true},{"t":0.76667,"lat":30.8836,"lon":-28.4977,"largura_km":221.422,"eixo_na_terra":true},{"t":0.77222,"lat":30.9547,"lon":-28.3702,"largura_km":221.355,"eixo_na_terra":true},{"t":0.77778,"lat":31.0258,"lon":-28.2422,"largura_km":221.287,"eixo_na_terra":true},{"t":0.78333,"lat":31.0966,"lon":-28.1137,"largura_km":221.218,"eixo_na_terra":true},{"t":0.78889,"lat":31.1674,"lon":-27.9846,"largura_km":221.148,"eixo_na_terra":true},{"t":0.79444,"lat":31.238,"lon":-27.8551,"largura_km":221.079,"eixo_na_terra":true},{"t":0.8,"lat":31.3084,"lon":-27.7251,"largura_km":221.009,"eixo_na_terra":true},{"t":0.80556,"lat":31.3787,"lon":-27.5945,"largura_km":220.939,"eixo_na_terra":true},{"t":0.81111,"lat":31.4488,"lon":-27.4634,"largura_km":220.869,"eixo_na_terra":true},{"t":0.81667,"lat":31.5187,"lon":-27.3318,"largura_km":220.799,"eixo_na_terra":true},{"t":0.82222,"lat":31.5885,"lon":-27.1996,"largura_km":220.729,"eixo_na_terra":true},{"t":0.82778,"lat":31.6582,"lon":-27.0669,"largura_km":220.658,"eixo_na_terra":true},{"t":0.83333,"lat":31.7277,"lon":-26.9337,"largura_km":220.586,"eixo_na_terra":true},{"t":0.83889,"lat":31.797,"lon":-26.7999,"largura_km":220.514,"eixo_na_terra":true},{"t":0.84444,"lat":31.8662,"lon":-26.6656,"largura_km":220.441,"eixo_na_terra":true},{"t":0.85,"lat":31.9352,"lon":-26.5307,"largura_km":220.367,"eixo_na_terra":true},{"t":0.85556,"lat":32.0041,"lon":-26.3952,"largura_km":220.292,"eixo_na_terra":true},{"t":0.86111,"lat":32.0728,"lon":-26.2592,"largura_km":220.216,"eixo_na_terra":true},{"t":0.86667,"lat":32.1413,"lon":-26.1226,"largura_km":220.14,"eixo_na_terra":true},{"t":0.87222,"lat":32.2097,"lon":-25.9854,"largura_km":220.063,"eixo_na_terra":true},{"t":0.87778,"lat":32.2779,"lon":-25.8476,"largura_km":219.985,"eixo_na_terra":true},{"t":0.88333,"lat":32.3459,"lon":-25.7092,"largura_km":219.907,"eixo_na_terra":true},{"t":0.88889,"lat":32.4137,"lon":-25.5703,"largura_km":219.827,"eixo_na_terra":true},{"t":0.89444,"lat":32.4814,"lon":-25.4307,"largura_km":219.749,"eixo_na_terra":true},{"t":0.9,"lat":32.5489,"lon":-25.2905,"largura_km":219.67,"eixo_na_terra":true},{"t":0.90556,"lat":32.6163,"lon":-25.1498,"largura_km":219.59,"eixo_na_terra":true},{"t":0.91111,"lat":32.6835,"lon":-25.0083,"largura_km":219.51,"eixo_na_terra":true},{"t":0.91667,"lat":32.7505,"lon":-24.8663,"largura_km":219.43,"eixo_na_terra":true},{"t":0.92222,"lat":32.8173,"lon":-24.7237,"largura_km":219.35,"eixo_na_terra":true},{"t":0.92778,"lat":32.8839,"lon":-24.5804,"largura_km":219.269,"eixo_na_terra":true},{"t":0.93333,"lat":32.9504,"lon":-24.4364,"largura_km":219.187,"eixo_na_terra":true},{"t":0.93889,"lat":33.0167,"lon":-24.2918,"largura_km":219.104,"eixo_na_terra":true},{"t":0.94444,"lat":33.0828,"lon":-24.1466,"largura_km":219.02,"eixo_na_terra":true},{"t":0.95,"lat":33.1487,"lon":-24.0007,"largura_km":218.936,"eixo_na_terra":true},{"t":0.95556,"lat":33.2144,"lon":-23.8541,"largura_km":218.85,"eixo_na_terra":true},{"t":0.96111,"lat":33.28,"lon":-23.7069,"largura_km":218.764,"eixo_na_terra":true},{"t":0.96667,"lat":33.3453,"lon":-23.559,"largura_km":218.677,"eixo_na_terra":true},{"t":0.97222,"lat":33.4105,"lon":-23.4103,"largura_km":218.589,"eixo_na_terra":true},{"t":0.97778,"lat":33.4754,"lon":-23.261,"largura_km":218.5,"eixo_na_terra":true},{"t":0.98333,"lat":33.5402,"lon":-23.111,"largura_km":218.411,"eixo_na_terra":true},{"t":0.98889,"lat":33.6048,"lon":-22.9603,"largura_km":218.323,"eixo_na_terra":true},{"t":0.99444,"lat":33.6692,"lon":-22.8089,"largura_km":218.233,"eixo_na_terra":true},{"t":1.0,"lat":33.7334,"lon":-22.6568,"largura_km":218.143,"eixo_na_terra":true},{"t":1.00556,"lat":33.7974,"lon":-22.5039,"largura_km":218.052,"eixo_na_terra":true},{"t":1.01111,"lat":33.8612,"lon":-22.3503,"largura_km":217.962,"eixo_na_terra":true},{"t":1.01667,"lat":33.9248,"lon":-22.196,"largura_km":217.871,"eixo_na_terra":true},{"t":1.02222,"lat":33.9882,"lon":-22.0409,"largura_km":217.779,"eixo_na_terra":true},{"t":1.02778,"lat":34.0514,"lon":-21.8851,"largura_km":217.686,"eixo_na_terra":true},{"t":1.03333,"lat":34.1143,"lon":-21.7285,"largura_km":217.591,"eixo_na_terra":true},{"t":1.03889,"lat":34.1771,"lon":-21.5711,"largura_km":217.497,"eixo_na_terra":true},{"t":1.04444,"lat":34.2396,"lon":-21.413,"largura_km":217.401,"eixo_na_terra":true},{"t":1.05,"lat":34.302,"lon":-21.254,"largura_km":217.304,"eixo_na_terra":true},{"t":1.05556,"lat":34.3641,"lon":-21.0943,"largura_km":217.206,"eixo_na_terra":true},{"t":1.06111,"lat":34.426,"lon":-20.9338,"largura_km":217.107,"eixo_na_terra":true},{"t":1.06667,"lat":34.4877,"lon":-20.7725,"largura_km":217.008,"eixo_na_terra":true},{"t":1.07222,"lat":34.5492,"lon":-20.6103,"largura_km":216.909,"eixo_na_terra":true},{"t":1.07778,"lat":34.6104,"lon":-20.4474,"largura_km":216.809,"eixo_na_terra":true},{"t":1.08333,"lat":34.6714,"lon":-20.2836,"largura_km":216.709,"eixo_na_terra":true},{"t":1.08889,"lat":34.7322,"lon":-20.1189,"largura_km":216.607,"eixo_na_terra":true},{"t":1.09444,"lat":34.7927,"lon":-19.9534,"largura_km":216.506,"eixo_na_terra":true},{"t":1.1,"lat":34.8531,"lon":-19.7871,"largura_km":216.404,"eixo_na_terra":true},{"t":1.10556,"lat":34.9132,"lon":-19.6199,"largura_km":216.302,"eixo_na_terra":true},{"t":1.11111,"lat":34.973,"lon":-19.4518,"largura_km":216.198,"eixo_na_terra":true},{"t":1.11667,"lat":35.0326,"lon":-19.2828,"largura_km":216.093,"eixo_na_terra":true},{"t":1.12222,"lat":35.092,"lon":-19.113,"largura_km":215.988,"eixo_na_terra":true},{"t":1.12778,"lat":35.1511,"lon":-18.9422,"largura_km":215.881,"eixo_na_terra":true},{"t":1.13333,"lat":35.21,"lon":-18.7706,"largura_km":215.773,"eixo_na_terra":true},{"t":1.13889,"lat":35.2686,"lon":-18.598,"largura_km":215.664,"eixo_na_terra":true},{"t":1.14444,"lat":35.327,"lon":-18.4245,"largura_km":215.554,"eixo_na_terra":true},{"t":1.15,"lat":35.3851,"lon":-18.25,"largura_km":215.444,"eixo_na_terra":true},{"t":1.15556,"lat":35.443,"lon":-18.0746,"largura_km":215.334,"eixo_na_terra":true},{"t":1.16111,"lat":35.5006,"lon":-17.8983,"largura_km":215.223,"eixo_na_terra":true},{"t":1.16667,"lat":35.5579,"lon":-17.7209,"largura_km":215.111,"eixo_na_terra":true},{"t":1.17222,"lat":35.615,"lon":-17.5426,"largura_km":214.997,"eixo_na_terra":true},{"t":1.17778,"lat":35.6718,"lon":-17.3633,"largura_km":214.884,"eixo_na_terra":true},{"t":1.18333,"lat":35.7283,"lon":-17.183,"largura_km":214.771,"eixo_na_terra":true},{"t":1.18889,"lat":35.7846,"lon":-17.0017,"largura_km":214.656,"eixo_na_terra":true},{"t":1.19444,"lat":35.8406,"lon":-16.8194,"largura_km":214.541,"eixo_na_terra":true},{"t":1.2,"lat":35.8963,"lon":-16.6361,"largura_km":214.424,"eixo_na_terra":true},{"t":1.20556,"lat":35.9517,"lon":-16.4517,"largura_km":214.306,"eixo_na_terra":true},{"t":1.21111,"lat":36.0069,"lon":-16.2662,"largura_km":214.187,"eixo_na_terra":true},{"t":1.21667,"lat":36.0617,"lon":-16.0797,"largura_km":214.066,"eixo_na_terra":true},{"t":1.22222,"lat":36.1163,"lon":-15.8921,"largura_km":213.945,"eixo_na_terra":true},{"t":1.22778,"lat":36.1705,"lon":-15.7034,"largura_km":213.823,"eixo_na_terra":true},{"t":1.23333,"lat":36.2245,"lon":-15.5136,"largura_km":213.701,"eixo_na_terra":true},{"t":1.23889,"lat":36.2782,"lon":-15.3227,"largura_km":213.578,"eixo_na_terra":true},{"t":1.24444,"lat":36.3315,"lon":-15.1307,"largura_km":213.454,"eixo_na_terra":true},{"t":1.25,"lat":36.3845,"lon":-14.9375,"largura_km":213.329,"eixo_na_terra":true},{"t":1.25556,"lat":36.4373,"lon":-14.7432,"largura_km":213.203,"eixo_na_terra":true},{"t":1.26111,"lat":36.4897,"lon":-14.5477,"largura_km":213.077,"eixo_na_terra":true},{"t":1.26667,"lat":36.5418,"lon":-14.351,"largura_km":212.95,"eixo_na_terra":true},{"t":1.27222,"lat":36.5935,"lon":-14.1531,"largura_km":212.822,"eixo_na_terra":true},{"t":1.27778,"lat":36.645,"lon":-13.954,"largura_km":212.693,"eixo_na_terra":true},{"t":1.28333,"lat":36.6961,"lon":-13.7537,"largura_km":212.562,"eixo_na_terra":true},{"t":1.28889,"lat":36.7468,"lon":-13.5522,"largura_km":212.43,"eixo_na_terra":true},{"t":1.29444,"lat":36.7973,"lon":-13.3494,"largura_km":212.296,"eixo_na_terra":true},{"t":1.3,"lat":36.8473,"lon":-13.1454,"largura_km":212.162,"eixo_na_terra":true},{"t":1.30556,"lat":36.8971,"lon":-12.94,"largura_km":212.027,"eixo_na_terra":true},{"t":1.31111,"lat":36.9464,"lon":-12.7334,"largura_km":211.892,"eixo_na_terra":true},{"t":1.31667,"lat":36.9954,"lon":-12.5255,"largura_km":211.756,"eixo_na_terra":true},{"t":1.32222,"lat":37.0441,"lon":-12.3162,"largura_km":211.618,"eixo_na_terra":true},{"t":1.32778,"lat":37.0924,"lon":-12.1056,"largura_km":211.479,"eixo_na_terra":true},{"t":1.33333,"lat":37.1403,"lon":-11.8936,"largura_km":211.339,"eixo_na_terra":true},{"t":1.33889,"lat":37.1878,"lon":-11.6802,"largura_km":211.2,"eixo_na_terra":true},{"t":1.34444,"lat":37.2349,"lon":-11.4655,"largura_km":211.059,"eixo_na_terra":true},{"t":1.35,"lat":37.2817,"lon":-11.2493,"largura_km":210.916,"eixo_na_terra":true},{"t":1.35556,"lat":37.328,"lon":-11.0317,"largura_km":210.772,"eixo_na_terra":true},{"t":1.36111,"lat":37.374,"lon":-10.8126,"largura_km":210.627,"eixo_na_terra":true},{"t":1.36667,"lat":37.4196,"lon":-10.5921,"largura_km":210.48,"eixo_na_terra":true},{"t":1.37222,"lat":37.4647,"lon":-10.37,"largura_km":210.331,"eixo_na_terra":true},{"t":1.37778,"lat":37.5094,"lon":-10.1465,"largura_km":210.183,"eixo_na_terra":true},{"t":1.38333,"lat":37.5537,"lon":-9.9214,"largura_km":210.034,"eixo_na_terra":true},{"t":1.38889,"lat":37.5976,"lon":-9.6948,"largura_km":209.884,"eixo_na_terra":true},{"t":1.39444,"lat":37.641,"lon":-9.4665,"largura_km":209.731,"eixo_na_terra":true},{"t":1.4,"lat":37.684,"lon":-9.2367,"largura_km":209.578,"eixo_na_terra":true},{"t":1.40556,"lat":37.7266,"lon":-9.0053,"largura_km":209.422,"eixo_na_terra":true},{"t":1.41111,"lat":37.7687,"lon":-8.7722,"largura_km":209.268,"eixo_na_terra":true},{"t":1.41667,"lat":37.8103,"lon":-8.5375,"largura_km":209.112,"eixo_na_terra":true},{"t":1.42222,"lat":37.8515,"lon":-8.3011,"largura_km":208.954,"eixo_na_terra":true},{"t":1.42778,"lat":37.8922,"lon":-8.0629,"largura_km":208.794,"eixo_na_terra":true},{"t":1.43333,"lat":37.9324,"lon":-7.823,"largura_km":208.633,"eixo_na_terra":true},{"t":1.43889,"lat":37.9721,"lon":-7.5814,"largura_km":208.47,"eixo_na_terra":true},{"t":1.44444,"lat":38.0113,"lon":-7.3379,"largura_km":208.306,"eixo_na_terra":true},{"t":1.45,"lat":38.05,"lon":-7.0927,"largura_km":208.142,"eixo_na_terra":true},{"t":1.45556,"lat":38.0882,"lon":-6.8456,"largura_km":207.977,"eixo_na_terra":true},{"t":1.46111,"lat":38.1258,"lon":-6.5966,"largura_km":207.81,"eixo_na_terra":true},{"t":1.46667,"lat":38.163,"lon":-6.3457,"largura_km":207.64,"eixo_na_terra":true},{"t":1.47222,"lat":38.1996,"lon":-6.0928,"largura_km":207.469,"eixo_na_terra":true},{"t":1.47778,"lat":38.2356,"lon":-5.838,"largura_km":207.297,"eixo_na_terra":true},{"t":1.48333,"lat":38.2711,"lon":-5.5812,"largura_km":207.124,"eixo_na_terra":true},{"t":1.48889,"lat":38.306,"lon":-5.3223,"largura_km":206.95,"eixo_na_terra":true},{"t":1.49444,"lat":38.3404,"lon":-5.0614,"largura_km":206.774,"eixo_na_terra":true},{"t":1.5,"lat":38.3741,"lon":-4.7984,"largura_km":206.596,"eixo_na_terra":true},{"t":1.50556,"lat":38.4073,"lon":-4.5332,"largura_km":206.416,"eixo_na_terra":true},{"t":1.51111,"lat":38.4398,"lon":-4.2659,"largura_km":206.234,"eixo_na_terra":true},{"t":1.51667,"lat":38.4717,"lon":-3.9963,"largura_km":206.052,"eixo_na_terra":true},{"t":1.52222,"lat":38.503,"lon":-3.7245,"largura_km":205.869,"eixo_na_terra":true},{"t":1.52778,"lat":38.5336,"lon":-3.4504,"largura_km":205.683,"eixo_na_terra":true},{"t":1.53333,"lat":38.5636,"lon":-3.1739,"largura_km":205.495,"eixo_na_terra":true},{"t":1.53889,"lat":38.5929,"lon":-2.8951,"largura_km":205.305,"eixo_na_terra":true},{"t":1.54444,"lat":38.6215,"lon":-2.6138,"largura_km":205.113,"eixo_na_terra":true},{"t":1.55,"lat":38.6495,"lon":-2.3301,"largura_km":204.92,"eixo_na_terra":true},{"t":1.55556,"lat":38.6767,"lon":-2.0438,"largura_km":204.726,"eixo_na_terra":true},{"t":1.56111,"lat":38.7032,"lon":-1.755,"largura_km":204.529,"eixo_na_terra":true},{"t":1.56667,"lat":38.7289,"lon":-1.4635,"largura_km":204.33,"eixo_na_terra":true},{"t":1.57222,"lat":38.7539,"lon":-1.1694,"largura_km":204.129,"eixo_na_terra":true},{"t":1.57778,"lat":38.7782,"lon":-0.8725,"largura_km":203.926,"eixo_na_terra":true},{"t":1.58333,"lat":38.8016,"lon":-0.5729,"largura_km":203.723,"eixo_na_terra":true},{"t":1.58889,"lat":38.8243,"lon":-0.2704,"largura_km":203.516,"eixo_na_terra":true},{"t":1.59444,"lat":38.8461,"lon":0.035,"largura_km":203.308,"eixo_na_terra":true},{"t":1.6,"lat":38.867,"lon":0.3434,"largura_km":203.096,"eixo_na_terra":true},{"t":1.60556,"lat":38.8872,"lon":0.6549,"largura_km":202.882,"eixo_na_terra":true},{"t":1.61111,"lat":38.9064,"lon":0.9694,"largura_km":202.666,"eixo_na_terra":true},{"t":1.61667,"lat":38.9247,"lon":1.2872,"largura_km":202.447,"eixo_na_terra":true},{"t":1.62222,"lat":38.9421,"lon":1.6082,"largura_km":202.227,"eixo_na_terra":true},{"t":1.62778,"lat":38.9586,"lon":1.9325,"largura_km":202.004,"eixo_na_terra":true},{"t":1.63333,"lat":38.9741,"lon":2.2603,"largura_km":201.779,"eixo_na_terra":true},{"t":1.63889,"lat":38.9886,"lon":2.5915,"largura_km":201.55,"eixo_na_terra":true},{"t":1.64444,"lat":39.0021,"lon":2.9264,"largura_km":201.321,"eixo_na_terra":true},{"t":1.65,"lat":39.0145,"lon":3.2649,"largura_km":201.088,"eixo_na_terra":true},{"t":1.65556,"lat":39.0259,"lon":3.6073,"largura_km":200.852,"eixo_na_terra":true},{"t":1.66111,"lat":39.0362,"lon":3.9535,"largura_km":200.613,"eixo_na_terra":true},{"t":1.66667,"lat":39.0453,"lon":4.3037,"largura_km":200.371,"eixo_na_terra":true},{"t":1.67222,"lat":39.0533,"lon":4.6581,"largura_km":200.124,"eixo_na_terra":true}]},"features":[{"type":"Feature","properties":{},"geometry":{"type":"Polygon","coordinates":[[[-37.864771813656034,25.78522415258654],[-37.35455070260792,26.19160573612671],[-37.04557932172759,26.434080188717342],[-36.52563294148709,26.835930054464512],[-36.21053319634265,27.075665650880133],[-35.89298148053763,27.31436229074292],[-35.34274887720423,27.721147723416813],[-34.80020120876301,28.11365568829816],[-34.24978038075284,28.503173131155588],[-33.69106223182507,28.889650999898766],[-33.1236108077037,29.27303465432649],[-32.87781608793634,29.436335532405813],[-32.53059358462639,29.66405889491492],[-31.94411696185591,30.041011852296748],[-31.58739918941356,30.265606263089897],[-31.34750892234993,30.414668285454702],[-30.86259595390652,30.711166353233047],[-30.353288042923197,31.01579020569251],[-29.979374846730593,31.23499633458836],[-29.727749038473092,31.38041890529499],[-29.346696602434946,31.5974640903631],[-29.090200003148368,31.741425135904027],[-28.571133194877916,32.02754929211146],[-28.02533353467834,32.321051007299864],[-27.623947515278644,32.53211985319448],[-27.353580970079435,32.67203315628132],[-26.806000110810118,32.94990194512229],[-26.249005324987536,33.22509857672052],[-25.824870182246997,33.429695549302046],[-25.519440732111946,33.57448706933899],[-24.939716737045757,33.843307305333965],[-24.349373820565376,34.10917944419288],[-23.748009826648826,34.37200735750497],[-23.13520464287285,34.63168864385516],[-22.80353558414717,34.76897289601346],[-22.489542577316683,34.896730365332374],[-21.852235065462082,35.14969897334244],[-21.528799697762054,35.27487904793762],[-21.202093487822083,35.399168066527224],[-20.872052118534526,35.52254917619488],[-20.53860959712094,35.64500495768518],[-20.179563721744273,35.774540692970106],[-19.838958341108622,35.895042801962056],[-19.49474022281575,36.014562716926534],[-19.146835819994294,36.13308048119753],[-18.617901373966077,36.308932719359156],[-18.260445513411753,36.424853152975544],[-17.899028809460873,36.53969590134346],[-17.32571961384886,36.717210128051335],[-16.953850214330686,36.829197445510964],[-16.577711653295438,36.94002034289323],[-16.00529365413368,37.10401308642109],[-15.618066096631424,37.21180664284311],[-15.226228045785291,37.318338415306236],[-14.604605287483793,37.482309293697895],[-14.200569919252331,37.58548463334104],[-13.791534979514523,37.687285322512395],[-13.168346097261377,37.83733238147048],[-12.746280095089617,37.93554104232365],[-12.318776272914846,38.03224678289941],[-11.64044975372289,38.18021076871398],[-10.975315595707457,38.318627793036725],[-10.296623091181942,38.45327144025591],[-9.603819953121729,38.58397769785346],[-8.868202075378719,38.71558395291214],[-8.144956389858606,38.83773528079381],[-7.405677377898428,38.95537529178831],[-6.649628843525647,39.06828420995956],[-5.87601443147588,39.1762242947986],[-5.319911791822193,39.249312501599626],[-4.514571338705423,39.348215828580514],[-3.689160237411585,39.44140237333796],[-2.8425824327455302,39.52854619456529],[-2.2337521018559983,39.58616264612852],[-1.3485657541245075,39.66221651627092],[-0.7448082835219338,39.709006443069185],[-0.43866870086989707,39.731177250056426],[0.18243877641072004,39.77298040129711],[0.815754549011956,39.81127068119507],[1.1371644829916079,39.82904757563856],[1.8247393777668606,39.86353816297706],[2.491648355042429,39.8921212137715],[2.830466151603531,39.904866190720455],[3.519293225035966,39.92712837029439],[4.223714293790977,39.94489274555305],[4.944606506501486,39.95790676192363],[4.3720264193385106,38.14764831664495],[3.683263660179051,38.12651133569981],[3.344765266177376,38.11431127946365],[2.67901456141783,38.08679116539646],[2.351568505711299,38.071524575992065],[1.7410119713428855,38.03980169780357],[1.4235676163932567,38.02177336220156],[0.7983655959313012,37.98302794341061],[0.18558602157386872,37.940834876060386],[-0.11631932745353879,37.91849402629606],[-0.7114858101601271,37.8714144967253],[-1.5518778729000928,37.797819933905835],[-2.400955223979281,37.71513261192699],[-3.227840468196149,37.62630193448469],[-4.033762321436512,37.53167504175542],[-4.790225732269647,37.43531988872944],[-5.557922715225544,37.33017648901544],[-6.307694577236219,37.22009736249522],[-7.040395482517056,37.10532536164114],[-7.491751441325874,37.03089247934343],[-7.964371709344135,36.950048128920734],[-8.660580017387133,36.82529783143869],[-9.342103128761096,36.69653228867952],[-9.788597439729244,36.60854426721483],[-10.202511131544213,36.52426572861324],[-10.85241918142728,36.38690215246398],[-11.278543238613452,36.293381852801204],[-11.69912094747201,36.19835448024087],[-12.319894142405445,36.053073902468114],[-12.727208863920339,35.95444861489079],[-13.10450226684307,35.86060327028053],[-13.501979739951565,35.75932684815387],[-13.894614640300944,35.65674046716167],[-14.282520437550943,35.55287568309503],[-14.665806517420975,35.44776281990242],[-15.044578406276457,35.34143103331696],[-15.418937979806117,35.233908370138515],[-15.76541946858623,35.13208957918255],[-16.131418879254056,35.0223215479241],[-16.49328822496244,34.91143949989767],[-16.851116692000687,34.799467600949704],[-17.204990659137536,34.68642914915628],[-17.55499383555687,34.57234661463837],[-17.901207390032766,34.45724167694216],[-18.2213884827527,34.348654205742676],[-18.560409411054877,34.2316154297851],[-18.89586738621847,34.113613943601784],[-19.2278346261198,33.994668623243854],[-19.55638134128884,33.874797709345856],[-20.20348453241374,33.632349041845906],[-20.816649149441076,33.394563755711644],[-21.28435598763579,33.20794627809953],[-21.745290757649713,33.01948011993648],[-22.349669842191418,32.76539825295684],[-22.922768081080534,32.51693373238407],[-23.360656857340757,32.32213519982127],[-23.93531448942889,32.0598499897747],[-24.499819816769246,31.79472807754931],[-24.91676087342904,31.594075959004602],[-25.44552636313469,31.333480199020585],[-25.984194567236926,31.061039128088137],[-26.514024723538938,30.786049926342326],[-27.035337703791726,30.508579275886728],[-27.530540107575035,30.23848153184994],[-28.03591937138725,29.95628645950067],[-28.533671525649197,29.671784765301357],[-29.024075596645247,29.385028179536988],[-29.50740175669131,29.09606515481964],[-30.085183515560715,28.74214473887302],[-30.553686052027558,28.448424665063218],[-31.015929065755927,28.15263361298409],[-31.47215116196591,27.85480783839167],[-31.922584697243565,27.554981041619527],[-32.46196659802837,27.18822721906147],[-32.900327157467444,26.884048293061003],[-33.44116388863128,26.501143111611302],[-33.868397580685496,26.192702646875436],[-34.3959810969875,25.80454174263436],[-34.90178847199067,25.42476812727901],[-35.416265055194316,25.03095053598151],[-35.92468109880406,24.63432689097516],[-36.42740435854887,24.234920972718793],[-37.864771813656034,25.78522415258654]]]}}]}