{"type":"FeatureCollection","features":[{"type":"Feature","properties":{"magnitude":0.5,"de":0.5,"ate":0.8,"percentagem":50.0},"geometry":{"type":"MultiPolygon","coordinates":[[[[-11.856368795148637,30.0],[-9.839999999999065,30.49107820812611],[-7.799999999998988,30.916223183250942],[-5.699999999998909,31.283392020747673],[-3.5399999999988268,31.591162262005803],[-3.5399999999988268,30.0],[-11.856368795148637,30.0]]],[[[-34.5,35.90888285966372],[-34.5,44.939999999999685],[-8.574035670744122,44.939999999999685],[-12.179999999999154,44.30769082301322],[-15.659999999999286,43.54214419455072],[-19.019999999999413,42.64318165302829],[-20.639999999999475,42.14864918467315],[-22.259999999999536,41.61148378219177],[-25.319999999999652,40.47213374153394],[-28.259999999999764,39.21011230854087],[-29.879999999999825,38.43840628603932],[-31.439999999999884,37.6404995984396],[-32.99999999999994,36.78611663254465],[-34.5,35.90888285966372]]]]}},{"type":"Feature","properties":{"magnitude":0.8,"de":0.8,"ate":0.95,"percentagem":80.0},"geometry":{"type":"MultiPolygon","coordinates":[[[[-24.697515876324104,30.0],[-22.259999999999536,31.145646612351698],[-19.799999999999443,32.16275835563173],[-17.279999999999347,33.07140516080748],[-14.69999999999925,33.87346854999147],[-12.05999999999915,34.57104437961509],[-9.299999999999045,35.17816074980958],[-6.479999999998938,35.67995781354565],[-3.5399999999988268,36.08567218715194],[-3.5399999999988268,31.591162262005803],[-5.699999999998909,31.283392020747677],[-7.799999999998988,30.916223183250942],[-9.839999999999065,30.491078208126105],[-11.856368795148637,30.0],[-24.697515876324104,30.0]]],[[[-34.5,30.230287985834927],[-34.5,35.90888285966372],[-33.11999999999995,36.71797927857945],[-31.739999999999895,37.48066397094598],[-28.91999999999979,38.902521782110256],[-27.299999999999724,39.641273611267174],[-25.679999999999666,40.326751703442504],[-23.999999999999602,40.984374365765326],[-22.31999999999954,41.590739577622905],[-20.579999999999472,42.16771108123418],[-18.839999999999407,42.69559395836798],[-17.03999999999934,43.19285598102136],[-15.23999999999927,43.64314302447913],[-11.939999999999145,44.35469203075343],[-8.574035670744122,44.939999999999685],[-3.5399999999988268,44.939999999999685],[-3.5399999999988268,40.97311003126251],[-5.759999999998911,40.7126763136929],[-7.919999999998993,40.4022703977443],[-10.079999999999075,40.03243304446863],[-12.179999999999154,39.61250714548859],[-14.219999999999231,39.14408297931145],[-16.25999999999931,38.612250457330774],[-18.239999999999384,38.03147619580926],[-20.159999999999457,37.40353006395405],[-22.019999999999527,36.73038778177345],[-23.879999999999598,35.989276711907706],[-25.679999999999666,35.20319142798392],[-27.40971109342743,34.37999999999991],[-29.039999999999793,33.539798382240086],[-30.659669082603866,32.639999999999944],[-32.57999999999993,31.484979680865187],[-34.5,30.230287985834927]]]]}},{"type":"Feature","properties":{"magnitude":0.95,"de":0.95,"ate":0.99,"percentagem":95.0},"geometry":{"type":"MultiPolygon","coordinates":[[[[-27.3276461529509,30.0],[-24.657378298397752,31.37999999999997],[-21.899999999999523,32.625080986981516],[-19.079999999999416,33.725650632214375],[-16.199999999999307,34.68572930680032],[-13.199999999999193,35.52606578454928],[-10.079999999999075,36.24318435399053],[-6.839999999998952,36.83416483852295],[-3.5399999999988268,37.28935231415761],[-3.5399999999988268,36.08567218715194],[-6.479999999998938,35.67995781354565],[-9.299999999999045,35.17816074980958],[-12.05999999999915,34.571044379615095],[-14.69999999999925,33.87346854999147],[-17.33999999999935,33.05125207425804],[-19.859999999999445,32.139524713502624],[-22.31999999999954,31.119139108101344],[-24.697515876324104,30.0],[-27.3276461529509,30.0]]],[[[-34.5,30.0],[-34.5,30.230287985834927],[-32.46006519333684,31.559999999999967],[-30.419999999999845,32.77735556396841],[-28.319999999999766,33.91877880995197],[-26.459999999999695,34.84044258671911],[-24.539999999999623,35.70913681748531],[-22.559999999999548,36.5224195351316],[-20.579999999999472,37.25725218414263],[-18.599999999999397,37.918718729247004],[-16.589920480045386,38.51999999999982],[-14.519999999999243,39.069943808990644],[-12.419999999999163,39.56056386627788],[-10.259999999999081,39.998822209404835],[-8.039999999998997,40.38331308102602],[-5.819999999998913,40.70482738318786],[-3.5399999999988268,40.97311003126251],[-3.5399999999988268,39.75977096836185],[-5.4599999999988995,39.5345225267833],[-7.31999999999897,39.272979538867304],[-9.17999999999904,38.966676708803824],[-10.979999999999109,38.62546427241359],[-12.779999999999177,38.23786473071098],[-14.519999999999243,37.81670682312055],[-16.25999999999931,37.34731751318374],[-17.939999999999372,36.84577461970176],[-19.919999999999447,36.18999817232132],[-21.83999999999952,35.4829706329475],[-23.69999999999959,34.72676364550784],[-25.55999999999966,33.89579387066613],[-27.359999999999726,33.01594021575769],[-29.099999999999795,32.090449887355874],[-30.839999999999865,31.087304337042514],[-32.584438336752335,30.0],[-34.5,30.0]]]]}},{"type":"Feature","properties":{"magnitude":0.99,"de":0.99,"ate":2.0,"percentagem":99.0},"geometry":{"type":"Polygon","coordinates":[[[-32.584438336752335,30.0],[-27.3276461529509,30.0],[-24.659999999999627,31.37873264441866],[-21.959999999999525,32.59982372293183],[-19.139999999999418,33.7039428327011],[-16.199999999999307,34.68572930680032],[-13.199999999999193,35.52606578454928],[-10.079999999999075,36.24318435399053],[-6.839999999998952,36.83416483852295],[-3.5399999999988268,37.28935231415761],[-3.5399999999988268,39.75977096836185],[-5.639999999998906,39.5111093527511],[-7.679999999998984,39.21725672209614],[-9.659999999999059,38.88008700556177],[-11.639999999999134,38.48885988813206],[-13.559999999999206,38.05486814029914],[-15.47999999999928,37.563867433660086],[-17.33999999999935,37.03051651524428],[-19.19999999999942,36.436825122547226],[-20.99999999999949,35.80121218435053],[-22.739999999999554,35.12610510921277],[-24.419999999999618,34.41422545105675],[-26.09999999999968,33.639860475588954],[-27.779999999999745,32.799448301163224],[-29.399999999999807,31.92314038502309],[-31.019999999999868,30.978948853446827],[-32.584438336752335,30.0]]]}}]}