{"type":"FeatureCollection","properties":{"largura_maxima_km":126.448,"largura_sobre_pt_km":79.742,"linha_central_sobre_pt":false,"desenhavel_como_area":true,"perfil_largura":[{"t":1.06667,"lat":26.4443,"lon":-39.9005,"largura_km":126.448,"eixo_na_terra":true},{"t":1.07222,"lat":26.4107,"lon":-39.6875,"largura_km":125.93,"eixo_na_terra":true},{"t":1.07778,"lat":26.378,"lon":-39.4719,"largura_km":125.402,"eixo_na_terra":true},{"t":1.08333,"lat":26.3461,"lon":-39.2535,"largura_km":124.865,"eixo_na_terra":true},{"t":1.08889,"lat":26.315,"lon":-39.0322,"largura_km":124.318,"eixo_na_terra":true},{"t":1.09444,"lat":26.2849,"lon":-38.8079,"largura_km":123.762,"eixo_na_terra":true},{"t":1.1,"lat":26.2556,"lon":-38.5805,"largura_km":123.195,"eixo_na_terra":true},{"t":1.10556,"lat":26.2273,"lon":-38.35,"largura_km":122.619,"eixo_na_terra":true},{"t":1.11111,"lat":26.2,"lon":-38.1162,"largura_km":122.032,"eixo_na_terra":true},{"t":1.11667,"lat":26.1737,"lon":-37.8789,"largura_km":121.435,"eixo_na_terra":true},{"t":1.12222,"lat":26.1485,"lon":-37.6381,"largura_km":120.828,"eixo_na_terra":true},{"t":1.12778,"lat":26.1243,"lon":-37.3935,"largura_km":120.209,"eixo_na_terra":true},{"t":1.13333,"lat":26.1012,"lon":-37.1451,"largura_km":119.58,"eixo_na_terra":true},{"t":1.13889,"lat":26.0793,"lon":-36.8927,"largura_km":118.938,"eixo_na_terra":true},{"t":1.14444,"lat":26.0586,"lon":-36.6361,"largura_km":118.284,"eixo_na_terra":true},{"t":1.15,"lat":26.0391,"lon":-36.3751,"largura_km":117.618,"eixo_na_terra":true},{"t":1.15556,"lat":26.0208,"lon":-36.1095,"largura_km":116.94,"eixo_na_terra":true},{"t":1.16111,"lat":26.0039,"lon":-35.8391,"largura_km":116.248,"eixo_na_terra":true},{"t":1.16667,"lat":25.9885,"lon":-35.5637,"largura_km":115.545,"eixo_na_terra":true},{"t":1.17222,"lat":25.9744,"lon":-35.2831,"largura_km":114.83,"eixo_na_terra":true},{"t":1.17778,"lat":25.9619,"lon":-34.9969,"largura_km":114.1,"eixo_na_terra":true},{"t":1.18333,"lat":25.9509,"lon":-34.7048,"largura_km":113.356,"eixo_na_terra":true},{"t":1.18889,"lat":25.9416,"lon":-34.4067,"largura_km":112.597,"eixo_na_terra":true},{"t":1.19444,"lat":25.9341,"lon":-34.102,"largura_km":111.821,"eixo_na_terra":true},{"t":1.2,"lat":25.9284,"lon":-33.7904,"largura_km":111.029,"eixo_na_terra":true},{"t":1.20556,"lat":25.9246,"lon":-33.4716,"largura_km":110.219,"eixo_na_terra":true},{"t":1.21111,"lat":25.9229,"lon":-33.145,"largura_km":109.391,"eixo_na_terra":true},{"t":1.21667,"lat":25.9233,"lon":-32.8101,"largura_km":108.546,"eixo_na_terra":true},{"t":1.22222,"lat":25.9261,"lon":-32.4663,"largura_km":107.68,"eixo_na_terra":true},{"t":1.22778,"lat":25.9313,"lon":-32.1131,"largura_km":106.793,"eixo_na_terra":true},{"t":1.23333,"lat":25.9392,"lon":-31.7497,"largura_km":105.882,"eixo_na_terra":true},{"t":1.23889,"lat":25.9498,"lon":-31.3753,"largura_km":104.946,"eixo_na_terra":true},{"t":1.24444,"lat":25.9636,"lon":-30.9889,"largura_km":103.982,"eixo_na_terra":true},{"t":1.25,"lat":25.9806,"lon":-30.5895,"largura_km":102.992,"eixo_na_terra":true},{"t":1.25556,"lat":26.0013,"lon":-30.1759,"largura_km":101.97,"eixo_na_terra":true},{"t":1.26111,"lat":26.0259,"lon":-29.7467,"largura_km":100.911,"eixo_na_terra":true},{"t":1.26667,"lat":26.0549,"lon":-29.3001,"largura_km":99.811,"eixo_na_terra":true},{"t":1.27222,"lat":26.0887,"lon":-28.8341,"largura_km":98.665,"eixo_na_terra":true},{"t":1.27778,"lat":26.1279,"lon":-28.3464,"largura_km":97.466,"eixo_na_terra":true},{"t":1.28333,"lat":26.1732,"lon":-27.834,"largura_km":96.202,"eixo_na_terra":true},{"t":1.28889,"lat":26.2255,"lon":-27.2931,"largura_km":94.857,"eixo_na_terra":true},{"t":1.29444,"lat":26.286,"lon":-26.7191,"largura_km":93.413,"eixo_na_terra":true},{"t":1.3,"lat":26.3561,"lon":-26.1056,"largura_km":91.828,"eixo_na_terra":true},{"t":1.30556,"lat":26.4379,"lon":-25.4444,"largura_km":90.041,"eixo_na_terra":true},{"t":1.31111,"lat":26.5341,"lon":-24.7236,"largura_km":87.91,"eixo_na_terra":true},{"t":1.31667,"lat":26.649,"lon":-23.9254,"largura_km":85.065,"eixo_na_terra":true},{"t":1.32222,"lat":26.7895,"lon":-23.0209,"largura_km":79.742,"eixo_na_terra":true},{"t":1.32778,"lat":27.0897,"lon":-21.4975,"largura_km":null,"eixo_na_terra":false},{"t":1.33333,"lat":27.3386,"lon":-20.1114,"largura_km":null,"eixo_na_terra":false},{"t":1.33889,"lat":27.3919,"lon":-19.4339,"largura_km":null,"eixo_na_terra":false},{"t":1.34444,"lat":27.4656,"lon":-18.6912,"largura_km":null,"eixo_na_terra":false},{"t":1.35,"lat":27.5612,"lon":-17.7701,"largura_km":null,"eixo_na_terra":false}]},"features":[{"type":"Feature","properties":{},"geometry":{"type":"Polygon","coordinates":[[[-38.8279115337877,26.853553743517413],[-38.604624893535686,26.821642755056065],[-38.157750265745165,26.761768010204673],[-37.68901294605138,26.704419921199506],[-37.20620132943583,26.651120915754362],[-36.95916428505234,26.626072964634215],[-36.45303747852881,26.579366328512812],[-35.929655313891374,26.537458167134826],[-35.38740790527012,26.50072841246478],[-34.834641076592675,26.470212619775953],[-34.24897292600653,26.445145747815452],[-33.63781878568875,26.42682034624441],[-33.32173922485575,26.420409029500288],[-32.99807717492871,26.41596918696981],[-32.66633910645649,26.413617393457294],[-32.32597650468881,26.413483187272682],[-31.97637688902614,26.415711179569513],[-31.61685285502179,26.420463627277467],[-31.246628579343337,26.427923600662492],[-30.86482303076039,26.438298922716108],[-30.470428847953315,26.451827123605085],[-30.06228543376247,26.468781749573033],[-29.652352760185863,26.48894164144862],[-29.21278054208392,26.513650344442024],[-28.754692465783677,26.54290707437051],[-28.27584312435374,26.57723990982339],[-27.773496948993994,26.617291833014878],[-27.244263995585044,26.66385914952742],[-26.68385743244272,26.717948207344172],[-26.08672161234759,26.78086235350681],[-25.44543476639842,26.85434153532662],[-24.730473082044114,26.942986841602668],[-23.963642210511466,27.046356190207],[-23.10314466747488,27.171883376484246],[-22.081842569751842,27.33301300123575],[-20.89159955254891,27.5383837610015],[-21.226881727734746,27.408941221496807],[-20.96302118586152,27.474493354844927],[-20.646720295687203,27.550201150133248],[-20.3283324088614,27.62343843322528],[-20.011128740232607,27.6935032237842],[-19.496148918977127,27.800908127239413],[-19.110548743455354,27.8754595526126],[-18.7663950886909,27.936096458752022],[-18.61648967468878,27.959773917691873],[-18.496340951429225,27.97666961475612],[-16.935770299983687,28.333820218426194],[-16.923021914651795,28.11176357015785],[-16.597250402714934,28.190611461130782],[-16.97097744986674,27.866199329309318],[-16.95669889863575,27.810002746341254],[-17.048694907673426,27.7867564101975],[-16.880426616542792,27.66237917445276],[-17.36201622036316,27.550036972589385],[-17.842876026635054,27.44321742051911],[-18.153192069783557,27.378832578172823],[-18.27443459750043,27.355252553550063],[-18.443150622385623,27.324891968569652],[-19.201168536432732,27.143797515929425],[-19.48250678639309,27.078910622037778],[-19.839973662177783,26.999672853940805],[-20.13514612464249,26.9384158680509],[-20.37790655911101,26.89264041867343],[-20.57408273085389,26.86078859719171],[-20.68082433782996,26.84675437744776],[-20.73678098752281,26.840986103107202],[-20.967044127549826,26.786740955442923],[-21.2392196224192,26.725530555859166],[-21.402237218883556,26.69085725996084],[-21.62023673853193,26.64773306703413],[-21.748333357029765,26.624758643414516],[-21.915145484618336,26.59873887170381],[-22.009664846865064,26.586902605392254],[-22.125599220309642,26.57728193655308],[-22.337507343498743,26.528669465812346],[-22.48020032045335,26.497733852565197],[-22.734906476298505,26.447343369677636],[-22.846710419067676,26.42789359898061],[-22.99467707170936,26.40587896713343],[-23.11863950290237,26.392396655586943],[-23.211713189304195,26.387503073833876],[-23.365958571656165,26.352718387534328],[-23.548356925177785,26.314677484230714],[-23.65960828586347,26.29353651792674],[-23.81037015471378,26.268238393094386],[-23.94115032687668,26.250687451975896],[-24.01691398886578,26.24329463247599],[-24.0833387311622,26.239333811677465],[-24.165137573411073,26.239769978424096],[-24.207588802736126,26.244255997635406],[-24.230603938391432,26.249292842639345],[-24.412163288901183,26.179198142890456],[-25.251586634348143,26.054399904607525],[-25.98773867311553,25.954050958423057],[-26.644827797506196,25.87165439158415],[-27.238202414279414,25.803127438335533],[-27.81272291912981,25.74146021636046],[-28.33860839594783,25.689843325758737],[-28.8538297559831,25.643223592242073],[-29.32964850701248,25.604260824066014],[-29.78504694657221,25.57048532618352],[-30.236434651394973,25.540238740586176],[-30.656856002763732,25.51542576500827],[-31.062440131715988,25.494433484256177],[-31.45449835255002,25.47694073255789],[-31.84695405506639,25.462074007592136],[-32.214973155915715,25.45086269037333],[-32.57245636512107,25.442417545634097],[-32.92016017899624,25.43655299776831],[-33.2587556479894,25.43310437485816],[-33.588841306147685,25.431924754728144],[-33.91095368985586,25.432882398187935],[-34.236824446258254,25.435872460389863],[-34.84503247058382,25.44756581922023],[-35.428058019442744,25.46615877951526],[-35.71093629583174,25.477843877408578],[-36.26081785425444,25.505648852634973],[-36.53841277112343,25.522184395810985],[-37.05944227980828,25.558181803675048],[-37.31346450402387,25.578042810330363],[-37.809411130957216,25.621271805474947],[-38.051656249351936,25.64456118176354],[-38.52541820676561,25.694311368367536],[-38.99488465914703,25.749116185873103],[-39.22025009938727,25.777462799578792],[-39.44260467853064,25.80672829979745],[-39.878684258545604,25.86791778636512],[-40.09259770212685,25.899795931586137],[-40.51260768944712,25.96601320968615],[-39.265778464166374,26.919979084731725],[-38.8279115337877,26.853553743517413]]]}}]}