{"type":"FeatureCollection","features":[{"type":"Feature","properties":{"t_inicio":1.0666666666666487,"t_fim":1.33888888888887},"geometry":{"type":"LineString","coordinates":[[-39.90049692665974,26.44434543277348],[-39.687533000332394,26.4107470278717],[-39.47188318420379,26.377977063014004],[-39.25345744610502,26.346056978872937],[-39.03216089820751,26.315009401665424],[-38.80789341887953,26.284858234359014],[-38.5805492359103,26.25562875716966],[-38.3500164661657,26.227347738535503],[-38.11617660597764,26.200043557933263],[-37.878903965667575,26.173746342120335],[-37.63806504053275,26.14848811664172],[-37.393517809348765,26.124302974746286],[-37.14511094991258,26.101227266223937],[-36.89268295931507,26.079299809112516],[-36.63606116441116,26.058562127756854],[-36.37506060526351,26.0390587213446],[-36.10948277104859,26.020837367831323],[-35.83911416388173,26.0039494691302],[-35.56372466104267,25.98845044463226],[-35.283065639907676,25.97440018159896],[-34.996867822175915,25.961863552813863],[-34.70483878427106,25.950911014199562],[-34.406660068495626,25.94161929804619],[-34.101983813803855,25.934072221250073],[-33.790428804826604,25.92836163279503],[-33.47157581149281,25.92458853098438],[-33.14496205711242,25.922864389165643],[-32.8100746070881,25.923312739596994],[-32.46634240919468,25.92607107971778],[-32.113126633325265,25.931293184900102],[-31.74970884451554,25.939151938976586],[-31.375276384068087,25.949842831762822],[-30.988904108559012,25.96358832646044],[-30.589531312494188,25.980643377085688],[-30.175932184953922,26.00130248940526],[-29.74667743816991,26.025908888660883],[-29.30008365314339,26.054866617789187],[-28.83414516607013,26.08865679996749],[-28.34644052545326,26.12785996485566],[-27.834000856559015,26.17318745567708],[-27.29311926619647,26.22552688775626],[-26.719065396397838,26.28601020608106],[-26.105640148771244,26.356119812987316],[-25.444445367040203,26.437862571817405],[-24.723607640794455,26.5340737624009],[-23.92535540685782,26.648993943115386],[-23.020864191866565,26.789495787464165],[-21.957279645289105,26.96817145735039],[-20.61435190813856,27.213645718894444],[-18.521069043471954,27.637933765331773]]}}]}