{"type":"FeatureCollection","features":[{"type":"Feature","properties":{"magnitude":0.2,"de":0.2,"ate":0.5,"percentagem":20.0},"geometry":{"type":"Polygon","coordinates":[[[-8.923753591598185,30.0],[-4.650666244112086,30.0],[-4.437558078998452,34.01999999999991],[-4.35152309651599,37.85999999999983],[-4.391694285001682,41.519999999999754],[-4.559534196176324,44.939999999999685],[-9.224306302805166,44.93999999999968],[-9.05023868816847,43.139999999999716],[-8.91821086875811,41.33999999999976],[-8.76688748043453,37.619999999999834],[-8.768301591203286,33.83999999999992],[-8.923753591598185,30.0]]]}},{"type":"Feature","properties":{"magnitude":0.5,"de":0.5,"ate":0.8,"percentagem":50.0},"geometry":{"type":"Polygon","coordinates":[[[-13.216987346293044,30.0],[-8.923753591598185,30.0],[-8.768301591203286,33.83999999999992],[-8.76688748043453,37.619999999999834],[-8.91821086875811,41.33999999999976],[-9.05023868816847,43.139999999999716],[-9.224306302805166,44.93999999999968],[-34.5,44.939999999999685],[-34.5,39.672863964771885],[-32.519999999999925,39.375262410387336],[-30.41999999999985,39.19021171632766],[-28.259999999999764,39.12591933479343],[-26.03999999999968,39.17941545381383],[-23.999999999999602,39.324988594188014],[-21.83999999999952,39.57025150642128],[-18.779999999999404,40.06209232220979],[-15.539999999999281,40.74438716422624],[-15.299999999999272,40.72374133222721],[-15.119999999999266,40.63759347039058],[-14.879999999999256,40.42407807730169],[-14.69999999999925,40.185617064932],[-14.472959504902036,39.77999999999979],[-14.279999999999234,39.334020553002524],[-13.928367386951242,38.21999999999983],[-13.64257958020703,36.89999999999985],[-13.415311055241798,35.33999999999989],[-13.263389398581426,33.59999999999992],[-13.198115770727076,31.79999999999996],[-13.216987346293044,30.0]]]}},{"type":"Feature","properties":{"magnitude":0.8,"de":0.8,"ate":0.95,"percentagem":80.0},"geometry":{"type":"Polygon","coordinates":[[[-34.5,30.0],[-21.93063054444216,30.0],[-19.139999999999418,30.500247728918602],[-16.0199999999993,31.1632424059716],[-15.839999999999293,31.07419461412477],[-15.692515981508578,30.839999999999982],[-15.572764938222381,30.47999999999999],[-15.48385691813349,30.0],[-13.216987346293044,30.0],[-13.195308264837712,31.43999999999997],[-13.226816260819758,32.87999999999994],[-13.314823017200318,34.31999999999991],[-13.451544491886585,35.63999999999987],[-13.631869786037907,36.839999999999854],[-13.86808706197078,37.97999999999983],[-14.15999999999923,39.00221591557538],[-14.45999999999924,39.75365092262953],[-14.69999999999925,40.185617064932],[-14.939999999999259,40.48835433189443],[-15.179999999999268,40.67318484226816],[-15.47999999999928,40.74911528391651],[-18.35999999999939,40.14179421550349],[-20.87999999999948,39.70712416472333],[-23.339999999999577,39.39038368314422],[-25.739999999999668,39.19527336778795],[-28.079999999999757,39.12591419121255],[-30.29999999999984,39.183405353436505],[-32.45999999999992,39.36816963317235],[-34.5,39.672863964771885],[-34.5,30.0]]]}},{"type":"Feature","properties":{"magnitude":0.95,"de":0.95,"ate":0.99,"percentagem":95.0},"geometry":{"type":"Polygon","coordinates":[[[-21.93063054444216,30.0],[-21.899999999999523,30.0],[-15.48385691813349,30.0],[-15.57276493822238,30.47999999999999],[-15.69251598150858,30.839999999999982],[-15.839999999999293,31.07419461412477],[-16.0199999999993,31.163242405971605],[-19.139999999999418,30.500247728918602],[-21.93063054444216,30.0]]]}}]}