{"type":"FeatureCollection","features":[{"type":"Feature","properties":{"magnitude":0.2,"de":0.2,"ate":0.5,"percentagem":20.0},"geometry":{"type":"Polygon","coordinates":[[[-34.5,30.0],[-13.242701604493629,30.0],[-11.737800531635381,30.719999999999985],[-7.953837269596015,32.57999999999994],[-3.5399999999988268,34.81669187845486],[-3.5399999999988268,44.939999999999685],[-14.139365479485217,44.939999999999685],[-20.13346754863771,41.93999999999974],[-25.16629430184203,39.53999999999979],[-29.87999999999983,37.432637456440325],[-34.5,35.5190273017889],[-34.5,30.0]]]}},{"type":"Feature","properties":{"magnitude":0.5,"de":0.5,"ate":0.8,"percentagem":50.0},"geometry":{"type":"Polygon","coordinates":[[[-34.5,35.51999999999988],[-29.879999999999825,37.432637456440325],[-25.16629430184203,39.53999999999979],[-20.13346754863771,41.93999999999974],[-14.139365479485217,44.939999999999685],[-34.5,44.939999999999685],[-34.5,35.51999999999988]]]}}]}