{"type":"FeatureCollection","features":[{"type":"Feature","properties":{"magnitude":0.2,"percentagem":20.0,"territorio":"acores"},"geometry":{"type":"LineString","coordinates":[[-25.491794649197885,36.0],[-25.491809093066657,36.04],[-25.491823561179793,36.08],[-25.491838053572916,36.12],[-25.491852570281615,36.16],[-25.491867111341474,36.199999999999996],[-25.520000000000138,36.22813288865866],[-25.531886647182098,36.239999999999995],[-25.53190124602655,36.279999999999994],[-25.5319158693446,36.31999999999999],[-25.53193051717176,36.35999999999999],[-25.531945189543475,36.39999999999999],[-25.531959886495194,36.44],[-25.56000000000014,36.46804011350494],[-25.571979635168475,36.47999999999999],[-25.571994390461793,36.51999999999999],[-25.572009170457196,36.55999999999999],[-25.57202397519004,36.59999999999999],[-25.57203880469562,36.639999999999986],[-25.57205365900922,36.679999999999986],[-25.57206853816609,36.719999999999985],[-25.600000000000136,36.74793146183403],[-25.612088535816333,36.759999999999984],[-25.61210347395682,36.79999999999998],[-25.61211843706213,36.83999999999999],[-25.61213342516738,36.87999999999998],[-25.612148438307663,36.91999999999998],[-25.612163476518027,36.95999999999998],[-25.640000000000136,36.98783652348209],[-25.652183691505254,36.99999999999998],[-25.652198789252758,37.03999999999998],[-25.65221391219134,37.07999999999998],[-25.652229060355907,37.119999999999976],[-25.65224423378133,37.159999999999975],[-25.652259432502444,37.199999999999974],[-25.652274656554024,37.239999999999974],[-25.680000000000135,37.26772534344608],[-25.692295125717358,37.27999999999997],[-25.6923104099429,37.31999999999997],[-25.692325719619124,37.35999999999997],[-25.69234105478065,37.39999999999997],[-25.69235641546205,37.43999999999997],[-25.692371801697853,37.47999999999996],[-25.720000000000134,37.50762819830224],[-25.732392492678756,37.51999999999997],[-25.732407939636616,37.55999999999997],[-25.73242341226831,37.599999999999966],[-25.73243891060818,37.63999999999997],[-25.732454434690503,37.679999999999964],[-25.73246998454951,37.71999999999996],[-25.760000000000133,37.747530015450586],[-25.77249089941322,37.75999999999996],[-25.772506510539188,37.79999999999997],[-25.772522147560387,37.83999999999996],[-25.77253781051084,37.87999999999996],[-25.772553499424504,37.91999999999996],[-25.772569214335277,37.95999999999996],[-25.77258495527701,37.99999999999996],[-25.800000000000132,38.027415044723085],[-25.812606131856157,38.03999999999996],[-25.81262193468978,38.079999999999956],[-25.81263776367173,38.119999999999955],[-25.812653618835604,38.159999999999954],[-25.812669500214945,38.19999999999995],[-25.81268540784322,38.23999999999995],[-25.84000000000013,38.267314592156865],[-25.85270681272351,38.27999999999995],[-25.852722782779985,38.31999999999995],[-25.852738779201623,38.35999999999995],[-25.85275480202163,38.39999999999995],[-25.852770851273142,38.43999999999995],[-25.852786926989225,38.47999999999995],[-25.88000000000013,38.50721307301086],[-25.892808562198894,38.519999999999946],[-25.892824700874698,38.559999999999945],[-25.892840866130037,38.59999999999995],[-25.892857057997677,38.639999999999944],[-25.892873276510322,38.67999999999994],[-25.892889521700575,38.71999999999994],[-25.92000000000013,38.7471104782995],[-25.932911389252432,38.75999999999994],[-25.932927697928605,38.79999999999994],[-25.932944033395962,38.83999999999994],[-25.932960395686802,38.87999999999994],[-25.93297678483333,38.91999999999994],[-25.932993200867678,38.95999999999994],[-25.96000000000013,38.98700679913239],[-25.97301530275717,38.999999999999936],[-25.973031782797722,39.039999999999935],[-25.973048289838143,39.079999999999934],[-25.9730648239102,39.11999999999993],[-25.973081385045575,39.15999999999993],[-25.973097973275863,39.19999999999993],[-26.000000000000128,39.2269020267242],[-26.01312031147907,39.23999999999993],[-26.01313696422937,39.27999999999993],[-26.013153644184964,39.31999999999993],[-26.013170351377056,39.35999999999993],[-26.01318708583677,39.39999999999993],[-26.013203847595104,39.43999999999993],[-26.040000000000127,39.46679615240495],[-26.05322642406664,39.479999999999926],[-26.053243250851672,39.519999999999925],[-26.053260105043904,39.55999999999993],[-26.053276986673932,39.59999999999992],[-26.053293895772242,39.63999999999992],[-26.053310832369235,39.67999999999992],[-26.080000000000126,39.706689167630806],[-26.09333364904004,39.71999999999992],[-26.09335065116266,39.75999999999992],[-26.09336768089055,39.79999999999992],[-26.09338473825367,39.83999999999992],[-26.093401823281837,39.87999999999992],[-26.093418936004767,39.919999999999916],[-26.120000000000125,39.946581063995275],[-26.133441994779844,39.959999999999916],[-26.133459173518894,39.999999999999915],[-26.133476380057182,40.039999999999914],[-26.133493614423944,40.07999999999991],[-26.133510876648295,40.11999999999991],[-26.133528166759213,40.15999999999991],[-26.160000000000124,40.18647183324082],[-26.173551469515253,40.19999999999991],[-26.17356882612366,40.23999999999991],[-26.173586210720828,40.27999999999991],[-26.173603623335232,40.31999999999991],[-26.173621063995213,40.35999999999991],[-26.200000000000124,40.38637893600482],[-26.213644573754827,40.399999999999906],[-26.21366208131188,40.439999999999905],[-26.213679617014648,40.479999999999905]]}},{"type":"Feature","properties":{"magnitude":0.4,"percentagem":40.0,"territorio":"acores"},"geometry":{"type":"LineString","coordinates":[[-25.503589298395635,36.0],[-25.503618186133174,36.04],[-25.50364712235945,36.08],[-25.503676107145694,36.12],[-25.5037051405631,36.16],[-25.50373422268281,36.199999999999996],[-25.520000000000138,36.216265777317325],[-25.54377329436406,36.239999999999995],[-25.54380249205296,36.279999999999994],[-25.54383173868907,36.31999999999999],[-25.54386103434338,36.35999999999999],[-25.54389037908681,36.39999999999999],[-25.543919772990247,36.43999999999999],[-25.560000000000137,36.45608022700988],[-25.583959270336813,36.47999999999999],[-25.58398878092344,36.51999999999999],[-25.58401834091426,36.55999999999999],[-25.58404795037994,36.59999999999999],[-25.5840776093911,36.639999999999986],[-25.584107318018305,36.679999999999986],[-25.58413707633204,36.719999999999985],[-25.600000000000136,36.73586292366808],[-25.624177071632534,36.759999999999984],[-25.624206947913507,36.79999999999998],[-25.624236874124122,36.83999999999998],[-25.62426685033462,36.87999999999998],[-25.62429687661519,36.91999999999998],[-25.624326953035922,36.95999999999998],[-25.640000000000136,36.97567304696419],[-25.664367383010376,36.99999999999998],[-25.66439757850538,37.03999999999998],[-25.664427824382543,37.07999999999998],[-25.66445812071168,37.119999999999976],[-25.664488467562528,37.159999999999975],[-25.664518865004748,37.199999999999974],[-25.664549313107912,37.239999999999974],[-25.680000000000135,37.255450686892196],[-25.70459025143458,37.27999999999997],[-25.704620819885662,37.31999999999997],[-25.704651439238113,37.35999999999997],[-25.704682109561166,37.39999999999997],[-25.704712830923967,37.43999999999997],[-25.704743603395574,37.47999999999997],[-25.720000000000134,37.495256396604525],[-25.74478498535737,37.51999999999997],[-25.744815879273098,37.55999999999997],[-25.74484682453649,37.599999999999966],[-25.744877821216228,37.639999999999965],[-25.744908869380872,37.679999999999964],[-25.744939969098883,37.71999999999996],[-25.760000000000133,37.73506003090121],[-25.7849817988263,37.75999999999996],[-25.785013021078242,37.79999999999996],[-25.785044295120642,37.83999999999996],[-25.785075621021548,37.87999999999996],[-25.78510699884887,37.91999999999996],[-25.78513842867042,37.95999999999996],[-25.785169910553883,37.99999999999996],[-25.800000000000132,38.01483008944621],[-25.82521226371218,38.03999999999996],[-25.825243869379428,38.079999999999956],[-25.82527552734333,38.119999999999955],[-25.825307237671076,38.159999999999954],[-25.825339000429757,38.19999999999995],[-25.825370815686306,38.23999999999995],[-25.84000000000013,38.254629184313785],[-25.86541362544689,38.27999999999995],[-25.86544556555983,38.31999999999995],[-25.865477558403107,38.35999999999995],[-25.865509604043126,38.39999999999995],[-25.865541702546153,38.43999999999995],[-25.86557385397831,38.47999999999995],[-25.88000000000013,38.494426146021766],[-25.90561712439766,38.519999999999946],[-25.90564940174926,38.559999999999945],[-25.905681732259943,38.599999999999945],[-25.905714115995227,38.639999999999944],[-25.905746553020514,38.67999999999994],[-25.90577904340102,38.71999999999994],[-25.92000000000013,38.73422095659905],[-25.945822778504738,38.75999999999994],[-25.945855395857073,38.79999999999994],[-25.945888066791795,38.83999999999994],[-25.945920791373474,38.87999999999994],[-25.945953569666532,38.91999999999994],[-25.945986401735222,38.95999999999994],[-25.96000000000013,38.97401359826484],[-25.98603060551421,38.999999999999936],[-25.98606356559532,39.039999999999935],[-25.986096579676158,39.079999999999934],[-25.98612964782027,39.11999999999993],[-25.986162770091024,39.15999999999993],[-25.986195946551597,39.19999999999993],[-26.000000000000128,39.21380405344846],[-26.02624062295802,39.23999999999993],[-26.026273928458615,39.27999999999993],[-26.0263072883698,39.31999999999993],[-26.026340702753988,39.35999999999993],[-26.02637417167341,39.39999999999993],[-26.02640769519008,39.43999999999993],[-26.040000000000127,39.45359230480997],[-26.066452848133153,39.479999999999926],[-26.066486501703224,39.519999999999925],[-26.06652021008768,39.559999999999924],[-26.066553973347734,39.59999999999992],[-26.066587791544364,39.63999999999992],[-26.066621664738346,39.67999999999992],[-26.080000000000126,39.6933783352617],[-26.106667298079955,39.71999999999992],[-26.10670130232519,39.75999999999992],[-26.106735361780984,39.79999999999992],[-26.106769476507218,39.83999999999992],[-26.10680364656355,39.87999999999992],[-26.106837872009404,39.919999999999916],[-26.120000000000125,39.93316212799064],[-26.14688398955957,39.959999999999916],[-26.146918347037666,39.999999999999915],[-26.14695276011424,40.039999999999914],[-26.146987228847763,40.07999999999991],[-26.147021753296457,40.11999999999991],[-26.1470563335183,40.15999999999991],[-26.160000000000124,40.172943666481736],[-26.18710293903038,40.19999999999991],[-26.187137652247195,40.23999999999991],[-26.187172421441534,40.27999999999991],[-26.18720724667034,40.31999999999991],[-26.187242127990306,40.35999999999991],[-26.200000000000124,40.37275787200973],[-26.22728914750953,40.399999999999906],[-26.22732416262364,40.439999999999905],[-26.227359234029173,40.479999999999905]]}},{"type":"Feature","properties":{"magnitude":0.6,"percentagem":60.0,"territorio":"acores"},"geometry":{"type":"LineString","coordinates":[[-25.515383947593385,36.0],[-25.51542727919969,36.04],[-25.515470683539103,36.08],[-25.51551416071847,36.12],[-25.51555771084458,36.16],[-25.515601334024147,36.199999999999996],[-25.520000000000138,36.20439866597599],[-25.55565994154602,36.239999999999995],[-25.555703738079373,36.279999999999994],[-25.55574760803354,36.31999999999999],[-25.555791551515,36.35999999999999],[-25.555835568630147,36.39999999999999],[-25.555879659485303,36.43999999999999],[-25.560000000000137,36.44412034051483],[-25.595938905505154,36.47999999999999],[-25.595983171385093,36.51999999999998],[-25.59602751137132,36.55999999999999],[-25.59607192556984,36.59999999999999],[-25.596116414086588,36.639999999999986],[-25.59616097702739,36.679999999999986],[-25.596205614497997,36.719999999999985],[-25.600000000000136,36.72379438550213],[-25.63626560744873,36.759999999999984],[-25.636310421870192,36.79999999999998],[-25.636355311186115,36.83999999999998],[-25.636400275501863,36.87999999999998],[-25.636445314922714,36.91999999999998],[-25.636490429553817,36.95999999999998],[-25.640000000000136,36.9635095704463],[-25.676551074515498,36.99999999999998],[-25.676596367758005,37.03999999999998],[-25.676641736573746,37.07999999999998],[-25.67668718106745,37.119999999999976],[-25.676732701343724,37.159999999999975],[-25.676778297507056,37.199999999999974],[-25.6768239696618,37.239999999999974],[-25.680000000000135,37.243176030338304],[-25.716885377151804,37.27999999999997],[-25.716931229828425,37.31999999999997],[-25.7169771588571,37.35999999999997],[-25.71702316434168,37.39999999999997],[-25.717069246385883,37.43999999999997],[-25.717115405093292,37.47999999999997],[-25.720000000000134,37.48288459490681],[-25.757177478035988,37.51999999999997],[-25.75722381890958,37.55999999999997],[-25.757270236804672,37.599999999999966],[-25.757316731824275,37.639999999999965],[-25.75736330407124,37.679999999999964],[-25.75740995364826,37.71999999999996],[-25.760000000000133,37.72259004635183],[-25.797472698239385,37.75999999999996],[-25.797519531617294,37.79999999999996],[-25.7975664426809,37.83999999999996],[-25.797613431532255,37.87999999999996],[-25.797660498273242,37.91999999999996],[-25.797707643005566,37.95999999999996],[-25.79775486583076,37.99999999999996],[-25.800000000000132,38.00224513416933],[-25.83781839556821,38.03999999999996],[-25.837865804069082,38.079999999999956],[-25.837913291014928,38.119999999999955],[-25.837960856506555,38.159999999999954],[-25.838008500644566,38.19999999999995],[-25.838056223529385,38.23999999999995],[-25.84000000000013,38.24194377647069],[-25.878120438170274,38.27999999999995],[-25.878168348339685,38.31999999999995],[-25.8782163376046,38.35999999999995],[-25.87826440606462,38.39999999999995],[-25.878312553819164,38.43999999999995],[-25.878360780967405,38.47999999999995],[-25.88000000000013,38.48163921903267],[-25.918425686596425,38.519999999999946],[-25.918474102623826,38.559999999999945],[-25.918522598389846,38.599999999999945],[-25.918571173992774,38.639999999999944],[-25.918619829530705,38.67999999999994],[-25.91866856510147,38.71999999999994],[-25.92000000000013,38.7213314348986],[-25.958734167757044,38.75999999999994],[-25.95878309378555,38.79999999999994],[-25.95883210018762,38.83999999999994],[-25.958881187060143,38.87999999999994],[-25.958930354499735,38.91999999999994],[-25.958979602602767,38.95999999999994],[-25.96000000000013,38.96102039739729],[-25.999045908271253,38.999999999999936],[-25.999095348392913,39.039999999999935],[-25.99914486951417,39.079999999999934],[-25.99919447173034,39.11999999999993],[-25.99924415513647,39.15999999999993],[-25.99929391982733,39.19999999999993],[-26.000000000000128,39.20070608017273],[-26.039360934436964,39.23999999999993],[-26.039410892687858,39.27999999999993],[-26.039460932554636,39.31999999999993],[-26.03951105413092,39.35999999999993],[-26.039561257510048,39.39999999999993],[-26.039611542785057,39.43999999999993],[-26.040000000000127,39.440388457215],[-26.079679272199666,39.479999999999926],[-26.07972975255477,39.519999999999925],[-26.07978031513146,39.559999999999924],[-26.079830960021535,39.59999999999992],[-26.07988168731648,39.63999999999992],[-26.079932497107453,39.67999999999992],[-26.080000000000126,39.6800675028926],[-26.120000000000125,39.71925697662904],[-26.160000000000124,39.705478601393295],[-26.200000000000124,39.69169825637508],[-26.23395287900907,39.67999999999992],[-26.240000000000123,39.67791787715729],[-26.280000000000122,39.66414636921076],[-26.32000000000012,39.65037293487978],[-26.35012224328341,39.63999999999992],[-26.36000000000012,39.63660072755041],[-26.40000000000012,39.622836207992336],[-26.44000000000012,39.60906980577723],[-26.4663522450306,39.59999999999992],[-26.480000000000114,39.59530587078556],[-26.520000000000117,39.58154846159405],[-26.560000000000116,39.56778921380481],[-26.582643890414722,39.559999999999924],[-26.600000000000115,39.554033652185],[-26.640000000000114,39.540283476223635],[-26.680000000000113,39.52653150605841],[-26.698998196943514,39.519999999999925],[-26.720000000000113,39.5127844194342],[-26.76000000000011,39.49904160045904],[-26.80000000000011,39.485297032010976],[-26.81541619366853,39.479999999999926],[-26.84000000000011,39.47155852260077],[-26.88000000000011,39.45782318526716],[-26.92000000000011,39.44408614353131],[-26.931898921388736,39.43999999999993],[-26.960000000000107,39.43035631415309],[-27.000000000000107,39.416628584022504],[-27.040000000000106,39.40289919490279],[-27.048447432858264,39.39999999999993],[-27.080000000000105,39.38917814897908],[-27.120000000000104,39.375458152526264],[-27.160000000000103,39.36173654284244],[-27.165062792998796,39.35999999999993],[-27.200000000000102,39.34802438440542],[-27.2400000000001,39.33431224902531],[-27.2800000000001,39.32059854652001],[-27.281746079115926,39.31999999999993],[-27.3200000000001,39.306895380216545],[-27.3600000000001,39.29319123423131],[-27.398499011140917,39.27999999999992],[-27.400000000000098,39.279486041467734],[-27.440000000000097,39.265791498673956],[-27.480000000000096,39.252095471340255],[-27.515322781442663,39.23999999999993],[-27.520000000000095,39.238399445507476],[-27.560000000000095,39.224713104535674],[-27.600000000000094,39.21102532605171],[-27.632217778388462,39.19999999999993],[-27.640000000000093,39.19733857343605],[-27.680000000000092,39.18366056507569],[-27.72000000000009,39.169981166588535],[-27.74918513009728,39.15999999999993],[-27.76000000000009,39.15630379410985],[-27.80000000000009,39.14263425010375],[-27.84000000000009,39.1289633637165],[-27.86622597819327,39.11999999999993],[-27.880000000000088,39.11529547893344],[-27.920000000000087,39.10163453198504],[-27.960000000000086,39.08797229076431],[-27.983341478050377,39.079999999999934],[-28.000000000000085,39.07431400187956],[-28.040000000000084,39.060661785660265],[-28.080000000000084,39.04700832364339],[-28.100532799041048,39.039999999999935],[-28.120000000000083,39.03335973950898],[-28.160000000000082,39.01971638866563],[-28.20000000000008,39.006071840868195],[-28.217801124791293,38.999999999999936],[-28.24000000000008,38.99243307099079],[-28.28000000000008,38.978798721153055],[-28.32000000000008,38.96516322357632],[-28.335147653440288,38.95999999999994],[-28.360000000000078,38.951534378122645],[-28.400000000000077,38.937909165910554],[-28.440000000000076,38.924282855549045],[-28.452573597906277,38.91999999999994],[-28.480000000000075,38.910664045351226],[-28.520000000000074,38.897048108382734],[-28.560000000000073,38.88343112323177],[-28.570080186157362,38.87999999999994],[-28.600000000000072,38.86982245979273],[-28.64000000000007,38.85621593669135],[-28.68000000000007,38.84260841575472],[-28.68766866148883,38.83999999999994],[-28.72000000000007,38.829010011253715],[-28.76000000000007,38.81541304165609],[-28.800000000000068,38.80181512495364],[-28.805340282805737,38.79999999999994],[-28.840000000000067,38.788227092251795],[-28.880000000000067,38.774639816815544],[-28.920000000000066,38.761051645390985],[-28.923096324912446,38.75999999999994],[-28.96000000000006,38.74747409803666],[-29.000000000000064,38.733896658448],[-29.040000000000063,38.72031837437674],[-29.040938078807674,38.71999999999994],[-29.080000000000062,38.70675142661127],[-29.12000000000006,38.69318396559297],[-29.158867389034025,38.67999999999994],[-29.16000000000006,38.67961606433247],[-29.20000000000006,38.66605947875297],[-29.24000000000006,38.65250214007209],[-29.276885457932867,38.639999999999944],[-29.280000000000058,38.638945028994485],[-29.320000000000057,38.62539865803495],[-29.360000000000056,38.61185158651083],[-29.394993184518043,38.599999999999945],[-29.40000000000006,38.59830538170773],[-29.440000000000055,38.58476937084776],[-29.480000000000054,38.571232712359944],[-29.513191926105392,38.559999999999945],[-29.520000000000053,38.557697530636574],[-29.560000000000052,38.54417202642095],[-29.60000000000005,38.53064592791732],[-29.63148305773582,38.519999999999946],[-29.640000000000054,38.51712188679812],[-29.68000000000005,38.50360703684491],[-29.72000000000005,38.49009164634956],[-29.74986797251047,38.47999999999995],[-29.760000000000044,38.476578864084146],[-29.800000000000047,38.46307481709273],[-29.840000000000046,38.44957028371425],[-29.86834808193351,38.43999999999995],[-29.880000000000045,38.43606887928304],[-29.920000000000044,38.422575785042284],[-29.960000000000043,38.40908225898189],[-29.98692481626232,38.39999999999995],[-30.000000000000043,38.39559235210199],[-30.040000000000042,38.382110361498505],[-30.08000000000004,38.36862799405822],[-30.10559962486598,38.35999999999995],[-30.12000000000004,38.35514970518937],[-30.16000000000004,38.34167897021565],[-30.20000000000004,38.32820791380665],[-30.224373976591032,38.31999999999995],[-30.240000000000038,38.31474136415693],[-30.28000000000004,38.30128203791985],[-30.320000000000036,38.28782244607069],[-30.34324936013649,38.27999999999995],[-30.360000000000035,38.27436775760259],[-30.400000000000034,38.26091999433156],[-30.440000000000033,38.24747202169671],[-30.46222728443656,38.23999999999995],[-30.480000000000032,38.23402931713309],[-30.52000000000003,38.22059327218857],[-30.56000000000003,38.20715707455669],[-30.58130927905254,38.19999999999995],[-30.60000000000003,38.19372647738673],[-30.64000000000003,38.18030230726869],[-30.680000000000028,38.166878041571195],[-30.700496894573355,38.159999999999954],[-30.720000000000027,38.15345967605642],[-30.760000000000026,38.14004753841285],[-30.800000000000026,38.126635362732415],[-30.819791703025558,38.119999999999955],[-30.840000000000025,38.11322935391278],[-30.880000000000024,38.099829407548256],[-30.920000000000023,38.08642948112739],[-30.93919529829269,38.079999999999956],[-30.960000000000026,38.07303595482741],[-31.00000000000002,38.05964835971163],[-31.04000000000002,38.04626084296136],[-31.058709296544066,38.03999999999996],[-31.08000000000002,38.03287992579618],[-31.12000000000002,38.01950484307275],[-31.160000000000018,38.00612989758123],[-31.178335336674074,37.99999999999996],[-31.200000000000017,37.99276171696286],[-31.240000000000016,37.97939930895795],[-31.280000000000015,37.96603709749928],[-31.298075080751182,37.95999999999996],[-31.320000000000014,37.95268178164268],[-31.360000000000014,37.939332211873776],[-31.400000000000013,37.925982898416734],[-31.417930214477625,37.91999999999996],[-31.440000000000012,37.912640576346156],[-31.48000000000001,37.899304009530915],[-31.52000000000001,37.88596775924778],[-31.537902447659985,37.87999999999996],[-31.56000000000001,37.87263856080299],[-31.60000000000001,37.85931516286807],[-31.640000000000008,37.84599214214359],[-31.657993514690865,37.83999999999996],[-31.680000000000007,37.83267619798615],[-31.720000000000006,37.819366136076155],[-31.760000000000005,37.80605651251635],[-31.778205175041673,37.79999999999996],[-31.800000000000004,37.79275395413601],[-31.840000000000003,37.77945739662245],[-31.880000000000003,37.76616133906374],[-31.898539213767748,37.75999999999996],[-31.92,37.75287229878471],[-31.96,37.73958941527498],[-32.0,37.72630709379314]]}}]}