{"type":"FeatureCollection","properties":{"largura_maxima_km":29.421,"largura_sobre_pt_km":18.585,"linha_central_sobre_pt":true,"desenhavel_como_area":true,"perfil_largura":[{"t":-1.07222,"lat":48.51,"lon":-30.2317,"largura_km":null,"eixo_na_terra":false},{"t":-1.06667,"lat":47.576,"lon":-26.5946,"largura_km":null,"eixo_na_terra":false},{"t":-1.06111,"lat":47.0154,"lon":-24.5408,"largura_km":null,"eixo_na_terra":false},{"t":-1.05556,"lat":46.5653,"lon":-22.9553,"largura_km":1.386,"eixo_na_terra":true},{"t":-1.05,"lat":46.1756,"lon":-21.6248,"largura_km":2.633,"eixo_na_terra":true},{"t":-1.04444,"lat":45.8257,"lon":-20.4622,"largura_km":3.733,"eixo_na_terra":true},{"t":-1.03889,"lat":45.505,"lon":-19.4208,"largura_km":4.726,"eixo_na_terra":true},{"t":-1.03333,"lat":45.2066,"lon":-18.4723,"largura_km":5.635,"eixo_na_terra":true},{"t":-1.02778,"lat":44.9262,"lon":-17.5977,"largura_km":6.478,"eixo_na_terra":true},{"t":-1.02222,"lat":44.6606,"lon":-16.7839,"largura_km":7.267,"eixo_na_terra":true},{"t":-1.01667,"lat":44.4075,"lon":-16.021,"largura_km":8.01,"eixo_na_terra":true},{"t":-1.01111,"lat":44.1652,"lon":-15.3018,"largura_km":8.713,"eixo_na_terra":true},{"t":-1.00556,"lat":43.9323,"lon":-14.6204,"largura_km":9.383,"eixo_na_terra":true},{"t":-1.0,"lat":43.7077,"lon":-13.9721,"largura_km":10.022,"eixo_na_terra":true},{"t":-0.99444,"lat":43.4905,"lon":-13.3533,"largura_km":10.635,"eixo_na_terra":true},{"t":-0.98889,"lat":43.2799,"lon":-12.7608,"largura_km":11.223,"eixo_na_terra":true},{"t":-0.98333,"lat":43.0754,"lon":-12.192,"largura_km":11.79,"eixo_na_terra":true},{"t":-0.97778,"lat":42.8764,"lon":-11.6448,"largura_km":12.338,"eixo_na_terra":true},{"t":-0.97222,"lat":42.6824,"lon":-11.1171,"largura_km":12.867,"eixo_na_terra":true},{"t":-0.96667,"lat":42.4931,"lon":-10.6075,"largura_km":13.38,"eixo_na_terra":true},{"t":-0.96111,"lat":42.3081,"lon":-10.1144,"largura_km":13.877,"eixo_na_terra":true},{"t":-0.95556,"lat":42.1271,"lon":-9.6366,"largura_km":14.361,"eixo_na_terra":true},{"t":-0.95,"lat":41.9498,"lon":-9.173,"largura_km":14.831,"eixo_na_terra":true},{"t":-0.94444,"lat":41.776,"lon":-8.7227,"largura_km":15.288,"eixo_na_terra":true},{"t":-0.93889,"lat":41.6056,"lon":-8.2848,"largura_km":15.735,"eixo_na_terra":true},{"t":-0.93333,"lat":41.4382,"lon":-7.8584,"largura_km":16.17,"eixo_na_terra":true},{"t":-0.92778,"lat":41.2737,"lon":-7.4429,"largura_km":16.595,"eixo_na_terra":true},{"t":-0.92222,"lat":41.112,"lon":-7.0377,"largura_km":17.01,"eixo_na_terra":true},{"t":-0.91667,"lat":40.953,"lon":-6.6421,"largura_km":17.417,"eixo_na_terra":true},{"t":-0.91111,"lat":40.7964,"lon":-6.2556,"largura_km":17.814,"eixo_na_terra":true},{"t":-0.90556,"lat":40.6422,"lon":-5.8777,"largura_km":18.203,"eixo_na_terra":true},{"t":-0.9,"lat":40.4903,"lon":-5.5081,"largura_km":18.585,"eixo_na_terra":true},{"t":-0.89444,"lat":40.3405,"lon":-5.1462,"largura_km":18.959,"eixo_na_terra":true},{"t":-0.88889,"lat":40.1928,"lon":-4.7918,"largura_km":19.326,"eixo_na_terra":true},{"t":-0.88333,"lat":40.047,"lon":-4.4444,"largura_km":19.686,"eixo_na_terra":true},{"t":-0.87778,"lat":39.9032,"lon":-4.1038,"largura_km":20.04,"eixo_na_terra":true},{"t":-0.87222,"lat":39.7612,"lon":-3.7696,"largura_km":20.387,"eixo_na_terra":true},{"t":-0.86667,"lat":39.6209,"lon":-3.4415,"largura_km":20.729,"eixo_na_terra":true},{"t":-0.86111,"lat":39.4823,"lon":-3.1194,"largura_km":21.064,"eixo_na_terra":true},{"t":-0.85556,"lat":39.3454,"lon":-2.8029,"largura_km":21.394,"eixo_na_terra":true},{"t":-0.85,"lat":39.21,"lon":-2.4918,"largura_km":21.719,"eixo_na_terra":true},{"t":-0.84444,"lat":39.0762,"lon":-2.186,"largura_km":22.039,"eixo_na_terra":true},{"t":-0.83889,"lat":38.9438,"lon":-1.8852,"largura_km":22.353,"eixo_na_terra":true},{"t":-0.83333,"lat":38.8128,"lon":-1.5892,"largura_km":22.663,"eixo_na_terra":true},{"t":-0.82778,"lat":38.6832,"lon":-1.2978,"largura_km":22.968,"eixo_na_terra":true},{"t":-0.82222,"lat":38.5549,"lon":-1.0109,"largura_km":23.269,"eixo_na_terra":true},{"t":-0.81667,"lat":38.4279,"lon":-0.7284,"largura_km":23.565,"eixo_na_terra":true},{"t":-0.81111,"lat":38.3022,"lon":-0.45,"largura_km":23.857,"eixo_na_terra":true},{"t":-0.80556,"lat":38.1777,"lon":-0.1756,"largura_km":24.145,"eixo_na_terra":true},{"t":-0.8,"lat":38.0543,"lon":0.0948,"largura_km":24.429,"eixo_na_terra":true},{"t":-0.79444,"lat":37.9321,"lon":0.3615,"largura_km":24.709,"eixo_na_terra":true},{"t":-0.78889,"lat":37.811,"lon":0.6245,"largura_km":24.985,"eixo_na_terra":true},{"t":-0.78333,"lat":37.691,"lon":0.8841,"largura_km":25.258,"eixo_na_terra":true},{"t":-0.77778,"lat":37.5721,"lon":1.1401,"largura_km":25.527,"eixo_na_terra":true},{"t":-0.77222,"lat":37.4542,"lon":1.3929,"largura_km":25.793,"eixo_na_terra":true},{"t":-0.76667,"lat":37.3372,"lon":1.6425,"largura_km":26.055,"eixo_na_terra":true},{"t":-0.76111,"lat":37.2213,"lon":1.8889,"largura_km":26.315,"eixo_na_terra":true},{"t":-0.75556,"lat":37.1063,"lon":2.1323,"largura_km":26.571,"eixo_na_terra":true},{"t":-0.75,"lat":36.9923,"lon":2.3727,"largura_km":26.824,"eixo_na_terra":true},{"t":-0.74444,"lat":36.8792,"lon":2.6103,"largura_km":27.073,"eixo_na_terra":true},{"t":-0.73889,"lat":36.7669,"lon":2.8451,"largura_km":27.32,"eixo_na_terra":true},{"t":-0.73333,"lat":36.6556,"lon":3.0772,"largura_km":27.565,"eixo_na_terra":true},{"t":-0.72778,"lat":36.545,"lon":3.3067,"largura_km":27.806,"eixo_na_terra":true},{"t":-0.72222,"lat":36.4354,"lon":3.5335,"largura_km":28.044,"eixo_na_terra":true},{"t":-0.71667,"lat":36.3265,"lon":3.7579,"largura_km":28.28,"eixo_na_terra":true},{"t":-0.71111,"lat":36.2184,"lon":3.9799,"largura_km":28.513,"eixo_na_terra":true},{"t":-0.70556,"lat":36.1111,"lon":4.1995,"largura_km":28.744,"eixo_na_terra":true},{"t":-0.7,"lat":36.0046,"lon":4.4168,"largura_km":28.972,"eixo_na_terra":true},{"t":-0.69444,"lat":35.8988,"lon":4.6318,"largura_km":29.197,"eixo_na_terra":true},{"t":-0.68889,"lat":35.7938,"lon":4.8446,"largura_km":29.421,"eixo_na_terra":true}]},"features":[{"type":"Feature","properties":{},"geometry":{"type":"Polygon","coordinates":[[[-1.0352910026562085,38.68578488065766],[-0.4722216687515015,38.43544283160324],[0.34241925669033435,38.06878114600169],[1.1241313739120073,37.71197887894533],[1.8758822054836628,37.36428513267788],[2.600244310716846,37.025045613688576],[3.2994648825706463,36.693685959332086],[3.9755203755361777,36.369698610327994],[4.847282351742592,35.946738562432934],[4.844891653868785,35.63840758975196],[3.9838118398855613,36.06633776040453],[3.084872014121288,36.50700911449311],[2.1438403998156446,36.9615596912939],[1.4074713955462812,37.31237578448383],[0.6456054562595455,37.67080884911698],[-0.15143997134691745,38.04080280796657],[-0.9835223156870256,38.421617103725445],[-1.8544873445048893,38.8142585230022],[-2.768888125037165,39.21991242938153],[-3.4052691157913273,39.498263744691535],[-4.404751500338307,39.92888493819317],[-5.100911176880231,40.2241259710225],[-5.830140221102852,40.52924510621306],[-6.2068498280482345,40.685218460241046],[-6.9866940509178335,41.004558708944984],[-7.805248557390428,41.33463424279776],[-8.667436351107199,41.67668237970579],[-9.579279184752863,42.03220996838002],[-10.548272965648096,42.403084418016604],[-11.58081937601844,42.7905189043333],[-12.127432810379617,42.99239928474924],[-12.695671832604603,43.19993013003976],[-13.287770348579102,43.413659974601806],[-13.90636676110546,43.63423517322887],[-14.554614253998238,43.862426389162486],[-15.236332993467613,44.099165111552075],[-15.956225527908032,44.3455952818233],[-16.720190748579853,44.60314846379915],[-17.53579784120916,44.873657200282175],[-18.41303278018586,45.15953336615444],[-19.363431099422712,45.4634009439009],[-20.41280873669251,45.79193513080202],[-21.58446012139234,46.15024763772202],[-22.93140968550182,46.551287057843204],[-22.975870979964952,46.57812886745668],[-21.659892395796987,46.19884945941328],[-20.506950443166602,45.85759294909549],[-19.47097194498656,45.54367383383771],[-18.526037240688538,45.2512426980912],[-17.65389690318699,44.97609959009337],[-16.841657441296718,44.71527003692762],[-16.07981062453132,44.46655527646325],[-15.361107139931107,44.22827492049075],[-14.679870541067658,43.99911004751272],[-14.031557813181735,43.778002594264464],[-13.412466163484794,43.5640881554663],[-12.819530637315722,43.35664955153685],[-12.25018037720605,43.15508381628726],[-11.702234007771835,42.95887814550892],[-11.17382187005046,42.76759199979421],[-10.169340490805553,42.39829916819204],[-9.690624738307179,42.21966537224208],[-8.774755371469041,41.87311829357298],[-8.335762677693367,41.70476627206714],[-7.491754439805163,41.37697015591431],[-7.085400781838928,41.21720470983659],[-6.301098397915496,40.90524130696169],[-5.922140797636416,40.752799485292634],[-5.188396872612657,40.45445827009349],[-4.484322076823901,40.16421742016592],[-3.803836623054451,39.879978830282106],[-3.1514124641656736,39.60404224653172],[-2.521647592894965,39.334488367637846],[-1.9127769631470528,39.07088074144447],[-1.0352910026562085,38.68578488065766]]]}},{"type":"Feature","properties":{},"geometry":{"type":"Polygon","coordinates":[[[-24.54118761266227,47.01561157858553],[-24.539750925314763,47.01505528391637],[-24.541862905998187,47.015749742870206],[-24.54118761266227,47.01561157858553]]]}},{"type":"Feature","properties":{},"geometry":{"type":"Polygon","coordinates":[[[-26.4993003723352,47.552411151331704],[-26.476987640968332,47.54313877458984],[-26.46995970389537,47.53816995186625],[-26.480377468076995,47.538272508563125],[-26.508457758588122,47.544203423930476],[-26.597215705665235,47.56887956218687],[-26.68520329493265,47.597900129592794],[-26.712101133768783,47.608704612915915],[-26.71996381041123,47.61395890143091],[-26.713736526325874,47.61440784298426],[-26.697029259042324,47.611481036719226],[-26.63596684834181,47.59603370256803],[-26.562405720916445,47.57404744792766],[-26.4993003723352,47.552411151331704]]]}},{"type":"Feature","properties":{},"geometry":{"type":"Polygon","coordinates":[[[-29.547529560245152,48.343171994441235],[-29.438687365638202,48.30775316158747],[-29.413471240116678,48.29787260474233],[-29.40314390049491,48.29128695275009],[-29.414488903233178,48.290550380728305],[-29.447451199304908,48.29575758430694],[-29.577993392165354,48.3242990851014],[-29.772281472027657,48.37178311068986],[-30.03397804379904,48.43883469472878],[-30.445676036251484,48.547505654620466],[-30.85049188986494,48.65696897508661],[-31.069530769974847,48.71863026489809],[-31.12618023141397,48.73609686824698],[-31.14753682065418,48.74482568160935],[-31.13834870443077,48.74507126181682],[-31.093715415883366,48.737194408329266],[-30.917366594398118,48.69872141995849],[-30.676893638418107,48.642176006351555],[-30.38872220577116,48.571270611251876],[-30.146329365153065,48.50927280089247],[-29.906430709661265,48.445516127548615],[-29.709989238313653,48.39095233945744],[-29.547529560245152,48.343171994441235]]]}}]}