{"type":"FeatureCollection","features":[{"type":"Feature","properties":{"magnitude":0.2,"de":0.2,"ate":0.5,"percentagem":20.0},"geometry":{"type":"Polygon","coordinates":[[[-34.5,30.0],[-34.44,30.0],[-27.88197223263699,30.0],[-31.139999999999873,30.88338780724375],[-34.5,31.72210870200967],[-34.5,30.0]]]}},{"type":"Feature","properties":{"magnitude":0.5,"de":0.5,"ate":0.8,"percentagem":50.0},"geometry":{"type":"Polygon","coordinates":[[[-31.259999999999877,30.914580860206808],[-27.88197223263699,30.0],[-3.5399999999988268,30.0],[-3.5399999999988268,31.73149483016386],[-7.1999999999989654,33.33670174965961],[-10.859999999999104,34.82853512475331],[-14.579999999999245,36.23319597114504],[-18.41999999999939,37.571133069610624],[-22.31999999999954,38.82022796488176],[-26.27999999999969,39.98240711298587],[-30.359999999999843,41.075103768028896],[-34.5,42.082269013495775],[-34.5,31.72210870200967],[-31.259999999999877,30.914580860206808]]]}},{"type":"Feature","properties":{"magnitude":0.8,"de":0.8,"ate":0.95,"percentagem":80.0},"geometry":{"type":"MultiPolygon","coordinates":[[[[-3.5399999999988268,31.73149483016386],[-7.259999999998968,33.3620592072233],[-10.919999999999106,34.852067760412915],[-14.639999999999247,36.2549612864294],[-18.41999999999939,37.571133069610624],[-22.319999999999535,38.82022796488176],[-26.27999999999969,39.98240711298586],[-30.359999999999843,41.075103768028896],[-34.5,42.082269013495775],[-34.5,44.939999999999685],[-24.08295827006407,44.939999999999685],[-19.139999999999418,43.43559771346702],[-14.339999999999236,41.8159690852607],[-9.659999999999059,40.07505464724306],[-5.039999999998884,38.18990895280665],[-3.5399999999988268,37.54094582751058],[-3.5399999999988268,31.73149483016386]]],[[[-3.5399999999988268,41.825728489006394],[-7.619999999998981,43.465747995151695],[-11.585178466109433,44.939999999999685],[-3.5399999999988268,44.939999999999685],[-3.5399999999988268,41.825728489006394]]]]}},{"type":"Feature","properties":{"magnitude":0.95,"de":0.95,"ate":0.99,"percentagem":95.0},"geometry":{"type":"MultiPolygon","coordinates":[[[[-3.5399999999988268,37.54094582751058],[-6.059999999998922,38.62077228908276],[-8.579999999999018,39.649516592084716],[-11.099999999999115,40.628375856145276],[-13.619999999999209,41.55880822065113],[-16.199999999999307,42.46289523309513],[-18.779999999999404,43.3196977734653],[-21.419999999999504,44.149384384392164],[-24.08295827006407,44.939999999999685],[-18.961589572893786,44.939999999999685],[-16.079999999999302,43.99028923061346],[-13.199999999999193,42.982955452061674],[-10.7399999999991,42.07466365714766],[-8.339999999999009,41.14457633519183],[-5.939999999998918,40.16986287736902],[-3.5399999999988268,39.14952200561315],[-3.5399999999988268,37.54094582751058]]],[[[-3.5399999999988268,40.17619480247691],[-6.719999999998947,41.47692263287409],[-9.899999999999068,42.69988609378852],[-13.079999999999188,43.847687122708834],[-16.310931272786206,44.939999999999685],[-11.585178466109433,44.939999999999685],[-9.479999999999052,44.171674738259654],[-6.479999999998938,43.02027825482055],[-3.5399999999988268,41.825728489006394],[-3.5399999999988268,40.17619480247691]]]]}},{"type":"Feature","properties":{"magnitude":0.99,"de":0.99,"ate":2.0,"percentagem":99.0},"geometry":{"type":"Polygon","coordinates":[[[-7.379999999998972,40.76010813477563],[-3.5399999999988268,39.14952200561315],[-3.5399999999988268,40.17619480247691],[-6.53999999999894,41.4053916211046],[-9.539999999999054,42.565263937272334],[-12.899999999999181,43.78467353925318],[-16.310931272786206,44.939999999999685],[-18.961589572893786,44.939999999999685],[-15.059999999999263,43.64030078089202],[-11.159999999999116,42.23292667694634],[-7.379999999998972,40.76010813477563]]]}}]}