{"type":"FeatureCollection","properties":{"largura_maxima_km":180.407,"largura_sobre_pt_km":180.407,"linha_central_sobre_pt":false,"desenhavel_como_area":true,"perfil_largura":[{"t":1.1,"lat":26.5539,"lon":-39.8204,"largura_km":156.673,"eixo_na_terra":true},{"t":1.10556,"lat":26.5257,"lon":-39.6319,"largura_km":156.848,"eixo_na_terra":true},{"t":1.11111,"lat":26.4983,"lon":-39.4414,"largura_km":157.022,"eixo_na_terra":true},{"t":1.11667,"lat":26.4715,"lon":-39.2487,"largura_km":157.197,"eixo_na_terra":true},{"t":1.12222,"lat":26.4456,"lon":-39.0537,"largura_km":157.372,"eixo_na_terra":true},{"t":1.12778,"lat":26.4204,"lon":-38.8565,"largura_km":157.547,"eixo_na_terra":true},{"t":1.13333,"lat":26.396,"lon":-38.6569,"largura_km":157.721,"eixo_na_terra":true},{"t":1.13889,"lat":26.3724,"lon":-38.4549,"largura_km":157.895,"eixo_na_terra":true},{"t":1.14444,"lat":26.3496,"lon":-38.2503,"largura_km":158.068,"eixo_na_terra":true},{"t":1.15,"lat":26.3277,"lon":-38.0432,"largura_km":158.241,"eixo_na_terra":true},{"t":1.15556,"lat":26.3067,"lon":-37.8334,"largura_km":158.414,"eixo_na_terra":true},{"t":1.16111,"lat":26.2866,"lon":-37.6208,"largura_km":158.587,"eixo_na_terra":true},{"t":1.16667,"lat":26.2674,"lon":-37.4054,"largura_km":158.76,"eixo_na_terra":true},{"t":1.17222,"lat":26.2492,"lon":-37.187,"largura_km":158.936,"eixo_na_terra":true},{"t":1.17778,"lat":26.2319,"lon":-36.9655,"largura_km":159.112,"eixo_na_terra":true},{"t":1.18333,"lat":26.2156,"lon":-36.7409,"largura_km":159.288,"eixo_na_terra":true},{"t":1.18889,"lat":26.2004,"lon":-36.5129,"largura_km":159.465,"eixo_na_terra":true},{"t":1.19444,"lat":26.1863,"lon":-36.2815,"largura_km":159.643,"eixo_na_terra":true},{"t":1.2,"lat":26.1733,"lon":-36.0465,"largura_km":159.822,"eixo_na_terra":true},{"t":1.20556,"lat":26.1614,"lon":-35.8079,"largura_km":160.002,"eixo_na_terra":true},{"t":1.21111,"lat":26.1507,"lon":-35.5653,"largura_km":160.185,"eixo_na_terra":true},{"t":1.21667,"lat":26.1413,"lon":-35.3187,"largura_km":160.371,"eixo_na_terra":true},{"t":1.22222,"lat":26.1331,"lon":-35.068,"largura_km":160.56,"eixo_na_terra":true},{"t":1.22778,"lat":26.1263,"lon":-34.8128,"largura_km":160.751,"eixo_na_terra":true},{"t":1.23333,"lat":26.1208,"lon":-34.553,"largura_km":160.945,"eixo_na_terra":true},{"t":1.23889,"lat":26.1168,"lon":-34.2884,"largura_km":161.141,"eixo_na_terra":true},{"t":1.24444,"lat":26.1143,"lon":-34.0188,"largura_km":161.341,"eixo_na_terra":true},{"t":1.25,"lat":26.1134,"lon":-33.7439,"largura_km":161.543,"eixo_na_terra":true},{"t":1.25556,"lat":26.1141,"lon":-33.4633,"largura_km":161.754,"eixo_na_terra":true},{"t":1.26111,"lat":26.1165,"lon":-33.1769,"largura_km":161.969,"eixo_na_terra":true},{"t":1.26667,"lat":26.1207,"lon":-32.8843,"largura_km":162.189,"eixo_na_terra":true},{"t":1.27222,"lat":26.1269,"lon":-32.5851,"largura_km":162.415,"eixo_na_terra":true},{"t":1.27778,"lat":26.135,"lon":-32.279,"largura_km":162.648,"eixo_na_terra":true},{"t":1.28333,"lat":26.1453,"lon":-31.9654,"largura_km":162.889,"eixo_na_terra":true},{"t":1.28889,"lat":26.1578,"lon":-31.644,"largura_km":163.142,"eixo_na_terra":true},{"t":1.29444,"lat":26.1727,"lon":-31.3141,"largura_km":163.405,"eixo_na_terra":true},{"t":1.3,"lat":26.1902,"lon":-30.9752,"largura_km":163.679,"eixo_na_terra":true},{"t":1.30556,"lat":26.2104,"lon":-30.6266,"largura_km":163.966,"eixo_na_terra":true},{"t":1.31111,"lat":26.2335,"lon":-30.2676,"largura_km":164.273,"eixo_na_terra":true},{"t":1.31667,"lat":26.2598,"lon":-29.8972,"largura_km":164.602,"eixo_na_terra":true},{"t":1.32222,"lat":26.2895,"lon":-29.5146,"largura_km":164.953,"eixo_na_terra":true},{"t":1.32778,"lat":26.3229,"lon":-29.1185,"largura_km":165.331,"eixo_na_terra":true},{"t":1.33333,"lat":26.3604,"lon":-28.7077,"largura_km":165.749,"eixo_na_terra":true},{"t":1.33889,"lat":26.4023,"lon":-28.2805,"largura_km":166.207,"eixo_na_terra":true},{"t":1.34444,"lat":26.4492,"lon":-27.8352,"largura_km":166.729,"eixo_na_terra":true},{"t":1.35,"lat":26.5017,"lon":-27.3696,"largura_km":167.331,"eixo_na_terra":true},{"t":1.35556,"lat":26.5603,"lon":-26.8808,"largura_km":168.043,"eixo_na_terra":true},{"t":1.36111,"lat":26.6261,"lon":-26.3657,"largura_km":168.925,"eixo_na_terra":true},{"t":1.36667,"lat":26.7001,"lon":-25.82,"largura_km":170.076,"eixo_na_terra":true},{"t":1.37222,"lat":26.7838,"lon":-25.2381,"largura_km":171.706,"eixo_na_terra":true},{"t":1.37778,"lat":26.8791,"lon":-24.6127,"largura_km":174.382,"eixo_na_terra":true},{"t":1.38333,"lat":26.9887,"lon":-23.9336,"largura_km":180.407,"eixo_na_terra":true},{"t":1.38889,"lat":27.6027,"lon":-21.5873,"largura_km":null,"eixo_na_terra":false},{"t":1.39444,"lat":27.6785,"lon":-20.9687,"largura_km":null,"eixo_na_terra":false},{"t":1.4,"lat":27.6779,"lon":-20.5513,"largura_km":null,"eixo_na_terra":false},{"t":1.40556,"lat":27.6437,"lon":-20.3061,"largura_km":null,"eixo_na_terra":false},{"t":1.41111,"lat":27.6186,"lon":-19.9909,"largura_km":null,"eixo_na_terra":false},{"t":1.41667,"lat":27.7575,"lon":-19.0778,"largura_km":null,"eixo_na_terra":false},{"t":1.42222,"lat":27.701,"lon":-18.871,"largura_km":null,"eixo_na_terra":false},{"t":1.42778,"lat":27.6798,"lon":-18.5992,"largura_km":null,"eixo_na_terra":false},{"t":1.43333,"lat":27.7206,"lon":-18.0283,"largura_km":null,"eixo_na_terra":false},{"t":1.43889,"lat":27.84,"lon":-17.1593,"largura_km":null,"eixo_na_terra":false}]},"features":[{"type":"Feature","properties":{},"geometry":{"type":"Polygon","coordinates":[[[-38.470176755248986,27.095950056886426],[-38.05871032696467,27.051526338908513],[-37.84899136484975,27.03065016196983],[-37.421124144425136,26.991691400295796],[-37.20277737071211,26.973661887855133],[-36.75671764237987,26.940647097911313],[-36.52876925335974,26.92572490194508],[-36.06239119403426,26.899223674431703],[-35.58107965931072,26.877437248048096],[-35.33442754419008,26.868418516185532],[-34.828238021518416,26.854369864808437],[-34.31775835176674,26.84661259200885],[-34.048137824453505,26.844649109973002],[-33.492608178299974,26.845626690178918],[-32.91336239709898,26.853680978933735],[-32.30759648250694,26.869565912940033],[-31.993736281207163,26.88072233029485],[-31.671919081391763,26.894193047352097],[-31.34159841304387,26.91012486101902],[-31.002163261754134,26.92868185544276],[-30.652926866268842,26.95004839252615],[-30.293112886526046,26.97443280320367],[-29.921838146206227,27.002071991369316],[-29.538090852408658,27.03323724252544],[-29.140702753743852,27.068241646592234],[-28.7065942935958,27.10870527454343],[-28.27674881868279,27.152761855613043],[-27.82829427941968,27.20198683305517],[-27.35891261220152,27.257000013535094],[-26.865764504315308,27.318560126233056],[-26.34530899540968,27.38761281521883],[-25.764735176898995,27.46814259990826],[-25.17277723378504,27.556667349895612],[-24.502731135412375,27.661268571986042],[-23.76988962637219,27.782619923409076],[-22.954391702347266,27.92599302542275],[-21.982371735440324,28.105391013885622],[-20.77108373956699,28.341728976836663],[-20.46514695046957,28.404596490063398],[-19.949835933505938,28.53388144200626],[-19.31989177182632,28.686397319485533],[-18.637367089512566,28.846508412487747],[-17.730771611024647,29.054796686082405],[-17.058051095942517,29.226947471955903],[-16.17750378891384,29.45508056057177],[-16.214448418779938,29.294347033025947],[-15.796566069850712,29.115254448767143],[-16.234447954681208,28.988303223225294],[-15.417774454738208,28.26242051975985],[-15.947991177395298,28.12369092195633],[-15.866366958649763,28.04129256706926],[-16.26497646496136,27.937825666738327],[-16.266904441936674,27.82328799498192],[-16.54606992352756,27.758615231666223],[-16.547293247606575,27.741227121749386],[-17.097421713855283,27.60635606300259],[-17.50082088954818,27.509603114506763],[-18.107279915550095,27.36919650714154],[-18.565204235189128,27.269262981440075],[-18.868202516930612,27.207754151980943],[-19.353725085467318,27.095051013885932],[-19.718010908890363,27.015057451288275],[-20.029372918667633,26.95115634613263],[-20.168142196567374,26.924465552919187],[-20.391157189733946,26.884767218081603],[-20.713403097587587,26.813127156221125],[-20.986727019025977,26.75629316713526],[-21.228180877201055,26.710154994891674],[-21.337898488038462,26.690830799601727],[-21.528894090594886,26.66044725911178],[-21.775888815383013,26.607478839035743],[-22.00295179994086,26.562407809549835],[-22.206424104278653,26.525897570809278],[-22.38756837949137,26.497543961040893],[-22.4725976592573,26.48601496965942],[-22.775160229296347,26.424435430476947],[-22.9633891818805,26.39050813996703],[-23.132817962055157,26.363859588538567],[-23.292740446955868,26.343352882261406],[-23.55399158427602,26.291870977295865],[-23.723130597804072,26.262774050493352],[-23.876127827720694,26.24025940960572],[-24.02668306320621,26.222966348930644],[-24.174408963690524,26.193971690277568],[-24.336250598671086,26.165447942146017],[-24.552216299681817,26.13413525464911],[-24.695618150981385,26.119436158550357],[-24.90192621518449,26.081180761378],[-25.045166182512332,26.058621556511927],[-25.175546749680592,26.041774731174222],[-25.313273004313455,26.02924944181468],[-25.500007935402664,25.995625002262887],[-25.696455120884792,25.967348556801404],[-25.812671180711703,25.95524777483253],[-25.889441801108998,25.949958737069736],[-26.457338930132835,25.874803033876557],[-26.99464200482427,25.80816192347358],[-27.503502328667423,25.749168874958283],[-27.987576537786907,25.696881695811665],[-28.86771934631136,25.612651344940204],[-29.68223811557283,25.546174687021473],[-30.057492483168858,25.51980929658349],[-30.42111939115614,25.496618606726514],[-30.79490529828533,25.47439215777955],[-31.137316695998322,25.457018242624827],[-31.81414214402386,25.428393106383766],[-32.43891678925246,25.410340437303454],[-32.74047561553786,25.404366321986554],[-33.34070819326348,25.39733175513905],[-33.62301536030955,25.396833912982707],[-34.17098201124719,25.400644810866805],[-34.713534144211565,25.41030272903274],[-34.96998069145113,25.417322491918135],[-35.221999372820676,25.42565376635254],[-35.71350103863023,25.446056871848498],[-35.953326930876244,25.458039783312373],[-36.435161549403375,25.48582537291629],[-36.66401684194122,25.50113954217884],[-37.11187765273405,25.53481276149755],[-37.33111712894444,25.55311126234737],[-37.76075097017468,25.592493249623068],[-38.19100395663935,25.636370387293816],[-38.39616318107542,25.659136987496534],[-38.79899643356512,25.707104653164915],[-39.1923502966834,25.75818944900146],[-39.38564721095844,25.784855898489955],[-39.765803098848295,25.840354372101128],[-40.14817245804693,25.900043783798868],[-40.51220686347642,25.961046727962167],[-39.06868624395389,27.168934023338817],[-38.67209347972596,27.119452475354276],[-38.470176755248986,27.095950056886426]]]}}]}