{"type":"FeatureCollection","properties":{"largura_maxima_km":11.091,"largura_sobre_pt_km":11.091,"linha_central_sobre_pt":true,"desenhavel_como_area":true,"perfil_largura":[{"t":0.97222,"lat":40.5384,"lon":-39.9271,"largura_km":0.169,"eixo_na_terra":true},{"t":0.97778,"lat":40.3946,"lon":-39.4383,"largura_km":0.661,"eixo_na_terra":true},{"t":0.98333,"lat":40.2479,"lon":-38.9298,"largura_km":1.522,"eixo_na_terra":true},{"t":0.98889,"lat":40.0979,"lon":-38.3993,"largura_km":2.416,"eixo_na_terra":true},{"t":0.99444,"lat":39.9442,"lon":-37.8439,"largura_km":3.347,"eixo_na_terra":true},{"t":1.0,"lat":39.7864,"lon":-37.2601,"largura_km":4.319,"eixo_na_terra":true},{"t":1.00556,"lat":39.6237,"lon":-36.6434,"largura_km":5.337,"eixo_na_terra":true},{"t":1.01111,"lat":39.4553,"lon":-35.988,"largura_km":6.403,"eixo_na_terra":true},{"t":1.01667,"lat":39.2801,"lon":-35.2865,"largura_km":7.523,"eixo_na_terra":true},{"t":1.02222,"lat":39.0966,"lon":-34.5283,"largura_km":8.696,"eixo_na_terra":true},{"t":1.02778,"lat":38.9027,"lon":-33.6984,"largura_km":9.904,"eixo_na_terra":true},{"t":1.03333,"lat":38.6949,"lon":-32.7738,"largura_km":11.059,"eixo_na_terra":true},{"t":1.03889,"lat":38.4676,"lon":-31.7157,"largura_km":11.091,"eixo_na_terra":true},{"t":1.04444,"lat":38.205,"lon":-30.3975,"largura_km":null,"eixo_na_terra":false},{"t":1.05,"lat":37.8757,"lon":-28.6177,"largura_km":null,"eixo_na_terra":false},{"t":1.05556,"lat":37.424,"lon":-26.1321,"largura_km":null,"eixo_na_terra":false}]},"features":[{"type":"Feature","properties":{},"geometry":{"type":"Polygon","coordinates":[[[-25.30217507476985,37.25663900387956],[-26.65845232038265,37.44623240790805],[-27.090581455790357,37.509335223170616],[-27.31149009217856,37.544602452616544],[-27.46220946813517,37.57203449214779],[-27.5501598169391,37.59250208742139],[-27.57182157567442,37.60022314148089],[-27.57892939714867,37.60626801809865],[-27.57562418599497,37.60935368589968],[-27.565877191389916,37.6116689540651],[-27.52689667640138,37.61391465501285],[-27.461390729431315,37.61281451763015],[-27.368247805088686,37.608098704607954],[-27.132724133696627,37.58993668466644],[-26.786917446608527,37.55605375682651],[-26.446948342921985,37.518265267728076],[-25.975169123674533,37.4612391805042],[-25.555446785800655,37.40739175714236],[-25.080367615302464,37.34387073537152],[-24.960163659881488,37.20752195955365],[-25.30217507476985,37.25663900387956]]]}},{"type":"Feature","properties":{},"geometry":{"type":"Polygon","coordinates":[[[-27.971994224089713,37.77350880044954],[-28.234692600761093,37.79520705631748],[-28.54757794122068,37.824868933452734],[-28.814344075086325,37.85306060024021],[-29.080554829804356,37.884502134176515],[-29.275401089064786,37.91077911926963],[-29.43905801578876,37.93716156314032],[-29.491437119638732,37.94749890339149],[-29.53860136509664,37.95900756893938],[-29.56143996563972,37.96696626470339],[-29.567851332769123,37.97049687363708],[-29.571186146240763,37.97519894379824],[-29.569218309368665,37.97792090184865],[-29.56390092796883,37.980299329112206],[-29.549662377085042,37.98319827666661],[-29.498831372284116,37.98645403038879],[-29.418773999080003,37.986089528428806],[-29.31058036540503,37.981860528348506],[-29.1758956250261,37.9735807465279],[-29.01708210089717,37.96115323995079],[-28.675072313466444,37.927841879055656],[-28.2965336800832,37.882960568685995],[-28.09326784595467,37.85550805119856],[-27.936722070952413,37.83239966928009],[-27.800927519230925,37.810319743114256],[-27.69502321218107,37.790602640787405],[-27.6275350709071,37.774588935298446],[-27.608220127658285,37.76723809830476],[-27.6046881460463,37.763390586967034],[-27.608722519745754,37.76042364072251],[-27.62879510180929,37.75765258944764],[-27.697564974226253,37.757429283905495],[-27.80476335101298,37.762242957811324],[-27.971994224089713,37.77350880044954]]]}},{"type":"Feature","properties":{},"geometry":{"type":"Polygon","coordinates":[[[-29.99821481240113,38.14177962642585],[-30.137011369462215,38.14810625811302],[-30.313537591071736,38.16024444013003],[-30.472948681065105,38.174202307521504],[-30.639504480924984,38.19195716568068],[-30.765754578190183,38.20836128150563],[-30.874369025733472,38.22624005350515],[-30.941379069269033,38.242291359323175],[-30.956760220110425,38.2485356268342],[-30.96103513726277,38.251408094250074],[-30.963146553090326,38.25537336244625],[-30.960089422362188,38.25889455246127],[-30.951882172541588,38.261937380784794],[-30.92023850948476,38.26646116105922],[-30.868963540604767,38.268715887146264],[-30.799322776655515,38.268520939551],[-30.612935468410285,38.260395292453005],[-30.403823772192453,38.24411903238609],[-30.185101250695,38.2210077141982],[-29.991066362413136,38.194370125556915],[-29.909158638632704,38.18003192440161],[-29.85913237189169,38.168990823618486],[-29.8284127159817,38.159285823074676],[-29.819969192693208,38.15427919562341],[-29.818627641960177,38.151328443341356],[-29.820735088966984,38.14870847310118],[-29.830316641421405,38.14542972340398],[-29.862863993774965,38.14177820974684],[-29.914570665857156,38.14043430688932],[-29.99821481240113,38.14177962642585]]]}},{"type":"Feature","properties":{},"geometry":{"type":"Polygon","coordinates":[[[-38.90972462279055,40.249602147724715],[-38.366174005915525,40.100464555635305],[-37.796024997038955,39.947521944462736],[-37.19531025676784,39.79021381009408],[-36.55898483098977,39.62782801494431],[-35.88046602450399,39.45943616381653],[-35.15230645082852,39.28413337349877],[-34.35959544682109,39.09955542574],[-33.4850453046798,38.90339352555112],[-32.50233088569777,38.69216470206797],[-31.376386334903657,38.46159913834827],[-31.994332958788306,38.4669425666424],[-33.00991082113032,38.694017823662186],[-33.88922956458728,38.89994883384349],[-34.68249037839493,39.09271240290665],[-35.410106511374266,39.27540360333316],[-36.08668822918207,39.450369637991045],[-36.72195155337661,39.619155113394385],[-37.32061565193146,39.782278459722306],[-37.88878262482814,39.94076101173975],[-38.430414070086385,40.0951985884032],[-38.94888619411901,40.24612520981068],[-39.92919931110595,40.53818245742986],[-39.92512680832982,40.538609800094086],[-39.429863539692235,40.3953853169651],[-38.90972462279055,40.249602147724715]]]}}]}