{"type":"FeatureCollection","properties":{"largura_maxima_km":359.686,"largura_sobre_pt_km":359.686,"linha_central_sobre_pt":false,"desenhavel_como_area":true,"perfil_largura":[{"t":-1.65556,"lat":50.7311,"lon":-11.1115,"largura_km":null,"eixo_na_terra":false},{"t":-1.65,"lat":50.7031,"lon":-10.8635,"largura_km":null,"eixo_na_terra":false},{"t":-1.64444,"lat":50.5576,"lon":-9.3551,"largura_km":null,"eixo_na_terra":false},{"t":-1.63889,"lat":50.4894,"lon":-8.4955,"largura_km":null,"eixo_na_terra":false},{"t":-1.63333,"lat":50.4609,"lon":-7.9122,"largura_km":null,"eixo_na_terra":false},{"t":-1.62778,"lat":50.4637,"lon":-7.5279,"largura_km":null,"eixo_na_terra":false},{"t":-1.62222,"lat":50.4969,"lon":-7.323,"largura_km":null,"eixo_na_terra":false},{"t":-1.61667,"lat":50.5752,"lon":-7.3619,"largura_km":null,"eixo_na_terra":false},{"t":-1.61111,"lat":50.4704,"lon":-6.7029,"largura_km":null,"eixo_na_terra":false},{"t":-1.60556,"lat":50.468,"lon":-6.0545,"largura_km":null,"eixo_na_terra":false},{"t":-1.6,"lat":50.3814,"lon":-5.4495,"largura_km":null,"eixo_na_terra":false},{"t":-1.59444,"lat":50.4419,"lon":-5.4419,"largura_km":null,"eixo_na_terra":false},{"t":-1.58889,"lat":50.5075,"lon":-5.4758,"largura_km":null,"eixo_na_terra":false},{"t":-1.58333,"lat":50.4638,"lon":-4.7202,"largura_km":null,"eixo_na_terra":false},{"t":-1.57778,"lat":50.2929,"lon":-3.7048,"largura_km":null,"eixo_na_terra":false},{"t":-1.57222,"lat":50.465,"lon":-4.2842,"largura_km":null,"eixo_na_terra":false},{"t":-1.56667,"lat":50.3198,"lon":-3.2739,"largura_km":null,"eixo_na_terra":false},{"t":-1.56111,"lat":50.3034,"lon":-2.9375,"largura_km":null,"eixo_na_terra":false},{"t":-1.55556,"lat":50.2114,"lon":-2.2987,"largura_km":null,"eixo_na_terra":false},{"t":-1.55,"lat":50.0964,"lon":-1.5182,"largura_km":null,"eixo_na_terra":false},{"t":-1.54444,"lat":49.0827,"lon":2.9915,"largura_km":359.686,"eixo_na_terra":true},{"t":-1.53889,"lat":48.9238,"lon":3.7383,"largura_km":356.211,"eixo_na_terra":true},{"t":-1.53333,"lat":48.7691,"lon":4.4494,"largura_km":353.811,"eixo_na_terra":true}]},"features":[{"type":"Feature","properties":{},"geometry":{"type":"Polygon","coordinates":[[[0.6409526095440603,47.92374827745352],[0.18193640890496,48.009443910500444],[-0.22242397584866752,48.088208182670364],[-0.7339673848557595,48.18120569935358],[-1.1464983889822458,48.25917752665547],[-1.7217165164031485,48.360766373269904],[-2.1437904290874643,48.43794300916698],[-2.7982764939902154,48.54989796395299],[-3.2318116976339595,48.626301265436574],[-3.988555368062862,48.751196281239345],[-4.436396155804855,48.82689918825589],[-5.803853846042261,49.044815361353685],[-7.404490657235874,49.28687662206008],[-9.401963004956956,49.5697772376571],[-10.526022462388426,49.71767472691766],[-11.575308380268154,49.8530198687236],[-12.3687681147453,49.9517544257992],[-13.133706851399722,50.0427411358464],[-13.127587801153972,50.059096295653546],[-13.697353966412606,50.123121583026496],[-13.679309306575396,50.162905620527866],[-15.521605931399279,50.35745795683137],[-15.110607807057734,50.86285162848064],[-15.471697526347782,50.91115835268928],[-15.11656380469329,51.430267030559854],[-15.03059755678327,52.001269023982736],[-15.290497974029506,52.04101877252631],[-14.991718036389116,52.25951320920791],[-14.896271315505716,52.893486067336404],[-15.089969120643616,53.311036916042916],[-14.83700681879508,53.28713062649406],[-14.784067072664527,53.63876514942319],[-12.208526538777335,53.32221496995537],[-10.791024880285306,53.13332413516599],[-10.012586010549638,53.02339188167325],[-9.622220419630935,52.970258786290984],[-8.74013220540354,52.84459863139884],[-7.943987136177782,52.72605290073961],[-7.316276769796799,52.6284624696652],[-6.543862331661273,52.51091824768952],[-5.9361885767688705,52.413961809977515],[-5.375379473653474,52.32083328888648],[-4.817348884907062,52.23084676938895],[-4.309922143784831,52.14550218245516],[-3.793699029719469,52.05506409783408],[-3.3579544657859515,51.98150750959823],[-2.9151375842215543,51.90372924431612],[-2.4804517829348356,51.8243483712219],[-2.0538255051781107,51.743406786197205],[-1.6352093648344521,51.660951706001356],[-1.2245714287098508,51.57703503581762],[-0.8218934471903481,51.491712840214895],[-0.42716781932728054,51.40504489390867],[-0.040395132928267685,51.3170942948072],[0.33841784059154634,51.22792712620968],[0.7092597883074063,51.13761215821167],[1.0721162055118612,51.0462205807181],[1.4269705080770336,50.95382576220872],[1.7738049506586435,50.86050302971052],[2.112601384973516,50.76632946642324],[2.4433418854995352,50.67138372420204],[2.766009264621175,50.57574584868214],[3.0805874950881957,50.47949711528245],[3.3870620543889345,50.38271987467419],[3.685420203055571,50.285497406575985],[3.9756512068533425,50.187913780951405],[4.257746511150856,50.0900537258563],[4.5316998744332295,49.99200250131592],[4.797507466823106,49.89384577872141],[5.055167938591865,49.79566952531726],[5.304682462901496,49.697559893422365],[5.546054756412673,49.59960311407887],[5.779291080884889,49.501885394868616],[6.004400228469706,49.404492821670445],[6.221393493037112,49.30751126416034],[6.43028462957227,49.211026284878734],[6.631089803417069,49.11512305170758],[6.823827530910535,49.0198862536143],[7.008518612786872,48.92540001953207],[7.185186061526849,48.831747840254984],[7.353855023709173,48.739012493235634],[7.514552698285513,48.64727597017819],[7.667308251589077,48.55661940732656],[7.812152729790284,48.46712301835151],[7.949118969426081,48.37886602974451],[8.078241506552956,48.29192661863059],[8.199556485005132,48.20638185291427],[8.313101564180613,48.12230763367737],[8.418915826721445,48.039778639748505],[8.517039686408111,47.9588682743682],[8.607514796544933,47.879648613874956],[8.690383959073472,47.80219035834101],[8.765691034617873,47.72656278408821],[8.833480853635137,47.6528336980173],[8.893799128815658,47.58106939368644],[8.946692368853746,47.511334609076506],[8.992207793688635,47.443692485984485],[9.03039325129447,47.37820453098681],[9.061297136080952,47.314930577919256],[9.084968308952682,47.25392875182044],[9.101456019059583,47.19525543428952],[9.110809827259857,47.13896523021115],[9.113079531306482,47.08511093580283],[9.108315092758971,47.03374350794244],[9.096566565613784,46.98491203473644],[9.077884026640561,46.9386637072912],[9.052317507404439,46.895043792652885],[9.019916927950703,46.854095607883316],[8.980732032122717,46.81586049524178],[8.934812324480163,46.780377798445365],[8.8822070087827,46.74768483998229],[8.822964927999294,46.71781689945553],[8.757134505803549,46.69080719293602],[8.684763689510703,46.66668685330704],[8.60589989441155,46.64548491158417],[8.52058994945645,46.627228279196586],[8.42888004424043,46.611941731218884],[8.330815677238206,46.59964789054365],[8.226441605236232,46.59036721298888],[8.115801793906712,46.584117973334955],[7.998939369464267,46.58091625228975],[7.875896571343844,46.58077592438221],[7.746714705834563,46.58370864678715],[7.611434100597421,46.589723849087065],[7.470094059990743,46.598828723979274],[7.32273282111953,46.61102821893953],[7.169387510515833,46.626325028856314],[7.0100941013471925,46.6447195896534],[6.844887371039306,46.66621007292143],[6.673800859181995,46.6907923815835],[6.4894831099903785,46.71970232695099],[6.578458318834748,46.66458603024636],[5.691737565116827,46.86802247904652],[5.31409930756837,46.94861808669812],[4.947502668883276,47.03232221719917],[4.680630229788733,47.08894106582906],[4.309909418827394,47.1720137817665],[4.020228358472991,47.2323384831351],[3.6450794015802828,47.314755391793305],[3.329857770215881,47.379132626183306],[2.9499240205956796,47.46086861016298],[2.6058697241059576,47.52970991792376],[2.220727073909714,47.61073944623734],[1.8438139797425492,47.68454055410636],[1.4529501250817216,47.76483824569263],[1.038168097327059,47.84420665148436],[0.6409526095440603,47.92374827745352]]]}}]}