{"type":"FeatureCollection","features":[{"type":"Feature","properties":{"magnitude":0.6,"percentagem":60.0,"territorio":"continente"},"geometry":{"type":"LineString","coordinates":[[-10.5,37.57803201171559],[-10.46,37.572496071163414],[-10.420000000000002,37.56695066227904],[-10.38,37.561395776366],[-10.36996604609918,37.55999999999997],[-10.340000000000003,37.555832403495835],[-10.300000000000004,37.550259873356204],[-10.260000000000005,37.5446778428588],[-10.220000000000006,37.539086303253],[-10.180000000000007,37.53348524577313],[-10.140000000000008,37.527874661638464],[-10.100000000000009,37.52225454205324],[-10.083980606630623,37.51999999999997],[-10.06000000000001,37.516625685962666],[-10.02000000000001,37.510987819109566],[-9.980000000000011,37.50534039320331],[-9.940000000000012,37.49968339939318],[-9.900000000000013,37.49401682881327],[-9.860000000000014,37.48834067258242],[-9.820000000000014,37.48265492180413],[-9.801353371767753,37.47999999999997],[-9.780000000000015,37.476960294411086],[-9.740000000000016,37.471256692072984],[-9.700000000000017,37.465543471307626],[-9.660000000000018,37.459820623162926],[-9.620000000000019,37.454088138671295],[-9.58000000000002,37.44834600884973],[-9.54000000000002,37.442594224699704],[-9.521988667814227,37.43999999999997],[-9.500000000000021,37.436833533527725],[-9.460000000000022,37.43106379225915],[-9.420000000000023,37.42528437250131],[-9.380000000000024,37.41949526519925],[-9.340000000000025,37.413696461282385],[-9.300000000000026,37.40788795166441],[-9.260000000000025,37.402069727243344],[-9.245794082461838,37.39999999999997],[-9.220000000000027,37.39624267537337],[-9.180000000000028,37.39040638699197],[-9.140000000000029,37.38456035936187],[-9.10000000000003,37.37870458332388],[-9.06000000000003,37.37283904970295],[-9.020000000000032,37.36696374930807],[-8.98000000000003,37.3610786729324],[-8.972680328385067,37.35999999999997],[-8.940000000000033,37.355184958953785],[-8.900000000000034,37.349281710476355],[-8.860000000000035,37.34336866128387],[-8.820000000000036,37.33744580211143],[-8.780000000000037,37.33151312367808],[-8.740000000000038,37.3255706166867],[-8.702565122178973,37.31999999999997],[-8.700000000000038,37.31961836266468],[-8.66000000000004,37.31365758978478],[-8.62000000000004,37.3076869633626],[-8.580000000000041,37.30170647404235],[-8.540000000000042,37.29571611245199],[-8.500000000000043,37.2897158692032],[-8.460000000000043,37.283705734891264],[-8.435376887699713,37.27999999999997],[-8.420000000000044,37.27768625025489],[-8.380000000000045,37.27165773945136],[-8.340000000000046,37.26561931230448],[-8.300000000000047,37.25957095935008],[-8.260000000000048,37.2535126711075],[-8.220000000000049,37.24744443807955],[-8.18000000000005,37.24136625075247],[-8.171023217269534,37.239999999999974],[-8.14000000000005,37.235279220930515],[-8.100000000000051,37.229182545160654],[-8.060000000000052,37.22307588951147],[-8.020000000000053,37.21695924440894],[-7.980000000000055,37.21083260026227],[-7.940000000000055,37.20469594746392],[-7.90944036690118,37.199999999999974],[-7.900000000000055,37.19854962046535],[-7.860000000000056,37.19239438212308],[-7.820000000000057,37.18622910928916],[-7.780000000000058,37.18005379229504],[-7.740000000000059,37.17386842145529],[-7.70000000000006,37.167672987067476],[-7.6600000000000605,37.161467479412224],[-7.65055578621036,37.159999999999975],[-7.620000000000061,37.15525301374632],[-7.580000000000062,37.14902880604253],[-7.540000000000063,37.14279449892378],[-7.500000000000064,37.136550082608835],[-7.460000000000065,37.13029554729932],[-7.420000000000065,37.12403088317966],[-7.39430386142925,37.119999999999976],[-7.3800000000000665,37.11775661141798],[-7.340000000000067,37.111473147927654],[-7.300000000000068,37.10517952921336],[-7.260000000000069,37.09887574539695],[-7.22000000000007,37.092561786582934],[-7.180000000000071,37.086237642858464],[-7.140610582233648,37.07999999999998],[-7.140000000000072,37.07990332714699],[-7.1000000000000725,37.073560283685225],[-7.060000000000073,37.06720702862981],[-7.020000000000074,37.06084355200457],[-6.980000000000075,37.054469843815774],[-6.940000000000076,37.04808589405213],[-6.900000000000077,37.04169169268471],[-6.889433884021267,37.03999999999998],[-6.860000000000078,37.03528834242605],[-6.820000000000078,37.02887512297213],[-6.780000000000079,37.02245162491237],[-6.74000000000008,37.01601783815368],[-6.700000000000081,37.00957375258519],[-6.660000000000083,37.00311935807821],[-6.640698642228903,36.99999999999997],[-6.620000000000083,36.99665543341432],[-6.580000000000084,36.99018191815507],[-6.540000000000084,36.98369806667913],[-6.500000000000085,36.977203868792905],[-6.460000000000086,36.97069931428476],[-6.420000000000087,36.96418439292512],[-6.394349224493677,36.95999999999998],[-6.380000000000088,36.95765964584847],[-6.340000000000089,36.95112549998969],[-6.3000000000000895,36.9445809597219],[-6.26000000000009,36.93802601474981],[-6.220000000000091,36.931460654759945],[-6.180000000000092,36.924884869420616],[-6.150332371258658,36.91999999999998],[-6.140000000000093,36.91829904863974],[-6.100000000000094,36.911703933961455],[-6.060000000000095,36.90509836609368],[-6.0200000000000955,36.89848233463831],[-5.980000000000096,36.8918558291788],[-5.940000000000096,36.88521883928014],[-5.908596228584289,36.87999999999998],[-5.900000000000098,36.87857169018845],[-5.860000000000099,36.871915265006145],[-5.8200000000001,36.86524832725904],[-5.780000000000101,36.85857086644491],[-5.740000000000101,36.85188287204301],[-5.700000000000101,36.84518433351388],[-5.669090302807665,36.83999999999998],[-5.660000000000103,36.838475598157935],[-5.620000000000104,36.831757517283485],[-5.580000000000105,36.82502886386716],[-5.540000000000106,36.81828962730155]]}},{"type":"Feature","properties":{"magnitude":0.2,"percentagem":20.0,"territorio":"madeira"},"geometry":{"type":"LineString","coordinates":[[-16.143168667651103,33.77999999999991],[-16.143128761628095,33.73999999999991],[-16.14308865876257,33.69999999999991],[-16.1430483576178,33.65999999999991],[-16.143007856743044,33.61999999999991],[-16.14296715467335,33.57999999999991],[-16.14292624992939,33.539999999999914],[-16.14288514101728,33.499999999999915],[-16.142843826428418,33.459999999999916],[-16.142802304639275,33.419999999999916],[-16.142760574111225,33.37999999999992],[-16.14271863329036,33.33999999999992],[-16.142676480607296,33.299999999999926],[-16.16000000000004,33.28262958220104],[-16.18262958220116,33.25999999999992],[-16.182586978108827,33.21999999999992],[-16.18254415717713,33.17999999999992],[-16.18250111777105,33.13999999999992],[-16.182457858239076,33.09999999999992],[-16.182414376912988,33.059999999999924],[-16.182370672107652,33.019999999999925],[-16.182326742120818,32.979999999999926],[-16.182282585232873,32.93999999999993],[-16.182238199706646,32.89999999999993],[-16.182193583787168,32.85999999999993],[-16.18214873570145,32.81999999999993],[-16.18210365365825,32.77999999999993],[-16.182058335847834,32.739999999999924],[-16.182012780441745,32.69999999999993],[-16.181966985592553,32.659999999999926],[-16.18192094943361,32.61999999999993],[-16.1818746700788,32.579999999999934],[-16.18182814562228,32.539999999999935],[-16.181781374138236,32.499999999999936],[-16.181734353680607,32.45999999999994],[-16.181687082282814,32.41999999999994],[-16.181639557957514,32.37999999999994],[-16.181591778696287,32.33999999999994],[-16.181543742469394,32.29999999999994],[-16.181495447225473,32.25999999999994],[-16.181446890891248,32.21999999999994],[-16.181398071371248,32.17999999999994],[-16.20000000000004,32.16134374831205],[-16.22134374831215,32.139999999999944],[-16.22129436754059,32.09999999999994],[-16.221244716927416,32.059999999999945],[-16.221194794282763,32.019999999999946],[-16.221144597393014,31.979999999999947],[-16.221094124020436,31.939999999999948],[-16.22104337190288,31.89999999999995],[-16.22099233875343,31.85999999999995],[-16.220941022260075,31.81999999999995],[-16.220889420085353,31.77999999999995],[-16.22083752986601,31.739999999999956],[-16.220785349212626,31.699999999999953],[-16.22073287570928,31.659999999999954],[-16.220680106913164,31.619999999999955],[-16.220627040354202,31.579999999999956],[-16.220573673534673,31.539999999999957],[-16.220520003928836,31.499999999999957],[-16.22046602898253,31.459999999999958],[-16.220411746112756,31.41999999999996],[-16.220357152707294,31.37999999999996],[-16.220302246124273,31.33999999999996],[-16.22024702369176,31.29999999999996],[-16.220191482707307,31.259999999999962],[-16.220135620437553,31.219999999999963],[-16.240000000000038,31.200073450644524],[-16.260073450644597,31.179999999999964],[-16.26001690264255,31.139999999999965],[-16.259960024660117,31.099999999999966],[-16.259902813832106,31.059999999999967],[-16.259845267260065,31.019999999999968],[-16.25978738201176,30.97999999999997],[-16.2597291551207,30.93999999999997],[-16.25967058358563,30.89999999999997],[-16.259611664370023,30.85999999999997],[-16.25955239440156,30.819999999999972],[-16.2594927705716,30.779999999999973],[-16.259432789734642,30.739999999999974],[-16.259372448707776,30.699999999999974],[-16.25931174427013,30.659999999999975],[-16.25925067316229,30.619999999999976],[-16.25918923208574,30.579999999999977],[-16.25912741770226,30.539999999999978],[-16.25906522663334,30.49999999999998],[-16.25900265545955,30.45999999999998],[-16.258939700719935,30.41999999999998],[-16.25887635891138,30.37999999999998],[-16.280000000000037,30.35880585214464],[-16.298805852144692,30.339999999999982],[-16.29874168350751,30.299999999999983],[-16.298677116641027,30.259999999999984],[-16.298612147862052,30.219999999999985],[-16.298546773441817,30.179999999999986],[-16.29848098960527,30.139999999999986],[-16.298414792530355,30.099999999999987],[-16.29834817834728,30.059999999999988],[-16.298281143137753,30.01999999999999],[-16.298213682934254,29.97999999999999],[-16.298145793719215,29.93999999999999],[-16.29807747142427,29.89999999999999],[-16.298008711929427,29.859999999999992],[-16.297939511062253,29.819999999999993],[-16.297869864597025,29.779999999999994],[-16.297799768253903,29.739999999999995],[-16.297729217698034,29.699999999999996],[-16.297658208538678,29.659999999999997],[-16.297586736328306,29.619999999999997],[-16.320000000000036,29.597507162888135],[-16.337507162888173,29.58],[-16.33743470070006,29.54],[-16.337361761270245,29.5]]}},{"type":"Feature","properties":{"magnitude":0.4,"percentagem":40.0,"territorio":"madeira"},"geometry":{"type":"LineString","coordinates":[[-16.126337335302168,33.77999999999991],[-16.12625752325615,33.73999999999991],[-16.126177317525094,33.69999999999991],[-16.12609671523556,33.65999999999991],[-16.126015713486048,33.61999999999991],[-16.12593430934666,33.57999999999991],[-16.125852499858738,33.539999999999914],[-16.125770282034523,33.499999999999915],[-16.125687652856797,33.459999999999916],[-16.12560460927851,33.419999999999916],[-16.12552114822241,33.37999999999992],[-16.125437266580683,33.33999999999992],[-16.12535296121455,33.29999999999992],[-16.16000000000004,33.26525916440216],[-16.165259164402283,33.25999999999992],[-16.16517395621761,33.21999999999992],[-16.16508831435422,33.17999999999992],[-16.16500223554206,33.13999999999992],[-16.164915716478113,33.09999999999992],[-16.164828753825933,33.059999999999924],[-16.16474134421527,33.019999999999925],[-16.164653484241597,32.979999999999926],[-16.16456517046571,32.93999999999993],[-16.164476399413253,32.89999999999993],[-16.164387167574297,32.85999999999993],[-16.16429747140286,32.81999999999993],[-16.16420730731646,32.77999999999993],[-16.16411667169563,32.73999999999993],[-16.164025560883452,32.69999999999993],[-16.163933971185067,32.65999999999993],[-16.16384189886718,32.61999999999993],[-16.16374934015756,32.579999999999934],[-16.16365629124452,32.539999999999935],[-16.163562748276433,32.499999999999936],[-16.163468707361176,32.45999999999994],[-16.163374164565592,32.41999999999994],[-16.16327911591499,32.37999999999994],[-16.163183557392536,32.33999999999994],[-16.163087484938753,32.29999999999994],[-16.16299089445091,32.25999999999994],[-16.162893781782458,32.21999999999994],[-16.162796142742454,32.17999999999994],[-16.20000000000004,32.14268749662416],[-16.20268749662426,32.139999999999944],[-16.202588735081147,32.099999999999945],[-16.20248943385479,32.059999999999945],[-16.202389588565488,32.019999999999946],[-16.202289194785987,31.979999999999947],[-16.20218824804083,31.939999999999948],[-16.20208674380572,31.89999999999995],[-16.20198467750682,31.85999999999995],[-16.20188204452011,31.81999999999995],[-16.201778840170668,31.77999999999995],[-16.201675059731976,31.739999999999952],[-16.201570698425215,31.699999999999953],[-16.201465751418528,31.659999999999954],[-16.20136021382629,31.619999999999955],[-16.20125408070836,31.579999999999956],[-16.201147347069305,31.539999999999957],[-16.201040007857635,31.499999999999957],[-16.20093205796502,31.459999999999958],[-16.200823492225474,31.41999999999996],[-16.20071430541455,31.37999999999996],[-16.20060449224851,31.33999999999996],[-16.200494047383476,31.29999999999996],[-16.200382965414573,31.259999999999962],[-16.200271240875065,31.219999999999963],[-16.240000000000038,31.18014690128909],[-16.24014690128916,31.179999999999964],[-16.240033805285066,31.139999999999965],[-16.240000000000038,31.128089291333417],[-16.20000000000004,31.123843293826795],[-16.16000000000004,31.119588395320765],[-16.12000000000004,31.115324587997506],[-16.08000000000004,31.11105186402674],[-16.040000000000042,31.1067702155657],[-16.000000000000043,31.10247963475907],[-15.976930910817098,31.099999999999966],[-15.960000000000043,31.098180371914992],[-15.920000000000044,31.09387251405086],[-15.880000000000045,31.089555701519238],[-15.840000000000046,31.085229926416854],[-15.800000000000047,31.080895180827813],[-15.760000000000048,31.076551456823545],[-15.720000000000049,31.072198746462746],[-15.68000000000005,31.067837041791464],[-15.64000000000005,31.063466334842897],[-15.60834182241997,31.059999999999967],[-15.600000000000051,31.05908674676586],[-15.560000000000052,31.054698631796256],[-15.520000000000053,31.050301491903696],[-15.480000000000054,31.04589531907264],[-15.440000000000055,31.04148010527462],[-15.400000000000055,31.03705584246829],[-15.360000000000056,31.032622522599354],[-15.320000000000057,31.02818013760057],[-15.280000000000058,31.02372867939173],[-15.246562879155874,31.019999999999968],[-15.240000000000059,31.019268242990155],[-15.20000000000006,31.014799243822594],[-15.16000000000006,31.010321148469828],[-15.120000000000061,31.005833948801907],[-15.080000000000062,31.00133763667582],[-15.040000000000063,30.996832203935362]]}}]}